<?xml version="1.0" encoding="UTF-8"?>
<gpx xmlns="http://www.topografix.com/GPX/1/1" xmlns:gpxtpx="http://www.garmin.com/xmlschemas/TrackPointExtension/v1" xmlns:xsi="http://www.w3.org/2001/XMLSchema-instance" xsi:schemaLocation="http://www.topografix.com/GPX/1/1 http://www.topografix.com/GPX/1/1/gpx.xsd" version="1.1" creator="gpx.py -- https://github.com/tkrajina/gpxpy">
  <trk>
    <name>gpx from codoon</name>
    <type>Run</type>
    <trkseg>
      <trkpt lat="31.192094967701447" lon="121.53363131618269">
        <ele>-124.29999</ele>
        <time>2014-03-28T12:08:26Z</time>
      </trkpt>
      <trkpt lat="31.192055497467738" lon="121.5338419450843">
        <ele>-85.60001</ele>
        <time>2014-03-28T12:08:30Z</time>
      </trkpt>
      <trkpt lat="31.192065831711776" lon="121.53398236048065">
        <ele>-68.39999</ele>
        <time>2014-03-28T12:08:35Z</time>
      </trkpt>
      <trkpt lat="31.192075996134065" lon="121.53405256751789">
        <ele>-89.10001</ele>
        <time>2014-03-28T12:08:44Z</time>
      </trkpt>
      <trkpt lat="31.19206617034876" lon="121.53412277606292">
        <ele>-93.5</ele>
        <time>2014-03-28T12:08:49Z</time>
      </trkpt>
      <trkpt lat="31.192066315302334" lon="121.53418295397033">
        <ele>-97.20001</ele>
        <time>2014-03-28T12:08:54Z</time>
      </trkpt>
      <trkpt lat="31.19191699266474" lon="121.53443370648587">
        <ele>-62.10001</ele>
        <time>2014-03-28T12:08:59Z</time>
      </trkpt>
      <trkpt lat="31.191867306213794" lon="121.53455406511334">
        <ele>-53.79999</ele>
        <time>2014-03-28T12:09:04Z</time>
      </trkpt>
      <trkpt lat="31.191738018839335" lon="121.53482487171678">
        <ele>-20.20001</ele>
        <time>2014-03-28T12:09:09Z</time>
      </trkpt>
      <trkpt lat="31.191648589979124" lon="121.53504552579983">
        <ele>0</ele>
        <time>2014-03-28T12:09:14Z</time>
      </trkpt>
      <trkpt lat="31.191618843686417" lon="121.53514582165718">
        <ele>2.20001</ele>
        <time>2014-03-28T12:09:19Z</time>
      </trkpt>
      <trkpt lat="31.1915591120103" lon="121.535246119679">
        <ele>2.5</ele>
        <time>2014-03-28T12:09:24Z</time>
      </trkpt>
      <trkpt lat="31.191499356230217" lon="121.53533638810809">
        <ele>4.70001</ele>
        <time>2014-03-28T12:09:29Z</time>
      </trkpt>
      <trkpt lat="31.19154956928495" lon="121.53543667629943">
        <ele>11.10001</ele>
        <time>2014-03-28T12:09:34Z</time>
      </trkpt>
      <trkpt lat="31.191619890789056" lon="121.53558710836307">
        <ele>20.20001</ele>
        <time>2014-03-28T12:09:39Z</time>
      </trkpt>
      <trkpt lat="31.191689998320395" lon="121.53564727746709">
        <ele>27.40002</ele>
        <time>2014-03-28T12:09:44Z</time>
      </trkpt>
      <trkpt lat="31.191720220384482" lon="121.53574756626662">
        <ele>35.59998</ele>
        <time>2014-03-28T12:09:49Z</time>
      </trkpt>
      <trkpt lat="31.191750536728577" lon="121.53588797100959">
        <ele>41.09998</ele>
        <time>2014-03-28T12:09:54Z</time>
      </trkpt>
      <trkpt lat="31.191770739421973" lon="121.53597823078495">
        <ele>45.79999</ele>
        <time>2014-03-28T12:09:59Z</time>
      </trkpt>
      <trkpt lat="31.191820879780916" lon="121.53604842976429">
        <ele>48.40002</ele>
        <time>2014-03-28T12:10:04Z</time>
      </trkpt>
      <trkpt lat="31.19187097284669" lon="121.53609857059642">
        <ele>49.09998</ele>
        <time>2014-03-28T12:10:09Z</time>
      </trkpt>
      <trkpt lat="31.19194091448226" lon="121.53608853576036">
        <ele>49.90002</ele>
        <time>2014-03-28T12:10:14Z</time>
      </trkpt>
      <trkpt lat="31.192040841212698" lon="121.53607849841704">
        <ele>50.5</ele>
        <time>2014-03-28T12:10:19Z</time>
      </trkpt>
      <trkpt lat="31.192150715804665" lon="121.53604840222303">
        <ele>51.09998</ele>
        <time>2014-03-28T12:10:24Z</time>
      </trkpt>
      <trkpt lat="31.19226059037872" lon="121.53601830599763">
        <ele>52.70001</ele>
        <time>2014-03-28T12:10:29Z</time>
      </trkpt>
      <trkpt lat="31.192370394093285" lon="121.53595812263357">
        <ele>53.09998</ele>
        <time>2014-03-28T12:10:34Z</time>
      </trkpt>
      <trkpt lat="31.192510277335433" lon="121.53593805285995">
        <ele>54</ele>
        <time>2014-03-28T12:10:39Z</time>
      </trkpt>
      <trkpt lat="31.19264016554473" lon="121.53591798390694">
        <ele>55.09998</ele>
        <time>2014-03-28T12:10:44Z</time>
      </trkpt>
      <trkpt lat="31.19276003507975" lon="121.53588788671105">
        <ele>55.40002</ele>
        <time>2014-03-28T12:10:49Z</time>
      </trkpt>
      <trkpt lat="31.19287000413225" lon="121.53589790659336">
        <ele>56.70001</ele>
        <time>2014-03-28T12:10:54Z</time>
      </trkpt>
      <trkpt lat="31.192989873671035" lon="121.53586780937641">
        <ele>57</ele>
        <time>2014-03-28T12:10:59Z</time>
      </trkpt>
      <trkpt lat="31.193099748153898" lon="121.53583771296283">
        <ele>57.79999</ele>
        <time>2014-03-28T12:11:04Z</time>
      </trkpt>
      <trkpt lat="31.19327951690021" lon="121.53577752338073">
        <ele>57.90002</ele>
        <time>2014-03-28T12:11:09Z</time>
      </trkpt>
      <trkpt lat="31.193399338997466" lon="121.53572736780455">
        <ele>57.79999</ele>
        <time>2014-03-28T12:11:14Z</time>
      </trkpt>
      <trkpt lat="31.19349928942487" lon="121.53572735945733">
        <ele>58.20001</ele>
        <time>2014-03-28T12:11:19Z</time>
      </trkpt>
      <trkpt lat="31.193619182565016" lon="121.53570729119252">
        <ele>58.20001</ele>
        <time>2014-03-28T12:11:24Z</time>
      </trkpt>
      <trkpt lat="31.19375901838718" lon="121.5356671629686">
        <ele>58.20001</ele>
        <time>2014-03-28T12:11:29Z</time>
      </trkpt>
      <trkpt lat="31.193918820548763" lon="121.53561700386302">
        <ele>59.09998</ele>
        <time>2014-03-28T12:11:34Z</time>
      </trkpt>
      <trkpt lat="31.19404870871002" lon="121.53559693468706">
        <ele>59.09998</ele>
        <time>2014-03-28T12:11:39Z</time>
      </trkpt>
      <trkpt lat="31.194168601824156" lon="121.53557686633197">
        <ele>59</ele>
        <time>2014-03-28T12:11:44Z</time>
      </trkpt>
      <trkpt lat="31.19427845240167" lon="121.53553674043256">
        <ele>58.59998</ele>
        <time>2014-03-28T12:11:49Z</time>
      </trkpt>
      <trkpt lat="31.194368384101736" lon="121.53552670373156">
        <ele>58.40002</ele>
        <time>2014-03-28T12:11:54Z</time>
      </trkpt>
      <trkpt lat="31.194478258396295" lon="121.53549660696467">
        <ele>58.20001</ele>
        <time>2014-03-28T12:11:59Z</time>
      </trkpt>
      <trkpt lat="31.19458813267333" lon="121.53546651016676">
        <ele>58.09998</ele>
        <time>2014-03-28T12:12:04Z</time>
      </trkpt>
      <trkpt lat="31.194757977251037" lon="121.53543640832874">
        <ele>57.90002</ele>
        <time>2014-03-28T12:12:09Z</time>
      </trkpt>
      <trkpt lat="31.194847885174436" lon="121.5354163423674">
        <ele>57.29999</ele>
        <time>2014-03-28T12:12:14Z</time>
      </trkpt>
      <trkpt lat="31.19490802190446" lon="121.5354865418654">
        <ele>56.90002</ele>
        <time>2014-03-28T12:12:19Z</time>
      </trkpt>
      <trkpt lat="31.194938339431896" lon="121.53562694787198">
        <ele>57.59998</ele>
        <time>2014-03-28T12:12:24Z</time>
      </trkpt>
      <trkpt lat="31.194998617851887" lon="121.5357573215928">
        <ele>58.09998</ele>
        <time>2014-03-28T12:12:29Z</time>
      </trkpt>
      <trkpt lat="31.195058895759967" lon="121.53588769473244">
        <ele>57.20001</ele>
        <time>2014-03-28T12:12:33Z</time>
      </trkpt>
      <trkpt lat="31.19507931089277" lon="121.53606821568975">
        <ele>57</ele>
        <time>2014-03-28T12:12:38Z</time>
      </trkpt>
      <trkpt lat="31.19510969655782" lon="121.53623870574738">
        <ele>57.40002</ele>
        <time>2014-03-28T12:12:43Z</time>
      </trkpt>
      <trkpt lat="31.195140081334763" lon="121.53640919480075">
        <ele>58.29999</ele>
        <time>2014-03-28T12:12:48Z</time>
      </trkpt>
      <trkpt lat="31.195140480051275" lon="121.53657968534995">
        <ele>58.70001</ele>
        <time>2014-03-28T12:12:53Z</time>
      </trkpt>
      <trkpt lat="31.195140877872976" lon="121.53675017488763">
        <ele>59.40002</ele>
        <time>2014-03-28T12:12:58Z</time>
      </trkpt>
      <trkpt lat="31.195161218259454" lon="121.536900604321">
        <ele>60</ele>
        <time>2014-03-28T12:13:03Z</time>
      </trkpt>
      <trkpt lat="31.19517153960565" lon="121.53704100513374">
        <ele>60.70001</ele>
        <time>2014-03-28T12:13:08Z</time>
      </trkpt>
      <trkpt lat="31.19519185539629" lon="121.53718140441985">
        <ele>60.09998</ele>
        <time>2014-03-28T12:13:13Z</time>
      </trkpt>
      <trkpt lat="31.19520224509286" lon="121.53735188952578">
        <ele>60.40002</ele>
        <time>2014-03-28T12:13:18Z</time>
      </trkpt>
      <trkpt lat="31.195222628938204" lon="121.53752237277041">
        <ele>60.70001</ele>
        <time>2014-03-28T12:13:23Z</time>
      </trkpt>
      <trkpt lat="31.1952429887909" lon="121.5376828265496">
        <ele>60.70001</ele>
        <time>2014-03-28T12:13:28Z</time>
      </trkpt>
      <trkpt lat="31.195293286934753" lon="121.53782322014438">
        <ele>60.40002</ele>
        <time>2014-03-28T12:13:33Z</time>
      </trkpt>
      <trkpt lat="31.19531364526864" lon="121.53798367220476">
        <ele>61</ele>
        <time>2014-03-28T12:13:38Z</time>
      </trkpt>
      <trkpt lat="31.195334002788737" lon="121.53814412334427">
        <ele>61.59998</ele>
        <time>2014-03-28T12:13:43Z</time>
      </trkpt>
      <trkpt lat="31.1953543823772" lon="121.53831460177214">
        <ele>62.5</ele>
        <time>2014-03-28T12:13:48Z</time>
      </trkpt>
      <trkpt lat="31.195394751157757" lon="121.53848507748594">
        <ele>62.59998</ele>
        <time>2014-03-28T12:13:53Z</time>
      </trkpt>
      <trkpt lat="31.19542507839927" lon="121.53863549680364">
        <ele>62.29999</ele>
        <time>2014-03-28T12:13:58Z</time>
      </trkpt>
      <trkpt lat="31.19544543258896" lon="121.53879594417347">
        <ele>62.79999</ele>
        <time>2014-03-28T12:14:03Z</time>
      </trkpt>
      <trkpt lat="31.195455813569236" lon="121.5389664194174">
        <ele>63.20001</ele>
        <time>2014-03-28T12:14:08Z</time>
      </trkpt>
      <trkpt lat="31.195496178790894" lon="121.53913689110095">
        <ele>63.5</ele>
        <time>2014-03-28T12:14:13Z</time>
      </trkpt>
      <trkpt lat="31.195556488061115" lon="121.5392873043506">
        <ele>63.5</ele>
        <time>2014-03-28T12:14:18Z</time>
      </trkpt>
      <trkpt lat="31.19558685645712" lon="121.53945777486611">
        <ele>64.09998</ele>
        <time>2014-03-28T12:14:23Z</time>
      </trkpt>
      <trkpt lat="31.195627241427296" lon="121.53963827120793">
        <ele>65</ele>
        <time>2014-03-28T12:14:28Z</time>
      </trkpt>
      <trkpt lat="31.195677575598204" lon="121.53979871018797">
        <ele>65.5</ele>
        <time>2014-03-28T12:14:33Z</time>
      </trkpt>
      <trkpt lat="31.195717936217896" lon="121.53996917665518">
        <ele>65.90002</ele>
        <time>2014-03-28T12:14:38Z</time>
      </trkpt>
      <trkpt lat="31.19575825129791" lon="121.54011958695645">
        <ele>66.29999</ele>
        <time>2014-03-28T12:14:43Z</time>
      </trkpt>
      <trkpt lat="31.195818578005444" lon="121.54028002223882">
        <ele>65.90002</ele>
        <time>2014-03-28T12:14:48Z</time>
      </trkpt>
      <trkpt lat="31.19585898030355" lon="121.54047054049398">
        <ele>66.90002</ele>
        <time>2014-03-28T12:14:53Z</time>
      </trkpt>
      <trkpt lat="31.195939295282887" lon="121.54063097200584">
        <ele>67.09998</ele>
        <time>2014-03-28T12:14:58Z</time>
      </trkpt>
      <trkpt lat="31.196029604477587" lon="121.54079140171858">
        <ele>67.5</ele>
        <time>2014-03-28T12:15:03Z</time>
      </trkpt>
      <trkpt lat="31.19607993256762" lon="121.54095183379624">
        <ele>68.20001</ele>
        <time>2014-03-28T12:15:08Z</time>
      </trkpt>
      <trkpt lat="31.196120308666693" lon="121.54113232007643">
        <ele>68.40002</ele>
        <time>2014-03-28T12:15:13Z</time>
      </trkpt>
      <trkpt lat="31.196180608090582" lon="121.54128272214602">
        <ele>68.59998</ele>
        <time>2014-03-28T12:15:18Z</time>
      </trkpt>
      <trkpt lat="31.196260918748013" lon="121.54144314874092">
        <ele>68.29999</ele>
        <time>2014-03-28T12:15:23Z</time>
      </trkpt>
      <trkpt lat="31.196321172991517" lon="121.54157349504493">
        <ele>68.29999</ele>
        <time>2014-03-28T12:15:28Z</time>
      </trkpt>
      <trkpt lat="31.19639133463047" lon="121.54166373204319">
        <ele>69.59998</ele>
        <time>2014-03-28T12:15:33Z</time>
      </trkpt>
      <trkpt lat="31.196421472221946" lon="121.54173391819677">
        <ele>70.29999</ele>
        <time>2014-03-28T12:15:38Z</time>
      </trkpt>
      <trkpt lat="31.196461626447647" lon="121.54181413023701">
        <ele>72</ele>
        <time>2014-03-28T12:15:43Z</time>
      </trkpt>
      <trkpt lat="31.196501780457165" lon="121.54189434203093">
        <ele>73.29999</ele>
        <time>2014-03-28T12:15:48Z</time>
      </trkpt>
      <trkpt lat="31.196541912571664" lon="121.54196452673175">
        <ele>74.40002</ele>
        <time>2014-03-28T12:15:53Z</time>
      </trkpt>
      <trkpt lat="31.19656205438508" lon="121.54203471290958">
        <ele>74.70001</ele>
        <time>2014-03-28T12:15:58Z</time>
      </trkpt>
      <trkpt lat="31.19657230908381" lon="121.54215503365397">
        <ele>75.29999</ele>
        <time>2014-03-28T12:16:03Z</time>
      </trkpt>
      <trkpt lat="31.19663253863069" lon="121.54227534967585">
        <ele>75.09998</ele>
        <time>2014-03-28T12:16:08Z</time>
      </trkpt>
      <trkpt lat="31.19669278921911" lon="121.54240569181911">
        <ele>75.09998</ele>
        <time>2014-03-28T12:16:13Z</time>
      </trkpt>
      <trkpt lat="31.196773072332793" lon="121.54255608488657">
        <ele>75.90002</ele>
        <time>2014-03-28T12:16:18Z</time>
      </trkpt>
      <trkpt lat="31.196863371173027" lon="121.54271650280367">
        <ele>76</ele>
        <time>2014-03-28T12:16:23Z</time>
      </trkpt>
      <trkpt lat="31.19694363132365" lon="121.54285686755695">
        <ele>76</ele>
        <time>2014-03-28T12:16:28Z</time>
      </trkpt>
      <trkpt lat="31.19701393837714" lon="121.54301728526286">
        <ele>75.79999</ele>
        <time>2014-03-28T12:16:33Z</time>
      </trkpt>
      <trkpt lat="31.19707424947623" lon="121.5431777027967">
        <ele>75.70001</ele>
        <time>2014-03-28T12:16:38Z</time>
      </trkpt>
      <trkpt lat="31.19715454983418" lon="121.54333811765774">
        <ele>75.79999</ele>
        <time>2014-03-28T12:16:43Z</time>
      </trkpt>
      <trkpt lat="31.197234870457407" lon="121.5435085577574">
        <ele>75.70001</ele>
        <time>2014-03-28T12:16:48Z</time>
      </trkpt>
      <trkpt lat="31.197315105689988" lon="121.54363889196583">
        <ele>75.79999</ele>
        <time>2014-03-28T12:16:53Z</time>
      </trkpt>
      <trkpt lat="31.197385408421933" lon="121.54379930474951">
        <ele>76.5</ele>
        <time>2014-03-28T12:16:58Z</time>
      </trkpt>
      <trkpt lat="31.197455710260712" lon="121.54395971651607">
        <ele>76.5</ele>
        <time>2014-03-28T12:17:03Z</time>
      </trkpt>
      <trkpt lat="31.19752596932625" lon="121.54410007524703">
        <ele>76.40002</ele>
        <time>2014-03-28T12:17:08Z</time>
      </trkpt>
      <trkpt lat="31.1976062645611" lon="121.54426048426731">
        <ele>76.70001</ele>
        <time>2014-03-28T12:17:13Z</time>
      </trkpt>
      <trkpt lat="31.197676480474573" lon="121.54438078952806">
        <ele>76.70001</ele>
        <time>2014-03-28T12:17:18Z</time>
      </trkpt>
      <trkpt lat="31.197746716682524" lon="121.5445111200615">
        <ele>76.59998</ele>
        <time>2014-03-28T12:17:23Z</time>
      </trkpt>
      <trkpt lat="31.197776847411788" lon="121.54458129840033">
        <ele>76.90002</ele>
        <time>2014-03-28T12:17:28Z</time>
      </trkpt>
      <trkpt lat="31.197816993792138" lon="121.54466150149925">
        <ele>76.90002</ele>
        <time>2014-03-28T12:17:33Z</time>
      </trkpt>
      <trkpt lat="31.197817014534905" lon="121.5446715272847">
        <ele>77</ele>
        <time>2014-03-28T12:17:34Z</time>
      </trkpt>
      <trkpt lat="31.197847186293735" lon="121.54476175667533">
        <ele>76.79999</ele>
        <time>2014-03-28T12:17:39Z</time>
      </trkpt>
      <trkpt lat="31.197877378440634" lon="121.54486201144819">
        <ele>76.90002</ele>
        <time>2014-03-28T12:17:44Z</time>
      </trkpt>
      <trkpt lat="31.197907487652454" lon="121.54492216311935">
        <ele>76.79999</ele>
        <time>2014-03-28T12:17:49Z</time>
      </trkpt>
      <trkpt lat="31.197917730299473" lon="121.54504247018659">
        <ele>76.5</ele>
        <time>2014-03-28T12:17:54Z</time>
      </trkpt>
      <trkpt lat="31.197858027448678" lon="121.54517280807967">
        <ele>76.20001</ele>
        <time>2014-03-28T12:17:59Z</time>
      </trkpt>
      <trkpt lat="31.197708245138887" lon="121.54524299953256">
        <ele>76.20001</ele>
        <time>2014-03-28T12:18:04Z</time>
      </trkpt>
      <trkpt lat="31.19754842656375" lon="121.54529314056118">
        <ele>76.09998</ele>
        <time>2014-03-28T12:18:09Z</time>
      </trkpt>
      <trkpt lat="31.197418593143105" lon="121.54534327899114">
        <ele>75.70001</ele>
        <time>2014-03-28T12:18:14Z</time>
      </trkpt>
      <trkpt lat="31.197258856334326" lon="121.54543352174981">
        <ele>76</ele>
        <time>2014-03-28T12:18:19Z</time>
      </trkpt>
      <trkpt lat="31.197119109399715" lon="121.54552376251347">
        <ele>76</ele>
        <time>2014-03-28T12:18:24Z</time>
      </trkpt>
      <trkpt lat="31.19701926082531" lon="121.54557389797718">
        <ele>75.70001</ele>
        <time>2014-03-28T12:18:29Z</time>
      </trkpt>
      <trkpt lat="31.196939361500046" lon="121.5456039808705">
        <ele>75.5</ele>
        <time>2014-03-28T12:18:34Z</time>
      </trkpt>
      <trkpt lat="31.196839451608163" lon="121.54562403999533">
        <ele>74.59998</ele>
        <time>2014-03-28T12:18:39Z</time>
      </trkpt>
      <trkpt lat="31.19669966336117" lon="121.54569422932904">
        <ele>74.20001</ele>
        <time>2014-03-28T12:18:44Z</time>
      </trkpt>
      <trkpt lat="31.196589799087135" lon="121.54573433992572">
        <ele>74.29999</ele>
        <time>2014-03-28T12:18:49Z</time>
      </trkpt>
      <trkpt lat="31.196529889751403" lon="121.54576442095801">
        <ele>73.70001</ele>
        <time>2014-03-28T12:18:54Z</time>
      </trkpt>
      <trkpt lat="31.196469980386148" lon="121.54579450195335">
        <ele>73.90002</ele>
        <time>2014-03-28T12:18:59Z</time>
      </trkpt>
      <trkpt lat="31.1963900808589" lon="121.5458245845758">
        <ele>73.5</ele>
        <time>2014-03-28T12:19:04Z</time>
      </trkpt>
      <trkpt lat="31.196320135725475" lon="121.54583461571384">
        <ele>73.40002</ele>
        <time>2014-03-28T12:19:09Z</time>
      </trkpt>
      <trkpt lat="31.196240297093404" lon="121.5458947741669">
        <ele>72.59998</ele>
        <time>2014-03-28T12:19:14Z</time>
      </trkpt>
      <trkpt lat="31.196180387601512" lon="121.54592485500197">
        <ele>71.59998</ele>
        <time>2014-03-28T12:19:19Z</time>
      </trkpt>
      <trkpt lat="31.196120518637773" lon="121.5459749863169">
        <ele>71.40002</ele>
        <time>2014-03-28T12:19:24Z</time>
      </trkpt>
      <trkpt lat="31.196010654011225" lon="121.54601509645306">
        <ele>71.09998</ele>
        <time>2014-03-28T12:19:29Z</time>
      </trkpt>
      <trkpt lat="31.19590078933659" lon="121.54605520652325">
        <ele>70.5</ele>
        <time>2014-03-28T12:19:34Z</time>
      </trkpt>
      <trkpt lat="31.195780909318945" lon="121.54608529215236">
        <ele>70.40002</ele>
        <time>2014-03-28T12:19:39Z</time>
      </trkpt>
      <trkpt lat="31.19567110521005" lon="121.54615547766618">
        <ele>70.79999</ele>
        <time>2014-03-28T12:19:44Z</time>
      </trkpt>
      <trkpt lat="31.195571235422328" lon="121.5461955866733">
        <ele>71</ele>
        <time>2014-03-28T12:19:49Z</time>
      </trkpt>
      <trkpt lat="31.195411455760873" lon="121.54626577602885">
        <ele>71.29999</ele>
        <time>2014-03-28T12:19:54Z</time>
      </trkpt>
      <trkpt lat="31.195251675942245" lon="121.5463359651818">
        <ele>71.79999</ele>
        <time>2014-03-28T12:19:59Z</time>
      </trkpt>
      <trkpt lat="31.195151826055554" lon="121.54638609897854">
        <ele>71.29999</ele>
        <time>2014-03-28T12:20:04Z</time>
      </trkpt>
      <trkpt lat="31.195091916083793" lon="121.54641617920691">
        <ele>71.40002</ele>
        <time>2014-03-28T12:20:09Z</time>
      </trkpt>
      <trkpt lat="31.195022111505576" lon="121.54649638548062">
        <ele>72</ele>
        <time>2014-03-28T12:20:14Z</time>
      </trkpt>
      <trkpt lat="31.194962181342525" lon="121.54651644054287">
        <ele>71.59998</ele>
        <time>2014-03-28T12:20:19Z</time>
      </trkpt>
      <trkpt lat="31.194912226148105" lon="121.54652646973138">
        <ele>71.29999</ele>
        <time>2014-03-28T12:20:24Z</time>
      </trkpt>
      <trkpt lat="31.194862270952054" lon="121.5465364989157">
        <ele>71.20001</ele>
        <time>2014-03-28T12:20:30Z</time>
      </trkpt>
      <trkpt lat="31.194782390783374" lon="121.54657660562988">
        <ele>71.29999</ele>
        <time>2014-03-28T12:20:35Z</time>
      </trkpt>
      <trkpt lat="31.194712465521032" lon="121.54659666145743">
        <ele>71</ele>
        <time>2014-03-28T12:20:39Z</time>
      </trkpt>
      <trkpt lat="31.194632565237132" lon="121.54662674308808">
        <ele>71.5</ele>
        <time>2014-03-28T12:20:44Z</time>
      </trkpt>
      <trkpt lat="31.194572675054737" lon="121.5466668479892">
        <ele>71.20001</ele>
        <time>2014-03-28T12:20:50Z</time>
      </trkpt>
      <trkpt lat="31.194472844626414" lon="121.54672700604804">
        <ele>71.29999</ele>
        <time>2014-03-28T12:20:55Z</time>
      </trkpt>
      <trkpt lat="31.194402959255605" lon="121.54676711161471">
        <ele>71.5</ele>
        <time>2014-03-28T12:21:00Z</time>
      </trkpt>
      <trkpt lat="31.194323078780805" lon="121.54680721794654">
        <ele>71.40002</ele>
        <time>2014-03-28T12:21:04Z</time>
      </trkpt>
      <trkpt lat="31.19426318835038" lon="121.54684732254833">
        <ele>72</ele>
        <time>2014-03-28T12:21:10Z</time>
      </trkpt>
      <trkpt lat="31.194203297864323" lon="121.54688742708353">
        <ele>72.09998</ele>
        <time>2014-03-28T12:21:14Z</time>
      </trkpt>
      <trkpt lat="31.19414334751739" lon="121.54689745694952">
        <ele>72.09998</ele>
        <time>2014-03-28T12:21:20Z</time>
      </trkpt>
      <trkpt lat="31.194073501760965" lon="121.54695761193892">
        <ele>72.59998</ele>
        <time>2014-03-28T12:21:24Z</time>
      </trkpt>
      <trkpt lat="31.19401363102505" lon="121.54700774112077">
        <ele>72.59998</ele>
        <time>2014-03-28T12:21:30Z</time>
      </trkpt>
      <trkpt lat="31.193953700538092" lon="121.54702779575825">
        <ele>72.5</ele>
        <time>2014-03-28T12:21:35Z</time>
      </trkpt>
      <trkpt lat="31.19390378496913" lon="121.54705787435657">
        <ele>72</ele>
        <time>2014-03-28T12:21:40Z</time>
      </trkpt>
      <trkpt lat="31.193813948783458" lon="121.5471180306088">
        <ele>72.20001</ele>
        <time>2014-03-28T12:21:44Z</time>
      </trkpt>
      <trkpt lat="31.193674236393534" lon="121.5472283146015">
        <ele>72.5</ele>
        <time>2014-03-28T12:21:49Z</time>
      </trkpt>
      <trkpt lat="31.19349456317998" lon="121.54734862610232">
        <ele>72.09998</ele>
        <time>2014-03-28T12:21:54Z</time>
      </trkpt>
      <trkpt lat="31.19330485495127" lon="121.54744888855149">
        <ele>72.20001</ele>
        <time>2014-03-28T12:21:59Z</time>
      </trkpt>
      <trkpt lat="31.193125121719092" lon="121.54753912514508">
        <ele>72</ele>
        <time>2014-03-28T12:22:04Z</time>
      </trkpt>
      <trkpt lat="31.19296535861682" lon="121.54761933516458">
        <ele>71.90002</ele>
        <time>2014-03-28T12:22:10Z</time>
      </trkpt>
      <trkpt lat="31.192815531380692" lon="121.54766947044729">
        <ele>71.59998</ele>
        <time>2014-03-28T12:22:15Z</time>
      </trkpt>
      <trkpt lat="31.192705821595837" lon="121.54778977390987">
        <ele>71.79999</ele>
        <time>2014-03-28T12:22:20Z</time>
      </trkpt>
      <trkpt lat="31.192556072424008" lon="121.54788000672076">
        <ele>72.20001</ele>
        <time>2014-03-28T12:22:25Z</time>
      </trkpt>
      <trkpt lat="31.192406303421876" lon="121.54796021476236">
        <ele>71.29999</ele>
        <time>2014-03-28T12:22:30Z</time>
      </trkpt>
      <trkpt lat="31.192336396818387" lon="121.54799029385134">
        <ele>70.59998</ele>
        <time>2014-03-28T12:22:33Z</time>
      </trkpt>
      <trkpt lat="31.192176534892454" lon="121.54802038038441">
        <ele>70</ele>
        <time>2014-03-28T12:22:38Z</time>
      </trkpt>
      <trkpt lat="31.192016789984997" lon="121.54811061315161">
        <ele>70.20001</ele>
        <time>2014-03-28T12:22:43Z</time>
      </trkpt>
      <trkpt lat="31.191837113102704" lon="121.54823092020325">
        <ele>69.79999</ele>
        <time>2014-03-28T12:22:48Z</time>
      </trkpt>
      <trkpt lat="31.191687343145762" lon="121.54831112705902">
        <ele>69.59998</ele>
        <time>2014-03-28T12:22:53Z</time>
      </trkpt>
      <trkpt lat="31.191567344536477" lon="121.54828106417109">
        <ele>69.5</ele>
        <time>2014-03-28T12:22:58Z</time>
      </trkpt>
      <trkpt lat="31.191417399702875" lon="121.54827105234399">
        <ele>68.59998</ele>
        <time>2014-03-28T12:23:03Z</time>
      </trkpt>
      <trkpt lat="31.191337478357987" lon="121.54829110758209">
        <ele>68.40002</ele>
        <time>2014-03-28T12:23:08Z</time>
      </trkpt>
      <trkpt lat="31.191267435443315" lon="121.54825101620807">
        <ele>68.20001</ele>
        <time>2014-03-28T12:23:13Z</time>
      </trkpt>
      <trkpt lat="31.191227358087687" lon="121.54820089794693">
        <ele>67.5</ele>
        <time>2014-03-28T12:23:18Z</time>
      </trkpt>
      <trkpt lat="31.191177324566983" lon="121.54817082910085">
        <ele>67.59998</ele>
        <time>2014-03-28T12:23:24Z</time>
      </trkpt>
      <trkpt lat="31.1911372080771" lon="121.54810066193903">
        <ele>67.79999</ele>
        <time>2014-03-28T12:23:29Z</time>
      </trkpt>
      <trkpt lat="31.19109709140628" lon="121.54803049457034">
        <ele>68.40002</ele>
        <time>2014-03-28T12:23:34Z</time>
      </trkpt>
      <trkpt lat="31.19107669054017" lon="121.54781998291134">
        <ele>68.59998</ele>
        <time>2014-03-28T12:23:39Z</time>
      </trkpt>
      <trkpt lat="31.191056327391912" lon="121.54762951854073">
        <ele>69</ele>
        <time>2014-03-28T12:23:44Z</time>
      </trkpt>
      <trkpt lat="31.191035864152557" lon="121.5473889293641">
        <ele>69.90002</ele>
        <time>2014-03-28T12:23:49Z</time>
      </trkpt>
      <trkpt lat="31.191025473180503" lon="121.54718843598768">
        <ele>69.90002</ele>
        <time>2014-03-28T12:23:54Z</time>
      </trkpt>
      <trkpt lat="31.191035011045244" lon="121.54695786475338">
        <ele>70</ele>
        <time>2014-03-28T12:23:59Z</time>
      </trkpt>
      <trkpt lat="31.190984696784934" lon="121.54678744589438">
        <ele>70.20001</ele>
        <time>2014-03-28T12:24:04Z</time>
      </trkpt>
      <trkpt lat="31.190954411593513" lon="121.54663707414281">
        <ele>70.70001</ele>
        <time>2014-03-28T12:24:09Z</time>
      </trkpt>
      <trkpt lat="31.19090411544549" lon="121.54647667807778">
        <ele>71</ele>
        <time>2014-03-28T12:24:14Z</time>
      </trkpt>
      <trkpt lat="31.190883803432992" lon="121.54631627845978">
        <ele>71.09998</ele>
        <time>2014-03-28T12:24:19Z</time>
      </trkpt>
      <trkpt lat="31.19085341459952" lon="121.546115777869">
        <ele>71.40002</ele>
        <time>2014-03-28T12:24:24Z</time>
      </trkpt>
      <trkpt lat="31.190842973759608" lon="121.54589522340638">
        <ele>71.5</ele>
        <time>2014-03-28T12:24:29Z</time>
      </trkpt>
      <trkpt lat="31.190822597284782" lon="121.54570474390057">
        <ele>72.29999</ele>
        <time>2014-03-28T12:24:34Z</time>
      </trkpt>
      <trkpt lat="31.19078222946747" lon="121.54551426458279">
        <ele>72.59998</ele>
        <time>2014-03-28T12:24:39Z</time>
      </trkpt>
      <trkpt lat="31.190741860354535" lon="121.54532378379336">
        <ele>72.59998</ele>
        <time>2014-03-28T12:24:44Z</time>
      </trkpt>
      <trkpt lat="31.190711526117394" lon="121.54515335188754">
        <ele>72.70001</ele>
        <time>2014-03-28T12:24:49Z</time>
      </trkpt>
      <trkpt lat="31.190701201517925" lon="121.54499294279991">
        <ele>72.70001</ele>
        <time>2014-03-28T12:24:54Z</time>
      </trkpt>
      <trkpt lat="31.190660890944628" lon="121.54483253517269">
        <ele>73.09998</ele>
        <time>2014-03-28T12:24:59Z</time>
      </trkpt>
      <trkpt lat="31.190640714602317" lon="121.54474230522013">
        <ele>73.20001</ele>
        <time>2014-03-28T12:25:04Z</time>
      </trkpt>
      <trkpt lat="31.19064054875887" lon="121.54466209906435">
        <ele>73.09998</ele>
        <time>2014-03-28T12:25:09Z</time>
      </trkpt>
      <trkpt lat="31.19064032035331" lon="121.5445518151794">
        <ele>73.59998</ele>
        <time>2014-03-28T12:25:14Z</time>
      </trkpt>
      <trkpt lat="31.19063015895081" lon="121.5444716092442">
        <ele>73.70001</ele>
        <time>2014-03-28T12:25:19Z</time>
      </trkpt>
      <trkpt lat="31.1906000489557" lon="121.54441145649665">
        <ele>73.70001</ele>
        <time>2014-03-28T12:25:24Z</time>
      </trkpt>
      <trkpt lat="31.19057991299737" lon="121.54434127686037">
        <ele>73.90002</ele>
        <time>2014-03-28T12:25:29Z</time>
      </trkpt>
      <trkpt lat="31.190579725132903" lon="121.54425104347091">
        <ele>74.29999</ele>
        <time>2014-03-28T12:25:34Z</time>
      </trkpt>
      <trkpt lat="31.19055950509372" lon="121.5441407594415">
        <ele>74.20001</ele>
        <time>2014-03-28T12:25:39Z</time>
      </trkpt>
      <trkpt lat="31.19052939440148" lon="121.5440806059015">
        <ele>75.20001</ele>
        <time>2014-03-28T12:25:44Z</time>
      </trkpt>
      <trkpt lat="31.190509299571218" lon="121.54403047742564">
        <ele>75.59998</ele>
        <time>2014-03-28T12:25:49Z</time>
      </trkpt>
      <trkpt lat="31.190499136702133" lon="121.54395026982581">
        <ele>75.70001</ele>
        <time>2014-03-28T12:25:54Z</time>
      </trkpt>
      <trkpt lat="31.19048901564812" lon="121.5438901141667">
        <ele>75.70001</ele>
        <time>2014-03-28T12:26:00Z</time>
      </trkpt>
      <trkpt lat="31.190468878409916" lon="121.54381993307697">
        <ele>76.59998</ele>
        <time>2014-03-28T12:26:05Z</time>
      </trkpt>
      <trkpt lat="31.190458651729028" lon="121.54370964633027">
        <ele>76.90002</ele>
        <time>2014-03-28T12:26:10Z</time>
      </trkpt>
      <trkpt lat="31.190428265532642" lon="121.54351915096927">
        <ele>76.59998</ele>
        <time>2014-03-28T12:26:15Z</time>
      </trkpt>
      <trkpt lat="31.19038792547624" lon="121.5433487076359">
        <ele>77.40002</ele>
        <time>2014-03-28T12:26:20Z</time>
      </trkpt>
      <trkpt lat="31.19034752060697" lon="121.5431481840197">
        <ele>77.40002</ele>
        <time>2014-03-28T12:26:25Z</time>
      </trkpt>
      <trkpt lat="31.190317130710635" lon="121.54295768446062">
        <ele>77.5</ele>
        <time>2014-03-28T12:26:30Z</time>
      </trkpt>
      <trkpt lat="31.190286825162744" lon="121.5428072895973">
        <ele>77.79999</ele>
        <time>2014-03-28T12:26:35Z</time>
      </trkpt>
      <trkpt lat="31.190256475944008" lon="121.54263684068833">
        <ele>78.09998</ele>
        <time>2014-03-28T12:26:40Z</time>
      </trkpt>
      <trkpt lat="31.190255852422844" lon="121.54234606803955">
        <ele>78.90002</ele>
        <time>2014-03-28T12:26:45Z</time>
      </trkpt>
      <trkpt lat="31.19025529095321" lon="121.54208537254176">
        <ele>79.09998</ele>
        <time>2014-03-28T12:26:50Z</time>
      </trkpt>
      <trkpt lat="31.190234910857413" lon="121.54190489117646">
        <ele>79.79999</ele>
        <time>2014-03-28T12:26:55Z</time>
      </trkpt>
      <trkpt lat="31.19024453647023" lon="121.54173443300009">
        <ele>79.09998</ele>
        <time>2014-03-28T12:27:00Z</time>
      </trkpt>
      <trkpt lat="31.19025429193827" lon="121.5416241356465">
        <ele>79.79999</ele>
        <time>2014-03-28T12:27:05Z</time>
      </trkpt>
      <trkpt lat="31.190254095638718" lon="121.54153389269312">
        <ele>80.20001</ele>
        <time>2014-03-28T12:27:10Z</time>
      </trkpt>
      <trkpt lat="31.190253920920195" lon="121.54145367647388">
        <ele>80.40002</ele>
        <time>2014-03-28T12:27:15Z</time>
      </trkpt>
      <trkpt lat="31.19026374100259" lon="121.5413734591766">
        <ele>81.70001</ele>
        <time>2014-03-28T12:27:20Z</time>
      </trkpt>
      <trkpt lat="31.190273473212937" lon="121.54125313318849">
        <ele>67.90002</ele>
        <time>2014-03-28T12:27:26Z</time>
      </trkpt>
      <trkpt lat="31.190382340257557" lon="121.54076179061673">
        <ele>18.40002</ele>
        <time>2014-03-28T12:27:34Z</time>
      </trkpt>
      <trkpt lat="31.190401843614367" lon="121.54054118731771">
        <ele>16</ele>
        <time>2014-03-28T12:27:39Z</time>
      </trkpt>
      <trkpt lat="31.190411439242155" lon="121.54036069288235">
        <ele>17.09998</ele>
        <time>2014-03-28T12:27:44Z</time>
      </trkpt>
      <trkpt lat="31.190411038776823" lon="121.54018019806288">
        <ele>17.90002</ele>
        <time>2014-03-28T12:27:49Z</time>
      </trkpt>
      <trkpt lat="31.19045039377633" lon="121.53989942259939">
        <ele>14.79999</ele>
        <time>2014-03-28T12:27:54Z</time>
      </trkpt>
      <trkpt lat="31.1903502869211" lon="121.5398292374443">
        <ele>15.29999</ele>
        <time>2014-03-28T12:27:59Z</time>
      </trkpt>
      <trkpt lat="31.19021028948372" lon="121.53979916613277">
        <ele>19.90002</ele>
        <time>2014-03-28T12:28:04Z</time>
      </trkpt>
      <trkpt lat="31.190179968017482" lon="121.53964875323257">
        <ele>19.09998</ele>
        <time>2014-03-28T12:28:09Z</time>
      </trkpt>
      <trkpt lat="31.190189625880553" lon="121.53949833616366">
        <ele>19.29999</ele>
        <time>2014-03-28T12:28:14Z</time>
      </trkpt>
      <trkpt lat="31.190169252851263" lon="121.53932786509105">
        <ele>19</ele>
        <time>2014-03-28T12:28:19Z</time>
      </trkpt>
      <trkpt lat="31.190168891523992" lon="121.53916741918572">
        <ele>18.20001</ele>
        <time>2014-03-28T12:28:24Z</time>
      </trkpt>
      <trkpt lat="31.190158557007752" lon="121.53901700112793">
        <ele>17.5</ele>
        <time>2014-03-28T12:28:29Z</time>
      </trkpt>
      <trkpt lat="31.190148199054672" lon="121.53885655423457">
        <ele>16.90002</ele>
        <time>2014-03-28T12:28:34Z</time>
      </trkpt>
      <trkpt lat="31.190147835290766" lon="121.53869610557136">
        <ele>18.09998</ele>
        <time>2014-03-28T12:28:39Z</time>
      </trkpt>
      <trkpt lat="31.19013745287165" lon="121.53852562867782">
        <ele>18.70001</ele>
        <time>2014-03-28T12:28:44Z</time>
      </trkpt>
      <trkpt lat="31.190137064540576" lon="121.53835514990013">
        <ele>19</ele>
        <time>2014-03-28T12:28:49Z</time>
      </trkpt>
      <trkpt lat="31.190136675284137" lon="121.53818467007538">
        <ele>19.09998</ele>
        <time>2014-03-28T12:28:54Z</time>
      </trkpt>
      <trkpt lat="31.190136285105226" lon="121.53801418920698">
        <ele>19.20001</ele>
        <time>2014-03-28T12:28:59Z</time>
      </trkpt>
      <trkpt lat="31.190135894006747" lon="121.53784370729828">
        <ele>19.20001</ele>
        <time>2014-03-28T12:29:04Z</time>
      </trkpt>
      <trkpt lat="31.19014549700791" lon="121.53767322351861">
        <ele>20</ele>
        <time>2014-03-28T12:29:09Z</time>
      </trkpt>
      <trkpt lat="31.190145104079036" lon="121.53750273953946">
        <ele>20.70001</ele>
        <time>2014-03-28T12:29:14Z</time>
      </trkpt>
      <trkpt lat="31.190134738415246" lon="121.53734228392275">
        <ele>20.20001</ele>
        <time>2014-03-28T12:29:19Z</time>
      </trkpt>
      <trkpt lat="31.1901543337537" lon="121.53717179627877">
        <ele>23.5</ele>
        <time>2014-03-28T12:29:24Z</time>
      </trkpt>
      <trkpt lat="31.190144106141247" lon="121.53707151076664">
        <ele>24.90002</ele>
        <time>2014-03-28T12:29:29Z</time>
      </trkpt>
      <trkpt lat="31.190143919839304" lon="121.53699128143506">
        <ele>25.40002</ele>
        <time>2014-03-28T12:29:34Z</time>
      </trkpt>
      <trkpt lat="31.190153751677627" lon="121.53692107975041">
        <ele>26.40002</ele>
        <time>2014-03-28T12:29:39Z</time>
      </trkpt>
      <trkpt lat="31.1901735316859" lon="121.53683081959188">
        <ele>28.79999</ele>
        <time>2014-03-28T12:29:44Z</time>
      </trkpt>
      <trkpt lat="31.190163349769104" lon="121.53675059041812">
        <ele>29.40002</ele>
        <time>2014-03-28T12:29:49Z</time>
      </trkpt>
      <trkpt lat="31.19015314425222" lon="121.53666033222477">
        <ele>28.59998</ele>
        <time>2014-03-28T12:29:54Z</time>
      </trkpt>
    </trkseg>
  </trk>
</gpx>