<?xml version="1.0" encoding="UTF-8"?>
<gpx xmlns="http://www.topografix.com/GPX/1/1" xmlns:gpxtpx="http://www.garmin.com/xmlschemas/TrackPointExtension/v1" xmlns:xsi="http://www.w3.org/2001/XMLSchema-instance" xsi:schemaLocation="http://www.topografix.com/GPX/1/1 http://www.topografix.com/GPX/1/1/gpx.xsd" version="1.1" creator="gpx.py -- https://github.com/tkrajina/gpxpy">
  <trk>
    <name>gpx from codoon</name>
    <type>Run</type>
    <trkseg>
      <trkpt lat="39.26593" lon="118.433">
        <ele>-0.56497</ele>
        <time>2016-08-09T12:09:46Z</time>
      </trkpt>
      <trkpt lat="39.26593" lon="118.433">
        <ele>0.23199</ele>
        <time>2016-08-09T12:09:48Z</time>
      </trkpt>
      <trkpt lat="39.26594" lon="118.43305">
        <ele>-0.37019</ele>
        <time>2016-08-09T12:09:50Z</time>
      </trkpt>
      <trkpt lat="39.26595" lon="118.43309">
        <ele>-2.78396</ele>
        <time>2016-08-09T12:09:52Z</time>
      </trkpt>
      <trkpt lat="39.26595" lon="118.43312">
        <ele>-3.17895</ele>
        <time>2016-08-09T12:09:54Z</time>
      </trkpt>
      <trkpt lat="39.26595" lon="118.43316">
        <ele>-4.6189</ele>
        <time>2016-08-09T12:09:56Z</time>
      </trkpt>
      <trkpt lat="39.26595" lon="118.4332">
        <ele>-5.17255</ele>
        <time>2016-08-09T12:09:58Z</time>
      </trkpt>
      <trkpt lat="39.26595" lon="118.43322">
        <ele>-5.60635</ele>
        <time>2016-08-09T12:10:00Z</time>
      </trkpt>
      <trkpt lat="39.26596" lon="118.43327">
        <ele>-5.61251</ele>
        <time>2016-08-09T12:10:02Z</time>
      </trkpt>
      <trkpt lat="39.26596" lon="118.43331">
        <ele>-5.50442</ele>
        <time>2016-08-09T12:10:04Z</time>
      </trkpt>
      <trkpt lat="39.26596" lon="118.43335">
        <ele>-5.58942</ele>
        <time>2016-08-09T12:10:06Z</time>
      </trkpt>
      <trkpt lat="39.26597" lon="118.43339">
        <ele>-5.51069</ele>
        <time>2016-08-09T12:10:08Z</time>
      </trkpt>
      <trkpt lat="39.26598" lon="118.43344">
        <ele>-5.91701</ele>
        <time>2016-08-09T12:10:10Z</time>
      </trkpt>
      <trkpt lat="39.26598" lon="118.43349">
        <ele>-5.9168</ele>
        <time>2016-08-09T12:10:12Z</time>
      </trkpt>
      <trkpt lat="39.26598" lon="118.43353">
        <ele>-5.92129</ele>
        <time>2016-08-09T12:10:14Z</time>
      </trkpt>
      <trkpt lat="39.26598" lon="118.43358">
        <ele>-5.85887</ele>
        <time>2016-08-09T12:10:16Z</time>
      </trkpt>
      <trkpt lat="39.26599" lon="118.43363">
        <ele>-5.80403</ele>
        <time>2016-08-09T12:10:18Z</time>
      </trkpt>
      <trkpt lat="39.26599" lon="118.43367">
        <ele>-5.73734</ele>
        <time>2016-08-09T12:10:20Z</time>
      </trkpt>
      <trkpt lat="39.266" lon="118.43372">
        <ele>-5.60085</ele>
        <time>2016-08-09T12:10:22Z</time>
      </trkpt>
      <trkpt lat="39.266" lon="118.43377">
        <ele>-5.45529</ele>
        <time>2016-08-09T12:10:24Z</time>
      </trkpt>
      <trkpt lat="39.266" lon="118.43382">
        <ele>-5.25853</ele>
        <time>2016-08-09T12:10:26Z</time>
      </trkpt>
      <trkpt lat="39.266" lon="118.43383">
        <ele>-5.02036</ele>
        <time>2016-08-09T12:10:28Z</time>
      </trkpt>
      <trkpt lat="39.266" lon="118.43388">
        <ele>-4.86609</ele>
        <time>2016-08-09T12:10:30Z</time>
      </trkpt>
      <trkpt lat="39.26599" lon="118.43393">
        <ele>-4.75111</ele>
        <time>2016-08-09T12:10:32Z</time>
      </trkpt>
      <trkpt lat="39.26598" lon="118.43398">
        <ele>-4.65137</ele>
        <time>2016-08-09T12:10:34Z</time>
      </trkpt>
      <trkpt lat="39.26598" lon="118.434">
        <ele>-4.54638</ele>
        <time>2016-08-09T12:10:36Z</time>
      </trkpt>
      <trkpt lat="39.26598" lon="118.43407">
        <ele>-4.37646</ele>
        <time>2016-08-09T12:10:39Z</time>
      </trkpt>
      <trkpt lat="39.26598" lon="118.43412">
        <ele>-4.30035</ele>
        <time>2016-08-09T12:10:41Z</time>
      </trkpt>
      <trkpt lat="39.26598" lon="118.43417">
        <ele>-4.24133</ele>
        <time>2016-08-09T12:10:43Z</time>
      </trkpt>
      <trkpt lat="39.26598" lon="118.43421">
        <ele>-4.1932</ele>
        <time>2016-08-09T12:10:45Z</time>
      </trkpt>
      <trkpt lat="39.26598" lon="118.43426">
        <ele>-4.16299</ele>
        <time>2016-08-09T12:10:47Z</time>
      </trkpt>
      <trkpt lat="39.26598" lon="118.43431">
        <ele>-4.15148</ele>
        <time>2016-08-09T12:10:49Z</time>
      </trkpt>
      <trkpt lat="39.26598" lon="118.43432">
        <ele>-4.19266</ele>
        <time>2016-08-09T12:10:51Z</time>
      </trkpt>
      <trkpt lat="39.26598" lon="118.43437">
        <ele>-4.29106</ele>
        <time>2016-08-09T12:10:53Z</time>
      </trkpt>
      <trkpt lat="39.26599" lon="118.43441">
        <ele>-4.40302</ele>
        <time>2016-08-09T12:10:55Z</time>
      </trkpt>
      <trkpt lat="39.266" lon="118.43446">
        <ele>-4.52324</ele>
        <time>2016-08-09T12:10:57Z</time>
      </trkpt>
      <trkpt lat="39.266" lon="118.4345">
        <ele>-4.65276</ele>
        <time>2016-08-09T12:10:59Z</time>
      </trkpt>
      <trkpt lat="39.26601" lon="118.43455">
        <ele>-4.76</ele>
        <time>2016-08-09T12:11:01Z</time>
      </trkpt>
      <trkpt lat="39.26602" lon="118.4346">
        <ele>-4.8465</ele>
        <time>2016-08-09T12:11:03Z</time>
      </trkpt>
      <trkpt lat="39.26601" lon="118.43465">
        <ele>-4.85964</ele>
        <time>2016-08-09T12:11:05Z</time>
      </trkpt>
      <trkpt lat="39.266" lon="118.4347">
        <ele>-4.89401</ele>
        <time>2016-08-09T12:11:07Z</time>
      </trkpt>
      <trkpt lat="39.266" lon="118.43472">
        <ele>-4.84383</ele>
        <time>2016-08-09T12:11:09Z</time>
      </trkpt>
      <trkpt lat="39.26601" lon="118.43478">
        <ele>-4.84038</ele>
        <time>2016-08-09T12:11:11Z</time>
      </trkpt>
      <trkpt lat="39.26602" lon="118.43483">
        <ele>-4.95773</ele>
        <time>2016-08-09T12:11:13Z</time>
      </trkpt>
      <trkpt lat="39.26603" lon="118.43489">
        <ele>-5.04715</ele>
        <time>2016-08-09T12:11:15Z</time>
      </trkpt>
      <trkpt lat="39.26604" lon="118.43494">
        <ele>-5.09629</ele>
        <time>2016-08-09T12:11:17Z</time>
      </trkpt>
      <trkpt lat="39.26604" lon="118.435">
        <ele>-5.11981</ele>
        <time>2016-08-09T12:11:19Z</time>
      </trkpt>
      <trkpt lat="39.26605" lon="118.43506">
        <ele>-5.14806</ele>
        <time>2016-08-09T12:11:21Z</time>
      </trkpt>
      <trkpt lat="39.26604" lon="118.43512">
        <ele>-5.14137</ele>
        <time>2016-08-09T12:11:23Z</time>
      </trkpt>
      <trkpt lat="39.26604" lon="118.43519">
        <ele>-5.06515</ele>
        <time>2016-08-09T12:11:25Z</time>
      </trkpt>
      <trkpt lat="39.26604" lon="118.43525">
        <ele>-4.93625</ele>
        <time>2016-08-09T12:11:27Z</time>
      </trkpt>
      <trkpt lat="39.26605" lon="118.43531">
        <ele>-4.74416</ele>
        <time>2016-08-09T12:11:29Z</time>
      </trkpt>
      <trkpt lat="39.26605" lon="118.43538">
        <ele>-4.51012</ele>
        <time>2016-08-09T12:11:31Z</time>
      </trkpt>
      <trkpt lat="39.26606" lon="118.43544">
        <ele>-4.30651</ele>
        <time>2016-08-09T12:11:33Z</time>
      </trkpt>
      <trkpt lat="39.26606" lon="118.4355">
        <ele>-4.14662</ele>
        <time>2016-08-09T12:11:35Z</time>
      </trkpt>
      <trkpt lat="39.26606" lon="118.43555">
        <ele>-3.99468</ele>
        <time>2016-08-09T12:11:37Z</time>
      </trkpt>
      <trkpt lat="39.26607" lon="118.4356">
        <ele>-3.8402</ele>
        <time>2016-08-09T12:11:39Z</time>
      </trkpt>
      <trkpt lat="39.26607" lon="118.43565">
        <ele>-3.742</ele>
        <time>2016-08-09T12:11:41Z</time>
      </trkpt>
      <trkpt lat="39.26607" lon="118.43565">
        <ele>-3.7374</ele>
        <time>2016-08-09T12:11:43Z</time>
      </trkpt>
      <trkpt lat="39.26607" lon="118.43571">
        <ele>-3.79147</ele>
        <time>2016-08-09T12:11:45Z</time>
      </trkpt>
      <trkpt lat="39.26607" lon="118.43577">
        <ele>-3.82169</ele>
        <time>2016-08-09T12:11:47Z</time>
      </trkpt>
      <trkpt lat="39.26607" lon="118.43578">
        <ele>-3.9132</ele>
        <time>2016-08-09T12:11:49Z</time>
      </trkpt>
      <trkpt lat="39.26608" lon="118.43584">
        <ele>-4.05778</ele>
        <time>2016-08-09T12:11:51Z</time>
      </trkpt>
      <trkpt lat="39.26608" lon="118.43585">
        <ele>-4.22627</ele>
        <time>2016-08-09T12:11:53Z</time>
      </trkpt>
      <trkpt lat="39.26609" lon="118.43591">
        <ele>-4.40655</ele>
        <time>2016-08-09T12:11:55Z</time>
      </trkpt>
      <trkpt lat="39.26609" lon="118.43596">
        <ele>-4.56382</ele>
        <time>2016-08-09T12:11:57Z</time>
      </trkpt>
      <trkpt lat="39.2661" lon="118.43601">
        <ele>-4.67044</ele>
        <time>2016-08-09T12:11:59Z</time>
      </trkpt>
      <trkpt lat="39.2661" lon="118.43606">
        <ele>-4.77064</ele>
        <time>2016-08-09T12:12:01Z</time>
      </trkpt>
      <trkpt lat="39.2661" lon="118.43611">
        <ele>-4.93326</ele>
        <time>2016-08-09T12:12:03Z</time>
      </trkpt>
      <trkpt lat="39.26611" lon="118.43617">
        <ele>-5.10983</ele>
        <time>2016-08-09T12:12:05Z</time>
      </trkpt>
      <trkpt lat="39.26611" lon="118.43622">
        <ele>-5.26992</ele>
        <time>2016-08-09T12:12:07Z</time>
      </trkpt>
      <trkpt lat="39.26611" lon="118.43627">
        <ele>-5.41932</ele>
        <time>2016-08-09T12:12:09Z</time>
      </trkpt>
      <trkpt lat="39.2661" lon="118.43633">
        <ele>-5.55838</ele>
        <time>2016-08-09T12:12:11Z</time>
      </trkpt>
      <trkpt lat="39.2661" lon="118.43639">
        <ele>-5.66288</ele>
        <time>2016-08-09T12:12:13Z</time>
      </trkpt>
      <trkpt lat="39.2661" lon="118.43645">
        <ele>-5.73094</ele>
        <time>2016-08-09T12:12:15Z</time>
      </trkpt>
      <trkpt lat="39.2661" lon="118.4365">
        <ele>-5.81555</ele>
        <time>2016-08-09T12:12:17Z</time>
      </trkpt>
      <trkpt lat="39.26611" lon="118.43655">
        <ele>-5.88875</ele>
        <time>2016-08-09T12:12:19Z</time>
      </trkpt>
      <trkpt lat="39.26612" lon="118.4366">
        <ele>-5.86438</ele>
        <time>2016-08-09T12:12:21Z</time>
      </trkpt>
      <trkpt lat="39.26612" lon="118.43665">
        <ele>-5.78125</ele>
        <time>2016-08-09T12:12:23Z</time>
      </trkpt>
      <trkpt lat="39.26612" lon="118.43671">
        <ele>-5.64074</ele>
        <time>2016-08-09T12:12:25Z</time>
      </trkpt>
      <trkpt lat="39.26612" lon="118.43677">
        <ele>-5.41948</ele>
        <time>2016-08-09T12:12:27Z</time>
      </trkpt>
      <trkpt lat="39.26611" lon="118.43678">
        <ele>-5.18523</ele>
        <time>2016-08-09T12:12:29Z</time>
      </trkpt>
      <trkpt lat="39.26611" lon="118.43681">
        <ele>-4.84319</ele>
        <time>2016-08-09T12:12:32Z</time>
      </trkpt>
      <trkpt lat="39.26611" lon="118.43682">
        <ele>-4.60189</ele>
        <time>2016-08-09T12:12:34Z</time>
      </trkpt>
      <trkpt lat="39.26611" lon="118.43688">
        <ele>-4.28539</ele>
        <time>2016-08-09T12:12:36Z</time>
      </trkpt>
      <trkpt lat="39.26611" lon="118.43694">
        <ele>-3.97322</ele>
        <time>2016-08-09T12:12:38Z</time>
      </trkpt>
      <trkpt lat="39.26611" lon="118.437">
        <ele>-3.71475</ele>
        <time>2016-08-09T12:12:40Z</time>
      </trkpt>
      <trkpt lat="39.26611" lon="118.43703">
        <ele>-3.47426</ele>
        <time>2016-08-09T12:12:41Z</time>
      </trkpt>
      <trkpt lat="39.26612" lon="118.43709">
        <ele>-3.19441</ele>
        <time>2016-08-09T12:12:43Z</time>
      </trkpt>
      <trkpt lat="39.26612" lon="118.43714">
        <ele>-2.88854</ele>
        <time>2016-08-09T12:12:45Z</time>
      </trkpt>
      <trkpt lat="39.26613" lon="118.43719">
        <ele>-2.58224</ele>
        <time>2016-08-09T12:12:47Z</time>
      </trkpt>
      <trkpt lat="39.26613" lon="118.43725">
        <ele>-2.32065</ele>
        <time>2016-08-09T12:12:49Z</time>
      </trkpt>
      <trkpt lat="39.26612" lon="118.4373">
        <ele>-2.12525</ele>
        <time>2016-08-09T12:12:51Z</time>
      </trkpt>
      <trkpt lat="39.26612" lon="118.43736">
        <ele>-1.8988</ele>
        <time>2016-08-09T12:12:53Z</time>
      </trkpt>
      <trkpt lat="39.26612" lon="118.43741">
        <ele>-1.60766</ele>
        <time>2016-08-09T12:12:55Z</time>
      </trkpt>
      <trkpt lat="39.26612" lon="118.43747">
        <ele>-1.29025</ele>
        <time>2016-08-09T12:12:57Z</time>
      </trkpt>
      <trkpt lat="39.26613" lon="118.43753">
        <ele>-0.95047</ele>
        <time>2016-08-09T12:12:59Z</time>
      </trkpt>
      <trkpt lat="39.26613" lon="118.43757">
        <ele>-0.63858</ele>
        <time>2016-08-09T12:13:01Z</time>
      </trkpt>
      <trkpt lat="39.26613" lon="118.43761">
        <ele>-0.37812</ele>
        <time>2016-08-09T12:13:03Z</time>
      </trkpt>
      <trkpt lat="39.26614" lon="118.43767">
        <ele>-0.14094</ele>
        <time>2016-08-09T12:13:05Z</time>
      </trkpt>
      <trkpt lat="39.26614" lon="118.43773">
        <ele>0.10069</ele>
        <time>2016-08-09T12:13:07Z</time>
      </trkpt>
      <trkpt lat="39.26615" lon="118.43779">
        <ele>0.35011</ele>
        <time>2016-08-09T12:13:09Z</time>
      </trkpt>
      <trkpt lat="39.26615" lon="118.43782">
        <ele>0.60609</ele>
        <time>2016-08-09T12:13:11Z</time>
      </trkpt>
      <trkpt lat="39.26614" lon="118.43788">
        <ele>0.8538</ele>
        <time>2016-08-09T12:13:13Z</time>
      </trkpt>
      <trkpt lat="39.26615" lon="118.43794">
        <ele>1.11223</ele>
        <time>2016-08-09T12:13:15Z</time>
      </trkpt>
      <trkpt lat="39.26615" lon="118.438">
        <ele>1.35872</ele>
        <time>2016-08-09T12:13:17Z</time>
      </trkpt>
      <trkpt lat="39.26615" lon="118.43806">
        <ele>1.59036</ele>
        <time>2016-08-09T12:13:19Z</time>
      </trkpt>
      <trkpt lat="39.26615" lon="118.43812">
        <ele>1.81768</ele>
        <time>2016-08-09T12:13:21Z</time>
      </trkpt>
      <trkpt lat="39.26615" lon="118.43813">
        <ele>2.01245</ele>
        <time>2016-08-09T12:13:23Z</time>
      </trkpt>
      <trkpt lat="39.26616" lon="118.43819">
        <ele>2.16477</ele>
        <time>2016-08-09T12:13:25Z</time>
      </trkpt>
      <trkpt lat="39.26617" lon="118.43826">
        <ele>2.30652</ele>
        <time>2016-08-09T12:13:27Z</time>
      </trkpt>
      <trkpt lat="39.26617" lon="118.43828">
        <ele>2.42503</ele>
        <time>2016-08-09T12:13:30Z</time>
      </trkpt>
      <trkpt lat="39.26618" lon="118.43834">
        <ele>2.52676</ele>
        <time>2016-08-09T12:13:32Z</time>
      </trkpt>
      <trkpt lat="39.26618" lon="118.4384">
        <ele>2.61248</ele>
        <time>2016-08-09T12:13:34Z</time>
      </trkpt>
      <trkpt lat="39.26618" lon="118.43846">
        <ele>2.64561</ele>
        <time>2016-08-09T12:13:36Z</time>
      </trkpt>
      <trkpt lat="39.26618" lon="118.43851">
        <ele>2.63776</ele>
        <time>2016-08-09T12:13:38Z</time>
      </trkpt>
      <trkpt lat="39.26618" lon="118.43857">
        <ele>2.60916</ele>
        <time>2016-08-09T12:13:40Z</time>
      </trkpt>
      <trkpt lat="39.26619" lon="118.43863">
        <ele>2.58138</ele>
        <time>2016-08-09T12:13:42Z</time>
      </trkpt>
      <trkpt lat="39.2662" lon="118.43868">
        <ele>2.53547</ele>
        <time>2016-08-09T12:13:44Z</time>
      </trkpt>
      <trkpt lat="39.2662" lon="118.43874">
        <ele>2.49966</ele>
        <time>2016-08-09T12:13:46Z</time>
      </trkpt>
      <trkpt lat="39.26621" lon="118.4388">
        <ele>2.48812</ele>
        <time>2016-08-09T12:13:48Z</time>
      </trkpt>
      <trkpt lat="39.26621" lon="118.43885">
        <ele>2.49703</ele>
        <time>2016-08-09T12:13:50Z</time>
      </trkpt>
      <trkpt lat="39.26622" lon="118.4389">
        <ele>2.45408</ele>
        <time>2016-08-09T12:13:52Z</time>
      </trkpt>
      <trkpt lat="39.26622" lon="118.43896">
        <ele>2.43299</ele>
        <time>2016-08-09T12:13:54Z</time>
      </trkpt>
      <trkpt lat="39.26622" lon="118.43902">
        <ele>2.44635</ele>
        <time>2016-08-09T12:13:56Z</time>
      </trkpt>
      <trkpt lat="39.26622" lon="118.43908">
        <ele>2.50389</ele>
        <time>2016-08-09T12:13:58Z</time>
      </trkpt>
      <trkpt lat="39.26623" lon="118.43914">
        <ele>2.57233</ele>
        <time>2016-08-09T12:14:00Z</time>
      </trkpt>
      <trkpt lat="39.26623" lon="118.43918">
        <ele>2.65448</ele>
        <time>2016-08-09T12:14:02Z</time>
      </trkpt>
      <trkpt lat="39.26623" lon="118.43924">
        <ele>2.73704</ele>
        <time>2016-08-09T12:14:04Z</time>
      </trkpt>
      <trkpt lat="39.26623" lon="118.43929">
        <ele>2.79059</ele>
        <time>2016-08-09T12:14:06Z</time>
      </trkpt>
      <trkpt lat="39.26624" lon="118.43935">
        <ele>2.83752</ele>
        <time>2016-08-09T12:14:08Z</time>
      </trkpt>
      <trkpt lat="39.26625" lon="118.43941">
        <ele>2.90901</ele>
        <time>2016-08-09T12:14:10Z</time>
      </trkpt>
      <trkpt lat="39.26625" lon="118.43945">
        <ele>2.97604</ele>
        <time>2016-08-09T12:14:12Z</time>
      </trkpt>
      <trkpt lat="39.26625" lon="118.43951">
        <ele>3.03062</ele>
        <time>2016-08-09T12:14:14Z</time>
      </trkpt>
      <trkpt lat="39.26625" lon="118.43955">
        <ele>3.05959</ele>
        <time>2016-08-09T12:14:16Z</time>
      </trkpt>
      <trkpt lat="39.26626" lon="118.43961">
        <ele>3.10328</ele>
        <time>2016-08-09T12:14:18Z</time>
      </trkpt>
      <trkpt lat="39.26626" lon="118.43966">
        <ele>3.09981</ele>
        <time>2016-08-09T12:14:20Z</time>
      </trkpt>
      <trkpt lat="39.26626" lon="118.43972">
        <ele>3.12822</ele>
        <time>2016-08-09T12:14:22Z</time>
      </trkpt>
      <trkpt lat="39.26626" lon="118.43978">
        <ele>3.16103</ele>
        <time>2016-08-09T12:14:24Z</time>
      </trkpt>
      <trkpt lat="39.26626" lon="118.43985">
        <ele>3.26012</ele>
        <time>2016-08-09T12:14:26Z</time>
      </trkpt>
      <trkpt lat="39.26626" lon="118.43991">
        <ele>3.42393</ele>
        <time>2016-08-09T12:14:28Z</time>
      </trkpt>
      <trkpt lat="39.26626" lon="118.43998">
        <ele>3.50731</ele>
        <time>2016-08-09T12:14:30Z</time>
      </trkpt>
      <trkpt lat="39.26626" lon="118.44">
        <ele>3.52668</ele>
        <time>2016-08-09T12:14:32Z</time>
      </trkpt>
      <trkpt lat="39.26627" lon="118.44007">
        <ele>3.50088</ele>
        <time>2016-08-09T12:14:34Z</time>
      </trkpt>
      <trkpt lat="39.26627" lon="118.44014">
        <ele>3.44567</ele>
        <time>2016-08-09T12:14:36Z</time>
      </trkpt>
      <trkpt lat="39.26627" lon="118.4402">
        <ele>3.38761</ele>
        <time>2016-08-09T12:14:38Z</time>
      </trkpt>
      <trkpt lat="39.26628" lon="118.44027">
        <ele>3.34643</ele>
        <time>2016-08-09T12:14:40Z</time>
      </trkpt>
      <trkpt lat="39.26628" lon="118.44033">
        <ele>3.26717</ele>
        <time>2016-08-09T12:14:42Z</time>
      </trkpt>
      <trkpt lat="39.26628" lon="118.44037">
        <ele>3.16487</ele>
        <time>2016-08-09T12:14:44Z</time>
      </trkpt>
      <trkpt lat="39.26628" lon="118.44043">
        <ele>3.05354</ele>
        <time>2016-08-09T12:14:46Z</time>
      </trkpt>
      <trkpt lat="39.26629" lon="118.44049">
        <ele>2.9422</ele>
        <time>2016-08-09T12:14:48Z</time>
      </trkpt>
      <trkpt lat="39.26629" lon="118.44055">
        <ele>2.85749</ele>
        <time>2016-08-09T12:14:50Z</time>
      </trkpt>
      <trkpt lat="39.26629" lon="118.4406">
        <ele>2.79611</ele>
        <time>2016-08-09T12:14:52Z</time>
      </trkpt>
      <trkpt lat="39.2663" lon="118.44066">
        <ele>2.71465</ele>
        <time>2016-08-09T12:14:54Z</time>
      </trkpt>
      <trkpt lat="39.2663" lon="118.4407">
        <ele>2.58639</ele>
        <time>2016-08-09T12:14:56Z</time>
      </trkpt>
      <trkpt lat="39.26631" lon="118.44076">
        <ele>2.48402</ele>
        <time>2016-08-09T12:14:58Z</time>
      </trkpt>
      <trkpt lat="39.26632" lon="118.44082">
        <ele>2.45928</ele>
        <time>2016-08-09T12:15:00Z</time>
      </trkpt>
      <trkpt lat="39.26632" lon="118.44088">
        <ele>2.45652</ele>
        <time>2016-08-09T12:15:02Z</time>
      </trkpt>
      <trkpt lat="39.26632" lon="118.44089">
        <ele>2.50752</ele>
        <time>2016-08-09T12:15:04Z</time>
      </trkpt>
      <trkpt lat="39.26632" lon="118.44092">
        <ele>2.62695</ele>
        <time>2016-08-09T12:15:08Z</time>
      </trkpt>
      <trkpt lat="39.26631" lon="118.44098">
        <ele>2.63288</ele>
        <time>2016-08-09T12:15:10Z</time>
      </trkpt>
      <trkpt lat="39.26632" lon="118.44104">
        <ele>2.58421</ele>
        <time>2016-08-09T12:15:12Z</time>
      </trkpt>
      <trkpt lat="39.26632" lon="118.4411">
        <ele>2.53482</ele>
        <time>2016-08-09T12:15:14Z</time>
      </trkpt>
      <trkpt lat="39.26632" lon="118.44116">
        <ele>2.49247</ele>
        <time>2016-08-09T12:15:16Z</time>
      </trkpt>
      <trkpt lat="39.26632" lon="118.4412">
        <ele>2.45206</ele>
        <time>2016-08-09T12:15:18Z</time>
      </trkpt>
      <trkpt lat="39.26632" lon="118.44127">
        <ele>2.4572</ele>
        <time>2016-08-09T12:15:20Z</time>
      </trkpt>
      <trkpt lat="39.26632" lon="118.44132">
        <ele>2.50156</ele>
        <time>2016-08-09T12:15:22Z</time>
      </trkpt>
      <trkpt lat="39.26632" lon="118.44138">
        <ele>2.57898</ele>
        <time>2016-08-09T12:15:24Z</time>
      </trkpt>
      <trkpt lat="39.26632" lon="118.44144">
        <ele>2.67044</ele>
        <time>2016-08-09T12:15:26Z</time>
      </trkpt>
      <trkpt lat="39.26632" lon="118.4415">
        <ele>2.74064</ele>
        <time>2016-08-09T12:15:28Z</time>
      </trkpt>
      <trkpt lat="39.26632" lon="118.44153">
        <ele>2.77189</ele>
        <time>2016-08-09T12:15:30Z</time>
      </trkpt>
      <trkpt lat="39.26632" lon="118.4416">
        <ele>2.78083</ele>
        <time>2016-08-09T12:15:32Z</time>
      </trkpt>
      <trkpt lat="39.26632" lon="118.44163">
        <ele>2.77774</ele>
        <time>2016-08-09T12:15:34Z</time>
      </trkpt>
      <trkpt lat="39.26632" lon="118.4417">
        <ele>2.743</ele>
        <time>2016-08-09T12:15:36Z</time>
      </trkpt>
      <trkpt lat="39.26633" lon="118.44176">
        <ele>2.68803</ele>
        <time>2016-08-09T12:15:38Z</time>
      </trkpt>
      <trkpt lat="39.26633" lon="118.44182">
        <ele>2.62484</ele>
        <time>2016-08-09T12:15:40Z</time>
      </trkpt>
      <trkpt lat="39.26634" lon="118.44188">
        <ele>2.56077</ele>
        <time>2016-08-09T12:15:42Z</time>
      </trkpt>
      <trkpt lat="39.26634" lon="118.44194">
        <ele>2.49327</ele>
        <time>2016-08-09T12:15:44Z</time>
      </trkpt>
      <trkpt lat="39.26635" lon="118.44199">
        <ele>2.42596</ele>
        <time>2016-08-09T12:15:46Z</time>
      </trkpt>
      <trkpt lat="39.26636" lon="118.44203">
        <ele>2.36587</ele>
        <time>2016-08-09T12:15:48Z</time>
      </trkpt>
      <trkpt lat="39.26636" lon="118.4421">
        <ele>2.26808</ele>
        <time>2016-08-09T12:15:50Z</time>
      </trkpt>
      <trkpt lat="39.26636" lon="118.44214">
        <ele>2.17467</ele>
        <time>2016-08-09T12:15:52Z</time>
      </trkpt>
      <trkpt lat="39.26636" lon="118.4422">
        <ele>2.08488</ele>
        <time>2016-08-09T12:15:54Z</time>
      </trkpt>
      <trkpt lat="39.26636" lon="118.44226">
        <ele>1.9898</ele>
        <time>2016-08-09T12:15:56Z</time>
      </trkpt>
      <trkpt lat="39.26637" lon="118.44231">
        <ele>1.88771</ele>
        <time>2016-08-09T12:15:58Z</time>
      </trkpt>
      <trkpt lat="39.26639" lon="118.44237">
        <ele>1.78639</ele>
        <time>2016-08-09T12:16:00Z</time>
      </trkpt>
      <trkpt lat="39.26639" lon="118.44244">
        <ele>1.67433</ele>
        <time>2016-08-09T12:16:02Z</time>
      </trkpt>
      <trkpt lat="39.26639" lon="118.44251">
        <ele>1.59789</ele>
        <time>2016-08-09T12:16:04Z</time>
      </trkpt>
      <trkpt lat="39.2664" lon="118.44257">
        <ele>1.54148</ele>
        <time>2016-08-09T12:16:06Z</time>
      </trkpt>
      <trkpt lat="39.2664" lon="118.44264">
        <ele>1.50958</ele>
        <time>2016-08-09T12:16:08Z</time>
      </trkpt>
      <trkpt lat="39.26641" lon="118.4427">
        <ele>1.47564</ele>
        <time>2016-08-09T12:16:10Z</time>
      </trkpt>
      <trkpt lat="39.26641" lon="118.44277">
        <ele>1.4412</ele>
        <time>2016-08-09T12:16:12Z</time>
      </trkpt>
      <trkpt lat="39.26642" lon="118.44283">
        <ele>1.47018</ele>
        <time>2016-08-09T12:16:14Z</time>
      </trkpt>
      <trkpt lat="39.26643" lon="118.44289">
        <ele>1.50453</ele>
        <time>2016-08-09T12:16:16Z</time>
      </trkpt>
      <trkpt lat="39.26643" lon="118.44296">
        <ele>1.56215</ele>
        <time>2016-08-09T12:16:18Z</time>
      </trkpt>
      <trkpt lat="39.26643" lon="118.44303">
        <ele>1.60022</ele>
        <time>2016-08-09T12:16:20Z</time>
      </trkpt>
      <trkpt lat="39.26643" lon="118.44304">
        <ele>1.62135</ele>
        <time>2016-08-09T12:16:22Z</time>
      </trkpt>
      <trkpt lat="39.26643" lon="118.44311">
        <ele>1.65017</ele>
        <time>2016-08-09T12:16:24Z</time>
      </trkpt>
      <trkpt lat="39.26642" lon="118.44318">
        <ele>1.69623</ele>
        <time>2016-08-09T12:16:26Z</time>
      </trkpt>
      <trkpt lat="39.26642" lon="118.44324">
        <ele>1.79885</ele>
        <time>2016-08-09T12:16:28Z</time>
      </trkpt>
      <trkpt lat="39.26642" lon="118.4433">
        <ele>1.93011</ele>
        <time>2016-08-09T12:16:30Z</time>
      </trkpt>
      <trkpt lat="39.26641" lon="118.44337">
        <ele>2.05041</ele>
        <time>2016-08-09T12:16:32Z</time>
      </trkpt>
      <trkpt lat="39.26641" lon="118.44344">
        <ele>2.10273</ele>
        <time>2016-08-09T12:16:34Z</time>
      </trkpt>
      <trkpt lat="39.26641" lon="118.44347">
        <ele>2.12527</ele>
        <time>2016-08-09T12:16:36Z</time>
      </trkpt>
      <trkpt lat="39.26641" lon="118.44353">
        <ele>2.04785</ele>
        <time>2016-08-09T12:16:38Z</time>
      </trkpt>
      <trkpt lat="39.26642" lon="118.4436">
        <ele>1.98368</ele>
        <time>2016-08-09T12:16:40Z</time>
      </trkpt>
      <trkpt lat="39.26643" lon="118.44366">
        <ele>1.89952</ele>
        <time>2016-08-09T12:16:42Z</time>
      </trkpt>
      <trkpt lat="39.26643" lon="118.44373">
        <ele>1.83636</ele>
        <time>2016-08-09T12:16:44Z</time>
      </trkpt>
      <trkpt lat="39.26644" lon="118.44379">
        <ele>1.77666</ele>
        <time>2016-08-09T12:16:46Z</time>
      </trkpt>
      <trkpt lat="39.26644" lon="118.44385">
        <ele>1.73401</ele>
        <time>2016-08-09T12:16:48Z</time>
      </trkpt>
      <trkpt lat="39.26644" lon="118.44392">
        <ele>1.71412</ele>
        <time>2016-08-09T12:16:50Z</time>
      </trkpt>
      <trkpt lat="39.26644" lon="118.44398">
        <ele>1.71355</ele>
        <time>2016-08-09T12:16:52Z</time>
      </trkpt>
      <trkpt lat="39.26644" lon="118.44402">
        <ele>1.71675</ele>
        <time>2016-08-09T12:16:54Z</time>
      </trkpt>
      <trkpt lat="39.26644" lon="118.44409">
        <ele>1.72187</ele>
        <time>2016-08-09T12:16:56Z</time>
      </trkpt>
      <trkpt lat="39.26644" lon="118.44415">
        <ele>1.76872</ele>
        <time>2016-08-09T12:16:58Z</time>
      </trkpt>
      <trkpt lat="39.26645" lon="118.44422">
        <ele>1.80126</ele>
        <time>2016-08-09T12:17:00Z</time>
      </trkpt>
      <trkpt lat="39.26645" lon="118.44427">
        <ele>1.7665</ele>
        <time>2016-08-09T12:17:02Z</time>
      </trkpt>
      <trkpt lat="39.26646" lon="118.44434">
        <ele>1.77158</ele>
        <time>2016-08-09T12:17:04Z</time>
      </trkpt>
      <trkpt lat="39.26646" lon="118.4444">
        <ele>1.77088</ele>
        <time>2016-08-09T12:17:06Z</time>
      </trkpt>
      <trkpt lat="39.26646" lon="118.44447">
        <ele>1.77508</ele>
        <time>2016-08-09T12:17:08Z</time>
      </trkpt>
      <trkpt lat="39.26646" lon="118.44453">
        <ele>1.75322</ele>
        <time>2016-08-09T12:17:10Z</time>
      </trkpt>
      <trkpt lat="39.26646" lon="118.44458">
        <ele>1.72078</ele>
        <time>2016-08-09T12:17:12Z</time>
      </trkpt>
      <trkpt lat="39.26647" lon="118.44465">
        <ele>1.67371</ele>
        <time>2016-08-09T12:17:14Z</time>
      </trkpt>
      <trkpt lat="39.26647" lon="118.4447">
        <ele>1.66005</ele>
        <time>2016-08-09T12:17:16Z</time>
      </trkpt>
      <trkpt lat="39.26648" lon="118.44477">
        <ele>1.66204</ele>
        <time>2016-08-09T12:17:18Z</time>
      </trkpt>
      <trkpt lat="39.26648" lon="118.44483">
        <ele>1.66251</ele>
        <time>2016-08-09T12:17:20Z</time>
      </trkpt>
      <trkpt lat="39.26648" lon="118.4449">
        <ele>1.66758</ele>
        <time>2016-08-09T12:17:22Z</time>
      </trkpt>
      <trkpt lat="39.26648" lon="118.44493">
        <ele>1.68068</ele>
        <time>2016-08-09T12:17:24Z</time>
      </trkpt>
      <trkpt lat="39.26649" lon="118.445">
        <ele>1.66567</ele>
        <time>2016-08-09T12:17:26Z</time>
      </trkpt>
      <trkpt lat="39.26649" lon="118.44504">
        <ele>1.64891</ele>
        <time>2016-08-09T12:17:28Z</time>
      </trkpt>
      <trkpt lat="39.26649" lon="118.4451">
        <ele>1.649</ele>
        <time>2016-08-09T12:17:30Z</time>
      </trkpt>
      <trkpt lat="39.2665" lon="118.44516">
        <ele>1.64477</ele>
        <time>2016-08-09T12:17:32Z</time>
      </trkpt>
      <trkpt lat="39.2665" lon="118.44522">
        <ele>1.62693</ele>
        <time>2016-08-09T12:17:34Z</time>
      </trkpt>
      <trkpt lat="39.2665" lon="118.44528">
        <ele>1.5855</ele>
        <time>2016-08-09T12:17:36Z</time>
      </trkpt>
      <trkpt lat="39.2665" lon="118.44534">
        <ele>1.51662</ele>
        <time>2016-08-09T12:17:38Z</time>
      </trkpt>
      <trkpt lat="39.2665" lon="118.4454">
        <ele>1.45358</ele>
        <time>2016-08-09T12:17:40Z</time>
      </trkpt>
      <trkpt lat="39.2665" lon="118.44546">
        <ele>1.40083</ele>
        <time>2016-08-09T12:17:42Z</time>
      </trkpt>
      <trkpt lat="39.26651" lon="118.44552">
        <ele>1.38439</ele>
        <time>2016-08-09T12:17:44Z</time>
      </trkpt>
      <trkpt lat="39.26652" lon="118.44559">
        <ele>1.40778</ele>
        <time>2016-08-09T12:17:46Z</time>
      </trkpt>
      <trkpt lat="39.26652" lon="118.44565">
        <ele>1.52409</ele>
        <time>2016-08-09T12:17:48Z</time>
      </trkpt>
      <trkpt lat="39.26652" lon="118.44572">
        <ele>1.63319</ele>
        <time>2016-08-09T12:17:50Z</time>
      </trkpt>
      <trkpt lat="39.26652" lon="118.44579">
        <ele>1.70916</ele>
        <time>2016-08-09T12:17:52Z</time>
      </trkpt>
      <trkpt lat="39.26652" lon="118.44585">
        <ele>1.77904</ele>
        <time>2016-08-09T12:17:54Z</time>
      </trkpt>
      <trkpt lat="39.26652" lon="118.4459">
        <ele>1.87098</ele>
        <time>2016-08-09T12:17:56Z</time>
      </trkpt>
      <trkpt lat="39.26653" lon="118.44597">
        <ele>1.96893</ele>
        <time>2016-08-09T12:17:58Z</time>
      </trkpt>
      <trkpt lat="39.26653" lon="118.44603">
        <ele>2.06785</ele>
        <time>2016-08-09T12:18:00Z</time>
      </trkpt>
      <trkpt lat="39.26653" lon="118.44609">
        <ele>2.15895</ele>
        <time>2016-08-09T12:18:02Z</time>
      </trkpt>
      <trkpt lat="39.26653" lon="118.44615">
        <ele>2.25992</ele>
        <time>2016-08-09T12:18:04Z</time>
      </trkpt>
      <trkpt lat="39.26654" lon="118.44621">
        <ele>2.37236</ele>
        <time>2016-08-09T12:18:06Z</time>
      </trkpt>
      <trkpt lat="39.26655" lon="118.44628">
        <ele>2.49512</ele>
        <time>2016-08-09T12:18:08Z</time>
      </trkpt>
      <trkpt lat="39.26655" lon="118.44635">
        <ele>2.68528</ele>
        <time>2016-08-09T12:18:10Z</time>
      </trkpt>
      <trkpt lat="39.26655" lon="118.44641">
        <ele>2.85086</ele>
        <time>2016-08-09T12:18:12Z</time>
      </trkpt>
      <trkpt lat="39.26655" lon="118.44648">
        <ele>3.01923</ele>
        <time>2016-08-09T12:18:14Z</time>
      </trkpt>
      <trkpt lat="39.26655" lon="118.44649">
        <ele>3.17936</ele>
        <time>2016-08-09T12:18:16Z</time>
      </trkpt>
      <trkpt lat="39.26655" lon="118.44656">
        <ele>3.31681</ele>
        <time>2016-08-09T12:18:18Z</time>
      </trkpt>
      <trkpt lat="39.26655" lon="118.44661">
        <ele>3.41799</ele>
        <time>2016-08-09T12:18:20Z</time>
      </trkpt>
      <trkpt lat="39.26655" lon="118.44667">
        <ele>3.47157</ele>
        <time>2016-08-09T12:18:22Z</time>
      </trkpt>
      <trkpt lat="39.26656" lon="118.44672">
        <ele>3.51306</ele>
        <time>2016-08-09T12:18:24Z</time>
      </trkpt>
      <trkpt lat="39.26656" lon="118.44678">
        <ele>3.55071</ele>
        <time>2016-08-09T12:18:26Z</time>
      </trkpt>
      <trkpt lat="39.26656" lon="118.44684">
        <ele>3.56282</ele>
        <time>2016-08-09T12:18:28Z</time>
      </trkpt>
      <trkpt lat="39.26656" lon="118.44689">
        <ele>3.55484</ele>
        <time>2016-08-09T12:18:30Z</time>
      </trkpt>
      <trkpt lat="39.26656" lon="118.44695">
        <ele>3.52961</ele>
        <time>2016-08-09T12:18:32Z</time>
      </trkpt>
      <trkpt lat="39.26656" lon="118.447">
        <ele>3.466</ele>
        <time>2016-08-09T12:18:34Z</time>
      </trkpt>
      <trkpt lat="39.26656" lon="118.44705">
        <ele>3.35054</ele>
        <time>2016-08-09T12:18:36Z</time>
      </trkpt>
      <trkpt lat="39.26656" lon="118.44711">
        <ele>3.2511</ele>
        <time>2016-08-09T12:18:38Z</time>
      </trkpt>
      <trkpt lat="39.26656" lon="118.44716">
        <ele>3.18114</ele>
        <time>2016-08-09T12:18:40Z</time>
      </trkpt>
      <trkpt lat="39.26656" lon="118.44721">
        <ele>3.1043</ele>
        <time>2016-08-09T12:18:42Z</time>
      </trkpt>
      <trkpt lat="39.26655" lon="118.44727">
        <ele>3.00457</ele>
        <time>2016-08-09T12:18:44Z</time>
      </trkpt>
      <trkpt lat="39.26655" lon="118.44727">
        <ele>2.919</ele>
        <time>2016-08-09T12:18:46Z</time>
      </trkpt>
      <trkpt lat="39.26656" lon="118.44733">
        <ele>2.82135</ele>
        <time>2016-08-09T12:18:48Z</time>
      </trkpt>
      <trkpt lat="39.26656" lon="118.44735">
        <ele>2.64739</ele>
        <time>2016-08-09T12:18:50Z</time>
      </trkpt>
      <trkpt lat="39.26657" lon="118.4474">
        <ele>2.42582</ele>
        <time>2016-08-09T12:18:52Z</time>
      </trkpt>
      <trkpt lat="39.26657" lon="118.44745">
        <ele>2.18697</ele>
        <time>2016-08-09T12:18:54Z</time>
      </trkpt>
      <trkpt lat="39.26659" lon="118.44753">
        <ele>2.01097</ele>
        <time>2016-08-09T12:18:56Z</time>
      </trkpt>
      <trkpt lat="39.26659" lon="118.44757">
        <ele>1.92699</ele>
        <time>2016-08-09T12:18:58Z</time>
      </trkpt>
      <trkpt lat="39.2666" lon="118.44763">
        <ele>1.8852</ele>
        <time>2016-08-09T12:19:00Z</time>
      </trkpt>
      <trkpt lat="39.2666" lon="118.44769">
        <ele>1.9114</ele>
        <time>2016-08-09T12:19:02Z</time>
      </trkpt>
      <trkpt lat="39.26661" lon="118.44775">
        <ele>2.01168</ele>
        <time>2016-08-09T12:19:04Z</time>
      </trkpt>
      <trkpt lat="39.26661" lon="118.44777">
        <ele>2.11872</ele>
        <time>2016-08-09T12:19:05Z</time>
      </trkpt>
      <trkpt lat="39.26662" lon="118.44786">
        <ele>2.21814</ele>
        <time>2016-08-09T12:19:08Z</time>
      </trkpt>
      <trkpt lat="39.26662" lon="118.44792">
        <ele>2.28006</ele>
        <time>2016-08-09T12:19:10Z</time>
      </trkpt>
      <trkpt lat="39.26662" lon="118.44798">
        <ele>2.24509</ele>
        <time>2016-08-09T12:19:12Z</time>
      </trkpt>
      <trkpt lat="39.26663" lon="118.44804">
        <ele>2.17492</ele>
        <time>2016-08-09T12:19:14Z</time>
      </trkpt>
      <trkpt lat="39.26663" lon="118.4481">
        <ele>2.07114</ele>
        <time>2016-08-09T12:19:16Z</time>
      </trkpt>
      <trkpt lat="39.26663" lon="118.44816">
        <ele>1.95098</ele>
        <time>2016-08-09T12:19:18Z</time>
      </trkpt>
      <trkpt lat="39.26663" lon="118.44822">
        <ele>1.85024</ele>
        <time>2016-08-09T12:19:20Z</time>
      </trkpt>
      <trkpt lat="39.26663" lon="118.44828">
        <ele>1.78093</ele>
        <time>2016-08-09T12:19:22Z</time>
      </trkpt>
      <trkpt lat="39.26664" lon="118.44835">
        <ele>1.74554</ele>
        <time>2016-08-09T12:19:24Z</time>
      </trkpt>
      <trkpt lat="39.26664" lon="118.44842">
        <ele>1.76102</ele>
        <time>2016-08-09T12:19:26Z</time>
      </trkpt>
      <trkpt lat="39.26664" lon="118.44849">
        <ele>1.81456</ele>
        <time>2016-08-09T12:19:28Z</time>
      </trkpt>
      <trkpt lat="39.26665" lon="118.44855">
        <ele>1.7955</ele>
        <time>2016-08-09T12:19:30Z</time>
      </trkpt>
      <trkpt lat="39.26665" lon="118.44862">
        <ele>1.76731</ele>
        <time>2016-08-09T12:19:32Z</time>
      </trkpt>
      <trkpt lat="39.26665" lon="118.44868">
        <ele>1.78849</ele>
        <time>2016-08-09T12:19:34Z</time>
      </trkpt>
      <trkpt lat="39.26666" lon="118.44874">
        <ele>1.81611</ele>
        <time>2016-08-09T12:19:36Z</time>
      </trkpt>
      <trkpt lat="39.26667" lon="118.44881">
        <ele>1.81205</ele>
        <time>2016-08-09T12:19:38Z</time>
      </trkpt>
      <trkpt lat="39.26667" lon="118.44887">
        <ele>1.80109</ele>
        <time>2016-08-09T12:19:40Z</time>
      </trkpt>
      <trkpt lat="39.26668" lon="118.44894">
        <ele>1.79474</ele>
        <time>2016-08-09T12:19:42Z</time>
      </trkpt>
      <trkpt lat="39.26669" lon="118.449">
        <ele>1.78422</ele>
        <time>2016-08-09T12:19:44Z</time>
      </trkpt>
      <trkpt lat="39.26669" lon="118.44905">
        <ele>1.78349</ele>
        <time>2016-08-09T12:19:46Z</time>
      </trkpt>
      <trkpt lat="39.2667" lon="118.44911">
        <ele>1.73919</ele>
        <time>2016-08-09T12:19:48Z</time>
      </trkpt>
      <trkpt lat="39.2667" lon="118.44918">
        <ele>1.66731</ele>
        <time>2016-08-09T12:19:50Z</time>
      </trkpt>
      <trkpt lat="39.2667" lon="118.44925">
        <ele>1.57848</ele>
        <time>2016-08-09T12:19:52Z</time>
      </trkpt>
      <trkpt lat="39.26671" lon="118.44931">
        <ele>1.53068</ele>
        <time>2016-08-09T12:19:54Z</time>
      </trkpt>
      <trkpt lat="39.26671" lon="118.44938">
        <ele>1.47906</ele>
        <time>2016-08-09T12:19:56Z</time>
      </trkpt>
      <trkpt lat="39.26672" lon="118.44945">
        <ele>1.4699</ele>
        <time>2016-08-09T12:19:58Z</time>
      </trkpt>
      <trkpt lat="39.26672" lon="118.44952">
        <ele>1.49949</ele>
        <time>2016-08-09T12:20:00Z</time>
      </trkpt>
      <trkpt lat="39.26672" lon="118.44958">
        <ele>1.618</ele>
        <time>2016-08-09T12:20:02Z</time>
      </trkpt>
      <trkpt lat="39.26671" lon="118.44965">
        <ele>1.74355</ele>
        <time>2016-08-09T12:20:04Z</time>
      </trkpt>
      <trkpt lat="39.2667" lon="118.44971">
        <ele>1.88007</ele>
        <time>2016-08-09T12:20:06Z</time>
      </trkpt>
      <trkpt lat="39.26669" lon="118.44977">
        <ele>2.03527</ele>
        <time>2016-08-09T12:20:08Z</time>
      </trkpt>
      <trkpt lat="39.2667" lon="118.44982">
        <ele>2.20762</ele>
        <time>2016-08-09T12:20:10Z</time>
      </trkpt>
      <trkpt lat="39.2667" lon="118.44983">
        <ele>2.34825</ele>
        <time>2016-08-09T12:20:12Z</time>
      </trkpt>
      <trkpt lat="39.2667" lon="118.44988">
        <ele>2.45304</ele>
        <time>2016-08-09T12:20:14Z</time>
      </trkpt>
      <trkpt lat="39.2667" lon="118.44995">
        <ele>2.58681</ele>
        <time>2016-08-09T12:20:16Z</time>
      </trkpt>
      <trkpt lat="39.26671" lon="118.45001">
        <ele>2.74149</ele>
        <time>2016-08-09T12:20:18Z</time>
      </trkpt>
      <trkpt lat="39.26672" lon="118.45008">
        <ele>2.90489</ele>
        <time>2016-08-09T12:20:20Z</time>
      </trkpt>
      <trkpt lat="39.26673" lon="118.45013">
        <ele>3.05681</ele>
        <time>2016-08-09T12:20:22Z</time>
      </trkpt>
      <trkpt lat="39.26674" lon="118.45019">
        <ele>3.15101</ele>
        <time>2016-08-09T12:20:24Z</time>
      </trkpt>
      <trkpt lat="39.26674" lon="118.45025">
        <ele>3.22673</ele>
        <time>2016-08-09T12:20:26Z</time>
      </trkpt>
      <trkpt lat="39.26674" lon="118.45031">
        <ele>3.2632</ele>
        <time>2016-08-09T12:20:28Z</time>
      </trkpt>
      <trkpt lat="39.26674" lon="118.45037">
        <ele>3.23223</ele>
        <time>2016-08-09T12:20:30Z</time>
      </trkpt>
      <trkpt lat="39.26674" lon="118.45043">
        <ele>3.19981</ele>
        <time>2016-08-09T12:20:32Z</time>
      </trkpt>
      <trkpt lat="39.26673" lon="118.45049">
        <ele>3.20067</ele>
        <time>2016-08-09T12:20:34Z</time>
      </trkpt>
      <trkpt lat="39.26673" lon="118.45054">
        <ele>3.21445</ele>
        <time>2016-08-09T12:20:36Z</time>
      </trkpt>
      <trkpt lat="39.26674" lon="118.4506">
        <ele>3.23596</ele>
        <time>2016-08-09T12:20:38Z</time>
      </trkpt>
      <trkpt lat="39.26674" lon="118.45066">
        <ele>3.30946</ele>
        <time>2016-08-09T12:20:40Z</time>
      </trkpt>
      <trkpt lat="39.26675" lon="118.45072">
        <ele>3.37965</ele>
        <time>2016-08-09T12:20:42Z</time>
      </trkpt>
      <trkpt lat="39.26676" lon="118.45078">
        <ele>3.42977</ele>
        <time>2016-08-09T12:20:44Z</time>
      </trkpt>
      <trkpt lat="39.26676" lon="118.45084">
        <ele>3.42181</ele>
        <time>2016-08-09T12:20:46Z</time>
      </trkpt>
      <trkpt lat="39.26677" lon="118.4509">
        <ele>3.42868</ele>
        <time>2016-08-09T12:20:48Z</time>
      </trkpt>
      <trkpt lat="39.26677" lon="118.45096">
        <ele>3.43352</ele>
        <time>2016-08-09T12:20:50Z</time>
      </trkpt>
      <trkpt lat="39.26677" lon="118.45102">
        <ele>3.43281</ele>
        <time>2016-08-09T12:20:52Z</time>
      </trkpt>
      <trkpt lat="39.26677" lon="118.45109">
        <ele>3.44315</ele>
        <time>2016-08-09T12:20:54Z</time>
      </trkpt>
      <trkpt lat="39.26677" lon="118.45115">
        <ele>3.47641</ele>
        <time>2016-08-09T12:20:56Z</time>
      </trkpt>
      <trkpt lat="39.26677" lon="118.45121">
        <ele>3.52071</ele>
        <time>2016-08-09T12:20:58Z</time>
      </trkpt>
      <trkpt lat="39.26677" lon="118.45128">
        <ele>3.54193</ele>
        <time>2016-08-09T12:21:00Z</time>
      </trkpt>
      <trkpt lat="39.26678" lon="118.45134">
        <ele>3.59849</ele>
        <time>2016-08-09T12:21:02Z</time>
      </trkpt>
      <trkpt lat="39.26678" lon="118.45141">
        <ele>3.66515</ele>
        <time>2016-08-09T12:21:04Z</time>
      </trkpt>
      <trkpt lat="39.26678" lon="118.45142">
        <ele>3.73368</ele>
        <time>2016-08-09T12:21:06Z</time>
      </trkpt>
      <trkpt lat="39.26678" lon="118.45149">
        <ele>3.78499</ele>
        <time>2016-08-09T12:21:08Z</time>
      </trkpt>
      <trkpt lat="39.26678" lon="118.45156">
        <ele>3.88077</ele>
        <time>2016-08-09T12:21:10Z</time>
      </trkpt>
      <trkpt lat="39.26678" lon="118.45163">
        <ele>3.94996</ele>
        <time>2016-08-09T12:21:12Z</time>
      </trkpt>
      <trkpt lat="39.26679" lon="118.4517">
        <ele>3.99035</ele>
        <time>2016-08-09T12:21:14Z</time>
      </trkpt>
      <trkpt lat="39.2668" lon="118.45177">
        <ele>4.03739</ele>
        <time>2016-08-09T12:21:16Z</time>
      </trkpt>
      <trkpt lat="39.26681" lon="118.45183">
        <ele>4.11763</ele>
        <time>2016-08-09T12:21:18Z</time>
      </trkpt>
      <trkpt lat="39.26681" lon="118.4519">
        <ele>4.22222</ele>
        <time>2016-08-09T12:21:20Z</time>
      </trkpt>
      <trkpt lat="39.26681" lon="118.45196">
        <ele>4.33613</ele>
        <time>2016-08-09T12:21:22Z</time>
      </trkpt>
      <trkpt lat="39.26681" lon="118.45203">
        <ele>4.43783</ele>
        <time>2016-08-09T12:21:24Z</time>
      </trkpt>
      <trkpt lat="39.26682" lon="118.45206">
        <ele>4.51669</ele>
        <time>2016-08-09T12:21:26Z</time>
      </trkpt>
      <trkpt lat="39.26683" lon="118.45213">
        <ele>4.59262</ele>
        <time>2016-08-09T12:21:28Z</time>
      </trkpt>
      <trkpt lat="39.26683" lon="118.45219">
        <ele>4.7058</ele>
        <time>2016-08-09T12:21:30Z</time>
      </trkpt>
      <trkpt lat="39.26683" lon="118.45224">
        <ele>4.8092</ele>
        <time>2016-08-09T12:21:32Z</time>
      </trkpt>
      <trkpt lat="39.26682" lon="118.4523">
        <ele>4.91617</ele>
        <time>2016-08-09T12:21:34Z</time>
      </trkpt>
      <trkpt lat="39.26682" lon="118.45235">
        <ele>5.02897</ele>
        <time>2016-08-09T12:21:36Z</time>
      </trkpt>
      <trkpt lat="39.26682" lon="118.45241">
        <ele>5.0964</ele>
        <time>2016-08-09T12:21:38Z</time>
      </trkpt>
      <trkpt lat="39.26682" lon="118.45247">
        <ele>5.15368</ele>
        <time>2016-08-09T12:21:40Z</time>
      </trkpt>
      <trkpt lat="39.26684" lon="118.45252">
        <ele>5.20072</ele>
        <time>2016-08-09T12:21:42Z</time>
      </trkpt>
      <trkpt lat="39.26684" lon="118.45252">
        <ele>5.2223</ele>
        <time>2016-08-09T12:21:44Z</time>
      </trkpt>
      <trkpt lat="39.26684" lon="118.45252">
        <ele>5.18117</ele>
        <time>2016-08-09T12:21:47Z</time>
      </trkpt>
      <trkpt lat="39.26684" lon="118.45246">
        <ele>5.01356</ele>
        <time>2016-08-09T12:21:49Z</time>
      </trkpt>
      <trkpt lat="39.26683" lon="118.4524">
        <ele>4.74316</ele>
        <time>2016-08-09T12:21:51Z</time>
      </trkpt>
      <trkpt lat="39.26682" lon="118.45234">
        <ele>4.42514</ele>
        <time>2016-08-09T12:21:53Z</time>
      </trkpt>
      <trkpt lat="39.26681" lon="118.45228">
        <ele>4.15162</ele>
        <time>2016-08-09T12:21:55Z</time>
      </trkpt>
      <trkpt lat="39.26681" lon="118.45223">
        <ele>3.9562</ele>
        <time>2016-08-09T12:21:57Z</time>
      </trkpt>
      <trkpt lat="39.2668" lon="118.45218">
        <ele>3.76314</ele>
        <time>2016-08-09T12:21:59Z</time>
      </trkpt>
      <trkpt lat="39.2668" lon="118.45212">
        <ele>3.67487</ele>
        <time>2016-08-09T12:22:01Z</time>
      </trkpt>
      <trkpt lat="39.2668" lon="118.4521">
        <ele>3.53199</ele>
        <time>2016-08-09T12:22:03Z</time>
      </trkpt>
      <trkpt lat="39.26679" lon="118.45205">
        <ele>3.41245</ele>
        <time>2016-08-09T12:22:05Z</time>
      </trkpt>
      <trkpt lat="39.26679" lon="118.452">
        <ele>3.3042</ele>
        <time>2016-08-09T12:22:07Z</time>
      </trkpt>
      <trkpt lat="39.26678" lon="118.45195">
        <ele>3.20001</ele>
        <time>2016-08-09T12:22:09Z</time>
      </trkpt>
      <trkpt lat="39.26677" lon="118.4519">
        <ele>3.11193</ele>
        <time>2016-08-09T12:22:11Z</time>
      </trkpt>
      <trkpt lat="39.26677" lon="118.45184">
        <ele>3.03128</ele>
        <time>2016-08-09T12:22:13Z</time>
      </trkpt>
      <trkpt lat="39.26677" lon="118.45178">
        <ele>2.9965</ele>
        <time>2016-08-09T12:22:15Z</time>
      </trkpt>
      <trkpt lat="39.26677" lon="118.45173">
        <ele>2.93031</ele>
        <time>2016-08-09T12:22:17Z</time>
      </trkpt>
      <trkpt lat="39.26677" lon="118.45167">
        <ele>2.88795</ele>
        <time>2016-08-09T12:22:19Z</time>
      </trkpt>
      <trkpt lat="39.26677" lon="118.45162">
        <ele>2.91716</ele>
        <time>2016-08-09T12:22:21Z</time>
      </trkpt>
      <trkpt lat="39.26678" lon="118.45156">
        <ele>2.97112</ele>
        <time>2016-08-09T12:22:23Z</time>
      </trkpt>
      <trkpt lat="39.26678" lon="118.45152">
        <ele>2.99077</ele>
        <time>2016-08-09T12:22:25Z</time>
      </trkpt>
      <trkpt lat="39.26678" lon="118.45146">
        <ele>3.07729</ele>
        <time>2016-08-09T12:22:27Z</time>
      </trkpt>
      <trkpt lat="39.26678" lon="118.4514">
        <ele>3.22431</ele>
        <time>2016-08-09T12:22:29Z</time>
      </trkpt>
      <trkpt lat="39.26677" lon="118.45134">
        <ele>3.41573</ele>
        <time>2016-08-09T12:22:31Z</time>
      </trkpt>
      <trkpt lat="39.26676" lon="118.45127">
        <ele>3.6459</ele>
        <time>2016-08-09T12:22:33Z</time>
      </trkpt>
      <trkpt lat="39.26676" lon="118.45121">
        <ele>3.87293</ele>
        <time>2016-08-09T12:22:35Z</time>
      </trkpt>
      <trkpt lat="39.26676" lon="118.45115">
        <ele>4.02983</ele>
        <time>2016-08-09T12:22:37Z</time>
      </trkpt>
      <trkpt lat="39.26675" lon="118.45109">
        <ele>4.13941</ele>
        <time>2016-08-09T12:22:39Z</time>
      </trkpt>
      <trkpt lat="39.26675" lon="118.45105">
        <ele>4.1729</ele>
        <time>2016-08-09T12:22:41Z</time>
      </trkpt>
      <trkpt lat="39.26675" lon="118.45099">
        <ele>4.15804</ele>
        <time>2016-08-09T12:22:43Z</time>
      </trkpt>
      <trkpt lat="39.26675" lon="118.45094">
        <ele>4.12447</ele>
        <time>2016-08-09T12:22:45Z</time>
      </trkpt>
      <trkpt lat="39.26675" lon="118.45088">
        <ele>4.09337</ele>
        <time>2016-08-09T12:22:47Z</time>
      </trkpt>
      <trkpt lat="39.26675" lon="118.45082">
        <ele>4.06793</ele>
        <time>2016-08-09T12:22:49Z</time>
      </trkpt>
      <trkpt lat="39.26675" lon="118.45076">
        <ele>4.07797</ele>
        <time>2016-08-09T12:22:51Z</time>
      </trkpt>
      <trkpt lat="39.26675" lon="118.4507">
        <ele>4.06756</ele>
        <time>2016-08-09T12:22:53Z</time>
      </trkpt>
      <trkpt lat="39.26675" lon="118.45063">
        <ele>4.04637</ele>
        <time>2016-08-09T12:22:55Z</time>
      </trkpt>
      <trkpt lat="39.26675" lon="118.45063">
        <ele>4.05315</ele>
        <time>2016-08-09T12:22:57Z</time>
      </trkpt>
      <trkpt lat="39.26675" lon="118.45056">
        <ele>4.08234</ele>
        <time>2016-08-09T12:22:59Z</time>
      </trkpt>
      <trkpt lat="39.26676" lon="118.4505">
        <ele>4.10955</ele>
        <time>2016-08-09T12:23:01Z</time>
      </trkpt>
      <trkpt lat="39.26676" lon="118.45044">
        <ele>4.13509</ele>
        <time>2016-08-09T12:23:03Z</time>
      </trkpt>
      <trkpt lat="39.26676" lon="118.45037">
        <ele>4.18517</ele>
        <time>2016-08-09T12:23:05Z</time>
      </trkpt>
      <trkpt lat="39.26676" lon="118.45031">
        <ele>4.19908</ele>
        <time>2016-08-09T12:23:07Z</time>
      </trkpt>
      <trkpt lat="39.26676" lon="118.45025">
        <ele>4.23142</ele>
        <time>2016-08-09T12:23:09Z</time>
      </trkpt>
      <trkpt lat="39.26676" lon="118.4502">
        <ele>4.24522</ele>
        <time>2016-08-09T12:23:11Z</time>
      </trkpt>
      <trkpt lat="39.26675" lon="118.45014">
        <ele>4.27842</ele>
        <time>2016-08-09T12:23:13Z</time>
      </trkpt>
      <trkpt lat="39.26673" lon="118.45008">
        <ele>4.3522</ele>
        <time>2016-08-09T12:23:15Z</time>
      </trkpt>
      <trkpt lat="39.26673" lon="118.45007">
        <ele>4.38016</ele>
        <time>2016-08-09T12:23:17Z</time>
      </trkpt>
      <trkpt lat="39.26672" lon="118.45001">
        <ele>4.46862</ele>
        <time>2016-08-09T12:23:19Z</time>
      </trkpt>
      <trkpt lat="39.26672" lon="118.45">
        <ele>4.56857</ele>
        <time>2016-08-09T12:23:21Z</time>
      </trkpt>
      <trkpt lat="39.26672" lon="118.44997">
        <ele>4.97985</ele>
        <time>2016-08-09T12:23:25Z</time>
      </trkpt>
      <trkpt lat="39.26671" lon="118.44993">
        <ele>5.21227</ele>
        <time>2016-08-09T12:23:27Z</time>
      </trkpt>
      <trkpt lat="39.26671" lon="118.44987">
        <ele>5.45337</ele>
        <time>2016-08-09T12:23:29Z</time>
      </trkpt>
      <trkpt lat="39.26671" lon="118.44982">
        <ele>5.68145</ele>
        <time>2016-08-09T12:23:31Z</time>
      </trkpt>
      <trkpt lat="39.26671" lon="118.44976">
        <ele>5.89319</ele>
        <time>2016-08-09T12:23:33Z</time>
      </trkpt>
      <trkpt lat="39.26671" lon="118.44973">
        <ele>6.06533</ele>
        <time>2016-08-09T12:23:34Z</time>
      </trkpt>
      <trkpt lat="39.2667" lon="118.44967">
        <ele>6.16936</ele>
        <time>2016-08-09T12:23:36Z</time>
      </trkpt>
      <trkpt lat="39.2667" lon="118.44961">
        <ele>6.20597</ele>
        <time>2016-08-09T12:23:38Z</time>
      </trkpt>
      <trkpt lat="39.2667" lon="118.44956">
        <ele>6.18222</ele>
        <time>2016-08-09T12:23:40Z</time>
      </trkpt>
      <trkpt lat="39.26669" lon="118.4495">
        <ele>6.12556</ele>
        <time>2016-08-09T12:23:42Z</time>
      </trkpt>
      <trkpt lat="39.26669" lon="118.44945">
        <ele>6.0574</ele>
        <time>2016-08-09T12:23:44Z</time>
      </trkpt>
      <trkpt lat="39.26669" lon="118.44939">
        <ele>5.97917</ele>
        <time>2016-08-09T12:23:46Z</time>
      </trkpt>
      <trkpt lat="39.26668" lon="118.44933">
        <ele>5.80018</ele>
        <time>2016-08-09T12:23:48Z</time>
      </trkpt>
      <trkpt lat="39.26667" lon="118.44928">
        <ele>5.62438</ele>
        <time>2016-08-09T12:23:50Z</time>
      </trkpt>
      <trkpt lat="39.26666" lon="118.44922">
        <ele>5.42639</ele>
        <time>2016-08-09T12:23:52Z</time>
      </trkpt>
      <trkpt lat="39.26666" lon="118.44917">
        <ele>5.24114</ele>
        <time>2016-08-09T12:23:54Z</time>
      </trkpt>
      <trkpt lat="39.26666" lon="118.44912">
        <ele>5.07918</ele>
        <time>2016-08-09T12:23:56Z</time>
      </trkpt>
      <trkpt lat="39.26666" lon="118.44906">
        <ele>4.9872</ele>
        <time>2016-08-09T12:23:58Z</time>
      </trkpt>
      <trkpt lat="39.26666" lon="118.449">
        <ele>4.97096</ele>
        <time>2016-08-09T12:24:00Z</time>
      </trkpt>
      <trkpt lat="39.26666" lon="118.44894">
        <ele>5.024</ele>
        <time>2016-08-09T12:24:02Z</time>
      </trkpt>
      <trkpt lat="39.26666" lon="118.44887">
        <ele>5.07515</ele>
        <time>2016-08-09T12:24:04Z</time>
      </trkpt>
      <trkpt lat="39.26665" lon="118.4488">
        <ele>5.12291</ele>
        <time>2016-08-09T12:24:06Z</time>
      </trkpt>
      <trkpt lat="39.26665" lon="118.44879">
        <ele>5.18595</ele>
        <time>2016-08-09T12:24:08Z</time>
      </trkpt>
      <trkpt lat="39.26666" lon="118.44872">
        <ele>5.20591</ele>
        <time>2016-08-09T12:24:10Z</time>
      </trkpt>
      <trkpt lat="39.26666" lon="118.44866">
        <ele>5.18433</ele>
        <time>2016-08-09T12:24:12Z</time>
      </trkpt>
      <trkpt lat="39.26665" lon="118.4486">
        <ele>5.18105</ele>
        <time>2016-08-09T12:24:14Z</time>
      </trkpt>
      <trkpt lat="39.26665" lon="118.44854">
        <ele>5.16792</ele>
        <time>2016-08-09T12:24:16Z</time>
      </trkpt>
      <trkpt lat="39.26664" lon="118.44849">
        <ele>5.15417</ele>
        <time>2016-08-09T12:24:18Z</time>
      </trkpt>
      <trkpt lat="39.26663" lon="118.44843">
        <ele>5.1322</ele>
        <time>2016-08-09T12:24:20Z</time>
      </trkpt>
      <trkpt lat="39.26663" lon="118.44837">
        <ele>5.0969</ele>
        <time>2016-08-09T12:24:22Z</time>
      </trkpt>
      <trkpt lat="39.26662" lon="118.44831">
        <ele>5.04906</ele>
        <time>2016-08-09T12:24:24Z</time>
      </trkpt>
      <trkpt lat="39.26661" lon="118.44825">
        <ele>4.98665</ele>
        <time>2016-08-09T12:24:26Z</time>
      </trkpt>
      <trkpt lat="39.26661" lon="118.44819">
        <ele>4.92248</ele>
        <time>2016-08-09T12:24:28Z</time>
      </trkpt>
      <trkpt lat="39.26662" lon="118.44814">
        <ele>4.87332</ele>
        <time>2016-08-09T12:24:30Z</time>
      </trkpt>
      <trkpt lat="39.26661" lon="118.44808">
        <ele>4.85447</ele>
        <time>2016-08-09T12:24:32Z</time>
      </trkpt>
      <trkpt lat="39.26661" lon="118.44801">
        <ele>4.8725</ele>
        <time>2016-08-09T12:24:34Z</time>
      </trkpt>
      <trkpt lat="39.26661" lon="118.44797">
        <ele>4.88521</ele>
        <time>2016-08-09T12:24:37Z</time>
      </trkpt>
      <trkpt lat="39.2666" lon="118.4479">
        <ele>4.95339</ele>
        <time>2016-08-09T12:24:39Z</time>
      </trkpt>
      <trkpt lat="39.2666" lon="118.44784">
        <ele>5.01407</ele>
        <time>2016-08-09T12:24:41Z</time>
      </trkpt>
      <trkpt lat="39.2666" lon="118.44781">
        <ele>5.07191</ele>
        <time>2016-08-09T12:24:43Z</time>
      </trkpt>
      <trkpt lat="39.26659" lon="118.44775">
        <ele>5.11978</ele>
        <time>2016-08-09T12:24:45Z</time>
      </trkpt>
      <trkpt lat="39.26659" lon="118.44769">
        <ele>5.13268</ele>
        <time>2016-08-09T12:24:47Z</time>
      </trkpt>
      <trkpt lat="39.26659" lon="118.44763">
        <ele>5.09287</ele>
        <time>2016-08-09T12:24:49Z</time>
      </trkpt>
      <trkpt lat="39.26659" lon="118.44757">
        <ele>5.05161</ele>
        <time>2016-08-09T12:24:51Z</time>
      </trkpt>
      <trkpt lat="39.26659" lon="118.44751">
        <ele>4.99482</ele>
        <time>2016-08-09T12:24:53Z</time>
      </trkpt>
      <trkpt lat="39.26659" lon="118.44749">
        <ele>4.93209</ele>
        <time>2016-08-09T12:24:55Z</time>
      </trkpt>
      <trkpt lat="39.26659" lon="118.44741">
        <ele>4.87254</ele>
        <time>2016-08-09T12:24:57Z</time>
      </trkpt>
      <trkpt lat="39.26659" lon="118.44734">
        <ele>4.78458</ele>
        <time>2016-08-09T12:24:59Z</time>
      </trkpt>
      <trkpt lat="39.26659" lon="118.44727">
        <ele>4.68954</ele>
        <time>2016-08-09T12:25:01Z</time>
      </trkpt>
      <trkpt lat="39.26658" lon="118.4472">
        <ele>4.576</ele>
        <time>2016-08-09T12:25:03Z</time>
      </trkpt>
      <trkpt lat="39.26657" lon="118.44713">
        <ele>4.44225</ele>
        <time>2016-08-09T12:25:05Z</time>
      </trkpt>
      <trkpt lat="39.26657" lon="118.44706">
        <ele>4.32902</ele>
        <time>2016-08-09T12:25:07Z</time>
      </trkpt>
      <trkpt lat="39.26656" lon="118.44698">
        <ele>4.24219</ele>
        <time>2016-08-09T12:25:09Z</time>
      </trkpt>
      <trkpt lat="39.26656" lon="118.44691">
        <ele>4.2475</ele>
        <time>2016-08-09T12:25:11Z</time>
      </trkpt>
      <trkpt lat="39.26656" lon="118.44684">
        <ele>4.26</ele>
        <time>2016-08-09T12:25:13Z</time>
      </trkpt>
      <trkpt lat="39.26656" lon="118.44678">
        <ele>4.29293</ele>
        <time>2016-08-09T12:25:15Z</time>
      </trkpt>
      <trkpt lat="39.26656" lon="118.44671">
        <ele>4.33285</ele>
        <time>2016-08-09T12:25:17Z</time>
      </trkpt>
      <trkpt lat="39.26656" lon="118.44666">
        <ele>4.37531</ele>
        <time>2016-08-09T12:25:19Z</time>
      </trkpt>
      <trkpt lat="39.26656" lon="118.44658">
        <ele>4.43397</ele>
        <time>2016-08-09T12:25:21Z</time>
      </trkpt>
      <trkpt lat="39.26656" lon="118.44656">
        <ele>4.45782</ele>
        <time>2016-08-09T12:25:23Z</time>
      </trkpt>
      <trkpt lat="39.26656" lon="118.44649">
        <ele>4.44716</ele>
        <time>2016-08-09T12:25:25Z</time>
      </trkpt>
      <trkpt lat="39.26655" lon="118.44643">
        <ele>4.40187</ele>
        <time>2016-08-09T12:25:27Z</time>
      </trkpt>
      <trkpt lat="39.26655" lon="118.44639">
        <ele>4.34529</ele>
        <time>2016-08-09T12:25:29Z</time>
      </trkpt>
      <trkpt lat="39.26655" lon="118.44632">
        <ele>4.25236</ele>
        <time>2016-08-09T12:25:31Z</time>
      </trkpt>
      <trkpt lat="39.26655" lon="118.44626">
        <ele>4.16678</ele>
        <time>2016-08-09T12:25:33Z</time>
      </trkpt>
      <trkpt lat="39.26655" lon="118.44621">
        <ele>4.11103</ele>
        <time>2016-08-09T12:25:35Z</time>
      </trkpt>
      <trkpt lat="39.26654" lon="118.44616">
        <ele>4.0418</ele>
        <time>2016-08-09T12:25:37Z</time>
      </trkpt>
      <trkpt lat="39.26654" lon="118.4461">
        <ele>3.97514</ele>
        <time>2016-08-09T12:25:39Z</time>
      </trkpt>
      <trkpt lat="39.26654" lon="118.44604">
        <ele>3.90413</ele>
        <time>2016-08-09T12:25:41Z</time>
      </trkpt>
      <trkpt lat="39.26654" lon="118.44598">
        <ele>3.8188</ele>
        <time>2016-08-09T12:25:43Z</time>
      </trkpt>
      <trkpt lat="39.26653" lon="118.44593">
        <ele>3.72561</ele>
        <time>2016-08-09T12:25:45Z</time>
      </trkpt>
      <trkpt lat="39.26653" lon="118.44586">
        <ele>3.62379</ele>
        <time>2016-08-09T12:25:47Z</time>
      </trkpt>
      <trkpt lat="39.26652" lon="118.44579">
        <ele>3.56321</ele>
        <time>2016-08-09T12:25:49Z</time>
      </trkpt>
      <trkpt lat="39.26651" lon="118.44573">
        <ele>3.50592</ele>
        <time>2016-08-09T12:25:51Z</time>
      </trkpt>
      <trkpt lat="39.2665" lon="118.44566">
        <ele>3.46177</ele>
        <time>2016-08-09T12:25:53Z</time>
      </trkpt>
      <trkpt lat="39.2665" lon="118.44559">
        <ele>3.39884</ele>
        <time>2016-08-09T12:25:55Z</time>
      </trkpt>
      <trkpt lat="39.2665" lon="118.44555">
        <ele>3.35014</ele>
        <time>2016-08-09T12:25:57Z</time>
      </trkpt>
      <trkpt lat="39.2665" lon="118.44548">
        <ele>3.31697</ele>
        <time>2016-08-09T12:25:59Z</time>
      </trkpt>
      <trkpt lat="39.26651" lon="118.44541">
        <ele>3.29209</ele>
        <time>2016-08-09T12:26:01Z</time>
      </trkpt>
      <trkpt lat="39.26651" lon="118.44535">
        <ele>3.26926</ele>
        <time>2016-08-09T12:26:03Z</time>
      </trkpt>
      <trkpt lat="39.2665" lon="118.44528">
        <ele>3.26162</ele>
        <time>2016-08-09T12:26:05Z</time>
      </trkpt>
      <trkpt lat="39.2665" lon="118.44521">
        <ele>3.27894</ele>
        <time>2016-08-09T12:26:07Z</time>
      </trkpt>
      <trkpt lat="39.26649" lon="118.44515">
        <ele>3.27886</ele>
        <time>2016-08-09T12:26:09Z</time>
      </trkpt>
      <trkpt lat="39.26649" lon="118.44509">
        <ele>3.19674</ele>
        <time>2016-08-09T12:26:11Z</time>
      </trkpt>
      <trkpt lat="39.26648" lon="118.44503">
        <ele>3.13322</ele>
        <time>2016-08-09T12:26:13Z</time>
      </trkpt>
      <trkpt lat="39.26648" lon="118.44497">
        <ele>3.08765</ele>
        <time>2016-08-09T12:26:15Z</time>
      </trkpt>
      <trkpt lat="39.26647" lon="118.44491">
        <ele>3.04714</ele>
        <time>2016-08-09T12:26:17Z</time>
      </trkpt>
      <trkpt lat="39.26646" lon="118.44484">
        <ele>3.00904</ele>
        <time>2016-08-09T12:26:19Z</time>
      </trkpt>
      <trkpt lat="39.26646" lon="118.44477">
        <ele>2.99817</ele>
        <time>2016-08-09T12:26:21Z</time>
      </trkpt>
      <trkpt lat="39.26645" lon="118.44475">
        <ele>3.04183</ele>
        <time>2016-08-09T12:26:23Z</time>
      </trkpt>
      <trkpt lat="39.26645" lon="118.44467">
        <ele>3.15981</ele>
        <time>2016-08-09T12:26:25Z</time>
      </trkpt>
      <trkpt lat="39.26645" lon="118.44466">
        <ele>3.27901</ele>
        <time>2016-08-09T12:26:27Z</time>
      </trkpt>
      <trkpt lat="39.26645" lon="118.44459">
        <ele>3.4047</ele>
        <time>2016-08-09T12:26:29Z</time>
      </trkpt>
      <trkpt lat="39.26645" lon="118.44454">
        <ele>3.5222</ele>
        <time>2016-08-09T12:26:31Z</time>
      </trkpt>
      <trkpt lat="39.26645" lon="118.44448">
        <ele>3.64232</ele>
        <time>2016-08-09T12:26:33Z</time>
      </trkpt>
      <trkpt lat="39.26645" lon="118.44442">
        <ele>3.72453</ele>
        <time>2016-08-09T12:26:35Z</time>
      </trkpt>
      <trkpt lat="39.26644" lon="118.44435">
        <ele>3.76955</ele>
        <time>2016-08-09T12:26:37Z</time>
      </trkpt>
      <trkpt lat="39.26644" lon="118.44429">
        <ele>3.84378</ele>
        <time>2016-08-09T12:26:39Z</time>
      </trkpt>
      <trkpt lat="39.26644" lon="118.44422">
        <ele>3.89598</ele>
        <time>2016-08-09T12:26:41Z</time>
      </trkpt>
      <trkpt lat="39.26644" lon="118.44416">
        <ele>3.91509</ele>
        <time>2016-08-09T12:26:43Z</time>
      </trkpt>
      <trkpt lat="39.26643" lon="118.44409">
        <ele>3.96934</ele>
        <time>2016-08-09T12:26:45Z</time>
      </trkpt>
      <trkpt lat="39.26643" lon="118.44403">
        <ele>4.01307</ele>
        <time>2016-08-09T12:26:47Z</time>
      </trkpt>
      <trkpt lat="39.26643" lon="118.44397">
        <ele>4.04981</ele>
        <time>2016-08-09T12:26:49Z</time>
      </trkpt>
      <trkpt lat="39.26642" lon="118.44392">
        <ele>4.06733</ele>
        <time>2016-08-09T12:26:51Z</time>
      </trkpt>
      <trkpt lat="39.26642" lon="118.44387">
        <ele>4.06957</ele>
        <time>2016-08-09T12:26:53Z</time>
      </trkpt>
      <trkpt lat="39.26642" lon="118.44381">
        <ele>4.08251</ele>
        <time>2016-08-09T12:26:55Z</time>
      </trkpt>
      <trkpt lat="39.26642" lon="118.44376">
        <ele>4.08393</ele>
        <time>2016-08-09T12:26:57Z</time>
      </trkpt>
      <trkpt lat="39.26641" lon="118.44371">
        <ele>4.06291</ele>
        <time>2016-08-09T12:26:59Z</time>
      </trkpt>
      <trkpt lat="39.26641" lon="118.44365">
        <ele>4.04757</ele>
        <time>2016-08-09T12:27:01Z</time>
      </trkpt>
      <trkpt lat="39.2664" lon="118.44358">
        <ele>4.05391</ele>
        <time>2016-08-09T12:27:03Z</time>
      </trkpt>
      <trkpt lat="39.2664" lon="118.44352">
        <ele>4.06505</ele>
        <time>2016-08-09T12:27:05Z</time>
      </trkpt>
      <trkpt lat="39.2664" lon="118.44346">
        <ele>4.07985</ele>
        <time>2016-08-09T12:27:07Z</time>
      </trkpt>
      <trkpt lat="39.2664" lon="118.4434">
        <ele>4.07961</ele>
        <time>2016-08-09T12:27:09Z</time>
      </trkpt>
      <trkpt lat="39.2664" lon="118.44333">
        <ele>4.08097</ele>
        <time>2016-08-09T12:27:11Z</time>
      </trkpt>
      <trkpt lat="39.26639" lon="118.44327">
        <ele>4.09956</ele>
        <time>2016-08-09T12:27:13Z</time>
      </trkpt>
      <trkpt lat="39.26638" lon="118.4432">
        <ele>4.1277</ele>
        <time>2016-08-09T12:27:15Z</time>
      </trkpt>
      <trkpt lat="39.26638" lon="118.44313">
        <ele>4.12869</ele>
        <time>2016-08-09T12:27:17Z</time>
      </trkpt>
      <trkpt lat="39.26638" lon="118.44306">
        <ele>4.11656</ele>
        <time>2016-08-09T12:27:19Z</time>
      </trkpt>
      <trkpt lat="39.26638" lon="118.44299">
        <ele>4.06063</ele>
        <time>2016-08-09T12:27:21Z</time>
      </trkpt>
      <trkpt lat="39.26638" lon="118.44293">
        <ele>3.94401</ele>
        <time>2016-08-09T12:27:23Z</time>
      </trkpt>
      <trkpt lat="39.26638" lon="118.44287">
        <ele>3.77187</ele>
        <time>2016-08-09T12:27:25Z</time>
      </trkpt>
      <trkpt lat="39.26637" lon="118.4428">
        <ele>3.60628</ele>
        <time>2016-08-09T12:27:27Z</time>
      </trkpt>
      <trkpt lat="39.26637" lon="118.44273">
        <ele>3.42959</ele>
        <time>2016-08-09T12:27:29Z</time>
      </trkpt>
      <trkpt lat="39.26637" lon="118.44266">
        <ele>3.29149</ele>
        <time>2016-08-09T12:27:31Z</time>
      </trkpt>
      <trkpt lat="39.26637" lon="118.44259">
        <ele>3.19663</ele>
        <time>2016-08-09T12:27:33Z</time>
      </trkpt>
      <trkpt lat="39.26636" lon="118.44252">
        <ele>3.11896</ele>
        <time>2016-08-09T12:27:35Z</time>
      </trkpt>
      <trkpt lat="39.26636" lon="118.44245">
        <ele>3.0201</ele>
        <time>2016-08-09T12:27:37Z</time>
      </trkpt>
      <trkpt lat="39.26636" lon="118.44238">
        <ele>2.93592</ele>
        <time>2016-08-09T12:27:39Z</time>
      </trkpt>
      <trkpt lat="39.26635" lon="118.44231">
        <ele>2.86968</ele>
        <time>2016-08-09T12:27:41Z</time>
      </trkpt>
      <trkpt lat="39.26634" lon="118.44224">
        <ele>2.8418</ele>
        <time>2016-08-09T12:27:43Z</time>
      </trkpt>
      <trkpt lat="39.26633" lon="118.44216">
        <ele>2.83687</ele>
        <time>2016-08-09T12:27:45Z</time>
      </trkpt>
      <trkpt lat="39.26632" lon="118.44212">
        <ele>2.81487</ele>
        <time>2016-08-09T12:27:47Z</time>
      </trkpt>
      <trkpt lat="39.26632" lon="118.44205">
        <ele>2.76794</ele>
        <time>2016-08-09T12:27:49Z</time>
      </trkpt>
      <trkpt lat="39.26631" lon="118.44198">
        <ele>2.73666</ele>
        <time>2016-08-09T12:27:51Z</time>
      </trkpt>
      <trkpt lat="39.26631" lon="118.44191">
        <ele>2.69494</ele>
        <time>2016-08-09T12:27:53Z</time>
      </trkpt>
      <trkpt lat="39.26631" lon="118.44184">
        <ele>2.62509</ele>
        <time>2016-08-09T12:27:55Z</time>
      </trkpt>
      <trkpt lat="39.26631" lon="118.44176">
        <ele>2.59922</ele>
        <time>2016-08-09T12:27:57Z</time>
      </trkpt>
      <trkpt lat="39.2663" lon="118.44168">
        <ele>2.58607</ele>
        <time>2016-08-09T12:27:59Z</time>
      </trkpt>
      <trkpt lat="39.2663" lon="118.44165">
        <ele>2.59177</ele>
        <time>2016-08-09T12:28:01Z</time>
      </trkpt>
      <trkpt lat="39.2663" lon="118.44156">
        <ele>2.59382</ele>
        <time>2016-08-09T12:28:03Z</time>
      </trkpt>
      <trkpt lat="39.2663" lon="118.44148">
        <ele>2.62242</ele>
        <time>2016-08-09T12:28:05Z</time>
      </trkpt>
      <trkpt lat="39.2663" lon="118.4414">
        <ele>2.71556</ele>
        <time>2016-08-09T12:28:07Z</time>
      </trkpt>
      <trkpt lat="39.2663" lon="118.44133">
        <ele>2.80673</ele>
        <time>2016-08-09T12:28:09Z</time>
      </trkpt>
      <trkpt lat="39.2663" lon="118.44125">
        <ele>2.86976</ele>
        <time>2016-08-09T12:28:11Z</time>
      </trkpt>
      <trkpt lat="39.2663" lon="118.44118">
        <ele>2.91091</ele>
        <time>2016-08-09T12:28:13Z</time>
      </trkpt>
      <trkpt lat="39.2663" lon="118.44111">
        <ele>2.95467</ele>
        <time>2016-08-09T12:28:15Z</time>
      </trkpt>
      <trkpt lat="39.26629" lon="118.44104">
        <ele>2.98371</ele>
        <time>2016-08-09T12:28:17Z</time>
      </trkpt>
      <trkpt lat="39.26628" lon="118.44095">
        <ele>3.00072</ele>
        <time>2016-08-09T12:28:19Z</time>
      </trkpt>
      <trkpt lat="39.26628" lon="118.44094">
        <ele>3.00236</ele>
        <time>2016-08-09T12:28:21Z</time>
      </trkpt>
      <trkpt lat="39.26628" lon="118.44087">
        <ele>3.03189</ele>
        <time>2016-08-09T12:28:23Z</time>
      </trkpt>
      <trkpt lat="39.26628" lon="118.4408">
        <ele>3.1005</ele>
        <time>2016-08-09T12:28:25Z</time>
      </trkpt>
      <trkpt lat="39.26628" lon="118.44072">
        <ele>3.13774</ele>
        <time>2016-08-09T12:28:27Z</time>
      </trkpt>
      <trkpt lat="39.26628" lon="118.44065">
        <ele>3.20058</ele>
        <time>2016-08-09T12:28:29Z</time>
      </trkpt>
      <trkpt lat="39.26628" lon="118.44057">
        <ele>3.27086</ele>
        <time>2016-08-09T12:28:31Z</time>
      </trkpt>
      <trkpt lat="39.26629" lon="118.44051">
        <ele>3.29392</ele>
        <time>2016-08-09T12:28:33Z</time>
      </trkpt>
      <trkpt lat="39.26629" lon="118.44045">
        <ele>3.25211</ele>
        <time>2016-08-09T12:28:35Z</time>
      </trkpt>
      <trkpt lat="39.26628" lon="118.44038">
        <ele>3.22561</ele>
        <time>2016-08-09T12:28:37Z</time>
      </trkpt>
      <trkpt lat="39.26627" lon="118.44031">
        <ele>3.21039</ele>
        <time>2016-08-09T12:28:39Z</time>
      </trkpt>
      <trkpt lat="39.26627" lon="118.44025">
        <ele>3.19639</ele>
        <time>2016-08-09T12:28:41Z</time>
      </trkpt>
      <trkpt lat="39.26626" lon="118.44018">
        <ele>3.17144</ele>
        <time>2016-08-09T12:28:43Z</time>
      </trkpt>
      <trkpt lat="39.26626" lon="118.44011">
        <ele>3.14229</ele>
        <time>2016-08-09T12:28:45Z</time>
      </trkpt>
      <trkpt lat="39.26626" lon="118.44004">
        <ele>3.1441</ele>
        <time>2016-08-09T12:28:47Z</time>
      </trkpt>
      <trkpt lat="39.26626" lon="118.44001">
        <ele>3.16901</ele>
        <time>2016-08-09T12:28:49Z</time>
      </trkpt>
      <trkpt lat="39.26627" lon="118.43993">
        <ele>3.18773</ele>
        <time>2016-08-09T12:28:51Z</time>
      </trkpt>
      <trkpt lat="39.26627" lon="118.43986">
        <ele>3.22476</ele>
        <time>2016-08-09T12:28:53Z</time>
      </trkpt>
      <trkpt lat="39.26627" lon="118.43979">
        <ele>3.27815</ele>
        <time>2016-08-09T12:28:55Z</time>
      </trkpt>
      <trkpt lat="39.26627" lon="118.43973">
        <ele>3.31282</ele>
        <time>2016-08-09T12:28:57Z</time>
      </trkpt>
      <trkpt lat="39.26628" lon="118.43966">
        <ele>3.35438</ele>
        <time>2016-08-09T12:28:59Z</time>
      </trkpt>
      <trkpt lat="39.26628" lon="118.43964">
        <ele>3.36271</ele>
        <time>2016-08-09T12:29:01Z</time>
      </trkpt>
      <trkpt lat="39.26628" lon="118.4396">
        <ele>3.29738</ele>
        <time>2016-08-09T12:29:03Z</time>
      </trkpt>
      <trkpt lat="39.26627" lon="118.43958">
        <ele>3.22023</ele>
        <time>2016-08-09T12:29:05Z</time>
      </trkpt>
      <trkpt lat="39.26627" lon="118.43956">
        <ele>3.17349</ele>
        <time>2016-08-09T12:29:07Z</time>
      </trkpt>
      <trkpt lat="39.26628" lon="118.43951">
        <ele>3.18309</ele>
        <time>2016-08-09T12:29:09Z</time>
      </trkpt>
      <trkpt lat="39.26628" lon="118.43951">
        <ele>3.27741</ele>
        <time>2016-08-09T12:29:11Z</time>
      </trkpt>
      <trkpt lat="39.26629" lon="118.4395">
        <ele>3.41894</ele>
        <time>2016-08-09T12:29:14Z</time>
      </trkpt>
      <trkpt lat="39.26631" lon="118.43945">
        <ele>3.15224</ele>
        <time>2016-08-09T12:29:17Z</time>
      </trkpt>
      <trkpt lat="39.26632" lon="118.43944">
        <ele>3.1163</ele>
        <time>2016-08-09T12:29:23Z</time>
      </trkpt>
      <trkpt lat="39.26634" lon="118.4394">
        <ele>3.32498</ele>
        <time>2016-08-09T12:29:25Z</time>
      </trkpt>
      <trkpt lat="39.26635" lon="118.43939">
        <ele>4.02071</ele>
        <time>2016-08-09T12:29:30Z</time>
      </trkpt>
      <trkpt lat="39.26641" lon="118.43937">
        <ele>4.18498</ele>
        <time>2016-08-09T12:29:32Z</time>
      </trkpt>
      <trkpt lat="39.26642" lon="118.43937">
        <ele>4.27659</ele>
        <time>2016-08-09T12:29:34Z</time>
      </trkpt>
      <trkpt lat="39.26647" lon="118.43937">
        <ele>4.33735</ele>
        <time>2016-08-09T12:29:36Z</time>
      </trkpt>
      <trkpt lat="39.26648" lon="118.43937">
        <ele>4.35346</ele>
        <time>2016-08-09T12:29:38Z</time>
      </trkpt>
      <trkpt lat="39.26652" lon="118.43937">
        <ele>4.36038</ele>
        <time>2016-08-09T12:29:40Z</time>
      </trkpt>
      <trkpt lat="39.26655" lon="118.43937">
        <ele>4.32755</ele>
        <time>2016-08-09T12:29:42Z</time>
      </trkpt>
      <trkpt lat="39.26658" lon="118.43935">
        <ele>4.32139</ele>
        <time>2016-08-09T12:29:44Z</time>
      </trkpt>
      <trkpt lat="39.2666" lon="118.43933">
        <ele>4.3258</ele>
        <time>2016-08-09T12:29:46Z</time>
      </trkpt>
      <trkpt lat="39.26662" lon="118.43929">
        <ele>4.27672</ele>
        <time>2016-08-09T12:29:49Z</time>
      </trkpt>
    </trkseg>
  </trk>
</gpx>