<?xml version="1.0" encoding="UTF-8"?>
<gpx xmlns="http://www.topografix.com/GPX/1/1" xmlns:gpxtpx="http://www.garmin.com/xmlschemas/TrackPointExtension/v1" xmlns:xsi="http://www.w3.org/2001/XMLSchema-instance" xsi:schemaLocation="http://www.topografix.com/GPX/1/1 http://www.topografix.com/GPX/1/1/gpx.xsd" version="1.1" creator="gpx.py -- https://github.com/tkrajina/gpxpy">
  <trk>
    <name>gpx from codoon</name>
    <type>Run</type>
    <trkseg>
      <trkpt lat="39.79378725466146" lon="116.47696645396007">
        <ele>61.379408498879705</ele>
        <time>2021-11-08T21:54:59Z</time>
      </trkpt>
      <trkpt lat="39.79379230026559" lon="116.47698251214251">
        <ele>61.379408498879705</ele>
        <time>2021-11-08T21:55:00Z</time>
      </trkpt>
      <trkpt lat="39.793803359755636" lon="116.47700358796102">
        <ele>61.379408498879705</ele>
        <time>2021-11-08T21:55:01Z</time>
      </trkpt>
      <trkpt lat="39.793819450482694" lon="116.47703570360272">
        <ele>62.30610517141437</ele>
        <time>2021-11-08T21:55:04Z</time>
      </trkpt>
      <trkpt lat="39.79383854960652" lon="116.47707082991832">
        <ele>62.50737351018249</ele>
        <time>2021-11-08T21:55:08Z</time>
      </trkpt>
      <trkpt lat="39.793861662804495" lon="116.47711097414346">
        <ele>62.50737351018249</ele>
        <time>2021-11-08T21:55:10Z</time>
      </trkpt>
      <trkpt lat="39.7938877757743" lon="116.4771511180213">
        <ele>62.030318103351135</ele>
        <time>2021-11-08T21:55:12Z</time>
      </trkpt>
      <trkpt lat="39.79391289172938" lon="116.47719226572842">
        <ele>62.030318103351135</ele>
        <time>2021-11-08T21:55:14Z</time>
      </trkpt>
      <trkpt lat="39.79392300032053" lon="116.47723040429115">
        <ele>62.030318103351135</ele>
        <time>2021-11-08T21:55:16Z</time>
      </trkpt>
      <trkpt lat="39.79392512112127" lon="116.47727255859313">
        <ele>62.26402689245178</ele>
        <time>2021-11-08T21:55:18Z</time>
      </trkpt>
      <trkpt lat="39.793926267959606" lon="116.47732374617568">
        <ele>61.97607408086257</ele>
        <time>2021-11-08T21:55:22Z</time>
      </trkpt>
      <trkpt lat="39.79392440932022" lon="116.47737292680976">
        <ele>61.97607408086257</ele>
        <time>2021-11-08T21:55:26Z</time>
      </trkpt>
      <trkpt lat="39.79391052865592" lon="116.47741407951594">
        <ele>61.818413153832516</ele>
        <time>2021-11-08T21:55:28Z</time>
      </trkpt>
      <trkpt lat="39.793883620271416" lon="116.47744519703708">
        <ele>61.818413153832516</ele>
        <time>2021-11-08T21:55:30Z</time>
      </trkpt>
      <trkpt lat="39.79385973471602" lon="116.47748434366743">
        <ele>61.818413153832516</ele>
        <time>2021-11-08T21:55:32Z</time>
      </trkpt>
      <trkpt lat="39.79383985173121" lon="116.47752449350816">
        <ele>61.97404627242353</ele>
        <time>2021-11-08T21:55:34Z</time>
      </trkpt>
      <trkpt lat="39.793820962915824" lon="116.47756263588018">
        <ele>61.97404627242353</ele>
        <time>2021-11-08T21:55:36Z</time>
      </trkpt>
      <trkpt lat="39.793789052127586" lon="116.47759275041052">
        <ele>62.024234647500286</ele>
        <time>2021-11-08T21:55:38Z</time>
      </trkpt>
      <trkpt lat="39.79375513286362" lon="116.47761985414688">
        <ele>62.024234647500286</ele>
        <time>2021-11-08T21:55:42Z</time>
      </trkpt>
      <trkpt lat="39.79372120206808" lon="116.47764294315061">
        <ele>61.85947573752227</ele>
        <time>2021-11-08T21:55:44Z</time>
      </trkpt>
      <trkpt lat="39.79369325346409" lon="116.4776600092983">
        <ele>61.85947573752227</ele>
        <time>2021-11-08T21:55:46Z</time>
      </trkpt>
      <trkpt lat="39.793664304948024" lon="116.4776770755749">
        <ele>61.9786088419712</ele>
        <time>2021-11-08T21:55:48Z</time>
      </trkpt>
      <trkpt lat="39.79363535932242" lon="116.47769514554273">
        <ele>61.9786088419712</ele>
        <time>2021-11-08T21:55:50Z</time>
      </trkpt>
      <trkpt lat="39.793606416588" lon="116.47771421920261">
        <ele>61.9786088419712</ele>
        <time>2021-11-08T21:55:52Z</time>
      </trkpt>
      <trkpt lat="39.79357848243522" lon="116.47773630380583">
        <ele>61.995845233874306</ele>
        <time>2021-11-08T21:55:54Z</time>
      </trkpt>
      <trkpt lat="39.79354854556971" lon="116.47775738497762">
        <ele>61.995845233874306</ele>
        <time>2021-11-08T21:55:56Z</time>
      </trkpt>
      <trkpt lat="39.79351960285232" lon="116.47777645865567">
        <ele>61.86048963052788</ele>
        <time>2021-11-08T21:55:58Z</time>
      </trkpt>
      <trkpt lat="39.79349165139402" lon="116.47779252114995">
        <ele>61.86048963052788</ele>
        <time>2021-11-08T21:56:00Z</time>
      </trkpt>
      <trkpt lat="39.79346171454553" lon="116.47781360233982">
        <ele>61.86048963052788</ele>
        <time>2021-11-08T21:56:02Z</time>
      </trkpt>
      <trkpt lat="39.793427789590545" lon="116.47783869878997">
        <ele>62.29292400547995</ele>
        <time>2021-11-08T21:56:04Z</time>
      </trkpt>
      <trkpt lat="39.79338887661703" lon="116.47786781062939">
        <ele>62.29292400547995</ele>
        <time>2021-11-08T21:56:06Z</time>
      </trkpt>
      <trkpt lat="39.79334797248959" lon="116.47789993380022">
        <ele>62.39229012947037</ele>
        <time>2021-11-08T21:56:08Z</time>
      </trkpt>
      <trkpt lat="39.79330806829273" lon="116.47793205686229">
        <ele>62.39229012947037</ele>
        <time>2021-11-08T21:56:10Z</time>
      </trkpt>
      <trkpt lat="39.79326716708376" lon="116.47796518375529">
        <ele>62.39229012947037</ele>
        <time>2021-11-08T21:56:12Z</time>
      </trkpt>
      <trkpt lat="39.79322625721959" lon="116.47799529959063">
        <ele>62.34311391887753</ele>
        <time>2021-11-08T21:56:14Z</time>
      </trkpt>
      <trkpt lat="39.7931823389483" lon="116.47802240473742">
        <ele>62.34311391887753</ele>
        <time>2021-11-08T21:56:16Z</time>
      </trkpt>
      <trkpt lat="39.79313840912439" lon="116.47804549512651">
        <ele>62.30002155429193</ele>
        <time>2021-11-08T21:56:18Z</time>
      </trkpt>
      <trkpt lat="39.793093488065644" lon="116.4780715967255">
        <ele>62.30002155429193</ele>
        <time>2021-11-08T21:56:20Z</time>
      </trkpt>
      <trkpt lat="39.79304657875064" lon="116.47810171335531">
        <ele>62.30002155429193</ele>
        <time>2021-11-08T21:56:22Z</time>
      </trkpt>
      <trkpt lat="39.79300068382419" lon="116.47813684834166">
        <ele>62.25135274539256</ele>
        <time>2021-11-08T21:56:24Z</time>
      </trkpt>
      <trkpt lat="39.7929577770932" lon="116.47816796819714">
        <ele>62.25135274539256</ele>
        <time>2021-11-08T21:56:26Z</time>
      </trkpt>
      <trkpt lat="39.79291785276721" lon="116.4781930655274">
        <ele>62.21282343314574</ele>
        <time>2021-11-08T21:56:28Z</time>
      </trkpt>
      <trkpt lat="39.79287788505647" lon="116.47820310744763">
        <ele>62.21282343314574</ele>
        <time>2021-11-08T21:56:30Z</time>
      </trkpt>
      <trkpt lat="39.79284189965413" lon="116.47820712670402">
        <ele>62.11650077679666</ele>
        <time>2021-11-08T21:56:34Z</time>
      </trkpt>
      <trkpt lat="39.79279792649723" lon="116.47821516173444">
        <ele>61.66633092223016</ele>
        <time>2021-11-08T21:56:42Z</time>
      </trkpt>
      <trkpt lat="39.79275099409888" lon="116.47823724886773">
        <ele>62.61029056327586</ele>
        <time>2021-11-08T21:56:45Z</time>
      </trkpt>
      <trkpt lat="39.79270009098061" lon="116.47826937345997">
        <ele>62.61029056327586</ele>
        <time>2021-11-08T21:56:47Z</time>
      </trkpt>
      <trkpt lat="39.79265619307589" lon="116.47830350458868">
        <ele>62.56516916836095</ele>
        <time>2021-11-08T21:56:49Z</time>
      </trkpt>
      <trkpt lat="39.792621303113044" lon="116.4783406457047">
        <ele>62.56516916836095</ele>
        <time>2021-11-08T21:56:51Z</time>
      </trkpt>
      <trkpt lat="39.7926084344768" lon="116.47838581368195">
        <ele>62.306612139665816</ele>
        <time>2021-11-08T21:56:53Z</time>
      </trkpt>
      <trkpt lat="39.79261957832464" lon="116.47843599719386">
        <ele>62.306612139665816</ele>
        <time>2021-11-08T21:56:55Z</time>
      </trkpt>
      <trkpt lat="39.79264572383814" lon="116.478487182576">
        <ele>62.306612139665816</ele>
        <time>2021-11-08T21:56:57Z</time>
      </trkpt>
      <trkpt lat="39.79267286640384" lon="116.47853736417296">
        <ele>62.57226690290498</ele>
        <time>2021-11-08T21:56:59Z</time>
      </trkpt>
      <trkpt lat="39.79269802076089" lon="116.47859156085667">
        <ele>62.57226690290498</ele>
        <time>2021-11-08T21:57:01Z</time>
      </trkpt>
      <trkpt lat="39.792724183766374" lon="116.4786487685623">
        <ele>62.440452622882425</ele>
        <time>2021-11-08T21:57:03Z</time>
      </trkpt>
      <trkpt lat="39.79275034681312" lon="116.47870597631562">
        <ele>62.440452622882425</ele>
        <time>2021-11-08T21:57:05Z</time>
      </trkpt>
      <trkpt lat="39.79277849523335" lon="116.47875816535408">
        <ele>62.440452622882425</ele>
        <time>2021-11-08T21:57:07Z</time>
      </trkpt>
      <trkpt lat="39.79280762620091" lon="116.47880433208714">
        <ele>62.27568712138052</ele>
        <time>2021-11-08T21:57:09Z</time>
      </trkpt>
      <trkpt lat="39.792836754294306" lon="116.47884949514695">
        <ele>62.27568712138052</ele>
        <time>2021-11-08T21:57:11Z</time>
      </trkpt>
      <trkpt lat="39.792863894187725" lon="116.47889867330366">
        <ele>62.3750530807428</ele>
        <time>2021-11-08T21:57:13Z</time>
      </trkpt>
      <trkpt lat="39.79288905169282" lon="116.47895387397661">
        <ele>62.3750530807428</ele>
        <time>2021-11-08T21:57:15Z</time>
      </trkpt>
      <trkpt lat="39.79291320931963" lon="116.4790090748174">
        <ele>62.3750530807428</ele>
        <time>2021-11-08T21:57:17Z</time>
      </trkpt>
      <trkpt lat="39.792937375694905" lon="116.47906728682285">
        <ele>62.06276326132512</ele>
        <time>2021-11-08T21:57:19Z</time>
      </trkpt>
      <trkpt lat="39.7929655388713" lon="116.4791244946709">
        <ele>62.06276326132512</ele>
        <time>2021-11-08T21:57:21Z</time>
      </trkpt>
      <trkpt lat="39.7929957019198" lon="116.4791817023164">
        <ele>62.14032787719287</ele>
        <time>2021-11-08T21:57:23Z</time>
      </trkpt>
      <trkpt lat="39.793029850143775" lon="116.47923389096289">
        <ele>62.14032787719287</ele>
        <time>2021-11-08T21:57:25Z</time>
      </trkpt>
      <trkpt lat="39.79306799515901" lon="116.47928507543995">
        <ele>62.14032787719287</ele>
        <time>2021-11-08T21:57:27Z</time>
      </trkpt>
      <trkpt lat="39.793106143113356" lon="116.4793372636645">
        <ele>62.092673730966446</ele>
        <time>2021-11-08T21:57:29Z</time>
      </trkpt>
      <trkpt lat="39.79314129135277" lon="116.47938945229994">
        <ele>62.092673730966446</ele>
        <time>2021-11-08T21:57:31Z</time>
      </trkpt>
      <trkpt lat="39.79317244286907" lon="116.4794426451828">
        <ele>62.24273433421124</ele>
        <time>2021-11-08T21:57:33Z</time>
      </trkpt>
      <trkpt lat="39.793203582784244" lon="116.47949182325226">
        <ele>62.24273433421124</ele>
        <time>2021-11-08T21:57:35Z</time>
      </trkpt>
      <trkpt lat="39.79323173170829" lon="116.47954401286921">
        <ele>62.24273433421124</ele>
        <time>2021-11-08T21:57:37Z</time>
      </trkpt>
      <trkpt lat="39.79326088349102" lon="116.47959720611358">
        <ele>62.125119083403426</ele>
        <time>2021-11-08T21:57:39Z</time>
      </trkpt>
      <trkpt lat="39.79328705011236" lon="116.47965541834581">
        <ele>62.125119083403426</ele>
        <time>2021-11-08T21:57:41Z</time>
      </trkpt>
      <trkpt lat="39.79331221976893" lon="116.47971463446434">
        <ele>62.125119083403426</ele>
        <time>2021-11-08T21:57:43Z</time>
      </trkpt>
      <trkpt lat="39.79333539837065" lon="116.47977686202957">
        <ele>61.81993398737593</ele>
        <time>2021-11-08T21:57:45Z</time>
      </trkpt>
      <trkpt lat="39.793358568279075" lon="116.47983607849348">
        <ele>61.81993398737593</ele>
        <time>2021-11-08T21:57:47Z</time>
      </trkpt>
      <trkpt lat="39.7933827381445" lon="116.47989529487988">
        <ele>62.17936388301066</ele>
        <time>2021-11-08T21:57:49Z</time>
      </trkpt>
      <trkpt lat="39.79340690222224" lon="116.47995250387432">
        <ele>62.17936388301066</ele>
        <time>2021-11-08T21:57:51Z</time>
      </trkpt>
      <trkpt lat="39.793429063590516" lon="116.48000870944064">
        <ele>62.17936388301066</ele>
        <time>2021-11-08T21:57:53Z</time>
      </trkpt>
      <trkpt lat="39.79345621874546" lon="116.48006290698557">
        <ele>62.34260694884446</ele>
        <time>2021-11-08T21:57:55Z</time>
      </trkpt>
      <trkpt lat="39.793487356103185" lon="116.48011108174335">
        <ele>62.34260694884446</ele>
        <time>2021-11-08T21:57:57Z</time>
      </trkpt>
      <trkpt lat="39.793521496153105" lon="116.48016025988065">
        <ele>62.34260694884446</ele>
        <time>2021-11-08T21:57:59Z</time>
      </trkpt>
      <trkpt lat="39.79355264523339" lon="116.48021244959045">
        <ele>62.34260694884446</ele>
        <time>2021-11-08T21:58:01Z</time>
      </trkpt>
      <trkpt lat="39.793573824359434" lon="116.48027467781301">
        <ele>62.34260694884446</ele>
        <time>2021-11-08T21:58:03Z</time>
      </trkpt>
      <trkpt lat="39.79359201253577" lon="116.48033991763137">
        <ele>62.23512985968537</ele>
        <time>2021-11-08T21:58:05Z</time>
      </trkpt>
      <trkpt lat="39.79361020659836" lon="116.4804071649547">
        <ele>62.23512985968537</ele>
        <time>2021-11-08T21:58:07Z</time>
      </trkpt>
      <trkpt lat="39.793634382689184" lon="116.4804683892338">
        <ele>62.36846245200945</ele>
        <time>2021-11-08T21:58:09Z</time>
      </trkpt>
      <trkpt lat="39.793660541130635" lon="116.48052359095156">
        <ele>62.36846245200945</ele>
        <time>2021-11-08T21:58:11Z</time>
      </trkpt>
      <trkpt lat="39.79368569092602" lon="116.48057578165003">
        <ele>62.36846245200945</ele>
        <time>2021-11-08T21:58:13Z</time>
      </trkpt>
      <trkpt lat="39.79370683816433" lon="116.4806269691519">
        <ele>62.69799900319335</ele>
        <time>2021-11-08T21:58:15Z</time>
      </trkpt>
      <trkpt lat="39.793726982592815" lon="116.48067715308224">
        <ele>62.69799900319335</ele>
        <time>2021-11-08T21:58:17Z</time>
      </trkpt>
      <trkpt lat="39.79375011218407" lon="116.4807223180251">
        <ele>63.0067588742848</ele>
        <time>2021-11-08T21:58:19Z</time>
      </trkpt>
      <trkpt lat="39.79377823553329" lon="116.48076547491254">
        <ele>63.0067588742848</ele>
        <time>2021-11-08T21:58:21Z</time>
      </trkpt>
      <trkpt lat="39.79380836458338" lon="116.48081063903514">
        <ele>63.0067588742848</ele>
        <time>2021-11-08T21:58:23Z</time>
      </trkpt>
      <trkpt lat="39.79383551437645" lon="116.48086282967202">
        <ele>62.88051604620908</ele>
        <time>2021-11-08T21:58:25Z</time>
      </trkpt>
      <trkpt lat="39.793862678823615" lon="116.4809200390005">
        <ele>62.88051604620908</ele>
        <time>2021-11-08T21:58:27Z</time>
      </trkpt>
      <trkpt lat="39.79389484288853" lon="116.48097724774772">
        <ele>62.76948446357792</ele>
        <time>2021-11-08T21:58:29Z</time>
      </trkpt>
      <trkpt lat="39.79393000673831" lon="116.48103445616209">
        <ele>62.76948446357792</ele>
        <time>2021-11-08T21:58:31Z</time>
      </trkpt>
      <trkpt lat="39.793966173466686" lon="116.48109266822567">
        <ele>62.76948446357792</ele>
        <time>2021-11-08T21:58:33Z</time>
      </trkpt>
      <trkpt lat="39.794000343325806" lon="116.48115188431314">
        <ele>63.067092333124215</ele>
        <time>2021-11-08T21:58:35Z</time>
      </trkpt>
      <trkpt lat="39.79403151932876" lon="116.48121310828579">
        <ele>63.067092333124215</ele>
        <time>2021-11-08T21:58:37Z</time>
      </trkpt>
      <trkpt lat="39.79406270122876" lon="116.48127633977508">
        <ele>62.902316907089684</ele>
        <time>2021-11-08T21:58:39Z</time>
      </trkpt>
      <trkpt lat="39.79409188040836" lon="116.48133856782361">
        <ele>62.902316907089684</ele>
        <time>2021-11-08T21:58:41Z</time>
      </trkpt>
      <trkpt lat="39.79412305067178" lon="116.48139778445719">
        <ele>62.902316907089684</ele>
        <time>2021-11-08T21:58:43Z</time>
      </trkpt>
      <trkpt lat="39.794155206235764" lon="116.48145198231751">
        <ele>62.81511373767189</ele>
        <time>2021-11-08T21:58:45Z</time>
      </trkpt>
      <trkpt lat="39.794185359066105" lon="116.48150517672201">
        <ele>62.81511373767189</ele>
        <time>2021-11-08T21:58:47Z</time>
      </trkpt>
      <trkpt lat="39.794214517872426" lon="116.48156037876221">
        <ele>62.90941487165048</ele>
        <time>2021-11-08T21:58:49Z</time>
      </trkpt>
      <trkpt lat="39.79424168860571" lon="116.48161959604593">
        <ele>62.90941487165048</ele>
        <time>2021-11-08T21:58:51Z</time>
      </trkpt>
      <trkpt lat="39.79426885937489" lon="116.48167881337002">
        <ele>62.90941487165048</ele>
        <time>2021-11-08T21:58:53Z</time>
      </trkpt>
      <trkpt lat="39.794298027079755" lon="116.4817370267445">
        <ele>62.83133752780034</ele>
        <time>2021-11-08T21:58:55Z</time>
      </trkpt>
      <trkpt lat="39.79432718895107" lon="116.48179323267367">
        <ele>62.83133752780034</ele>
        <time>2021-11-08T21:58:57Z</time>
      </trkpt>
      <trkpt lat="39.794358347753295" lon="116.48184843464766">
        <ele>62.60522073386591</ele>
        <time>2021-11-08T21:58:59Z</time>
      </trkpt>
      <trkpt lat="39.79439049769787" lon="116.48190062530226">
        <ele>62.60522073386591</ele>
        <time>2021-11-08T21:59:01Z</time>
      </trkpt>
      <trkpt lat="39.79442365639345" lon="116.48195582709457">
        <ele>62.60522073386591</ele>
        <time>2021-11-08T21:59:03Z</time>
      </trkpt>
      <trkpt lat="39.79445482703076" lon="116.48201504414702">
        <ele>62.92158282216807</ele>
        <time>2021-11-08T21:59:05Z</time>
      </trkpt>
      <trkpt lat="39.79448400667975" lon="116.4820772727222">
        <ele>62.92158282216807</ele>
        <time>2021-11-08T21:59:07Z</time>
      </trkpt>
      <trkpt lat="39.794512174700635" lon="116.48213548648111">
        <ele>62.85719424561098</ele>
        <time>2021-11-08T21:59:09Z</time>
      </trkpt>
      <trkpt lat="39.79453933696218" lon="116.4821916929086">
        <ele>62.85719424561098</ele>
        <time>2021-11-08T21:59:11Z</time>
      </trkpt>
      <trkpt lat="39.79456449648256" lon="116.48224689587195">
        <ele>62.85719424561098</ele>
        <time>2021-11-08T21:59:13Z</time>
      </trkpt>
      <trkpt lat="39.794587659137875" lon="116.48230310286439">
        <ele>63.06962736006424</ele>
        <time>2021-11-08T21:59:15Z</time>
      </trkpt>
      <trkpt lat="39.79460882199004" lon="116.4823593101393">
        <ele>63.06962736006424</ele>
        <time>2021-11-08T21:59:17Z</time>
      </trkpt>
      <trkpt lat="39.7946309847894" lon="116.48241551732393">
        <ele>63.07875346215303</ele>
        <time>2021-11-08T21:59:19Z</time>
      </trkpt>
      <trkpt lat="39.794651147785245" lon="116.48247172479064">
        <ele>63.07875346215303</ele>
        <time>2021-11-08T21:59:21Z</time>
      </trkpt>
      <trkpt lat="39.79467231072801" lon="116.4825279321667">
        <ele>63.07875346215303</ele>
        <time>2021-11-08T21:59:23Z</time>
      </trkpt>
      <trkpt lat="39.79469546765119" lon="116.48258213182659">
        <ele>63.1147509429241</ele>
        <time>2021-11-08T21:59:25Z</time>
      </trkpt>
      <trkpt lat="39.79471962157689" lon="116.482635327642">
        <ele>63.1147509429241</ele>
        <time>2021-11-08T21:59:27Z</time>
      </trkpt>
      <trkpt lat="39.79474377847187" lon="116.4826895272387">
        <ele>63.142636400969074</ele>
        <time>2021-11-08T21:59:29Z</time>
      </trkpt>
      <trkpt lat="39.79476894119761" lon="116.48274573424632">
        <ele>63.142636400969074</ele>
        <time>2021-11-08T21:59:31Z</time>
      </trkpt>
      <trkpt lat="39.794796109674095" lon="116.48280394854402">
        <ele>63.142636400969074</ele>
        <time>2021-11-08T21:59:33Z</time>
      </trkpt>
      <trkpt lat="39.79483027171235" lon="116.48286015450046">
        <ele>63.14212939197155</ele>
        <time>2021-11-08T21:59:35Z</time>
      </trkpt>
      <trkpt lat="39.79486542486287" lon="116.48291334910299">
        <ele>63.14212939197155</ele>
        <time>2021-11-08T21:59:37Z</time>
      </trkpt>
      <trkpt lat="39.79490156617609" lon="116.48296252859205">
        <ele>63.081288491937755</ele>
        <time>2021-11-08T21:59:39Z</time>
      </trkpt>
      <trkpt lat="39.7949356958955" lon="116.483007693334">
        <ele>63.081288491937755</ele>
        <time>2021-11-08T21:59:41Z</time>
      </trkpt>
      <trkpt lat="39.794968831608806" lon="116.48305486573156">
        <ele>63.081288491937755</ele>
        <time>2021-11-08T21:59:43Z</time>
      </trkpt>
      <trkpt lat="39.79499997045495" lon="116.48310304215566">
        <ele>63.175085028054255</ele>
        <time>2021-11-08T21:59:45Z</time>
      </trkpt>
      <trkpt lat="39.79502813019929" lon="116.48315824527045">
        <ele>63.175085028054255</ele>
        <time>2021-11-08T21:59:47Z</time>
      </trkpt>
      <trkpt lat="39.79504931118358" lon="116.48322047558379">
        <ele>63.175085028054255</ele>
        <time>2021-11-08T21:59:49Z</time>
      </trkpt>
      <trkpt lat="39.79506052546015" lon="116.48329374851188">
        <ele>63.26736136446784</ele>
        <time>2021-11-08T21:59:51Z</time>
      </trkpt>
      <trkpt lat="39.79506176125454" lon="116.48337404904342">
        <ele>63.26736136446784</ele>
        <time>2021-11-08T21:59:53Z</time>
      </trkpt>
      <trkpt lat="39.79505400080086" lon="116.4834553545136">
        <ele>63.227307249780964</ele>
        <time>2021-11-08T21:59:55Z</time>
      </trkpt>
      <trkpt lat="39.795039235084396" lon="116.48353465339542">
        <ele>63.227307249780964</ele>
        <time>2021-11-08T21:59:57Z</time>
      </trkpt>
      <trkpt lat="39.795023463603194" lon="116.48361194493901">
        <ele>63.227307249780964</ele>
        <time>2021-11-08T21:59:59Z</time>
      </trkpt>
      <trkpt lat="39.79501268290375" lon="116.48368622463323">
        <ele>63.36369467682021</ele>
        <time>2021-11-08T22:00:01Z</time>
      </trkpt>
      <trkpt lat="39.79500889576619" lon="116.48375849598543">
        <ele>63.36369467682021</ele>
        <time>2021-11-08T22:00:03Z</time>
      </trkpt>
      <trkpt lat="39.79500810251824" lon="116.48382875948768">
        <ele>63.259249126258524</ele>
        <time>2021-11-08T22:00:05Z</time>
      </trkpt>
      <trkpt lat="39.795004309560326" lon="116.48389902340746">
        <ele>63.259249126258524</ele>
        <time>2021-11-08T22:00:07Z</time>
      </trkpt>
      <trkpt lat="39.79499552296585" lon="116.48397129552085">
        <ele>63.259249126258524</ele>
        <time>2021-11-08T22:00:09Z</time>
      </trkpt>
      <trkpt lat="39.794985745360876" lon="116.48404657909978">
        <ele>63.088893584983126</ele>
        <time>2021-11-08T22:00:11Z</time>
      </trkpt>
      <trkpt lat="39.79497897641879" lon="116.48412487365351">
        <ele>63.088893584983126</ele>
        <time>2021-11-08T22:00:13Z</time>
      </trkpt>
      <trkpt lat="39.79497321926667" lon="116.48420718320227">
        <ele>63.31704896155255</ele>
        <time>2021-11-08T22:00:15Z</time>
      </trkpt>
      <trkpt lat="39.79496745921255" lon="116.48428848904334">
        <ele>63.31704896155255</ele>
        <time>2021-11-08T22:00:17Z</time>
      </trkpt>
      <trkpt lat="39.794960693379885" lon="116.48436778753039">
        <ele>63.31704896155255</ele>
        <time>2021-11-08T22:00:19Z</time>
      </trkpt>
      <trkpt lat="39.79495391872379" lon="116.48444407476637">
        <ele>63.1745780174769</ele>
        <time>2021-11-08T22:00:21Z</time>
      </trkpt>
      <trkpt lat="39.794946141238064" lon="116.48451935840691">
        <ele>63.1745780174769</ele>
        <time>2021-11-08T22:00:23Z</time>
      </trkpt>
      <trkpt lat="39.79493635508583" lon="116.48459163103456">
        <ele>62.986985800030624</ele>
        <time>2021-11-08T22:00:25Z</time>
      </trkpt>
      <trkpt lat="39.79492456026174" lon="116.48466089264339">
        <ele>62.986985800030624</ele>
        <time>2021-11-08T22:00:27Z</time>
      </trkpt>
      <trkpt lat="39.79491376835147" lon="116.4847311579385">
        <ele>62.986985800030624</ele>
        <time>2021-11-08T22:00:29Z</time>
      </trkpt>
      <trkpt lat="39.79490398231679" lon="116.4848034306926">
        <ele>63.13351024283781</ele>
        <time>2021-11-08T22:00:31Z</time>
      </trkpt>
      <trkpt lat="39.79489519919966" lon="116.4848767071369">
        <ele>63.13351024283781</ele>
        <time>2021-11-08T22:00:33Z</time>
      </trkpt>
      <trkpt lat="39.794888418918376" lon="116.48495098714878">
        <ele>62.86175720248512</ele>
        <time>2021-11-08T22:00:35Z</time>
      </trkpt>
      <trkpt lat="39.79488264155728" lon="116.48502627085362">
        <ele>62.86175720248512</ele>
        <time>2021-11-08T22:00:37Z</time>
      </trkpt>
      <trkpt lat="39.79487686423799" lon="116.48510155460318">
        <ele>62.86175720248512</ele>
        <time>2021-11-08T22:00:39Z</time>
      </trkpt>
      <trkpt lat="39.794865072642054" lon="116.48517182026983">
        <ele>62.95656575918233</ele>
        <time>2021-11-08T22:00:41Z</time>
      </trkpt>
      <trkpt lat="39.79484625795357" lon="116.48523405664479">
        <ele>62.95656575918233</ele>
        <time>2021-11-08T22:00:43Z</time>
      </trkpt>
      <trkpt lat="39.79482342584074" lon="116.48529027089438">
        <ele>62.87443209318616</ele>
        <time>2021-11-08T22:00:45Z</time>
      </trkpt>
      <trkpt lat="39.79480458748962" lon="116.48534447712062">
        <ele>62.87443209318616</ele>
        <time>2021-11-08T22:00:47Z</time>
      </trkpt>
      <trkpt lat="39.79478776085295" lon="116.48540269822486">
        <ele>62.87443209318616</ele>
        <time>2021-11-08T22:00:49Z</time>
      </trkpt>
      <trkpt lat="39.79476994321938" lon="116.4854639308078">
        <ele>62.98647879862224</ele>
        <time>2021-11-08T22:00:51Z</time>
      </trkpt>
      <trkpt lat="39.79475313146071" lon="116.48552717084831">
        <ele>62.98647879862224</ele>
        <time>2021-11-08T22:00:53Z</time>
      </trkpt>
      <trkpt lat="39.79473933134564" lon="116.48559442565576">
        <ele>62.92969479708555</ele>
        <time>2021-11-08T22:00:55Z</time>
      </trkpt>
      <trkpt lat="39.794727534062424" lon="116.48566268402601">
        <ele>62.92969479708555</ele>
        <time>2021-11-08T22:00:57Z</time>
      </trkpt>
      <trkpt lat="39.79471973054451" lon="116.48572893437695">
        <ele>62.92969479708555</ele>
        <time>2021-11-08T22:00:59Z</time>
      </trkpt>
      <trkpt lat="39.79471591782125" lon="116.48579217292661">
        <ele>62.98242278823121</ele>
        <time>2021-11-08T22:01:01Z</time>
      </trkpt>
      <trkpt lat="39.79471410792681" lon="116.48585641503585">
        <ele>62.98242278823121</ele>
        <time>2021-11-08T22:01:03Z</time>
      </trkpt>
      <trkpt lat="39.79470729847553" lon="116.48592065779407">
        <ele>62.873925097260454</ele>
        <time>2021-11-08T22:01:05Z</time>
      </trkpt>
      <trkpt lat="39.79469248971661" lon="116.48598490157283">
        <ele>62.873925097260454</ele>
        <time>2021-11-08T22:01:07Z</time>
      </trkpt>
      <trkpt lat="39.79467368725612" lon="116.48605115343717">
        <ele>62.873925097260454</ele>
        <time>2021-11-08T22:01:09Z</time>
      </trkpt>
      <trkpt lat="39.79465989628788" lon="116.4861214198358">
        <ele>63.04529112694777</ele>
        <time>2021-11-08T22:01:11Z</time>
      </trkpt>
      <trkpt lat="39.794649114013026" lon="116.48619469724049">
        <ele>63.04529112694777</ele>
        <time>2021-11-08T22:01:13Z</time>
      </trkpt>
      <trkpt lat="39.79464233144013" lon="116.48626797418493">
        <ele>62.71168767035115</ele>
        <time>2021-11-08T22:01:15Z</time>
      </trkpt>
      <trkpt lat="39.794633546096534" lon="116.48634024763001">
        <ele>62.71168767035115</ele>
        <time>2021-11-08T22:01:17Z</time>
      </trkpt>
      <trkpt lat="39.794622749065724" lon="116.48640850622476">
        <ele>62.71168767035115</ele>
        <time>2021-11-08T22:01:19Z</time>
      </trkpt>
      <trkpt lat="39.794604949674195" lon="116.48647576193372">
        <ele>62.817648703209805</ele>
        <time>2021-11-08T22:01:21Z</time>
      </trkpt>
      <trkpt lat="39.79458514453231" lon="116.48654101035149">
        <ele>62.817648703209805</ele>
        <time>2021-11-08T22:01:23Z</time>
      </trkpt>
      <trkpt lat="39.79456033388705" lon="116.48660425184713">
        <ele>62.91752683707909</ele>
        <time>2021-11-08T22:01:25Z</time>
      </trkpt>
      <trkpt lat="39.79453552326646" lon="116.48666749336749">
        <ele>62.91752683707909</ele>
        <time>2021-11-08T22:01:27Z</time>
      </trkpt>
      <trkpt lat="39.79451370944712" lon="116.48672973075541">
        <ele>62.91752683707909</ele>
        <time>2021-11-08T22:01:29Z</time>
      </trkpt>
      <trkpt lat="39.794497910021704" lon="116.48679698635026">
        <ele>63.20246363588297</ele>
        <time>2021-11-08T22:01:31Z</time>
      </trkpt>
      <trkpt lat="39.794485113347925" lon="116.48686524538624">
        <ele>63.20246363588297</ele>
        <time>2021-11-08T22:01:33Z</time>
      </trkpt>
      <trkpt lat="39.79447631934345" lon="116.48693450774034">
        <ele>63.01284290469033</ele>
        <time>2021-11-08T22:01:35Z</time>
      </trkpt>
      <trkpt lat="39.79447252495074" lon="116.48700376950286">
        <ele>63.01284290469033</ele>
        <time>2021-11-08T22:01:37Z</time>
      </trkpt>
      <trkpt lat="39.79447172736038" lon="116.48707202713433">
        <ele>63.01284290469033</ele>
        <time>2021-11-08T22:01:39Z</time>
      </trkpt>
      <trkpt lat="39.79446893591501" lon="116.48714229261525">
        <ele>63.22477218441786</ele>
        <time>2021-11-08T22:01:41Z</time>
      </trkpt>
      <trkpt lat="39.794460144996975" lon="116.48721255886764">
        <ele>63.22477218441786</ele>
        <time>2021-11-08T22:01:43Z</time>
      </trkpt>
      <trkpt lat="39.794447354439555" lon="116.48728282564322">
        <ele>63.07976747399605</ele>
        <time>2021-11-08T22:01:45Z</time>
      </trkpt>
      <trkpt lat="39.794436560765874" lon="116.4873520884094">
        <ele>63.07976747399605</ele>
        <time>2021-11-08T22:01:47Z</time>
      </trkpt>
      <trkpt lat="39.794428766868734" lon="116.4874213508298">
        <ele>63.07976747399605</ele>
        <time>2021-11-08T22:01:49Z</time>
      </trkpt>
      <trkpt lat="39.79441997010298" lon="116.48748960961038">
        <ele>63.094977663423656</ele>
        <time>2021-11-08T22:01:51Z</time>
      </trkpt>
      <trkpt lat="39.79441016748899" lon="116.48755586095999">
        <ele>63.094977663423656</ele>
        <time>2021-11-08T22:01:53Z</time>
      </trkpt>
      <trkpt lat="39.79439735621237" lon="116.48761910133392">
        <ele>63.094977663423656</ele>
        <time>2021-11-08T22:01:55Z</time>
      </trkpt>
      <trkpt lat="39.79438553891574" lon="116.48768033402372">
        <ele>63.07672543877706</ele>
        <time>2021-11-08T22:01:57Z</time>
      </trkpt>
      <trkpt lat="39.79437771832632" lon="116.48774056244625">
        <ele>63.07672543877706</ele>
        <time>2021-11-08T22:01:59Z</time>
      </trkpt>
      <trkpt lat="39.794377894109786" lon="116.48779978610477">
        <ele>62.87747406925221</ele>
        <time>2021-11-08T22:02:01Z</time>
      </trkpt>
      <trkpt lat="39.79438306651491" lon="116.48785800536997">
        <ele>62.87747406925221</ele>
        <time>2021-11-08T22:02:03Z</time>
      </trkpt>
      <trkpt lat="39.79438724796088" lon="116.48791923615032">
        <ele>62.87747406925221</ele>
        <time>2021-11-08T22:02:05Z</time>
      </trkpt>
      <trkpt lat="39.79438944151402" lon="116.48798448236406">
        <ele>62.95149576102485</ele>
        <time>2021-11-08T22:02:07Z</time>
      </trkpt>
      <trkpt lat="39.794386641466254" lon="116.48805173680184">
        <ele>62.95149576102485</ele>
        <time>2021-11-08T22:02:09Z</time>
      </trkpt>
      <trkpt lat="39.794381847569504" lon="116.48812099909358">
        <ele>62.80193192682332</ele>
        <time>2021-11-08T22:02:11Z</time>
      </trkpt>
      <trkpt lat="39.79437405394587" lon="116.48819026177907">
        <ele>62.80193192682332</ele>
        <time>2021-11-08T22:02:13Z</time>
      </trkpt>
      <trkpt lat="39.79436228453301" lon="116.48826755532707">
        <ele>62.80193192682332</ele>
        <time>2021-11-08T22:02:15Z</time>
      </trkpt>
      <trkpt lat="39.79435051216624" lon="116.4883438451081">
        <ele>62.74819087082298</ele>
        <time>2021-11-08T22:02:18Z</time>
      </trkpt>
      <trkpt lat="39.79434173062911" lon="116.4884171231614">
        <ele>62.74819087082298</ele>
        <time>2021-11-08T22:02:20Z</time>
      </trkpt>
      <trkpt lat="39.79433591605542" lon="116.48847935913074">
        <ele>62.81257877274919</ele>
        <time>2021-11-08T22:02:22Z</time>
      </trkpt>
      <trkpt lat="39.79432910754891" lon="116.48854360282904">
        <ele>62.81257877274919</ele>
        <time>2021-11-08T22:02:24Z</time>
      </trkpt>
      <trkpt lat="39.79431929632755" lon="116.48860684312142">
        <ele>62.712701646414</ele>
        <time>2021-11-08T22:02:26Z</time>
      </trkpt>
      <trkpt lat="39.79430449150804" lon="116.48867209163916">
        <ele>62.712701646414</ele>
        <time>2021-11-08T22:02:28Z</time>
      </trkpt>
      <trkpt lat="39.79428667800544" lon="116.48873432916001">
        <ele>62.712701646414</ele>
        <time>2021-11-08T22:02:30Z</time>
      </trkpt>
      <trkpt lat="39.79426787355591" lon="116.48879957820614">
        <ele>62.85415227547547</ele>
        <time>2021-11-08T22:02:32Z</time>
      </trkpt>
      <trkpt lat="39.79425206589022" lon="116.48886382310155">
        <ele>62.85415227547547</ele>
        <time>2021-11-08T22:02:34Z</time>
      </trkpt>
      <trkpt lat="39.79424126379493" lon="116.48893007498526">
        <ele>62.916512841059074</ele>
        <time>2021-11-08T22:02:36Z</time>
      </trkpt>
      <trkpt lat="39.79423646121785" lon="116.4889963261424">
        <ele>62.916512841059074</ele>
        <time>2021-11-08T22:02:38Z</time>
      </trkpt>
      <trkpt lat="39.79423466139415" lon="116.4890635807406">
        <ele>62.916512841059074</ele>
        <time>2021-11-08T22:02:40Z</time>
      </trkpt>
      <trkpt lat="39.7942308617556" lon="116.48913083560278">
        <ele>62.93425778575828</ele>
        <time>2021-11-08T22:02:42Z</time>
      </trkpt>
      <trkpt lat="39.794226056246806" lon="116.48919608301101">
        <ele>62.93425778575828</ele>
        <time>2021-11-08T22:02:44Z</time>
      </trkpt>
      <trkpt lat="39.79421925092164" lon="116.48926133068164">
        <ele>62.69191515690557</ele>
        <time>2021-11-08T22:02:46Z</time>
      </trkpt>
      <trkpt lat="39.79421543341744" lon="116.48932256280602">
        <ele>62.69191515690557</ele>
        <time>2021-11-08T22:02:48Z</time>
      </trkpt>
      <trkpt lat="39.79421461866419" lon="116.48938479836899">
        <ele>62.69191515690557</ele>
        <time>2021-11-08T22:02:50Z</time>
      </trkpt>
      <trkpt lat="39.79420980127235" lon="116.48944603064211">
        <ele>62.622458163945105</ele>
        <time>2021-11-08T22:02:52Z</time>
      </trkpt>
      <trkpt lat="39.79419999924703" lon="116.4895122825358">
        <ele>62.622458163945105</ele>
        <time>2021-11-08T22:02:54Z</time>
      </trkpt>
      <trkpt lat="39.794188191430095" lon="116.48957652709454">
        <ele>62.75224678989337</ele>
        <time>2021-11-08T22:02:56Z</time>
      </trkpt>
      <trkpt lat="39.794180374331994" lon="116.48963775977576">
        <ele>62.75224678989337</ele>
        <time>2021-11-08T22:02:58Z</time>
      </trkpt>
      <trkpt lat="39.79417354222513" lon="116.48969397335199">
        <ele>62.75224678989337</ele>
        <time>2021-11-08T22:03:00Z</time>
      </trkpt>
      <trkpt lat="39.794165713200904" lon="116.4897511908599">
        <ele>62.67062172291221</ele>
        <time>2021-11-08T22:03:02Z</time>
      </trkpt>
      <trkpt lat="39.794158893069316" lon="116.48981141964981">
        <ele>62.67062172291221</ele>
        <time>2021-11-08T22:03:04Z</time>
      </trkpt>
      <trkpt lat="39.79415207892706" lon="116.48987365604788">
        <ele>62.537792237623016</ele>
        <time>2021-11-08T22:03:06Z</time>
      </trkpt>
      <trkpt lat="39.79414427982453" lon="116.48994091157611">
        <ele>62.537792237623016</ele>
        <time>2021-11-08T22:03:08Z</time>
      </trkpt>
      <trkpt lat="39.794136492692594" lon="116.49001218231382">
        <ele>62.537792237623016</ele>
        <time>2021-11-08T22:03:10Z</time>
      </trkpt>
      <trkpt lat="39.79412670873336" lon="116.49008445711176">
        <ele>62.43538287623442</ele>
        <time>2021-11-08T22:03:12Z</time>
      </trkpt>
      <trkpt lat="39.7941159129172" lon="116.49015271684773">
        <ele>62.43538287623442</ele>
        <time>2021-11-08T22:03:14Z</time>
      </trkpt>
      <trkpt lat="39.794102096439566" lon="116.49021395036728">
        <ele>61.94717784789364</ele>
        <time>2021-11-08T22:03:16Z</time>
      </trkpt>
      <trkpt lat="39.79407920000401" lon="116.49024808241036">
        <ele>61.94717784789364</ele>
        <time>2021-11-08T22:03:18Z</time>
      </trkpt>
      <trkpt lat="39.79405328887416" lon="116.49027719582732">
        <ele>61.550242981589534</ele>
        <time>2021-11-08T22:03:28Z</time>
      </trkpt>
      <trkpt lat="39.79402940149879" lon="116.49031433939928">
        <ele>61.550242981589534</ele>
        <time>2021-11-08T22:03:30Z</time>
      </trkpt>
      <trkpt lat="39.794017599835435" lon="116.49038059169517">
        <ele>62.33905815930695</ele>
        <time>2021-11-08T22:03:32Z</time>
      </trkpt>
      <trkpt lat="39.79401082467992" lon="116.49045587758545">
        <ele>62.33905815930695</ele>
        <time>2021-11-08T22:03:34Z</time>
      </trkpt>
      <trkpt lat="39.79401105194705" lon="116.49053216642207">
        <ele>62.320807260805275</ele>
        <time>2021-11-08T22:03:36Z</time>
      </trkpt>
      <trkpt lat="39.79401327009182" lon="116.49060544362099">
        <ele>62.320807260805275</ele>
        <time>2021-11-08T22:03:38Z</time>
      </trkpt>
      <trkpt lat="39.794014518244076" lon="116.49068875896286">
        <ele>62.320807260805275</ele>
        <time>2021-11-08T22:03:40Z</time>
      </trkpt>
      <trkpt lat="39.79400976392511" lon="116.49077107125918">
        <ele>62.260478129717406</ele>
        <time>2021-11-08T22:03:43Z</time>
      </trkpt>
      <trkpt lat="39.79399999807633" lon="116.49084936898161">
        <ele>62.260478129717406</ele>
        <time>2021-11-08T22:03:45Z</time>
      </trkpt>
      <trkpt lat="39.79398519676279" lon="116.49091562171772">
        <ele>62.43234102943468</ele>
        <time>2021-11-08T22:03:47Z</time>
      </trkpt>
      <trkpt lat="39.79397039246888" lon="116.49098087065953">
        <ele>62.43234102943468</ele>
        <time>2021-11-08T22:03:49Z</time>
      </trkpt>
      <trkpt lat="39.79395359433642" lon="116.49104812745833">
        <ele>62.2209348554442</ele>
        <time>2021-11-08T22:03:51Z</time>
      </trkpt>
      <trkpt lat="39.79393779313962" lon="116.49111438033847">
        <ele>62.2209348554442</ele>
        <time>2021-11-08T22:03:53Z</time>
      </trkpt>
      <trkpt lat="39.793925991619275" lon="116.49118063272994">
        <ele>62.2209348554442</ele>
        <time>2021-11-08T22:03:55Z</time>
      </trkpt>
      <trkpt lat="39.793916195926776" lon="116.49124889248336">
        <ele>62.125626042840246</ele>
        <time>2021-11-08T22:03:57Z</time>
      </trkpt>
      <trkpt lat="39.793908406062776" lon="116.49131915959894">
        <ele>62.125626042840246</ele>
        <time>2021-11-08T22:03:59Z</time>
      </trkpt>
      <trkpt lat="39.79389961928593" lon="116.49139043064609">
        <ele>62.125626042840246</ele>
        <time>2021-11-08T22:04:01Z</time>
      </trkpt>
      <trkpt lat="39.79388783576354" lon="116.49146270587201">
        <ele>62.18392654259935</ele>
        <time>2021-11-08T22:04:03Z</time>
      </trkpt>
      <trkpt lat="39.79387305848876" lon="116.49153698907858">
        <ele>62.18392654259935</ele>
        <time>2021-11-08T22:04:05Z</time>
      </trkpt>
      <trkpt lat="39.7938582902046" lon="116.49161428369688">
        <ele>61.97201846437329</ele>
        <time>2021-11-08T22:04:07Z</time>
      </trkpt>
      <trkpt lat="39.793847521598025" lon="116.49169157782565">
        <ele>61.97201846437329</ele>
        <time>2021-11-08T22:04:09Z</time>
      </trkpt>
      <trkpt lat="39.79383974975879" lon="116.49176786778587">
        <ele>61.97201846437329</ele>
        <time>2021-11-08T22:04:11Z</time>
      </trkpt>
      <trkpt lat="39.793830975020384" lon="116.49184315407162">
        <ele>62.05414500637074</ele>
        <time>2021-11-08T22:04:13Z</time>
      </trkpt>
      <trkpt lat="39.79382019447202" lon="116.49191643300357">
        <ele>62.05414500637074</ele>
        <time>2021-11-08T22:04:15Z</time>
      </trkpt>
      <trkpt lat="39.79380941393297" lon="116.49198971193852">
        <ele>61.980636651301054</ele>
        <time>2021-11-08T22:04:17Z</time>
      </trkpt>
      <trkpt lat="39.793796633570146" lon="116.49206299112333">
        <ele>61.980636651301054</ele>
        <time>2021-11-08T22:04:19Z</time>
      </trkpt>
      <trkpt lat="39.79378084747882" lon="116.49213426307632">
        <ele>61.980636651301054</ele>
        <time>2021-11-08T22:04:21Z</time>
      </trkpt>
      <trkpt lat="39.793764061479116" lon="116.49220553515457">
        <ele>61.87721887938826</ele>
        <time>2021-11-08T22:04:23Z</time>
      </trkpt>
      <trkpt lat="39.79374926633717" lon="116.49227379557921">
        <ele>61.87721887938826</ele>
        <time>2021-11-08T22:04:25Z</time>
      </trkpt>
      <trkpt lat="39.79373547111837" lon="116.49234205588095">
        <ele>61.84933681290453</ele>
        <time>2021-11-08T22:04:27Z</time>
      </trkpt>
      <trkpt lat="39.793721705850224" lon="116.49242035420835">
        <ele>61.84933681290453</ele>
        <time>2021-11-08T22:04:29Z</time>
      </trkpt>
      <trkpt lat="39.79370694366838" lon="116.49249965646197">
        <ele>61.89901763796008</ele>
        <time>2021-11-08T22:04:32Z</time>
      </trkpt>
      <trkpt lat="39.793692181494485" lon="116.49257895871516">
        <ele>61.89901763796008</ele>
        <time>2021-11-08T22:04:34Z</time>
      </trkpt>
      <trkpt lat="39.79368138305698" lon="116.49264621484288">
        <ele>61.89901763796008</ele>
        <time>2021-11-08T22:04:36Z</time>
      </trkpt>
      <trkpt lat="39.79367158753572" lon="116.49271447464842">
        <ele>61.659740742446864</ele>
        <time>2021-11-08T22:04:38Z</time>
      </trkpt>
      <trkpt lat="39.793661795014316" lon="116.49278373825506">
        <ele>61.659740742446864</ele>
        <time>2021-11-08T22:04:40Z</time>
      </trkpt>
      <trkpt lat="39.793654011315176" lon="116.49285601301995">
        <ele>61.60144318002298</ele>
        <time>2021-11-08T22:04:42Z</time>
      </trkpt>
      <trkpt lat="39.793650215306364" lon="116.49292427207848">
        <ele>61.60144318002298</ele>
        <time>2021-11-08T22:04:44Z</time>
      </trkpt>
      <trkpt lat="39.7936484161393" lon="116.49299152708504">
        <ele>61.60144318002298</ele>
        <time>2021-11-08T22:04:46Z</time>
      </trkpt>
      <trkpt lat="39.79364760790707" lon="116.49305577055843">
        <ele>61.47268276491064</ele>
        <time>2021-11-08T22:04:48Z</time>
      </trkpt>
      <trkpt lat="39.793639809249335" lon="116.49312302630118">
        <ele>61.47268276491064</ele>
        <time>2021-11-08T22:04:50Z</time>
      </trkpt>
      <trkpt lat="39.793625005190464" lon="116.49318827530142">
        <ele>61.56899946068243</ele>
        <time>2021-11-08T22:04:52Z</time>
      </trkpt>
      <trkpt lat="39.79360819531155" lon="116.49325151694106">
        <ele>61.56899946068243</ele>
        <time>2021-11-08T22:04:54Z</time>
      </trkpt>
      <trkpt lat="39.79359038252373" lon="116.49331375489864">
        <ele>61.56899946068243</ele>
        <time>2021-11-08T22:04:56Z</time>
      </trkpt>
      <trkpt lat="39.79357356965458" lon="116.49337599272893">
        <ele>61.60195011394121</ele>
        <time>2021-11-08T22:04:58Z</time>
      </trkpt>
      <trkpt lat="39.79355675978294" lon="116.49343923435727">
        <ele>61.60195011394121</ele>
        <time>2021-11-08T22:05:00Z</time>
      </trkpt>
      <trkpt lat="39.79353996189476" lon="116.49350649118895">
        <ele>61.58623517398783</ele>
        <time>2021-11-08T22:05:02Z</time>
      </trkpt>
      <trkpt lat="39.793521167171505" lon="116.49357475206439">
        <ele>61.58623517398783</ele>
        <time>2021-11-08T22:05:04Z</time>
      </trkpt>
      <trkpt lat="39.79349937869223" lon="116.49364502090833">
        <ele>61.58623517398783</ele>
        <time>2021-11-08T22:05:06Z</time>
      </trkpt>
      <trkpt lat="39.79347559038227" lon="116.49371528999293">
        <ele>61.53858356568759</ele>
        <time>2021-11-08T22:05:08Z</time>
      </trkpt>
      <trkpt lat="39.79345580473407" lon="116.49378656237798">
        <ele>61.53858356568759</ele>
        <time>2021-11-08T22:05:10Z</time>
      </trkpt>
      <trkpt lat="39.79344002174726" lon="116.49385883806279">
        <ele>61.66582398517194</ele>
        <time>2021-11-08T22:05:12Z</time>
      </trkpt>
      <trkpt lat="39.79342923834217" lon="116.49393111312182">
        <ele>61.66582398517194</ele>
        <time>2021-11-08T22:05:14Z</time>
      </trkpt>
      <trkpt lat="39.793421463672445" lon="116.49400639920547">
        <ele>61.66582398517194</ele>
        <time>2021-11-08T22:05:16Z</time>
      </trkpt>
      <trkpt lat="39.7934156828442" lon="116.49407967743036">
        <ele>61.57761731376696</ele>
        <time>2021-11-08T22:05:18Z</time>
      </trkpt>
      <trkpt lat="39.79340589935548" lon="116.49415195233912">
        <ele>61.57761731376696</ele>
        <time>2021-11-08T22:05:20Z</time>
      </trkpt>
      <trkpt lat="39.79339411004295" lon="116.49422221988375">
        <ele>61.70840678385608</ele>
        <time>2021-11-08T22:05:22Z</time>
      </trkpt>
      <trkpt lat="39.79338332364122" lon="116.49429349109612">
        <ele>61.70840678385608</ele>
        <time>2021-11-08T22:05:24Z</time>
      </trkpt>
      <trkpt lat="39.79337354614076" lon="116.49436777357644">
        <ele>61.70840678385608</ele>
        <time>2021-11-08T22:05:26Z</time>
      </trkpt>
      <trkpt lat="39.79336376863871" lon="116.49444205604539">
        <ele>61.713476176260734</ele>
        <time>2021-11-08T22:05:28Z</time>
      </trkpt>
      <trkpt lat="39.79335097940486" lon="116.49451232367224">
        <ele>61.713476176260734</ele>
        <time>2021-11-08T22:05:30Z</time>
      </trkpt>
      <trkpt lat="39.79333917810388" lon="116.49457857596433">
        <ele>61.83159371859122</ele>
        <time>2021-11-08T22:05:32Z</time>
      </trkpt>
      <trkpt lat="39.79332638587065" lon="116.49464783976961">
        <ele>61.83159371859122</ele>
        <time>2021-11-08T22:05:34Z</time>
      </trkpt>
      <trkpt lat="39.79331259671411" lon="116.49471810748682">
        <ele>61.83159371859122</ele>
        <time>2021-11-08T22:05:36Z</time>
      </trkpt>
      <trkpt lat="39.7932998074709" lon="116.49478837506844">
        <ele>61.73882317533889</ele>
        <time>2021-11-08T22:05:38Z</time>
      </trkpt>
      <trkpt lat="39.79328901805684" lon="116.49485864239061">
        <ele>61.73882317533889</ele>
        <time>2021-11-08T22:05:40Z</time>
      </trkpt>
      <trkpt lat="39.79328224028427" lon="116.49493292440276">
        <ele>61.86048963052788</ele>
        <time>2021-11-08T22:05:42Z</time>
      </trkpt>
      <trkpt lat="39.79327446858151" lon="116.49500921412171">
        <ele>61.86048963052788</ele>
        <time>2021-11-08T22:05:44Z</time>
      </trkpt>
      <trkpt lat="39.79326668189904" lon="116.4950804848308">
        <ele>61.86048963052788</ele>
        <time>2021-11-08T22:05:46Z</time>
      </trkpt>
      <trkpt lat="39.793256886395156" lon="116.49514874437676">
        <ele>61.89344120699866</ele>
        <time>2021-11-08T22:05:48Z</time>
      </trkpt>
      <trkpt lat="39.79325009063521" lon="116.49521700353876">
        <ele>61.89344120699866</ele>
        <time>2021-11-08T22:05:50Z</time>
      </trkpt>
      <trkpt lat="39.79324230094413" lon="116.49528727040679">
        <ele>62.041978070351334</ele>
        <time>2021-11-08T22:05:52Z</time>
      </trkpt>
      <trkpt lat="39.79323451124789" lon="116.49535753725979">
        <ele>62.041978070351334</ele>
        <time>2021-11-08T22:05:54Z</time>
      </trkpt>
      <trkpt lat="39.79322371580868" lon="116.49542579687235">
        <ele>62.041978070351334</ele>
        <time>2021-11-08T22:05:56Z</time>
      </trkpt>
      <trkpt lat="39.7932119264371" lon="116.49549606418854">
        <ele>61.8969898445369</ele>
        <time>2021-11-08T22:05:58Z</time>
      </trkpt>
      <trkpt lat="39.793199137143496" lon="116.49556633161207">
        <ele>61.8969898445369</ele>
        <time>2021-11-08T22:06:00Z</time>
      </trkpt>
      <trkpt lat="39.79318435100587" lon="116.49563760306306">
        <ele>61.970497608598926</ele>
        <time>2021-11-08T22:06:02Z</time>
      </trkpt>
      <trkpt lat="39.793168549974155" lon="116.49570385563604">
        <ele>61.970497608598926</ele>
        <time>2021-11-08T22:06:04Z</time>
      </trkpt>
      <trkpt lat="39.79315171309013" lon="116.49575806275787">
        <ele>61.970497608598926</ele>
        <time>2021-11-08T22:06:06Z</time>
      </trkpt>
      <trkpt lat="39.7931308406084" lon="116.49580022480563">
        <ele>60.911529010795746</ele>
        <time>2021-11-08T22:06:08Z</time>
      </trkpt>
      <trkpt lat="39.79311297984861" lon="116.49584640166182">
        <ele>61.56849252837357</ele>
        <time>2021-11-08T22:06:19Z</time>
      </trkpt>
      <trkpt lat="39.79309514902562" lon="116.49590261647135">
        <ele>61.56849252837357</ele>
        <time>2021-11-08T22:06:21Z</time>
      </trkpt>
      <trkpt lat="39.79308534447082" lon="116.49596786444437">
        <ele>61.75251058051983</ele>
        <time>2021-11-08T22:06:23Z</time>
      </trkpt>
      <trkpt lat="39.79307854863848" lon="116.49603612341777">
        <ele>61.75251058051983</ele>
        <time>2021-11-08T22:06:25Z</time>
      </trkpt>
      <trkpt lat="39.79306778007715" lon="116.49611341702486">
        <ele>61.75251058051983</ele>
        <time>2021-11-08T22:06:27Z</time>
      </trkpt>
      <trkpt lat="39.79305402073802" lon="116.49619372236371">
        <ele>61.47521740337253</ele>
        <time>2021-11-08T22:06:29Z</time>
      </trkpt>
      <trkpt lat="39.79303729456605" lon="116.49628506978783">
        <ele>61.47521740337253</ele>
        <time>2021-11-08T22:06:31Z</time>
      </trkpt>
      <trkpt lat="39.7930265678744" lon="116.49637641643704">
        <ele>61.39056081276062</ele>
        <time>2021-11-08T22:06:34Z</time>
      </trkpt>
      <trkpt lat="39.79301983783741" lon="116.49646675876363">
        <ele>61.39056081276062</ele>
        <time>2021-11-08T22:06:37Z</time>
      </trkpt>
      <trkpt lat="39.79301605665433" lon="116.49654003619574">
        <ele>61.394109278775524</ele>
        <time>2021-11-08T22:06:39Z</time>
      </trkpt>
      <trkpt lat="39.79301325143469" lon="116.49660528313527">
        <ele>61.394109278775524</ele>
        <time>2021-11-08T22:06:41Z</time>
      </trkpt>
      <trkpt lat="39.79300945526755" lon="116.49667354155807">
        <ele>61.41894857476027</ele>
        <time>2021-11-08T22:06:43Z</time>
      </trkpt>
      <trkpt lat="39.79300267430415" lon="116.49674681929304">
        <ele>61.41894857476027</ele>
        <time>2021-11-08T22:06:45Z</time>
      </trkpt>
      <trkpt lat="39.79299489939707" lon="116.4968221047112">
        <ele>61.41894857476027</ele>
        <time>2021-11-08T22:06:47Z</time>
      </trkpt>
      <trkpt lat="39.79298712746889" lon="116.49689839389472">
        <ele>61.394109278775524</ele>
        <time>2021-11-08T22:06:49Z</time>
      </trkpt>
      <trkpt lat="39.792976379713544" lon="116.49698271375263">
        <ele>61.394109278775524</ele>
        <time>2021-11-08T22:06:51Z</time>
      </trkpt>
      <trkpt lat="39.79295460893275" lon="116.49705900460471">
        <ele>61.278024375566</ele>
        <time>2021-11-08T22:06:54Z</time>
      </trkpt>
      <trkpt lat="39.792921812139646" lon="116.49712626266862">
        <ele>61.278024375566</ele>
        <time>2021-11-08T22:06:56Z</time>
      </trkpt>
      <trkpt lat="39.79288096814776" lon="116.49717746104943">
        <ele>61.42199012528349</ele>
        <time>2021-11-08T22:06:58Z</time>
      </trkpt>
      <trkpt lat="39.79284112406581" lon="116.49722865929343">
        <ele>61.42199012528349</ele>
        <time>2021-11-08T22:07:00Z</time>
      </trkpt>
      <trkpt lat="39.792805276650114" lon="116.49727885324032">
        <ele>61.42199012528349</ele>
        <time>2021-11-08T22:07:02Z</time>
      </trkpt>
      <trkpt lat="39.79276641452629" lon="116.49732402859554">
        <ele>61.10972891207053</ele>
        <time>2021-11-08T22:07:04Z</time>
      </trkpt>
      <trkpt lat="39.7927235407713" lon="116.49736518927538">
        <ele>61.10972891207053</ele>
        <time>2021-11-08T22:07:06Z</time>
      </trkpt>
      <trkpt lat="39.79267665239601" lon="116.4974013314931">
        <ele>61.36927004209135</ele>
        <time>2021-11-08T22:07:08Z</time>
      </trkpt>
      <trkpt lat="39.7926287611119" lon="116.49743647003793">
        <ele>61.36927004209135</ele>
        <time>2021-11-08T22:07:10Z</time>
      </trkpt>
      <trkpt lat="39.792580866835024" lon="116.49747060478704">
        <ele>61.36927004209135</ele>
        <time>2021-11-08T22:07:12Z</time>
      </trkpt>
      <trkpt lat="39.79253497537788" lon="116.49750574307176">
        <ele>61.406782381560774</ele>
        <time>2021-11-08T22:07:14Z</time>
      </trkpt>
      <trkpt lat="39.79249109571085" lon="116.49754489625711">
        <ele>61.406782381560774</ele>
        <time>2021-11-08T22:07:16Z</time>
      </trkpt>
      <trkpt lat="39.79244822492657" lon="116.49758706067554">
        <ele>61.287655824813626</ele>
        <time>2021-11-08T22:07:18Z</time>
      </trkpt>
      <trkpt lat="39.792406363023765" lon="116.49763223632485">
        <ele>61.287655824813626</ele>
        <time>2021-11-08T22:07:20Z</time>
      </trkpt>
      <trkpt lat="39.79236249530479" lon="116.49767540463374">
        <ele>61.287655824813626</ele>
        <time>2021-11-08T22:07:22Z</time>
      </trkpt>
      <trkpt lat="39.79231961254794" lon="116.49771355387075">
        <ele>61.430607856597334</ele>
        <time>2021-11-08T22:07:24Z</time>
      </trkpt>
      <trkpt lat="39.79227771774452" lon="116.4977476878265">
        <ele>61.430607856597334</ele>
        <time>2021-11-08T22:07:26Z</time>
      </trkpt>
      <trkpt lat="39.79223682285399" lon="116.49778182165215">
        <ele>61.422497050460926</ele>
        <time>2021-11-08T22:07:28Z</time>
      </trkpt>
      <trkpt lat="39.792195933939674" lon="116.49781796304501">
        <ele>61.422497050460926</ele>
        <time>2021-11-08T22:07:30Z</time>
      </trkpt>
      <trkpt lat="39.79215305116984" lon="116.49785611225046">
        <ele>61.422497050460926</ele>
        <time>2021-11-08T22:07:32Z</time>
      </trkpt>
      <trkpt lat="39.79210916549169" lon="116.49789325778413">
        <ele>61.23189492648653</ele>
        <time>2021-11-08T22:07:34Z</time>
      </trkpt>
      <trkpt lat="39.792062274085595" lon="116.49792839610693">
        <ele>61.23189492648653</ele>
        <time>2021-11-08T22:07:36Z</time>
      </trkpt>
      <trkpt lat="39.79201237695243" lon="116.49796152722004">
        <ele>61.10313908485231</ele>
        <time>2021-11-08T22:07:38Z</time>
      </trkpt>
      <trkpt lat="39.79196346478794" lon="116.49798963927336">
        <ele>61.10313908485231</ele>
        <time>2021-11-08T22:07:40Z</time>
      </trkpt>
      <trkpt lat="39.7919175613347" lon="116.49802076230922">
        <ele>61.10313908485231</ele>
        <time>2021-11-08T22:07:42Z</time>
      </trkpt>
      <trkpt lat="39.79187166684547" lon="116.49805489669596">
        <ele>60.972864126684705</ele>
        <time>2021-11-08T22:07:44Z</time>
      </trkpt>
      <trkpt lat="39.79182879301943" lon="116.49809605720307">
        <ele>60.972864126684705</ele>
        <time>2021-11-08T22:07:46Z</time>
      </trkpt>
      <trkpt lat="39.7917869250808" lon="116.49813922514657">
        <ele>60.70066062709227</ele>
        <time>2021-11-08T22:07:48Z</time>
      </trkpt>
      <trkpt lat="39.79174806584737" lon="116.49818540406298">
        <ele>60.70066062709227</ele>
        <time>2021-11-08T22:07:50Z</time>
      </trkpt>
      <trkpt lat="39.791705192005914" lon="116.49822656453685">
        <ele>60.70066062709227</ele>
        <time>2021-11-08T22:07:52Z</time>
      </trkpt>
      <trkpt lat="39.79165928554609" lon="116.49825668374267">
        <ele>60.449753094522364</ele>
        <time>2021-11-08T22:07:54Z</time>
      </trkpt>
      <trkpt lat="39.791612370205314" lon="116.49828379171355">
        <ele>60.449753094522364</ele>
        <time>2021-11-08T22:07:56Z</time>
      </trkpt>
      <trkpt lat="39.791567454693514" lon="116.49831089943306">
        <ele>60.51919558379745</ele>
        <time>2021-11-08T22:07:58Z</time>
      </trkpt>
      <trkpt lat="39.79152255411871" lon="116.49834302606688">
        <ele>60.51919558379745</ele>
        <time>2021-11-08T22:08:00Z</time>
      </trkpt>
      <trkpt lat="39.791476659601315" lon="116.4983771603845">
        <ele>60.51919558379745</ele>
        <time>2021-11-08T22:08:02Z</time>
      </trkpt>
      <trkpt lat="39.79142977114064" lon="116.4984133023846">
        <ele>60.49081027670118</ele>
        <time>2021-11-08T22:08:04Z</time>
      </trkpt>
      <trkpt lat="39.79138489744309" lon="116.49845446304504">
        <ele>60.49081027670118</ele>
        <time>2021-11-08T22:08:06Z</time>
      </trkpt>
      <trkpt lat="39.79134102664261" lon="116.4984966273539">
        <ele>60.43150551000738</ele>
        <time>2021-11-08T22:08:08Z</time>
      </trkpt>
      <trkpt lat="39.79129914371876" lon="116.49853477627431">
        <ele>60.43150551000738</ele>
        <time>2021-11-08T22:08:10Z</time>
      </trkpt>
      <trkpt lat="39.79125323723547" lon="116.49856489541973">
        <ele>60.43150551000738</ele>
        <time>2021-11-08T22:08:12Z</time>
      </trkpt>
      <trkpt lat="39.791206330834925" lon="116.49859501468235">
        <ele>60.14715145317827</ele>
        <time>2021-11-08T22:08:14Z</time>
      </trkpt>
      <trkpt lat="39.791158427503824" lon="116.4986261378441">
        <ele>60.14715145317827</ele>
        <time>2021-11-08T22:08:16Z</time>
      </trkpt>
      <trkpt lat="39.79111454772214" lon="116.49866529075977">
        <ele>60.14715145317827</ele>
        <time>2021-11-08T22:08:18Z</time>
      </trkpt>
      <trkpt lat="39.79107367962571" lon="116.49870845842084">
        <ele>60.141069098352574</ele>
        <time>2021-11-08T22:08:20Z</time>
      </trkpt>
      <trkpt lat="39.79103177577388" lon="116.49873958081889">
        <ele>60.141069098352574</ele>
        <time>2021-11-08T22:08:22Z</time>
      </trkpt>
      <trkpt lat="39.79099976356638" lon="116.49873456585821">
        <ele>60.12941126155198</ele>
        <time>2021-11-08T22:08:24Z</time>
      </trkpt>
      <trkpt lat="39.79098164564643" lon="116.4986944168237">
        <ele>60.12941126155198</ele>
        <time>2021-11-08T22:08:26Z</time>
      </trkpt>
      <trkpt lat="39.79097347012416" lon="116.49863519469116">
        <ele>60.12941126155198</ele>
        <time>2021-11-08T22:08:28Z</time>
      </trkpt>
      <trkpt lat="39.790956292367966" lon="116.49857496986296">
        <ele>59.969244043697664</ele>
        <time>2021-11-08T22:08:30Z</time>
      </trkpt>
      <trkpt lat="39.79092913038512" lon="116.4985197651574">
        <ele>59.969244043697664</ele>
        <time>2021-11-08T22:08:32Z</time>
      </trkpt>
      <trkpt lat="39.79089396309823" lon="116.49846255385269">
        <ele>59.57491880638192</ele>
        <time>2021-11-08T22:08:34Z</time>
      </trkpt>
      <trkpt lat="39.79085880476236" lon="116.49840835387725">
        <ele>59.57491880638192</ele>
        <time>2021-11-08T22:08:36Z</time>
      </trkpt>
      <trkpt lat="39.79082365836708" lon="116.498358169018">
        <ele>59.57491880638192</ele>
        <time>2021-11-08T22:08:38Z</time>
      </trkpt>
      <trkpt lat="39.79079252357376" lon="116.49831199878565">
        <ele>59.954038423323645</ele>
        <time>2021-11-08T22:08:40Z</time>
      </trkpt>
      <trkpt lat="39.79076338262694" lon="116.49826382072499">
        <ele>59.954038423323645</ele>
        <time>2021-11-08T22:08:42Z</time>
      </trkpt>
      <trkpt lat="39.790739211364524" lon="116.4982056041877">
        <ele>60.20493400133102</ele>
        <time>2021-11-08T22:08:44Z</time>
      </trkpt>
      <trkpt lat="39.790719015842456" lon="116.49813935685654">
        <ele>60.20493400133102</ele>
        <time>2021-11-08T22:08:46Z</time>
      </trkpt>
      <trkpt lat="39.790697808436384" lon="116.4980690944805">
        <ele>60.20493400133102</ele>
        <time>2021-11-08T22:08:48Z</time>
      </trkpt>
      <trkpt lat="39.7906716014405" lon="116.49799883269162">
        <ele>60.33418559975951</ele>
        <time>2021-11-08T22:08:50Z</time>
      </trkpt>
      <trkpt lat="39.790642397673786" lon="116.49792957502996">
        <ele>60.33418559975951</ele>
        <time>2021-11-08T22:08:52Z</time>
      </trkpt>
      <trkpt lat="39.79061420277465" lon="116.49786332857708">
        <ele>60.64439598742223</ele>
        <time>2021-11-08T22:08:54Z</time>
      </trkpt>
      <trkpt lat="39.79058800769132" lon="116.49779708185237">
        <ele>60.64439598742223</ele>
        <time>2021-11-08T22:08:56Z</time>
      </trkpt>
      <trkpt lat="39.790560812679985" lon="116.49773083522612">
        <ele>60.64439598742223</ele>
        <time>2021-11-08T22:08:58Z</time>
      </trkpt>
      <trkpt lat="39.79053061492175" lon="116.49766358515755">
        <ele>60.80254601924582</ele>
        <time>2021-11-08T22:09:00Z</time>
      </trkpt>
      <trkpt lat="39.79049741740654" lon="116.49759633543408">
        <ele>60.80254601924582</ele>
        <time>2021-11-08T22:09:02Z</time>
      </trkpt>
      <trkpt lat="39.790465225773794" lon="116.49753109313967">
        <ele>60.843097696690336</ele>
        <time>2021-11-08T22:09:04Z</time>
      </trkpt>
      <trkpt lat="39.79043404600588" lon="116.49746986585443">
        <ele>60.843097696690336</ele>
        <time>2021-11-08T22:09:06Z</time>
      </trkpt>
      <trkpt lat="39.79040586896215" lon="116.49740964196837">
        <ele>60.843097696690336</ele>
        <time>2021-11-08T22:09:08Z</time>
      </trkpt>
      <trkpt lat="39.79037769190867" lon="116.49734941806328">
        <ele>60.872497761678105</ele>
        <time>2021-11-08T22:09:10Z</time>
      </trkpt>
      <trkpt lat="39.79034950886358" lon="116.49728718655982">
        <ele>60.872497761678105</ele>
        <time>2021-11-08T22:09:12Z</time>
      </trkpt>
      <trkpt lat="39.79032032290274" lon="116.49722395136976">
        <ele>60.9652605802826</ele>
        <time>2021-11-08T22:09:14Z</time>
      </trkpt>
      <trkpt lat="39.79028913411139" lon="116.49715971261583">
        <ele>60.9652605802826</ele>
        <time>2021-11-08T22:09:16Z</time>
      </trkpt>
      <trkpt lat="39.790258948215836" lon="116.49709647750872">
        <ele>60.9652605802826</ele>
        <time>2021-11-08T22:09:18Z</time>
      </trkpt>
      <trkpt lat="39.79022975923337" lon="116.49703223846751">
        <ele>61.11175655205733</ele>
        <time>2021-11-08T22:09:20Z</time>
      </trkpt>
      <trkpt lat="39.790201582122876" lon="116.49697201444847">
        <ele>61.11175655205733</ele>
        <time>2021-11-08T22:09:22Z</time>
      </trkpt>
      <trkpt lat="39.7901704082526" lon="116.4969127945739">
        <ele>61.29525960682838</ele>
        <time>2021-11-08T22:09:24Z</time>
      </trkpt>
      <trkpt lat="39.79013824044426" lon="116.49685558239005">
        <ele>61.29525960682838</ele>
        <time>2021-11-08T22:09:26Z</time>
      </trkpt>
      <trkpt lat="39.790106069636515" lon="116.49679736639881">
        <ele>61.29525960682838</ele>
        <time>2021-11-08T22:09:28Z</time>
      </trkpt>
      <trkpt lat="39.790075883688374" lon="116.49673413118285">
        <ele>61.274982867132465</ele>
        <time>2021-11-08T22:09:30Z</time>
      </trkpt>
      <trkpt lat="39.7900486944823" lon="116.49666989178581">
        <ele>61.274982867132465</ele>
        <time>2021-11-08T22:09:32Z</time>
      </trkpt>
      <trkpt lat="39.79001546687644" lon="116.4965926038005">
        <ele>61.07525909279148</ele>
        <time>2021-11-08T22:09:34Z</time>
      </trkpt>
      <trkpt lat="39.789977212750856" lon="116.49650628226472">
        <ele>61.07525909279148</ele>
        <time>2021-11-08T22:09:37Z</time>
      </trkpt>
      <trkpt lat="39.789937958696385" lon="116.4964199608204">
        <ele>61.26230992489042</ele>
        <time>2021-11-08T22:09:40Z</time>
      </trkpt>
      <trkpt lat="39.7899037371248" lon="116.4963446804641">
        <ele>61.26230992489042</ele>
        <time>2021-11-08T22:09:42Z</time>
      </trkpt>
      <trkpt lat="39.789873557106795" lon="116.49628345271339">
        <ele>61.44632256147944</ele>
        <time>2021-11-08T22:09:44Z</time>
      </trkpt>
      <trkpt lat="39.78984237716797" lon="116.49622222507092">
        <ele>61.44632256147944</ele>
        <time>2021-11-08T22:09:46Z</time>
      </trkpt>
      <trkpt lat="39.78981220312417" lon="116.49616300487999">
        <ele>61.44632256147944</ele>
        <time>2021-11-08T22:09:48Z</time>
      </trkpt>
      <trkpt lat="39.78978103215404" lon="116.49610478859393">
        <ele>61.39005388914334</ele>
        <time>2021-11-08T22:09:50Z</time>
      </trkpt>
      <trkpt lat="39.78974986117856" lon="116.49604657229483">
        <ele>61.39005388914334</ele>
        <time>2021-11-08T22:09:52Z</time>
      </trkpt>
      <trkpt lat="39.78971969011209" lon="116.49598835585947">
        <ele>61.649095076232996</ele>
        <time>2021-11-08T22:09:54Z</time>
      </trkpt>
      <trkpt lat="39.78969351270942" lon="116.4959281313261">
        <ele>61.649095076232996</ele>
        <time>2021-11-08T22:09:56Z</time>
      </trkpt>
      <trkpt lat="39.78966833820957" lon="116.49586891045202">
        <ele>61.649095076232996</ele>
        <time>2021-11-08T22:09:58Z</time>
      </trkpt>
      <trkpt lat="39.789643163704675" lon="116.4958096895653">
        <ele>61.607526388665846</ele>
        <time>2021-11-08T22:10:00Z</time>
      </trkpt>
      <trkpt lat="39.78961699227498" lon="116.49575147258606">
        <ele>61.607526388665846</ele>
        <time>2021-11-08T22:10:02Z</time>
      </trkpt>
      <trkpt lat="39.78958880903532" lon="116.49568924065525">
        <ele>61.4331424848075</ele>
        <time>2021-11-08T22:10:04Z</time>
      </trkpt>
      <trkpt lat="39.7895586229681" lon="116.49562600516121">
        <ele>61.4331424848075</ele>
        <time>2021-11-08T22:10:06Z</time>
      </trkpt>
      <trkpt lat="39.78952843090709" lon="116.49556076205963">
        <ele>61.4331424848075</ele>
        <time>2021-11-08T22:10:08Z</time>
      </trkpt>
      <trkpt lat="39.78949624500207" lon="116.49549752678564">
        <ele>61.63895635663513</ele>
        <time>2021-11-08T22:10:10Z</time>
      </trkpt>
      <trkpt lat="39.78946306217325" lon="116.49543529541982">
        <ele>61.63895635663513</ele>
        <time>2021-11-08T22:10:12Z</time>
      </trkpt>
      <trkpt lat="39.78942988532986" lon="116.4953750716373">
        <ele>61.5487221874732</ele>
        <time>2021-11-08T22:10:14Z</time>
      </trkpt>
      <trkpt lat="39.789396711477714" lon="116.49531585164154">
        <ele>61.5487221874732</ele>
        <time>2021-11-08T22:10:16Z</time>
      </trkpt>
      <trkpt lat="39.789366540359225" lon="116.49525763506293">
        <ele>61.5487221874732</ele>
        <time>2021-11-08T22:10:18Z</time>
      </trkpt>
      <trkpt lat="39.789339362989935" lon="116.49519741050744">
        <ele>61.69826800645872</ele>
        <time>2021-11-08T22:10:20Z</time>
      </trkpt>
      <trkpt lat="39.78931317654662" lon="116.49513417442273">
        <ele>61.69826800645872</ele>
        <time>2021-11-08T22:10:22Z</time>
      </trkpt>
      <trkpt lat="39.789285984195985" lon="116.49506893085302">
        <ele>61.69826800645872</ele>
        <time>2021-11-08T22:10:24Z</time>
      </trkpt>
      <trkpt lat="39.78925475924051" lon="116.49499264597868">
        <ele>61.686101486621226</ele>
        <time>2021-11-08T22:10:26Z</time>
      </trkpt>
      <trkpt lat="39.7892235432662" lon="116.49491937248585">
        <ele>61.686101486621226</ele>
        <time>2021-11-08T22:10:29Z</time>
      </trkpt>
      <trkpt lat="39.78918933653218" lon="116.49484911074717">
        <ele>61.500056893008214</ele>
        <time>2021-11-08T22:10:31Z</time>
      </trkpt>
      <trkpt lat="39.78915517771886" lon="116.49479490978567">
        <ele>61.500056893008214</ele>
        <time>2021-11-08T22:10:33Z</time>
      </trkpt>
      <trkpt lat="39.78912001899038" lon="116.49474070894053">
        <ele>61.323140188440064</ele>
        <time>2021-11-08T22:10:35Z</time>
      </trkpt>
      <trkpt lat="39.78908786000237" lon="116.49468650771789">
        <ele>61.323140188440064</ele>
        <time>2021-11-08T22:10:37Z</time>
      </trkpt>
      <trkpt lat="39.78905969767331" lon="116.49463130219469">
        <ele>61.323140188440064</ele>
        <time>2021-11-08T22:10:39Z</time>
      </trkpt>
      <trkpt lat="39.78904152549539" lon="116.49457308403">
        <ele>61.379408498879705</ele>
        <time>2021-11-08T22:10:41Z</time>
      </trkpt>
      <trkpt lat="39.78904134277889" lon="116.49451185223462">
        <ele>61.379408498879705</ele>
        <time>2021-11-08T22:10:43Z</time>
      </trkpt>
      <trkpt lat="39.789062179219165" lon="116.49445764443816">
        <ele>61.55886081913651</ele>
        <time>2021-11-08T22:10:45Z</time>
      </trkpt>
      <trkpt lat="39.78909605048362" lon="116.49441548063218">
        <ele>61.55886081913651</ele>
        <time>2021-11-08T22:10:47Z</time>
      </trkpt>
      <trkpt lat="39.78913596017178" lon="116.49438636548487">
        <ele>61.55886081913651</ele>
        <time>2021-11-08T22:10:49Z</time>
      </trkpt>
      <trkpt lat="39.7891688674678" lon="116.49435624739995">
        <ele>61.316550226044676</ele>
        <time>2021-11-08T22:10:51Z</time>
      </trkpt>
      <trkpt lat="39.789176821847704" lon="116.49434118940664">
        <ele>61.316550226044676</ele>
        <time>2021-11-08T22:10:53Z</time>
      </trkpt>
      <trkpt lat="39.789157820488136" lon="116.4943401879531">
        <ele>61.18779333674057</ele>
        <time>2021-11-08T22:10:55Z</time>
      </trkpt>
      <trkpt lat="39.789118877764174" lon="116.49435826117636">
        <ele>61.18779333674057</ele>
        <time>2021-11-08T22:10:57Z</time>
      </trkpt>
      <trkpt lat="39.78907594137636" lon="116.49437834249352">
        <ele>61.18779333674057</ele>
        <time>2021-11-08T22:10:59Z</time>
      </trkpt>
      <trkpt lat="39.789032005075605" lon="116.49439842393323">
        <ele>61.53199346682555</ele>
        <time>2021-11-08T22:11:01Z</time>
      </trkpt>
      <trkpt lat="39.78898607793437" lon="116.49442151701959">
        <ele>61.53199346682555</ele>
        <time>2021-11-08T22:11:03Z</time>
      </trkpt>
      <trkpt lat="39.78894019272955" lon="116.49445866330636">
        <ele>61.81232982188342</ele>
        <time>2021-11-08T22:11:05Z</time>
      </trkpt>
      <trkpt lat="39.78889533439747" lon="116.49450484366656">
        <ele>61.81232982188342</ele>
        <time>2021-11-08T22:11:07Z</time>
      </trkpt>
      <trkpt lat="39.78885048205633" lon="116.49455303162162">
        <ele>61.81232982188342</ele>
        <time>2021-11-08T22:11:09Z</time>
      </trkpt>
      <trkpt lat="39.78879660952463" lon="116.49459419408426">
        <ele>60.48168644443831</ele>
        <time>2021-11-08T22:11:11Z</time>
      </trkpt>
      <trkpt lat="39.79169800925913" lon="116.47471350590156">
        <ele>61.64098409976429</ele>
        <time>2021-11-08T22:26:56Z</time>
      </trkpt>
      <trkpt lat="39.79159940728375" lon="116.47485101650115">
        <ele>61.77937850231129</ele>
        <time>2021-11-08T22:27:03Z</time>
      </trkpt>
      <trkpt lat="39.79156569191114" lon="116.47495038101438">
        <ele>61.77937850231129</ele>
        <time>2021-11-08T22:27:05Z</time>
      </trkpt>
      <trkpt lat="39.79159384328242" lon="116.4750045741184">
        <ele>61.94869870025733</ele>
        <time>2021-11-08T22:27:09Z</time>
      </trkpt>
      <trkpt lat="39.79161799218973" lon="116.47505776413229">
        <ele>61.94869870025733</ele>
        <time>2021-11-08T22:27:11Z</time>
      </trkpt>
      <trkpt lat="39.79163613025239" lon="116.4751069403731">
        <ele>61.89851068956737</ele>
        <time>2021-11-08T22:27:13Z</time>
      </trkpt>
      <trkpt lat="39.79165226852156" lon="116.47515611690694">
        <ele>61.89851068956737</ele>
        <time>2021-11-08T22:27:15Z</time>
      </trkpt>
      <trkpt lat="39.79167140372305" lon="116.47520428946626">
        <ele>62.16516895485771</ele>
        <time>2021-11-08T22:27:17Z</time>
      </trkpt>
      <trkpt lat="39.791702520836225" lon="116.47524643869978">
        <ele>62.16516895485771</ele>
        <time>2021-11-08T22:27:19Z</time>
      </trkpt>
      <trkpt lat="39.79173960324754" lon="116.47527654346452">
        <ele>62.33043967546778</ele>
        <time>2021-11-08T22:27:22Z</time>
      </trkpt>
      <trkpt lat="39.791770677624754" lon="116.4753036380532">
        <ele>62.33043967546778</ele>
        <time>2021-11-08T22:27:24Z</time>
      </trkpt>
      <trkpt lat="39.79178775890338" lon="116.47533274169277">
        <ele>62.33043967546778</ele>
        <time>2021-11-08T22:27:26Z</time>
      </trkpt>
      <trkpt lat="39.79180386025083" lon="116.4753688710055">
        <ele>62.010546884827725</ele>
        <time>2021-11-08T22:27:28Z</time>
      </trkpt>
      <trkpt lat="39.791826946757844" lon="116.47539998122838">
        <ele>62.010546884827725</ele>
        <time>2021-11-08T22:27:30Z</time>
      </trkpt>
      <trkpt lat="39.79185802689493" lon="116.47542908317476">
        <ele>62.122584286603214</ele>
        <time>2021-11-08T22:27:32Z</time>
      </trkpt>
      <trkpt lat="39.79189307245478" lon="116.4754461408479">
        <ele>62.122584286603214</ele>
        <time>2021-11-08T22:27:34Z</time>
      </trkpt>
      <trkpt lat="39.79193207486544" lon="116.4754481432893">
        <ele>62.122584286603214</ele>
        <time>2021-11-08T22:27:36Z</time>
      </trkpt>
      <trkpt lat="39.79197202010911" lon="116.47543007262666">
        <ele>61.83564928033733</ele>
        <time>2021-11-08T22:27:38Z</time>
      </trkpt>
      <trkpt lat="39.79201993614582" lon="116.47540196448958">
        <ele>61.83564928033733</ele>
        <time>2021-11-08T22:27:40Z</time>
      </trkpt>
      <trkpt lat="39.7920698520267" lon="116.47537385611734">
        <ele>62.05262413859254</ele>
        <time>2021-11-08T22:27:42Z</time>
      </trkpt>
      <trkpt lat="39.79212176775191" lon="116.47534574750998">
        <ele>62.05262413859254</ele>
        <time>2021-11-08T22:27:44Z</time>
      </trkpt>
      <trkpt lat="39.79216869246962" lon="116.47532065047976">
        <ele>62.05262413859254</ele>
        <time>2021-11-08T22:27:46Z</time>
      </trkpt>
      <trkpt lat="39.79221661711363" lon="116.47529555333615">
        <ele>62.104333767853625</ele>
        <time>2021-11-08T22:27:48Z</time>
      </trkpt>
      <trkpt lat="39.792264544620004" lon="116.47527145984967">
        <ele>62.104333767853625</ele>
        <time>2021-11-08T22:27:50Z</time>
      </trkpt>
      <trkpt lat="39.79231147222075" lon="116.47524736649801">
        <ele>62.34716968002794</ele>
        <time>2021-11-08T22:27:52Z</time>
      </trkpt>
      <trkpt lat="39.792356391447555" lon="116.47522026247054">
        <ele>62.34716968002794</ele>
        <time>2021-11-08T22:27:54Z</time>
      </trkpt>
      <trkpt lat="39.792399313705616" lon="116.47519416234984">
        <ele>62.34716968002794</ele>
        <time>2021-11-08T22:27:56Z</time>
      </trkpt>
      <trkpt lat="39.792442233125" lon="116.4751670585972">
        <ele>62.52004796913945</ele>
        <time>2021-11-08T22:27:58Z</time>
      </trkpt>
      <trkpt lat="39.79248714668886" lon="116.47513794732144">
        <ele>62.52004796913945</ele>
        <time>2021-11-08T22:28:00Z</time>
      </trkpt>
      <trkpt lat="39.7925330601825" lon="116.47510883593633">
        <ele>62.433354978266216</ele>
        <time>2021-11-08T22:28:02Z</time>
      </trkpt>
      <trkpt lat="39.792578976538906" lon="116.47508072820894">
        <ele>62.433354978266216</ele>
        <time>2021-11-08T22:28:04Z</time>
      </trkpt>
      <trkpt lat="39.792623895840975" lon="116.47505362426233">
        <ele>62.433354978266216</ele>
        <time>2021-11-08T22:28:06Z</time>
      </trkpt>
      <trkpt lat="39.79266981222336" lon="116.47502551656285">
        <ele>62.43082010636702</ele>
        <time>2021-11-08T22:28:08Z</time>
      </trkpt>
      <trkpt lat="39.79272075382573" lon="116.47500644102468">
        <ele>62.43082010636702</ele>
        <time>2021-11-08T22:28:10Z</time>
      </trkpt>
      <trkpt lat="39.79277672633541" lon="116.47499840492043">
        <ele>62.191530979701234</ele>
        <time>2021-11-08T22:28:12Z</time>
      </trkpt>
      <trkpt lat="39.79283973812314" lon="116.47500441891962">
        <ele>62.191530979701234</ele>
        <time>2021-11-08T22:28:14Z</time>
      </trkpt>
      <trkpt lat="39.79289975016563" lon="116.47501043329319">
        <ele>62.191530979701234</ele>
        <time>2021-11-08T22:28:16Z</time>
      </trkpt>
      <trkpt lat="39.792952759950914" lon="116.47501544489798">
        <ele>62.54691787319649</ele>
        <time>2021-11-08T22:28:18Z</time>
      </trkpt>
      <trkpt lat="39.792995762034614" lon="116.47501744682461">
        <ele>62.54691787319649</ele>
        <time>2021-11-08T22:28:20Z</time>
      </trkpt>
      <trkpt lat="39.79303480432533" lon="116.47503350023139">
        <ele>62.4921641798185</ele>
        <time>2021-11-08T22:28:22Z</time>
      </trkpt>
      <trkpt lat="39.7930639186706" lon="116.47507464594383">
        <ele>62.4921641798185</ele>
        <time>2021-11-08T22:28:24Z</time>
      </trkpt>
      <trkpt lat="39.793085104949434" lon="116.47514088376911">
        <ele>62.4921641798185</ele>
        <time>2021-11-08T22:28:26Z</time>
      </trkpt>
      <trkpt lat="39.79310431141808" lon="116.47521414743747">
        <ele>62.4171318087588</ele>
        <time>2021-11-08T22:28:28Z</time>
      </trkpt>
      <trkpt lat="39.793126492050625" lon="116.47527837801312">
        <ele>62.4171318087588</ele>
        <time>2021-11-08T22:28:30Z</time>
      </trkpt>
      <trkpt lat="39.79314465026046" lon="116.47533457998342">
        <ele>62.553001634694624</ele>
        <time>2021-11-08T22:28:32Z</time>
      </trkpt>
      <trkpt lat="39.79316180860205" lon="116.47539078213495">
        <ele>62.553001634694624</ele>
        <time>2021-11-08T22:28:34Z</time>
      </trkpt>
      <trkpt lat="39.793178978408555" lon="116.47545099893978">
        <ele>62.553001634694624</ele>
        <time>2021-11-08T22:28:36Z</time>
      </trkpt>
      <trkpt lat="39.793197148185754" lon="116.47551121568468">
        <ele>62.293430973091574</ele>
        <time>2021-11-08T22:28:38Z</time>
      </trkpt>
      <trkpt lat="39.79322031188581" lon="116.47556942456858">
        <ele>62.293430973091574</ele>
        <time>2021-11-08T22:28:40Z</time>
      </trkpt>
      <trkpt lat="39.793245466898114" lon="116.47562462230637">
        <ele>62.487094407966886</ele>
        <time>2021-11-08T22:28:42Z</time>
      </trkpt>
      <trkpt lat="39.793269610609" lon="116.47567580560944">
        <ele>62.487094407966886</ele>
        <time>2021-11-08T22:28:44Z</time>
      </trkpt>
      <trkpt lat="39.79329276015982" lon="116.4757289963915">
        <ele>62.487094407966886</ele>
        <time>2021-11-08T22:28:46Z</time>
      </trkpt>
      <trkpt lat="39.79331392993571" lon="116.47578921305842">
        <ele>62.576829734814304</ele>
        <time>2021-11-08T22:28:48Z</time>
      </trkpt>
      <trkpt lat="39.79333412273175" lon="116.47585745916408">
        <ele>62.576829734814304</ele>
        <time>2021-11-08T22:28:50Z</time>
      </trkpt>
      <trkpt lat="39.79335531265126" lon="116.47592470156873">
        <ele>62.62296514761598</ele>
        <time>2021-11-08T22:28:52Z</time>
      </trkpt>
      <trkpt lat="39.79337548268478" lon="116.47598491856542">
        <ele>62.62296514761598</ele>
        <time>2021-11-08T22:28:54Z</time>
      </trkpt>
      <trkpt lat="39.793393624308266" lon="116.47603509927787">
        <ele>62.62296514761598</ele>
        <time>2021-11-08T22:28:56Z</time>
      </trkpt>
      <trkpt lat="39.7934077462579" lon="116.47607825490958">
        <ele>62.648314362618486</ele>
        <time>2021-11-08T22:28:58Z</time>
      </trkpt>
    </trkseg>
  </trk>
</gpx>