<?xml version="1.0" encoding="UTF-8"?>
<gpx xmlns="http://www.topografix.com/GPX/1/1" xmlns:gpxtpx="http://www.garmin.com/xmlschemas/TrackPointExtension/v1" xmlns:xsi="http://www.w3.org/2001/XMLSchema-instance" xsi:schemaLocation="http://www.topografix.com/GPX/1/1 http://www.topografix.com/GPX/1/1/gpx.xsd" version="1.1" creator="gpx.py -- https://github.com/tkrajina/gpxpy">
  <trk>
    <name>gpx from codoon</name>
    <type>Run</type>
    <trkseg>
      <trkpt lat="39.80419" lon="116.47862">
        <ele>32.4176</ele>
        <time>2014-08-03T11:45:18.556000Z</time>
      </trkpt>
      <trkpt lat="39.80421" lon="116.47861">
        <ele>37.15997</ele>
        <time>2014-08-03T11:45:21.887000Z</time>
      </trkpt>
      <trkpt lat="39.80429" lon="116.479">
        <ele>48.61548</ele>
        <time>2014-08-03T11:45:27.429000Z</time>
      </trkpt>
      <trkpt lat="39.80439" lon="116.47897">
        <ele>47.91437</ele>
        <time>2014-08-03T11:45:32.369000Z</time>
      </trkpt>
      <trkpt lat="39.80443" lon="116.47908">
        <ele>49.59906</ele>
        <time>2014-08-03T11:45:43.388000Z</time>
      </trkpt>
      <trkpt lat="39.80445" lon="116.47921">
        <ele>45.63544</ele>
        <time>2014-08-03T11:45:51.383000Z</time>
      </trkpt>
      <trkpt lat="39.80451" lon="116.4793">
        <ele>43.9845</ele>
        <time>2014-08-03T11:45:55.369000Z</time>
      </trkpt>
      <trkpt lat="39.80457" lon="116.47942">
        <ele>40.25244</ele>
        <time>2014-08-03T11:45:59.380000Z</time>
      </trkpt>
      <trkpt lat="39.80457" lon="116.47955">
        <ele>41.8526</ele>
        <time>2014-08-03T11:46:02.385000Z</time>
      </trkpt>
      <trkpt lat="39.80458" lon="116.47968">
        <ele>43.58997</ele>
        <time>2014-08-03T11:46:06.453000Z</time>
      </trkpt>
      <trkpt lat="39.80462" lon="116.4798">
        <ele>41.60352</ele>
        <time>2014-08-03T11:46:14.394000Z</time>
      </trkpt>
      <trkpt lat="39.80467" lon="116.47989">
        <ele>39.53333</ele>
        <time>2014-08-03T11:46:17.456000Z</time>
      </trkpt>
      <trkpt lat="39.80473" lon="116.48003">
        <ele>39.11713</ele>
        <time>2014-08-03T11:46:21.436000Z</time>
      </trkpt>
      <trkpt lat="39.80477" lon="116.48015">
        <ele>40.2934</ele>
        <time>2014-08-03T11:46:25.369000Z</time>
      </trkpt>
      <trkpt lat="39.80482" lon="116.48026">
        <ele>40.28644</ele>
        <time>2014-08-03T11:46:31.454000Z</time>
      </trkpt>
      <trkpt lat="39.80487" lon="116.48039">
        <ele>38.41779</ele>
        <time>2014-08-03T11:46:35.402000Z</time>
      </trkpt>
      <trkpt lat="39.80491" lon="116.48053">
        <ele>39.69476</ele>
        <time>2014-08-03T11:46:39.390000Z</time>
      </trkpt>
      <trkpt lat="39.80493" lon="116.48067">
        <ele>41.48267</ele>
        <time>2014-08-03T11:46:43.384000Z</time>
      </trkpt>
      <trkpt lat="39.80499" lon="116.48079">
        <ele>36.87305</ele>
        <time>2014-08-03T11:46:47.381000Z</time>
      </trkpt>
      <trkpt lat="39.80505" lon="116.48091">
        <ele>38.28778</ele>
        <time>2014-08-03T11:46:51.380000Z</time>
      </trkpt>
      <trkpt lat="39.8051" lon="116.48103">
        <ele>42.43896</ele>
        <time>2014-08-03T11:46:55.395000Z</time>
      </trkpt>
      <trkpt lat="39.80517" lon="116.48113">
        <ele>42.5188</ele>
        <time>2014-08-03T11:46:59.452000Z</time>
      </trkpt>
      <trkpt lat="39.80523" lon="116.48125">
        <ele>41.29199</ele>
        <time>2014-08-03T11:47:03.439000Z</time>
      </trkpt>
      <trkpt lat="39.80529" lon="116.48137">
        <ele>41.39044</ele>
        <time>2014-08-03T11:47:07.415000Z</time>
      </trkpt>
      <trkpt lat="39.80535" lon="116.4815">
        <ele>36.2514</ele>
        <time>2014-08-03T11:47:11.384000Z</time>
      </trkpt>
      <trkpt lat="39.80541" lon="116.48162">
        <ele>36.99713</ele>
        <time>2014-08-03T11:47:15.436000Z</time>
      </trkpt>
      <trkpt lat="39.80546" lon="116.48175">
        <ele>32.91254</ele>
        <time>2014-08-03T11:47:19.426000Z</time>
      </trkpt>
      <trkpt lat="39.80552" lon="116.48186">
        <ele>34.46191</ele>
        <time>2014-08-03T11:47:23.388000Z</time>
      </trkpt>
      <trkpt lat="39.80555" lon="116.48198">
        <ele>37.47595</ele>
        <time>2014-08-03T11:47:27.394000Z</time>
      </trkpt>
      <trkpt lat="39.80554" lon="116.4821">
        <ele>39.08411</ele>
        <time>2014-08-03T11:47:30.428000Z</time>
      </trkpt>
      <trkpt lat="39.80558" lon="116.48224">
        <ele>33.32874</ele>
        <time>2014-08-03T11:47:34.382000Z</time>
      </trkpt>
      <trkpt lat="39.80563" lon="116.48234">
        <ele>36.3075</ele>
        <time>2014-08-03T11:47:37.376000Z</time>
      </trkpt>
      <trkpt lat="39.80568" lon="116.48245">
        <ele>36.00452</ele>
        <time>2014-08-03T11:47:40.384000Z</time>
      </trkpt>
      <trkpt lat="39.80571" lon="116.48256">
        <ele>33.58502</ele>
        <time>2014-08-03T11:47:43.375000Z</time>
      </trkpt>
      <trkpt lat="39.80576" lon="116.48267">
        <ele>34.18585</ele>
        <time>2014-08-03T11:47:46.379000Z</time>
      </trkpt>
      <trkpt lat="39.80582" lon="116.48276">
        <ele>36.00195</ele>
        <time>2014-08-03T11:47:49.381000Z</time>
      </trkpt>
      <trkpt lat="39.80588" lon="116.48288">
        <ele>36.96478</ele>
        <time>2014-08-03T11:47:53.376000Z</time>
      </trkpt>
      <trkpt lat="39.80594" lon="116.48299">
        <ele>33.88672</ele>
        <time>2014-08-03T11:47:57.435000Z</time>
      </trkpt>
      <trkpt lat="39.80599" lon="116.48311">
        <ele>35.45203</ele>
        <time>2014-08-03T11:48:01.419000Z</time>
      </trkpt>
      <trkpt lat="39.80603" lon="116.48323">
        <ele>32.18976</ele>
        <time>2014-08-03T11:48:05.385000Z</time>
      </trkpt>
      <trkpt lat="39.80608" lon="116.48335">
        <ele>35.65967</ele>
        <time>2014-08-03T11:48:09.391000Z</time>
      </trkpt>
      <trkpt lat="39.80611" lon="116.48347">
        <ele>30.75134</ele>
        <time>2014-08-03T11:48:13.375000Z</time>
      </trkpt>
      <trkpt lat="39.80617" lon="116.48358">
        <ele>32.00372</ele>
        <time>2014-08-03T11:48:17.436000Z</time>
      </trkpt>
      <trkpt lat="39.80622" lon="116.4837">
        <ele>34.79333</ele>
        <time>2014-08-03T11:48:21.389000Z</time>
      </trkpt>
      <trkpt lat="39.80625" lon="116.48381">
        <ele>32.45752</ele>
        <time>2014-08-03T11:48:25.380000Z</time>
      </trkpt>
      <trkpt lat="39.80631" lon="116.48392">
        <ele>33.07977</ele>
        <time>2014-08-03T11:48:29.433000Z</time>
      </trkpt>
      <trkpt lat="39.80638" lon="116.48404">
        <ele>27.9574</ele>
        <time>2014-08-03T11:48:33.438000Z</time>
      </trkpt>
      <trkpt lat="39.80644" lon="116.48417">
        <ele>26.64307</ele>
        <time>2014-08-03T11:48:37.376000Z</time>
      </trkpt>
      <trkpt lat="39.80649" lon="116.48431">
        <ele>25.85474</ele>
        <time>2014-08-03T11:48:41.377000Z</time>
      </trkpt>
      <trkpt lat="39.80653" lon="116.48445">
        <ele>24.41486</ele>
        <time>2014-08-03T11:48:45.375000Z</time>
      </trkpt>
      <trkpt lat="39.80659" lon="116.48455">
        <ele>23.67883</ele>
        <time>2014-08-03T11:48:48.380000Z</time>
      </trkpt>
      <trkpt lat="39.80664" lon="116.48465">
        <ele>22.66455</ele>
        <time>2014-08-03T11:48:51.383000Z</time>
      </trkpt>
      <trkpt lat="39.8067" lon="116.48477">
        <ele>24.1734</ele>
        <time>2014-08-03T11:48:55.385000Z</time>
      </trkpt>
      <trkpt lat="39.80674" lon="116.4849">
        <ele>23.02368</ele>
        <time>2014-08-03T11:48:59.456000Z</time>
      </trkpt>
      <trkpt lat="39.80679" lon="116.485">
        <ele>23.20935</ele>
        <time>2014-08-03T11:49:02.397000Z</time>
      </trkpt>
      <trkpt lat="39.80685" lon="116.48513">
        <ele>25.99768</ele>
        <time>2014-08-03T11:49:06.383000Z</time>
      </trkpt>
      <trkpt lat="39.80691" lon="116.48525">
        <ele>26.82721</ele>
        <time>2014-08-03T11:49:10.382000Z</time>
      </trkpt>
      <trkpt lat="39.80697" lon="116.48537">
        <ele>29.2923</ele>
        <time>2014-08-03T11:49:14.449000Z</time>
      </trkpt>
      <trkpt lat="39.80702" lon="116.48549">
        <ele>27.35425</ele>
        <time>2014-08-03T11:49:18.401000Z</time>
      </trkpt>
      <trkpt lat="39.80706" lon="116.48562">
        <ele>23.3443</ele>
        <time>2014-08-03T11:49:22.438000Z</time>
      </trkpt>
      <trkpt lat="39.80715" lon="116.4857">
        <ele>26.34283</ele>
        <time>2014-08-03T11:49:26.437000Z</time>
      </trkpt>
      <trkpt lat="39.80722" lon="116.48578">
        <ele>30.50049</ele>
        <time>2014-08-03T11:49:29.394000Z</time>
      </trkpt>
      <trkpt lat="39.80728" lon="116.48589">
        <ele>32.59357</ele>
        <time>2014-08-03T11:49:33.383000Z</time>
      </trkpt>
      <trkpt lat="39.80732" lon="116.48602">
        <ele>30.63452</ele>
        <time>2014-08-03T11:49:37.390000Z</time>
      </trkpt>
      <trkpt lat="39.80737" lon="116.48612">
        <ele>28.47321</ele>
        <time>2014-08-03T11:49:41.401000Z</time>
      </trkpt>
      <trkpt lat="39.8074" lon="116.48624">
        <ele>28.44598</ele>
        <time>2014-08-03T11:49:45.376000Z</time>
      </trkpt>
      <trkpt lat="39.80744" lon="116.48635">
        <ele>27.97852</ele>
        <time>2014-08-03T11:49:48.399000Z</time>
      </trkpt>
      <trkpt lat="39.80748" lon="116.48645">
        <ele>28.3139</ele>
        <time>2014-08-03T11:49:51.433000Z</time>
      </trkpt>
      <trkpt lat="39.80753" lon="116.48655">
        <ele>26.83234</ele>
        <time>2014-08-03T11:49:54.389000Z</time>
      </trkpt>
      <trkpt lat="39.8076" lon="116.48668">
        <ele>25.11792</ele>
        <time>2014-08-03T11:49:58.385000Z</time>
      </trkpt>
      <trkpt lat="39.80766" lon="116.48681">
        <ele>21.23944</ele>
        <time>2014-08-03T11:50:02.381000Z</time>
      </trkpt>
      <trkpt lat="39.80773" lon="116.48692">
        <ele>21.66864</ele>
        <time>2014-08-03T11:50:06.384000Z</time>
      </trkpt>
      <trkpt lat="39.80778" lon="116.48705">
        <ele>23.4826</ele>
        <time>2014-08-03T11:50:10.439000Z</time>
      </trkpt>
      <trkpt lat="39.80783" lon="116.48717">
        <ele>26.94672</ele>
        <time>2014-08-03T11:50:14.434000Z</time>
      </trkpt>
      <trkpt lat="39.80787" lon="116.4873">
        <ele>24.95673</ele>
        <time>2014-08-03T11:50:18.452000Z</time>
      </trkpt>
      <trkpt lat="39.80794" lon="116.48742">
        <ele>25.04956</ele>
        <time>2014-08-03T11:50:22.384000Z</time>
      </trkpt>
      <trkpt lat="39.80799" lon="116.48756">
        <ele>22.66669</ele>
        <time>2014-08-03T11:50:26.445000Z</time>
      </trkpt>
      <trkpt lat="39.80805" lon="116.48769">
        <ele>23.37567</ele>
        <time>2014-08-03T11:50:30.425000Z</time>
      </trkpt>
      <trkpt lat="39.80811" lon="116.48781">
        <ele>21.72968</ele>
        <time>2014-08-03T11:50:34.411000Z</time>
      </trkpt>
      <trkpt lat="39.80816" lon="116.48793">
        <ele>19.91388</ele>
        <time>2014-08-03T11:50:38.391000Z</time>
      </trkpt>
      <trkpt lat="39.80822" lon="116.48804">
        <ele>22.64838</ele>
        <time>2014-08-03T11:50:42.383000Z</time>
      </trkpt>
      <trkpt lat="39.80827" lon="116.48815">
        <ele>25.8988</ele>
        <time>2014-08-03T11:50:46.389000Z</time>
      </trkpt>
      <trkpt lat="39.80832" lon="116.48829">
        <ele>27.54779</ele>
        <time>2014-08-03T11:50:50.461000Z</time>
      </trkpt>
      <trkpt lat="39.80836" lon="116.48843">
        <ele>24.90753</ele>
        <time>2014-08-03T11:50:54.385000Z</time>
      </trkpt>
      <trkpt lat="39.80844" lon="116.48853">
        <ele>23.94202</ele>
        <time>2014-08-03T11:50:58.395000Z</time>
      </trkpt>
      <trkpt lat="39.80852" lon="116.48862">
        <ele>24.77985</ele>
        <time>2014-08-03T11:51:02.500000Z</time>
      </trkpt>
      <trkpt lat="39.80858" lon="116.48873">
        <ele>24.57562</ele>
        <time>2014-08-03T11:51:06.453000Z</time>
      </trkpt>
      <trkpt lat="39.80867" lon="116.48881">
        <ele>24.03485</ele>
        <time>2014-08-03T11:51:10.404000Z</time>
      </trkpt>
      <trkpt lat="39.80875" lon="116.48885">
        <ele>23.25256</ele>
        <time>2014-08-03T11:51:13.423000Z</time>
      </trkpt>
      <trkpt lat="39.80886" lon="116.48889">
        <ele>20.7843</ele>
        <time>2014-08-03T11:51:17.435000Z</time>
      </trkpt>
      <trkpt lat="39.80897" lon="116.48886">
        <ele>18.69043</ele>
        <time>2014-08-03T11:51:21.379000Z</time>
      </trkpt>
      <trkpt lat="39.80907" lon="116.48881">
        <ele>22.0993</ele>
        <time>2014-08-03T11:51:25.438000Z</time>
      </trkpt>
      <trkpt lat="39.80917" lon="116.48875">
        <ele>21.0271</ele>
        <time>2014-08-03T11:51:29.446000Z</time>
      </trkpt>
      <trkpt lat="39.80925" lon="116.48868">
        <ele>22.13885</ele>
        <time>2014-08-03T11:51:33.444000Z</time>
      </trkpt>
      <trkpt lat="39.80935" lon="116.4886">
        <ele>22.12909</ele>
        <time>2014-08-03T11:51:37.392000Z</time>
      </trkpt>
      <trkpt lat="39.80945" lon="116.48853">
        <ele>24.33624</ele>
        <time>2014-08-03T11:51:41.382000Z</time>
      </trkpt>
      <trkpt lat="39.80953" lon="116.48846">
        <ele>27.12372</ele>
        <time>2014-08-03T11:51:45.387000Z</time>
      </trkpt>
      <trkpt lat="39.80964" lon="116.4884">
        <ele>29.50409</ele>
        <time>2014-08-03T11:51:49.388000Z</time>
      </trkpt>
      <trkpt lat="39.80976" lon="116.4884">
        <ele>25.67017</ele>
        <time>2014-08-03T11:51:53.384000Z</time>
      </trkpt>
      <trkpt lat="39.80986" lon="116.48842">
        <ele>26.99622</ele>
        <time>2014-08-03T11:51:57.441000Z</time>
      </trkpt>
      <trkpt lat="39.80996" lon="116.48839">
        <ele>27.69788</ele>
        <time>2014-08-03T11:52:01.392000Z</time>
      </trkpt>
      <trkpt lat="39.81005" lon="116.48833">
        <ele>27.84741</ele>
        <time>2014-08-03T11:52:05.386000Z</time>
      </trkpt>
      <trkpt lat="39.81014" lon="116.48825">
        <ele>28.56323</ele>
        <time>2014-08-03T11:52:09.388000Z</time>
      </trkpt>
      <trkpt lat="39.81023" lon="116.48816">
        <ele>29.49261</ele>
        <time>2014-08-03T11:52:13.457000Z</time>
      </trkpt>
      <trkpt lat="39.81031" lon="116.48809">
        <ele>28.97772</ele>
        <time>2014-08-03T11:52:17.447000Z</time>
      </trkpt>
      <trkpt lat="39.81039" lon="116.48803">
        <ele>27.74304</ele>
        <time>2014-08-03T11:52:21.442000Z</time>
      </trkpt>
      <trkpt lat="39.81048" lon="116.48796">
        <ele>29.46637</ele>
        <time>2014-08-03T11:52:25.388000Z</time>
      </trkpt>
      <trkpt lat="39.81055" lon="116.48788">
        <ele>28.88782</ele>
        <time>2014-08-03T11:52:29.462000Z</time>
      </trkpt>
      <trkpt lat="39.81063" lon="116.48782">
        <ele>28.92535</ele>
        <time>2014-08-03T11:52:33.453000Z</time>
      </trkpt>
      <trkpt lat="39.81072" lon="116.48775">
        <ele>30.3988</ele>
        <time>2014-08-03T11:52:37.437000Z</time>
      </trkpt>
      <trkpt lat="39.8108" lon="116.48768">
        <ele>31.68024</ele>
        <time>2014-08-03T11:52:41.396000Z</time>
      </trkpt>
      <trkpt lat="39.81089" lon="116.4876">
        <ele>28.30219</ele>
        <time>2014-08-03T11:52:45.382000Z</time>
      </trkpt>
      <trkpt lat="39.81098" lon="116.48754">
        <ele>27.8526</ele>
        <time>2014-08-03T11:52:49.387000Z</time>
      </trkpt>
      <trkpt lat="39.81107" lon="116.48748">
        <ele>28.60059</ele>
        <time>2014-08-03T11:52:53.436000Z</time>
      </trkpt>
      <trkpt lat="39.81117" lon="116.48741">
        <ele>28.91254</ele>
        <time>2014-08-03T11:52:57.398000Z</time>
      </trkpt>
      <trkpt lat="39.81125" lon="116.48732">
        <ele>28.33032</ele>
        <time>2014-08-03T11:53:01.487000Z</time>
      </trkpt>
      <trkpt lat="39.81129" lon="116.48721">
        <ele>28.10779</ele>
        <time>2014-08-03T11:53:05.443000Z</time>
      </trkpt>
      <trkpt lat="39.81131" lon="116.48707">
        <ele>27.55878</ele>
        <time>2014-08-03T11:53:10.486000Z</time>
      </trkpt>
      <trkpt lat="39.81132" lon="116.48695">
        <ele>31.03839</ele>
        <time>2014-08-03T11:53:14.468000Z</time>
      </trkpt>
      <trkpt lat="39.81131" lon="116.48682">
        <ele>33.11346</ele>
        <time>2014-08-03T11:53:18.426000Z</time>
      </trkpt>
      <trkpt lat="39.8113" lon="116.48668">
        <ele>32.79858</ele>
        <time>2014-08-03T11:53:22.428000Z</time>
      </trkpt>
      <trkpt lat="39.81128" lon="116.48656">
        <ele>33.50995</ele>
        <time>2014-08-03T11:53:26.476000Z</time>
      </trkpt>
      <trkpt lat="39.81128" lon="116.48641">
        <ele>36.54596</ele>
        <time>2014-08-03T11:53:30.471000Z</time>
      </trkpt>
      <trkpt lat="39.81132" lon="116.48627">
        <ele>36.66443</ele>
        <time>2014-08-03T11:53:34.424000Z</time>
      </trkpt>
      <trkpt lat="39.81137" lon="116.48614">
        <ele>36.25916</ele>
        <time>2014-08-03T11:53:38.444000Z</time>
      </trkpt>
      <trkpt lat="39.81144" lon="116.48603">
        <ele>32.69672</ele>
        <time>2014-08-03T11:53:42.381000Z</time>
      </trkpt>
      <trkpt lat="39.81152" lon="116.48592">
        <ele>33.73804</ele>
        <time>2014-08-03T11:53:46.388000Z</time>
      </trkpt>
      <trkpt lat="39.81158" lon="116.48581">
        <ele>36.11041</ele>
        <time>2014-08-03T11:53:50.390000Z</time>
      </trkpt>
      <trkpt lat="39.81161" lon="116.4857">
        <ele>31.06757</ele>
        <time>2014-08-03T11:53:54.378000Z</time>
      </trkpt>
      <trkpt lat="39.81164" lon="116.48556">
        <ele>31.97308</ele>
        <time>2014-08-03T11:53:59.381000Z</time>
      </trkpt>
      <trkpt lat="39.81168" lon="116.48546">
        <ele>29.63818</ele>
        <time>2014-08-03T11:54:03.443000Z</time>
      </trkpt>
      <trkpt lat="39.8117" lon="116.48533">
        <ele>26.87225</ele>
        <time>2014-08-03T11:54:07.407000Z</time>
      </trkpt>
      <trkpt lat="39.81172" lon="116.4852">
        <ele>26.95612</ele>
        <time>2014-08-03T11:54:11.439000Z</time>
      </trkpt>
      <trkpt lat="39.81173" lon="116.48506">
        <ele>28.98572</ele>
        <time>2014-08-03T11:54:15.404000Z</time>
      </trkpt>
      <trkpt lat="39.81173" lon="116.48492">
        <ele>28.315</ele>
        <time>2014-08-03T11:54:19.438000Z</time>
      </trkpt>
      <trkpt lat="39.81171" lon="116.48479">
        <ele>31.96448</ele>
        <time>2014-08-03T11:54:23.431000Z</time>
      </trkpt>
      <trkpt lat="39.81171" lon="116.48466">
        <ele>33.56934</ele>
        <time>2014-08-03T11:54:27.446000Z</time>
      </trkpt>
      <trkpt lat="39.81167" lon="116.48453">
        <ele>36.89697</ele>
        <time>2014-08-03T11:54:32.456000Z</time>
      </trkpt>
      <trkpt lat="39.81163" lon="116.48442">
        <ele>36.60455</ele>
        <time>2014-08-03T11:54:36.377000Z</time>
      </trkpt>
      <trkpt lat="39.81161" lon="116.4843">
        <ele>35.72388</ele>
        <time>2014-08-03T11:54:40.380000Z</time>
      </trkpt>
      <trkpt lat="39.81157" lon="116.48419">
        <ele>34.57751</ele>
        <time>2014-08-03T11:54:44.388000Z</time>
      </trkpt>
      <trkpt lat="39.81151" lon="116.4841">
        <ele>32.69971</ele>
        <time>2014-08-03T11:54:48.384000Z</time>
      </trkpt>
      <trkpt lat="39.81144" lon="116.48398">
        <ele>28.24677</ele>
        <time>2014-08-03T11:54:53.392000Z</time>
      </trkpt>
      <trkpt lat="39.8114" lon="116.48386">
        <ele>25.90979</ele>
        <time>2014-08-03T11:54:57.445000Z</time>
      </trkpt>
      <trkpt lat="39.81134" lon="116.48376">
        <ele>27.89471</ele>
        <time>2014-08-03T11:55:09.453000Z</time>
      </trkpt>
      <trkpt lat="39.8113" lon="116.48363">
        <ele>25.54663</ele>
        <time>2014-08-03T11:55:14.458000Z</time>
      </trkpt>
      <trkpt lat="39.81123" lon="116.48351">
        <ele>24.23328</ele>
        <time>2014-08-03T11:55:18.443000Z</time>
      </trkpt>
      <trkpt lat="39.81116" lon="116.48341">
        <ele>22.2876</ele>
        <time>2014-08-03T11:55:22.478000Z</time>
      </trkpt>
      <trkpt lat="39.81111" lon="116.4833">
        <ele>20.74445</ele>
        <time>2014-08-03T11:55:26.396000Z</time>
      </trkpt>
      <trkpt lat="39.81106" lon="116.48319">
        <ele>23.61652</ele>
        <time>2014-08-03T11:55:30.402000Z</time>
      </trkpt>
      <trkpt lat="39.81099" lon="116.48308">
        <ele>25.52332</ele>
        <time>2014-08-03T11:55:34.390000Z</time>
      </trkpt>
      <trkpt lat="39.81095" lon="116.48297">
        <ele>26.51971</ele>
        <time>2014-08-03T11:55:38.376000Z</time>
      </trkpt>
      <trkpt lat="39.81094" lon="116.48285">
        <ele>26.34833</ele>
        <time>2014-08-03T11:55:41.401000Z</time>
      </trkpt>
      <trkpt lat="39.81091" lon="116.48273">
        <ele>27.58002</ele>
        <time>2014-08-03T11:55:45.383000Z</time>
      </trkpt>
      <trkpt lat="39.81086" lon="116.48261">
        <ele>26.94208</ele>
        <time>2014-08-03T11:55:49.399000Z</time>
      </trkpt>
      <trkpt lat="39.81079" lon="116.4825">
        <ele>28.24109</ele>
        <time>2014-08-03T11:55:53.396000Z</time>
      </trkpt>
      <trkpt lat="39.81072" lon="116.4824">
        <ele>30.52686</ele>
        <time>2014-08-03T11:55:57.440000Z</time>
      </trkpt>
      <trkpt lat="39.81064" lon="116.4823">
        <ele>29.2099</ele>
        <time>2014-08-03T11:56:01.470000Z</time>
      </trkpt>
      <trkpt lat="39.81057" lon="116.4822">
        <ele>28.94635</ele>
        <time>2014-08-03T11:56:05.425000Z</time>
      </trkpt>
      <trkpt lat="39.8105" lon="116.48208">
        <ele>29.28082</ele>
        <time>2014-08-03T11:56:09.438000Z</time>
      </trkpt>
      <trkpt lat="39.81043" lon="116.48197">
        <ele>30.01434</ele>
        <time>2014-08-03T11:56:13.436000Z</time>
      </trkpt>
      <trkpt lat="39.81035" lon="116.48189">
        <ele>29.36151</ele>
        <time>2014-08-03T11:56:17.455000Z</time>
      </trkpt>
      <trkpt lat="39.81025" lon="116.48181">
        <ele>29.09143</ele>
        <time>2014-08-03T11:56:21.382000Z</time>
      </trkpt>
      <trkpt lat="39.81017" lon="116.48173">
        <ele>26.95874</ele>
        <time>2014-08-03T11:56:25.443000Z</time>
      </trkpt>
      <trkpt lat="39.81007" lon="116.48166">
        <ele>27.25708</ele>
        <time>2014-08-03T11:56:29.424000Z</time>
      </trkpt>
      <trkpt lat="39.80999" lon="116.48157">
        <ele>29.74017</ele>
        <time>2014-08-03T11:56:33.485000Z</time>
      </trkpt>
      <trkpt lat="39.80992" lon="116.48148">
        <ele>26.60211</ele>
        <time>2014-08-03T11:56:37.401000Z</time>
      </trkpt>
      <trkpt lat="39.80985" lon="116.48136">
        <ele>27.40924</ele>
        <time>2014-08-03T11:56:41.401000Z</time>
      </trkpt>
      <trkpt lat="39.80978" lon="116.48127">
        <ele>29.17926</ele>
        <time>2014-08-03T11:56:45.400000Z</time>
      </trkpt>
      <trkpt lat="39.8097" lon="116.48117">
        <ele>30.41656</ele>
        <time>2014-08-03T11:56:49.392000Z</time>
      </trkpt>
      <trkpt lat="39.80962" lon="116.48106">
        <ele>31.38776</ele>
        <time>2014-08-03T11:56:53.391000Z</time>
      </trkpt>
      <trkpt lat="39.80956" lon="116.48094">
        <ele>33.06769</ele>
        <time>2014-08-03T11:56:57.401000Z</time>
      </trkpt>
      <trkpt lat="39.80948" lon="116.48083">
        <ele>32.5448</ele>
        <time>2014-08-03T11:57:01.387000Z</time>
      </trkpt>
      <trkpt lat="39.80941" lon="116.48071">
        <ele>31.51447</ele>
        <time>2014-08-03T11:57:05.390000Z</time>
      </trkpt>
      <trkpt lat="39.80936" lon="116.48059">
        <ele>27.73334</ele>
        <time>2014-08-03T11:57:09.413000Z</time>
      </trkpt>
      <trkpt lat="39.80934" lon="116.48045">
        <ele>27.9231</ele>
        <time>2014-08-03T11:57:13.435000Z</time>
      </trkpt>
      <trkpt lat="39.80931" lon="116.48031">
        <ele>28.07654</ele>
        <time>2014-08-03T11:57:17.396000Z</time>
      </trkpt>
      <trkpt lat="39.80925" lon="116.48018">
        <ele>26.86035</ele>
        <time>2014-08-03T11:57:21.390000Z</time>
      </trkpt>
      <trkpt lat="39.80921" lon="116.48004">
        <ele>26.20459</ele>
        <time>2014-08-03T11:57:25.408000Z</time>
      </trkpt>
      <trkpt lat="39.80915" lon="116.47992">
        <ele>26.4245</ele>
        <time>2014-08-03T11:57:29.397000Z</time>
      </trkpt>
      <trkpt lat="39.80914" lon="116.47977">
        <ele>29.6214</ele>
        <time>2014-08-03T11:57:33.388000Z</time>
      </trkpt>
      <trkpt lat="39.80909" lon="116.47965">
        <ele>29.79181</ele>
        <time>2014-08-03T11:57:37.455000Z</time>
      </trkpt>
      <trkpt lat="39.80906" lon="116.47953">
        <ele>31.25256</ele>
        <time>2014-08-03T11:57:41.390000Z</time>
      </trkpt>
      <trkpt lat="39.809" lon="116.47942">
        <ele>31.20514</ele>
        <time>2014-08-03T11:57:45.393000Z</time>
      </trkpt>
      <trkpt lat="39.80895" lon="116.47931">
        <ele>33.98767</ele>
        <time>2014-08-03T11:57:49.391000Z</time>
      </trkpt>
      <trkpt lat="39.80888" lon="116.47922">
        <ele>37.15375</ele>
        <time>2014-08-03T11:57:53.405000Z</time>
      </trkpt>
      <trkpt lat="39.80881" lon="116.47914">
        <ele>36.51288</ele>
        <time>2014-08-03T11:57:57.388000Z</time>
      </trkpt>
      <trkpt lat="39.80876" lon="116.47904">
        <ele>35.85046</ele>
        <time>2014-08-03T11:58:01.395000Z</time>
      </trkpt>
      <trkpt lat="39.80869" lon="116.47894">
        <ele>35.78387</ele>
        <time>2014-08-03T11:58:05.432000Z</time>
      </trkpt>
      <trkpt lat="39.80863" lon="116.47883">
        <ele>33.97327</ele>
        <time>2014-08-03T11:58:09.407000Z</time>
      </trkpt>
      <trkpt lat="39.80856" lon="116.47873">
        <ele>35.86945</ele>
        <time>2014-08-03T11:58:13.393000Z</time>
      </trkpt>
      <trkpt lat="39.80848" lon="116.47864">
        <ele>36.77283</ele>
        <time>2014-08-03T11:58:17.414000Z</time>
      </trkpt>
      <trkpt lat="39.80841" lon="116.47854">
        <ele>37.4939</ele>
        <time>2014-08-03T11:58:21.463000Z</time>
      </trkpt>
      <trkpt lat="39.80834" lon="116.47843">
        <ele>39.41443</ele>
        <time>2014-08-03T11:58:25.389000Z</time>
      </trkpt>
      <trkpt lat="39.80828" lon="116.47832">
        <ele>37.78168</ele>
        <time>2014-08-03T11:58:29.401000Z</time>
      </trkpt>
      <trkpt lat="39.80822" lon="116.47821">
        <ele>38.75336</ele>
        <time>2014-08-03T11:58:33.390000Z</time>
      </trkpt>
      <trkpt lat="39.80814" lon="116.4781">
        <ele>36.06219</ele>
        <time>2014-08-03T11:58:37.402000Z</time>
      </trkpt>
      <trkpt lat="39.80808" lon="116.47798">
        <ele>35.43799</ele>
        <time>2014-08-03T11:58:41.389000Z</time>
      </trkpt>
      <trkpt lat="39.80801" lon="116.47785">
        <ele>33.92096</ele>
        <time>2014-08-03T11:58:45.397000Z</time>
      </trkpt>
      <trkpt lat="39.80797" lon="116.47774">
        <ele>33.71783</ele>
        <time>2014-08-03T11:58:48.390000Z</time>
      </trkpt>
      <trkpt lat="39.80792" lon="116.47761">
        <ele>33.75525</ele>
        <time>2014-08-03T11:58:52.391000Z</time>
      </trkpt>
      <trkpt lat="39.80786" lon="116.47749">
        <ele>31.87628</ele>
        <time>2014-08-03T11:58:56.474000Z</time>
      </trkpt>
      <trkpt lat="39.80781" lon="116.47736">
        <ele>30.45398</ele>
        <time>2014-08-03T11:59:00.449000Z</time>
      </trkpt>
      <trkpt lat="39.80778" lon="116.47724">
        <ele>31.59076</ele>
        <time>2014-08-03T11:59:03.433000Z</time>
      </trkpt>
      <trkpt lat="39.80774" lon="116.4771">
        <ele>30.68768</ele>
        <time>2014-08-03T11:59:07.477000Z</time>
      </trkpt>
      <trkpt lat="39.8077" lon="116.47696">
        <ele>29.96991</ele>
        <time>2014-08-03T11:59:11.395000Z</time>
      </trkpt>
      <trkpt lat="39.80766" lon="116.47683">
        <ele>28.19672</ele>
        <time>2014-08-03T11:59:15.455000Z</time>
      </trkpt>
      <trkpt lat="39.80759" lon="116.47671">
        <ele>28.71002</ele>
        <time>2014-08-03T11:59:19.441000Z</time>
      </trkpt>
      <trkpt lat="39.80753" lon="116.47657">
        <ele>28.67407</ele>
        <time>2014-08-03T11:59:23.462000Z</time>
      </trkpt>
      <trkpt lat="39.80747" lon="116.47649">
        <ele>29.65375</ele>
        <time>2014-08-03T11:59:26.469000Z</time>
      </trkpt>
      <trkpt lat="39.80739" lon="116.47637">
        <ele>26.92017</ele>
        <time>2014-08-03T11:59:30.440000Z</time>
      </trkpt>
      <trkpt lat="39.80734" lon="116.47625">
        <ele>28.92792</ele>
        <time>2014-08-03T11:59:34.433000Z</time>
      </trkpt>
      <trkpt lat="39.80727" lon="116.47615">
        <ele>28.98041</ele>
        <time>2014-08-03T11:59:38.398000Z</time>
      </trkpt>
      <trkpt lat="39.80722" lon="116.47604">
        <ele>31.35986</ele>
        <time>2014-08-03T11:59:42.425000Z</time>
      </trkpt>
      <trkpt lat="39.80713" lon="116.47595">
        <ele>34.08716</ele>
        <time>2014-08-03T11:59:46.401000Z</time>
      </trkpt>
      <trkpt lat="39.80705" lon="116.47587">
        <ele>36.13428</ele>
        <time>2014-08-03T11:59:50.394000Z</time>
      </trkpt>
      <trkpt lat="39.807" lon="116.47576">
        <ele>35.89594</ele>
        <time>2014-08-03T11:59:54.404000Z</time>
      </trkpt>
      <trkpt lat="39.80697" lon="116.47563">
        <ele>37.50537</ele>
        <time>2014-08-03T11:59:58.445000Z</time>
      </trkpt>
      <trkpt lat="39.80689" lon="116.47552">
        <ele>37.57312</ele>
        <time>2014-08-03T12:00:02.431000Z</time>
      </trkpt>
      <trkpt lat="39.80681" lon="116.47542">
        <ele>33.13354</ele>
        <time>2014-08-03T12:00:06.429000Z</time>
      </trkpt>
      <trkpt lat="39.80673" lon="116.47533">
        <ele>32.20624</ele>
        <time>2014-08-03T12:00:10.409000Z</time>
      </trkpt>
      <trkpt lat="39.80664" lon="116.47529">
        <ele>32.40259</ele>
        <time>2014-08-03T12:00:14.492000Z</time>
      </trkpt>
      <trkpt lat="39.80658" lon="116.47518">
        <ele>29.6355</ele>
        <time>2014-08-03T12:00:19.430000Z</time>
      </trkpt>
      <trkpt lat="39.80649" lon="116.47512">
        <ele>31.32489</ele>
        <time>2014-08-03T12:00:24.396000Z</time>
      </trkpt>
      <trkpt lat="39.8064" lon="116.47508">
        <ele>31.84747</ele>
        <time>2014-08-03T12:00:28.468000Z</time>
      </trkpt>
      <trkpt lat="39.8063" lon="116.47508">
        <ele>34.84271</ele>
        <time>2014-08-03T12:00:32.395000Z</time>
      </trkpt>
      <trkpt lat="39.8062" lon="116.4751">
        <ele>35.16644</ele>
        <time>2014-08-03T12:00:36.460000Z</time>
      </trkpt>
      <trkpt lat="39.8061" lon="116.47512">
        <ele>34.68726</ele>
        <time>2014-08-03T12:00:40.424000Z</time>
      </trkpt>
      <trkpt lat="39.80599" lon="116.47516">
        <ele>37.42542</ele>
        <time>2014-08-03T12:00:44.397000Z</time>
      </trkpt>
      <trkpt lat="39.80589" lon="116.47522">
        <ele>36.58215</ele>
        <time>2014-08-03T12:00:48.395000Z</time>
      </trkpt>
      <trkpt lat="39.8058" lon="116.47527">
        <ele>37.39532</ele>
        <time>2014-08-03T12:00:51.396000Z</time>
      </trkpt>
      <trkpt lat="39.80571" lon="116.47533">
        <ele>37.84448</ele>
        <time>2014-08-03T12:00:54.426000Z</time>
      </trkpt>
      <trkpt lat="39.80561" lon="116.47541">
        <ele>36.75647</ele>
        <time>2014-08-03T12:00:58.441000Z</time>
      </trkpt>
      <trkpt lat="39.80551" lon="116.47548">
        <ele>37.21002</ele>
        <time>2014-08-03T12:01:02.476000Z</time>
      </trkpt>
      <trkpt lat="39.80541" lon="116.47557">
        <ele>36.76477</ele>
        <time>2014-08-03T12:01:06.466000Z</time>
      </trkpt>
      <trkpt lat="39.80532" lon="116.47565">
        <ele>36.66772</ele>
        <time>2014-08-03T12:01:10.428000Z</time>
      </trkpt>
      <trkpt lat="39.80524" lon="116.47572">
        <ele>33.45386</ele>
        <time>2014-08-03T12:01:14.448000Z</time>
      </trkpt>
      <trkpt lat="39.80516" lon="116.47579">
        <ele>28.96631</ele>
        <time>2014-08-03T12:01:18.483000Z</time>
      </trkpt>
      <trkpt lat="39.80507" lon="116.47585">
        <ele>30.96539</ele>
        <time>2014-08-03T12:01:22.483000Z</time>
      </trkpt>
      <trkpt lat="39.80499" lon="116.47591">
        <ele>34.91321</ele>
        <time>2014-08-03T12:01:26.420000Z</time>
      </trkpt>
      <trkpt lat="39.8049" lon="116.47598">
        <ele>36.15704</ele>
        <time>2014-08-03T12:01:30.467000Z</time>
      </trkpt>
      <trkpt lat="39.80481" lon="116.47605">
        <ele>36.78528</ele>
        <time>2014-08-03T12:01:34.479000Z</time>
      </trkpt>
      <trkpt lat="39.80472" lon="116.47613">
        <ele>38.43726</ele>
        <time>2014-08-03T12:01:38.474000Z</time>
      </trkpt>
      <trkpt lat="39.80464" lon="116.4762">
        <ele>37.97925</ele>
        <time>2014-08-03T12:01:42.421000Z</time>
      </trkpt>
      <trkpt lat="39.80455" lon="116.47625">
        <ele>40.6579</ele>
        <time>2014-08-03T12:01:46.402000Z</time>
      </trkpt>
      <trkpt lat="39.80448" lon="116.47631">
        <ele>38.54755</ele>
        <time>2014-08-03T12:01:50.397000Z</time>
      </trkpt>
      <trkpt lat="39.80438" lon="116.47638">
        <ele>36.95728</ele>
        <time>2014-08-03T12:01:54.444000Z</time>
      </trkpt>
      <trkpt lat="39.8043" lon="116.47643">
        <ele>37.36023</ele>
        <time>2014-08-03T12:01:58.449000Z</time>
      </trkpt>
      <trkpt lat="39.80422" lon="116.47651">
        <ele>35.84247</ele>
        <time>2014-08-03T12:02:02.414000Z</time>
      </trkpt>
      <trkpt lat="39.80415" lon="116.47658">
        <ele>32.44482</ele>
        <time>2014-08-03T12:02:05.456000Z</time>
      </trkpt>
      <trkpt lat="39.80405" lon="116.47667">
        <ele>30.24573</ele>
        <time>2014-08-03T12:02:09.416000Z</time>
      </trkpt>
      <trkpt lat="39.80395" lon="116.47674">
        <ele>28.98828</ele>
        <time>2014-08-03T12:02:13.469000Z</time>
      </trkpt>
      <trkpt lat="39.80387" lon="116.47683">
        <ele>27.17249</ele>
        <time>2014-08-03T12:02:17.465000Z</time>
      </trkpt>
      <trkpt lat="39.80377" lon="116.47693">
        <ele>21.797</ele>
        <time>2014-08-03T12:02:21.447000Z</time>
      </trkpt>
      <trkpt lat="39.80373" lon="116.47706">
        <ele>24.9082</ele>
        <time>2014-08-03T12:02:25.410000Z</time>
      </trkpt>
      <trkpt lat="39.80371" lon="116.47721">
        <ele>23.69769</ele>
        <time>2014-08-03T12:02:29.471000Z</time>
      </trkpt>
      <trkpt lat="39.80372" lon="116.47732">
        <ele>22.22656</ele>
        <time>2014-08-03T12:02:33.450000Z</time>
      </trkpt>
      <trkpt lat="39.80374" lon="116.47745">
        <ele>23.11475</ele>
        <time>2014-08-03T12:02:37.415000Z</time>
      </trkpt>
      <trkpt lat="39.80378" lon="116.47756">
        <ele>22.06348</ele>
        <time>2014-08-03T12:02:44.399000Z</time>
      </trkpt>
      <trkpt lat="39.80379" lon="116.47769">
        <ele>26.7652</ele>
        <time>2014-08-03T12:02:51.415000Z</time>
      </trkpt>
      <trkpt lat="39.8038" lon="116.47782">
        <ele>25.69568</ele>
        <time>2014-08-03T12:02:57.413000Z</time>
      </trkpt>
      <trkpt lat="39.80384" lon="116.47793">
        <ele>24.0752</ele>
        <time>2014-08-03T12:03:01.422000Z</time>
      </trkpt>
      <trkpt lat="39.80388" lon="116.47804">
        <ele>23.39178</ele>
        <time>2014-08-03T12:03:05.457000Z</time>
      </trkpt>
      <trkpt lat="39.80391" lon="116.47815">
        <ele>25.05878</ele>
        <time>2014-08-03T12:03:09.460000Z</time>
      </trkpt>
      <trkpt lat="39.80396" lon="116.47825">
        <ele>24.21417</ele>
        <time>2014-08-03T12:03:13.407000Z</time>
      </trkpt>
      <trkpt lat="39.80402" lon="116.47836">
        <ele>23.36682</ele>
        <time>2014-08-03T12:03:17.465000Z</time>
      </trkpt>
      <trkpt lat="39.80407" lon="116.47849">
        <ele>27.42938</ele>
        <time>2014-08-03T12:03:21.432000Z</time>
      </trkpt>
      <trkpt lat="39.80415" lon="116.47861">
        <ele>22.77692</ele>
        <time>2014-08-03T12:03:25.456000Z</time>
      </trkpt>
      <trkpt lat="39.80421" lon="116.47873">
        <ele>23.13873</ele>
        <time>2014-08-03T12:03:29.404000Z</time>
      </trkpt>
      <trkpt lat="39.80425" lon="116.47886">
        <ele>22.69769</ele>
        <time>2014-08-03T12:03:33.461000Z</time>
      </trkpt>
      <trkpt lat="39.80428" lon="116.47899">
        <ele>25.92273</ele>
        <time>2014-08-03T12:03:37.452000Z</time>
      </trkpt>
      <trkpt lat="39.8043" lon="116.47912">
        <ele>23.10101</ele>
        <time>2014-08-03T12:03:41.400000Z</time>
      </trkpt>
      <trkpt lat="39.80433" lon="116.47926">
        <ele>25.09198</ele>
        <time>2014-08-03T12:03:45.403000Z</time>
      </trkpt>
      <trkpt lat="39.80439" lon="116.47935">
        <ele>25.45599</ele>
        <time>2014-08-03T12:03:49.402000Z</time>
      </trkpt>
      <trkpt lat="39.80444" lon="116.47948">
        <ele>30.0506</ele>
        <time>2014-08-03T12:03:54.422000Z</time>
      </trkpt>
      <trkpt lat="39.80449" lon="116.4796">
        <ele>31.24854</ele>
        <time>2014-08-03T12:03:59.403000Z</time>
      </trkpt>
      <trkpt lat="39.80456" lon="116.47971">
        <ele>32.2832</ele>
        <time>2014-08-03T12:04:03.463000Z</time>
      </trkpt>
      <trkpt lat="39.80462" lon="116.4798">
        <ele>32.4118</ele>
        <time>2014-08-03T12:04:06.431000Z</time>
      </trkpt>
      <trkpt lat="39.80466" lon="116.47991">
        <ele>30.08344</ele>
        <time>2014-08-03T12:04:09.465000Z</time>
      </trkpt>
      <trkpt lat="39.80468" lon="116.48004">
        <ele>29.86761</ele>
        <time>2014-08-03T12:04:12.467000Z</time>
      </trkpt>
      <trkpt lat="39.80472" lon="116.48018">
        <ele>27.4715</ele>
        <time>2014-08-03T12:04:16.453000Z</time>
      </trkpt>
      <trkpt lat="39.80478" lon="116.4803">
        <ele>25.98981</ele>
        <time>2014-08-03T12:04:20.477000Z</time>
      </trkpt>
      <trkpt lat="39.80483" lon="116.48041">
        <ele>24.03534</ele>
        <time>2014-08-03T12:04:24.407000Z</time>
      </trkpt>
      <trkpt lat="39.80489" lon="116.48053">
        <ele>23.76007</ele>
        <time>2014-08-03T12:04:28.462000Z</time>
      </trkpt>
      <trkpt lat="39.80495" lon="116.48065">
        <ele>24.68488</ele>
        <time>2014-08-03T12:04:32.457000Z</time>
      </trkpt>
      <trkpt lat="39.80501" lon="116.48077">
        <ele>25.57062</ele>
        <time>2014-08-03T12:04:36.493000Z</time>
      </trkpt>
      <trkpt lat="39.80505" lon="116.4809">
        <ele>25.45612</ele>
        <time>2014-08-03T12:04:40.399000Z</time>
      </trkpt>
      <trkpt lat="39.8051" lon="116.481">
        <ele>26.48126</ele>
        <time>2014-08-03T12:04:44.398000Z</time>
      </trkpt>
      <trkpt lat="39.80514" lon="116.48114">
        <ele>28.98676</ele>
        <time>2014-08-03T12:04:49.406000Z</time>
      </trkpt>
      <trkpt lat="39.80519" lon="116.48127">
        <ele>31.49182</ele>
        <time>2014-08-03T12:04:54.423000Z</time>
      </trkpt>
      <trkpt lat="39.80524" lon="116.4814">
        <ele>33.71851</ele>
        <time>2014-08-03T12:04:59.454000Z</time>
      </trkpt>
      <trkpt lat="39.8053" lon="116.48149">
        <ele>28.93634</ele>
        <time>2014-08-03T12:05:03.402000Z</time>
      </trkpt>
      <trkpt lat="39.80533" lon="116.48162">
        <ele>28.13434</ele>
        <time>2014-08-03T12:05:07.406000Z</time>
      </trkpt>
      <trkpt lat="39.80539" lon="116.48174">
        <ele>26.9931</ele>
        <time>2014-08-03T12:05:11.401000Z</time>
      </trkpt>
      <trkpt lat="39.80544" lon="116.48186">
        <ele>28.27112</ele>
        <time>2014-08-03T12:05:15.482000Z</time>
      </trkpt>
      <trkpt lat="39.80549" lon="116.48197">
        <ele>30.71881</ele>
        <time>2014-08-03T12:05:19.420000Z</time>
      </trkpt>
      <trkpt lat="39.80555" lon="116.48209">
        <ele>30.59894</ele>
        <time>2014-08-03T12:05:23.433000Z</time>
      </trkpt>
      <trkpt lat="39.80559" lon="116.4822">
        <ele>27.16785</ele>
        <time>2014-08-03T12:05:27.413000Z</time>
      </trkpt>
      <trkpt lat="39.80564" lon="116.48232">
        <ele>28.26361</ele>
        <time>2014-08-03T12:05:31.495000Z</time>
      </trkpt>
      <trkpt lat="39.80569" lon="116.48243">
        <ele>27.08453</ele>
        <time>2014-08-03T12:05:35.470000Z</time>
      </trkpt>
      <trkpt lat="39.80575" lon="116.48253">
        <ele>29.08209</ele>
        <time>2014-08-03T12:05:42.417000Z</time>
      </trkpt>
      <trkpt lat="39.80579" lon="116.48265">
        <ele>28.10242</ele>
        <time>2014-08-03T12:05:49.406000Z</time>
      </trkpt>
      <trkpt lat="39.80584" lon="116.48277">
        <ele>27.31714</ele>
        <time>2014-08-03T12:05:55.460000Z</time>
      </trkpt>
      <trkpt lat="39.80588" lon="116.48288">
        <ele>27.8371</ele>
        <time>2014-08-03T12:05:59.406000Z</time>
      </trkpt>
      <trkpt lat="39.80591" lon="116.48299">
        <ele>30.02618</ele>
        <time>2014-08-03T12:06:03.453000Z</time>
      </trkpt>
      <trkpt lat="39.80597" lon="116.48312">
        <ele>27.82294</ele>
        <time>2014-08-03T12:06:08.423000Z</time>
      </trkpt>
      <trkpt lat="39.80602" lon="116.48325">
        <ele>24.26978</ele>
        <time>2014-08-03T12:06:13.407000Z</time>
      </trkpt>
      <trkpt lat="39.80608" lon="116.48338">
        <ele>22.74487</ele>
        <time>2014-08-03T12:06:17.402000Z</time>
      </trkpt>
      <trkpt lat="39.80615" lon="116.48346">
        <ele>23.7323</ele>
        <time>2014-08-03T12:06:20.424000Z</time>
      </trkpt>
      <trkpt lat="39.80622" lon="116.48356">
        <ele>26.93109</ele>
        <time>2014-08-03T12:06:24.410000Z</time>
      </trkpt>
      <trkpt lat="39.80629" lon="116.48368">
        <ele>27.07776</ele>
        <time>2014-08-03T12:06:28.477000Z</time>
      </trkpt>
      <trkpt lat="39.80635" lon="116.4838">
        <ele>30.71204</ele>
        <time>2014-08-03T12:06:32.454000Z</time>
      </trkpt>
      <trkpt lat="39.80641" lon="116.48393">
        <ele>31.86255</ele>
        <time>2014-08-03T12:06:36.418000Z</time>
      </trkpt>
      <trkpt lat="39.80645" lon="116.48405">
        <ele>31.36792</ele>
        <time>2014-08-03T12:06:40.445000Z</time>
      </trkpt>
      <trkpt lat="39.8065" lon="116.48416">
        <ele>30.32965</ele>
        <time>2014-08-03T12:06:44.401000Z</time>
      </trkpt>
      <trkpt lat="39.80655" lon="116.48426">
        <ele>27.98193</ele>
        <time>2014-08-03T12:06:47.398000Z</time>
      </trkpt>
      <trkpt lat="39.80659" lon="116.48437">
        <ele>27.10815</ele>
        <time>2014-08-03T12:06:50.404000Z</time>
      </trkpt>
      <trkpt lat="39.80663" lon="116.4845">
        <ele>27.69788</ele>
        <time>2014-08-03T12:06:54.406000Z</time>
      </trkpt>
      <trkpt lat="39.80668" lon="116.48462">
        <ele>27.22809</ele>
        <time>2014-08-03T12:06:58.472000Z</time>
      </trkpt>
      <trkpt lat="39.80674" lon="116.48474">
        <ele>27.14178</ele>
        <time>2014-08-03T12:07:02.461000Z</time>
      </trkpt>
      <trkpt lat="39.8068" lon="116.48485">
        <ele>26.06213</ele>
        <time>2014-08-03T12:07:06.473000Z</time>
      </trkpt>
      <trkpt lat="39.80682" lon="116.48499">
        <ele>25.08759</ele>
        <time>2014-08-03T12:07:10.398000Z</time>
      </trkpt>
      <trkpt lat="39.80687" lon="116.48513">
        <ele>24.43451</ele>
        <time>2014-08-03T12:07:14.431000Z</time>
      </trkpt>
      <trkpt lat="39.80694" lon="116.48524">
        <ele>26.81268</ele>
        <time>2014-08-03T12:07:18.478000Z</time>
      </trkpt>
      <trkpt lat="39.80699" lon="116.48537">
        <ele>27.76288</ele>
        <time>2014-08-03T12:07:22.460000Z</time>
      </trkpt>
      <trkpt lat="39.80705" lon="116.48549">
        <ele>22.74274</ele>
        <time>2014-08-03T12:07:26.403000Z</time>
      </trkpt>
      <trkpt lat="39.80709" lon="116.48562">
        <ele>21.61298</ele>
        <time>2014-08-03T12:07:30.448000Z</time>
      </trkpt>
      <trkpt lat="39.80717" lon="116.48569">
        <ele>23.14838</ele>
        <time>2014-08-03T12:07:34.478000Z</time>
      </trkpt>
      <trkpt lat="39.80724" lon="116.48578">
        <ele>22.66937</ele>
        <time>2014-08-03T12:07:38.454000Z</time>
      </trkpt>
      <trkpt lat="39.80727" lon="116.48591">
        <ele>24.25397</ele>
        <time>2014-08-03T12:07:44.401000Z</time>
      </trkpt>
      <trkpt lat="39.80732" lon="116.48603">
        <ele>25.31165</ele>
        <time>2014-08-03T12:07:49.399000Z</time>
      </trkpt>
      <trkpt lat="39.80737" lon="116.48615">
        <ele>25.90326</ele>
        <time>2014-08-03T12:07:54.464000Z</time>
      </trkpt>
      <trkpt lat="39.80743" lon="116.48626">
        <ele>25.14105</ele>
        <time>2014-08-03T12:07:58.418000Z</time>
      </trkpt>
      <trkpt lat="39.80746" lon="116.48638">
        <ele>29.08435</ele>
        <time>2014-08-03T12:08:02.457000Z</time>
      </trkpt>
      <trkpt lat="39.80752" lon="116.48649">
        <ele>30.65503</ele>
        <time>2014-08-03T12:08:06.452000Z</time>
      </trkpt>
      <trkpt lat="39.80759" lon="116.48661">
        <ele>30.37012</ele>
        <time>2014-08-03T12:08:10.446000Z</time>
      </trkpt>
      <trkpt lat="39.80765" lon="116.48672">
        <ele>28.70544</ele>
        <time>2014-08-03T12:08:14.419000Z</time>
      </trkpt>
      <trkpt lat="39.80771" lon="116.48682">
        <ele>30.60046</ele>
        <time>2014-08-03T12:08:18.464000Z</time>
      </trkpt>
      <trkpt lat="39.80776" lon="116.48695">
        <ele>29.94586</ele>
        <time>2014-08-03T12:08:23.401000Z</time>
      </trkpt>
      <trkpt lat="39.8078" lon="116.48706">
        <ele>27.48517</ele>
        <time>2014-08-03T12:08:27.448000Z</time>
      </trkpt>
      <trkpt lat="39.80785" lon="116.48719">
        <ele>25.57202</ele>
        <time>2014-08-03T12:08:32.447000Z</time>
      </trkpt>
      <trkpt lat="39.8079" lon="116.48731">
        <ele>26.36292</ele>
        <time>2014-08-03T12:08:36.436000Z</time>
      </trkpt>
      <trkpt lat="39.80794" lon="116.48742">
        <ele>24.44019</ele>
        <time>2014-08-03T12:08:40.461000Z</time>
      </trkpt>
      <trkpt lat="39.80799" lon="116.48752">
        <ele>23.94373</ele>
        <time>2014-08-03T12:08:44.408000Z</time>
      </trkpt>
      <trkpt lat="39.80806" lon="116.48761">
        <ele>28.47119</ele>
        <time>2014-08-03T12:08:48.401000Z</time>
      </trkpt>
      <trkpt lat="39.80813" lon="116.48769">
        <ele>28.62769</ele>
        <time>2014-08-03T12:08:51.408000Z</time>
      </trkpt>
      <trkpt lat="39.8082" lon="116.48781">
        <ele>31.29657</ele>
        <time>2014-08-03T12:08:55.414000Z</time>
      </trkpt>
      <trkpt lat="39.80826" lon="116.48792">
        <ele>28.61609</ele>
        <time>2014-08-03T12:08:59.416000Z</time>
      </trkpt>
      <trkpt lat="39.80827" lon="116.48803">
        <ele>27.64081</ele>
        <time>2014-08-03T12:09:06.418000Z</time>
      </trkpt>
      <trkpt lat="39.8083" lon="116.48815">
        <ele>24.05231</ele>
        <time>2014-08-03T12:09:14.413000Z</time>
      </trkpt>
      <trkpt lat="39.80835" lon="116.48825">
        <ele>23.64441</ele>
        <time>2014-08-03T12:09:21.403000Z</time>
      </trkpt>
      <trkpt lat="39.80841" lon="116.48834">
        <ele>24.78699</ele>
        <time>2014-08-03T12:09:26.421000Z</time>
      </trkpt>
      <trkpt lat="39.80846" lon="116.48846">
        <ele>22.72333</ele>
        <time>2014-08-03T12:09:30.470000Z</time>
      </trkpt>
      <trkpt lat="39.80852" lon="116.48858">
        <ele>25.80487</ele>
        <time>2014-08-03T12:09:34.405000Z</time>
      </trkpt>
      <trkpt lat="39.80862" lon="116.48867">
        <ele>26.4729</ele>
        <time>2014-08-03T12:09:38.408000Z</time>
      </trkpt>
      <trkpt lat="39.8087" lon="116.48875">
        <ele>21.74988</ele>
        <time>2014-08-03T12:09:42.406000Z</time>
      </trkpt>
      <trkpt lat="39.80882" lon="116.48878">
        <ele>23.81549</ele>
        <time>2014-08-03T12:09:46.426000Z</time>
      </trkpt>
      <trkpt lat="39.80892" lon="116.48878">
        <ele>23.49835</ele>
        <time>2014-08-03T12:09:49.406000Z</time>
      </trkpt>
      <trkpt lat="39.80904" lon="116.48878">
        <ele>22.56567</ele>
        <time>2014-08-03T12:09:53.404000Z</time>
      </trkpt>
      <trkpt lat="39.80914" lon="116.48873">
        <ele>20.38098</ele>
        <time>2014-08-03T12:09:58.412000Z</time>
      </trkpt>
      <trkpt lat="39.80925" lon="116.48869">
        <ele>21.16571</ele>
        <time>2014-08-03T12:10:03.413000Z</time>
      </trkpt>
      <trkpt lat="39.80933" lon="116.48863">
        <ele>22.21851</ele>
        <time>2014-08-03T12:10:07.443000Z</time>
      </trkpt>
      <trkpt lat="39.80941" lon="116.48858">
        <ele>23.31165</ele>
        <time>2014-08-03T12:10:11.495000Z</time>
      </trkpt>
      <trkpt lat="39.80948" lon="116.4885">
        <ele>21.65167</ele>
        <time>2014-08-03T12:10:15.410000Z</time>
      </trkpt>
      <trkpt lat="39.80958" lon="116.48843">
        <ele>26.9812</ele>
        <time>2014-08-03T12:10:19.416000Z</time>
      </trkpt>
      <trkpt lat="39.80967" lon="116.48838">
        <ele>27.58569</ele>
        <time>2014-08-03T12:10:23.466000Z</time>
      </trkpt>
      <trkpt lat="39.80976" lon="116.48839">
        <ele>27.31354</ele>
        <time>2014-08-03T12:10:27.409000Z</time>
      </trkpt>
      <trkpt lat="39.80987" lon="116.4884">
        <ele>27.54694</ele>
        <time>2014-08-03T12:10:31.414000Z</time>
      </trkpt>
      <trkpt lat="39.80996" lon="116.48836">
        <ele>27.51288</ele>
        <time>2014-08-03T12:10:34.474000Z</time>
      </trkpt>
      <trkpt lat="39.81006" lon="116.48831">
        <ele>26.37494</ele>
        <time>2014-08-03T12:10:38.423000Z</time>
      </trkpt>
      <trkpt lat="39.81015" lon="116.48823">
        <ele>26.31567</ele>
        <time>2014-08-03T12:10:42.403000Z</time>
      </trkpt>
      <trkpt lat="39.81025" lon="116.48815">
        <ele>27.49689</ele>
        <time>2014-08-03T12:10:46.412000Z</time>
      </trkpt>
      <trkpt lat="39.81034" lon="116.48805">
        <ele>26.92041</ele>
        <time>2014-08-03T12:10:50.414000Z</time>
      </trkpt>
      <trkpt lat="39.81043" lon="116.48799">
        <ele>27.38452</ele>
        <time>2014-08-03T12:10:54.415000Z</time>
      </trkpt>
      <trkpt lat="39.81051" lon="116.48793">
        <ele>27.75177</ele>
        <time>2014-08-03T12:11:01.453000Z</time>
      </trkpt>
      <trkpt lat="39.81058" lon="116.48786">
        <ele>28.19641</ele>
        <time>2014-08-03T12:11:07.410000Z</time>
      </trkpt>
      <trkpt lat="39.81066" lon="116.48779">
        <ele>30.26465</ele>
        <time>2014-08-03T12:11:14.443000Z</time>
      </trkpt>
      <trkpt lat="39.81076" lon="116.48773">
        <ele>28.77008</ele>
        <time>2014-08-03T12:11:21.421000Z</time>
      </trkpt>
      <trkpt lat="39.81085" lon="116.48767">
        <ele>31.59985</ele>
        <time>2014-08-03T12:11:25.424000Z</time>
      </trkpt>
      <trkpt lat="39.81094" lon="116.48757">
        <ele>30.88367</ele>
        <time>2014-08-03T12:11:29.455000Z</time>
      </trkpt>
      <trkpt lat="39.81105" lon="116.4875">
        <ele>24.50391</ele>
        <time>2014-08-03T12:11:33.457000Z</time>
      </trkpt>
      <trkpt lat="39.81116" lon="116.48744">
        <ele>26.26697</ele>
        <time>2014-08-03T12:11:37.425000Z</time>
      </trkpt>
      <trkpt lat="39.81124" lon="116.48735">
        <ele>27.25043</ele>
        <time>2014-08-03T12:11:41.409000Z</time>
      </trkpt>
      <trkpt lat="39.81133" lon="116.48726">
        <ele>26.69452</ele>
        <time>2014-08-03T12:11:45.418000Z</time>
      </trkpt>
      <trkpt lat="39.81136" lon="116.48714">
        <ele>28.15204</ele>
        <time>2014-08-03T12:11:49.409000Z</time>
      </trkpt>
      <trkpt lat="39.81138" lon="116.487">
        <ele>27.40497</ele>
        <time>2014-08-03T12:11:54.469000Z</time>
      </trkpt>
      <trkpt lat="39.81137" lon="116.48687">
        <ele>28.28748</ele>
        <time>2014-08-03T12:11:59.456000Z</time>
      </trkpt>
      <trkpt lat="39.81131" lon="116.48677">
        <ele>26.68396</ele>
        <time>2014-08-03T12:12:03.488000Z</time>
      </trkpt>
      <trkpt lat="39.81128" lon="116.48666">
        <ele>30.07489</ele>
        <time>2014-08-03T12:12:08.494000Z</time>
      </trkpt>
      <trkpt lat="39.81132" lon="116.48653">
        <ele>29.42419</ele>
        <time>2014-08-03T12:12:13.486000Z</time>
      </trkpt>
      <trkpt lat="39.81136" lon="116.48639">
        <ele>29.41101</ele>
        <time>2014-08-03T12:12:17.411000Z</time>
      </trkpt>
      <trkpt lat="39.8114" lon="116.48627">
        <ele>29.47223</ele>
        <time>2014-08-03T12:12:20.428000Z</time>
      </trkpt>
      <trkpt lat="39.81144" lon="116.48614">
        <ele>27.51776</ele>
        <time>2014-08-03T12:12:24.421000Z</time>
      </trkpt>
      <trkpt lat="39.81148" lon="116.48601">
        <ele>25.97156</ele>
        <time>2014-08-03T12:12:28.422000Z</time>
      </trkpt>
      <trkpt lat="39.81151" lon="116.4859">
        <ele>23.13983</ele>
        <time>2014-08-03T12:12:32.405000Z</time>
      </trkpt>
      <trkpt lat="39.81155" lon="116.48579">
        <ele>25.3927</ele>
        <time>2014-08-03T12:12:36.416000Z</time>
      </trkpt>
      <trkpt lat="39.81161" lon="116.48566">
        <ele>23.28302</ele>
        <time>2014-08-03T12:12:40.462000Z</time>
      </trkpt>
      <trkpt lat="39.81165" lon="116.48553">
        <ele>24.45673</ele>
        <time>2014-08-03T12:12:44.423000Z</time>
      </trkpt>
      <trkpt lat="39.81167" lon="116.48538">
        <ele>25.44318</ele>
        <time>2014-08-03T12:12:48.408000Z</time>
      </trkpt>
      <trkpt lat="39.81168" lon="116.48524">
        <ele>24.86011</ele>
        <time>2014-08-03T12:12:52.416000Z</time>
      </trkpt>
      <trkpt lat="39.81169" lon="116.48509">
        <ele>26.26544</ele>
        <time>2014-08-03T12:12:56.449000Z</time>
      </trkpt>
      <trkpt lat="39.81167" lon="116.48497">
        <ele>27.44672</ele>
        <time>2014-08-03T12:12:59.418000Z</time>
      </trkpt>
      <trkpt lat="39.81168" lon="116.48482">
        <ele>25.25458</ele>
        <time>2014-08-03T12:13:03.451000Z</time>
      </trkpt>
      <trkpt lat="39.81167" lon="116.48469">
        <ele>23.08466</ele>
        <time>2014-08-03T12:13:07.465000Z</time>
      </trkpt>
      <trkpt lat="39.81165" lon="116.48455">
        <ele>23.22784</ele>
        <time>2014-08-03T12:13:11.412000Z</time>
      </trkpt>
      <trkpt lat="39.81164" lon="116.48441">
        <ele>21.91595</ele>
        <time>2014-08-03T12:13:15.417000Z</time>
      </trkpt>
      <trkpt lat="39.81161" lon="116.48427">
        <ele>23.69141</ele>
        <time>2014-08-03T12:13:19.471000Z</time>
      </trkpt>
      <trkpt lat="39.81156" lon="116.48415">
        <ele>26.36981</ele>
        <time>2014-08-03T12:13:23.439000Z</time>
      </trkpt>
      <trkpt lat="39.81151" lon="116.48402">
        <ele>27.16437</ele>
        <time>2014-08-03T12:13:27.436000Z</time>
      </trkpt>
      <trkpt lat="39.81145" lon="116.48393">
        <ele>24.79974</ele>
        <time>2014-08-03T12:13:34.412000Z</time>
      </trkpt>
      <trkpt lat="39.8114" lon="116.48382">
        <ele>27.78082</ele>
        <time>2014-08-03T12:13:42.422000Z</time>
      </trkpt>
      <trkpt lat="39.81132" lon="116.48373">
        <ele>27.15686</ele>
        <time>2014-08-03T12:13:50.413000Z</time>
      </trkpt>
      <trkpt lat="39.81128" lon="116.48361">
        <ele>25.60645</ele>
        <time>2014-08-03T12:13:58.435000Z</time>
      </trkpt>
      <trkpt lat="39.81124" lon="116.4835">
        <ele>24.1615</ele>
        <time>2014-08-03T12:14:02.421000Z</time>
      </trkpt>
      <trkpt lat="39.81119" lon="116.48339">
        <ele>22.90979</ele>
        <time>2014-08-03T12:14:06.422000Z</time>
      </trkpt>
      <trkpt lat="39.81116" lon="116.48326">
        <ele>25.5863</ele>
        <time>2014-08-03T12:14:10.418000Z</time>
      </trkpt>
      <trkpt lat="39.8111" lon="116.48316">
        <ele>28.00085</ele>
        <time>2014-08-03T12:14:14.467000Z</time>
      </trkpt>
      <trkpt lat="39.81103" lon="116.48305">
        <ele>27.99249</ele>
        <time>2014-08-03T12:14:18.450000Z</time>
      </trkpt>
      <trkpt lat="39.81096" lon="116.48293">
        <ele>28.67023</ele>
        <time>2014-08-03T12:14:22.407000Z</time>
      </trkpt>
      <trkpt lat="39.81091" lon="116.48281">
        <ele>29.01898</ele>
        <time>2014-08-03T12:14:26.494000Z</time>
      </trkpt>
      <trkpt lat="39.81086" lon="116.48267">
        <ele>28.35431</ele>
        <time>2014-08-03T12:14:30.424000Z</time>
      </trkpt>
      <trkpt lat="39.81081" lon="116.48255">
        <ele>28.68549</ele>
        <time>2014-08-03T12:14:34.427000Z</time>
      </trkpt>
      <trkpt lat="39.81076" lon="116.48244">
        <ele>29.51965</ele>
        <time>2014-08-03T12:14:38.414000Z</time>
      </trkpt>
      <trkpt lat="39.8107" lon="116.48234">
        <ele>33.29108</ele>
        <time>2014-08-03T12:14:42.417000Z</time>
      </trkpt>
      <trkpt lat="39.81062" lon="116.48225">
        <ele>29.77197</ele>
        <time>2014-08-03T12:14:46.421000Z</time>
      </trkpt>
      <trkpt lat="39.81053" lon="116.48214">
        <ele>24.97968</ele>
        <time>2014-08-03T12:14:50.415000Z</time>
      </trkpt>
      <trkpt lat="39.81046" lon="116.48206">
        <ele>23.71899</ele>
        <time>2014-08-03T12:14:53.411000Z</time>
      </trkpt>
      <trkpt lat="39.81038" lon="116.48197">
        <ele>25.72607</ele>
        <time>2014-08-03T12:14:56.430000Z</time>
      </trkpt>
      <trkpt lat="39.81029" lon="116.48189">
        <ele>26.53589</ele>
        <time>2014-08-03T12:14:59.467000Z</time>
      </trkpt>
      <trkpt lat="39.8102" lon="116.48182">
        <ele>27.45648</ele>
        <time>2014-08-03T12:15:02.442000Z</time>
      </trkpt>
      <trkpt lat="39.81011" lon="116.48175">
        <ele>28.83417</ele>
        <time>2014-08-03T12:15:05.417000Z</time>
      </trkpt>
      <trkpt lat="39.81002" lon="116.48166">
        <ele>28.89001</ele>
        <time>2014-08-03T12:15:09.474000Z</time>
      </trkpt>
      <trkpt lat="39.80992" lon="116.48158">
        <ele>29.73169</ele>
        <time>2014-08-03T12:15:13.423000Z</time>
      </trkpt>
      <trkpt lat="39.80984" lon="116.48151">
        <ele>29.17841</ele>
        <time>2014-08-03T12:15:16.415000Z</time>
      </trkpt>
      <trkpt lat="39.80975" lon="116.48142">
        <ele>30.44086</ele>
        <time>2014-08-03T12:15:20.480000Z</time>
      </trkpt>
      <trkpt lat="39.80967" lon="116.4813">
        <ele>30.71204</ele>
        <time>2014-08-03T12:15:24.419000Z</time>
      </trkpt>
      <trkpt lat="39.80961" lon="116.4812">
        <ele>23.97766</ele>
        <time>2014-08-03T12:15:27.428000Z</time>
      </trkpt>
      <trkpt lat="39.80958" lon="116.48109">
        <ele>24.3374</ele>
        <time>2014-08-03T12:15:30.407000Z</time>
      </trkpt>
    </trkseg>
  </trk>
</gpx>