<?xml version="1.0" encoding="UTF-8"?>
<gpx xmlns="http://www.topografix.com/GPX/1/1" xmlns:gpxtpx="http://www.garmin.com/xmlschemas/TrackPointExtension/v1" xmlns:xsi="http://www.w3.org/2001/XMLSchema-instance" xsi:schemaLocation="http://www.topografix.com/GPX/1/1 http://www.topografix.com/GPX/1/1/gpx.xsd" version="1.1" creator="gpx.py -- https://github.com/tkrajina/gpxpy">
  <trk>
    <name>gpx from codoon</name>
    <type>Run</type>
    <trkseg>
      <trkpt lat="39.814519082640714" lon="116.42390651655558">
        <ele>27.100029831262574</ele>
        <time>2022-05-11T23:54:35Z</time>
      </trkpt>
      <trkpt lat="39.81453506551109" lon="116.42389349337763">
        <ele>27.100029831262574</ele>
        <time>2022-05-11T23:54:36Z</time>
      </trkpt>
      <trkpt lat="39.81455505300439" lon="116.42388447620635">
        <ele>27.100029831262574</ele>
        <time>2022-05-11T23:54:37Z</time>
      </trkpt>
      <trkpt lat="39.814562032865844" lon="116.42386844930802">
        <ele>27.100029831262574</ele>
        <time>2022-05-11T23:54:39Z</time>
      </trkpt>
      <trkpt lat="39.81455999746627" lon="116.42383940245101">
        <ele>27.102567787850248</ele>
        <time>2022-05-11T23:54:43Z</time>
      </trkpt>
      <trkpt lat="39.81454494837033" lon="116.4237983378252">
        <ele>26.63863960295147</ele>
        <time>2022-05-11T23:54:47Z</time>
      </trkpt>
      <trkpt lat="39.81453089927426" lon="116.42375727316443">
        <ele>26.63863960295147</ele>
        <time>2022-05-11T23:54:49Z</time>
      </trkpt>
      <trkpt lat="39.81451684049451" lon="116.42370819566119">
        <ele>26.242743494369357</ele>
        <time>2022-05-11T23:54:51Z</time>
      </trkpt>
      <trkpt lat="39.81450076371081" lon="116.42364409434028">
        <ele>26.242743494369357</ele>
        <time>2022-05-11T23:54:53Z</time>
      </trkpt>
      <trkpt lat="39.814484674968526" lon="116.42356997715007">
        <ele>26.242743494369357</ele>
        <time>2022-05-11T23:54:55Z</time>
      </trkpt>
      <trkpt lat="39.8144685816235" lon="116.42349185383948">
        <ele>26.07779122507243</ele>
        <time>2022-05-11T23:54:57Z</time>
      </trkpt>
      <trkpt lat="39.8144474877017" lon="116.42341272989434">
        <ele>26.07779122507243</ele>
        <time>2022-05-11T23:54:59Z</time>
      </trkpt>
      <trkpt lat="39.81442337622784" lon="116.42331858273477">
        <ele>25.55605171348078</ele>
        <time>2022-05-11T23:55:01Z</time>
      </trkpt>
      <trkpt lat="39.814398267608276" lon="116.4232264393656">
        <ele>25.55605171348078</ele>
        <time>2022-05-11T23:55:04Z</time>
      </trkpt>
      <trkpt lat="39.814368153750664" lon="116.42312928916763">
        <ele>25.7484020512477</ele>
        <time>2022-05-11T23:55:06Z</time>
      </trkpt>
      <trkpt lat="39.8143440541478" lon="116.42304415768439">
        <ele>25.7484020512477</ele>
        <time>2022-05-11T23:55:09Z</time>
      </trkpt>
      <trkpt lat="39.814336969048995" lon="116.42297204493106">
        <ele>25.918424437657634</ele>
        <time>2022-05-11T23:55:12Z</time>
      </trkpt>
      <trkpt lat="39.81435791056371" lon="116.42292396666797">
        <ele>25.918424437657634</ele>
        <time>2022-05-11T23:55:14Z</time>
      </trkpt>
      <trkpt lat="39.81439886965419" lon="116.42289191114169">
        <ele>26.030082440546494</ele>
        <time>2022-05-11T23:55:16Z</time>
      </trkpt>
      <trkpt lat="39.81444682473056" lon="116.42285685007411">
        <ele>26.030082440546494</ele>
        <time>2022-05-11T23:55:18Z</time>
      </trkpt>
      <trkpt lat="39.81449877720716" lon="116.42281978543059">
        <ele>26.030082440546494</ele>
        <time>2022-05-11T23:55:20Z</time>
      </trkpt>
      <trkpt lat="39.814551729671585" lon="116.42278272073533">
        <ele>26.361510746386827</ele>
        <time>2022-05-11T23:55:22Z</time>
      </trkpt>
      <trkpt lat="39.81460268469842" lon="116.42274765949651">
        <ele>26.361510746386827</ele>
        <time>2022-05-11T23:55:24Z</time>
      </trkpt>
      <trkpt lat="39.814650639998945" lon="116.42271259870493">
        <ele>26.58534501922204</ele>
        <time>2022-05-11T23:55:26Z</time>
      </trkpt>
      <trkpt lat="39.81468759615704" lon="116.42267753937425">
        <ele>26.58534501922204</ele>
        <time>2022-05-11T23:55:28Z</time>
      </trkpt>
      <trkpt lat="39.81472454767695" lon="116.42263847387783">
        <ele>26.136158652393178</ele>
        <time>2022-05-11T23:55:32Z</time>
      </trkpt>
      <trkpt lat="39.8147654954583" lon="116.42259640329029">
        <ele>25.960549816274646</ele>
        <time>2022-05-11T23:55:36Z</time>
      </trkpt>
      <trkpt lat="39.814823432724104" lon="116.42254631821908">
        <ele>25.960549816274646</ele>
        <time>2022-05-11T23:55:38Z</time>
      </trkpt>
      <trkpt lat="39.81488736849625" lon="116.42249523097439">
        <ele>25.960549816274646</ele>
        <time>2022-05-11T23:55:40Z</time>
      </trkpt>
      <trkpt lat="39.81495730161754" lon="116.42244214001725">
        <ele>26.16661135305373</ele>
        <time>2022-05-11T23:55:42Z</time>
      </trkpt>
      <trkpt lat="39.815029237042296" lon="116.4223910520498">
        <ele>26.16661135305373</ele>
        <time>2022-05-11T23:55:44Z</time>
      </trkpt>
      <trkpt lat="39.81510217715041" lon="116.42234397026584">
        <ele>26.34476143648214</ele>
        <time>2022-05-11T23:55:46Z</time>
      </trkpt>
      <trkpt lat="39.815176111494765" lon="116.42229188078008">
        <ele>26.34476143648214</ele>
        <time>2022-05-11T23:55:48Z</time>
      </trkpt>
      <trkpt lat="39.81525104126495" lon="116.42223578517142">
        <ele>26.34476143648214</ele>
        <time>2022-05-11T23:55:50Z</time>
      </trkpt>
      <trkpt lat="39.81532596425766" lon="116.4221736805382">
        <ele>26.257969989429675</ele>
        <time>2022-05-11T23:55:52Z</time>
      </trkpt>
      <trkpt lat="39.815399888643654" lon="116.42211257777214">
        <ele>26.257969989429675</ele>
        <time>2022-05-11T23:55:54Z</time>
      </trkpt>
      <trkpt lat="39.81547381204747" lon="116.42205047368468">
        <ele>26.33917833916855</ele>
        <time>2022-05-11T23:55:56Z</time>
      </trkpt>
      <trkpt lat="39.81554773447728" lon="116.42198736828612">
        <ele>26.33917833916855</ele>
        <time>2022-05-11T23:55:58Z</time>
      </trkpt>
      <trkpt lat="39.81562065715578" lon="116.42192426323254">
        <ele>26.33917833916855</ele>
        <time>2022-05-11T23:56:00Z</time>
      </trkpt>
      <trkpt lat="39.81569358001039" lon="116.42186115839732">
        <ele>26.191481124660996</ele>
        <time>2022-05-11T23:56:02Z</time>
      </trkpt>
      <trkpt lat="39.81576750296863" lon="116.42179805365376">
        <ele>26.191481124660996</ele>
        <time>2022-05-11T23:56:04Z</time>
      </trkpt>
      <trkpt lat="39.815842427164256" lon="116.4217359505105">
        <ele>26.261522841482858</ele>
        <time>2022-05-11T23:56:06Z</time>
      </trkpt>
      <trkpt lat="39.815917352661685" lon="116.42167484908406">
        <ele>26.261522841482858</ele>
        <time>2022-05-11T23:56:08Z</time>
      </trkpt>
      <trkpt lat="39.81599327712405" lon="116.42161274623396">
        <ele>26.261522841482858</ele>
        <time>2022-05-11T23:56:10Z</time>
      </trkpt>
      <trkpt lat="39.81607020168512" lon="116.42155064346889">
        <ele>26.300096741798416</ele>
        <time>2022-05-11T23:56:12Z</time>
      </trkpt>
      <trkpt lat="39.81614812409955" lon="116.42148653779905">
        <ele>26.300096741798416</ele>
        <time>2022-05-11T23:56:14Z</time>
      </trkpt>
      <trkpt lat="39.816226047816244" lon="116.42142343384636">
        <ele>26.464037412430237</ele>
        <time>2022-05-11T23:56:16Z</time>
      </trkpt>
      <trkpt lat="39.81630396612445" lon="116.42135532267362">
        <ele>26.464037412430237</ele>
        <time>2022-05-11T23:56:18Z</time>
      </trkpt>
      <trkpt lat="39.81638088471048" lon="116.42128721188267">
        <ele>26.464037412430237</ele>
        <time>2022-05-11T23:56:20Z</time>
      </trkpt>
      <trkpt lat="39.81645580364648" lon="116.42121910160037">
        <ele>26.423940229760834</ele>
        <time>2022-05-11T23:56:22Z</time>
      </trkpt>
      <trkpt lat="39.816528721824305" lon="116.42114999035044">
        <ele>26.423940229760834</ele>
        <time>2022-05-11T23:56:24Z</time>
      </trkpt>
      <trkpt lat="39.81659963704322" lon="116.42107787519961">
        <ele>26.478249109177796</ele>
        <time>2022-05-11T23:56:26Z</time>
      </trkpt>
      <trkpt lat="39.81666955146255" lon="116.42100475899355">
        <ele>26.478249109177796</ele>
        <time>2022-05-11T23:56:28Z</time>
      </trkpt>
      <trkpt lat="39.81674347022388" lon="116.42093564843242">
        <ele>26.478249109177796</ele>
        <time>2022-05-11T23:56:30Z</time>
      </trkpt>
      <trkpt lat="39.81681939453105" lon="116.42087154518494">
        <ele>25.610863584924243</ele>
        <time>2022-05-11T23:56:32Z</time>
      </trkpt>
      <trkpt lat="39.81689632550734" lon="116.42081345078252">
        <ele>25.610863584924243</ele>
        <time>2022-05-11T23:56:34Z</time>
      </trkpt>
      <trkpt lat="39.81697025903146" lon="116.42075735985553">
        <ele>25.610863584924243</ele>
        <time>2022-05-11T23:56:36Z</time>
      </trkpt>
      <trkpt lat="39.81704018863089" lon="116.42069726380328">
        <ele>26.1661038073094</ele>
        <time>2022-05-11T23:56:38Z</time>
      </trkpt>
      <trkpt lat="39.81710910761036" lon="116.42062715359968">
        <ele>26.1661038073094</ele>
        <time>2022-05-11T23:56:40Z</time>
      </trkpt>
      <trkpt lat="39.81717602370565" lon="116.42055403959034">
        <ele>26.289945701543417</ele>
        <time>2022-05-11T23:56:42Z</time>
      </trkpt>
      <trkpt lat="39.81724593766492" lon="116.42047892261714">
        <ele>26.289945701543417</ele>
        <time>2022-05-11T23:56:44Z</time>
      </trkpt>
      <trkpt lat="39.817317856031636" lon="116.42040781144269">
        <ele>26.289945701543417</ele>
        <time>2022-05-11T23:56:46Z</time>
      </trkpt>
      <trkpt lat="39.81738977355045" lon="116.42033569911615">
        <ele>26.099107986686843</ele>
        <time>2022-05-11T23:56:48Z</time>
      </trkpt>
      <trkpt lat="39.81746069350986" lon="116.42026559005839">
        <ele>26.099107986686843</ele>
        <time>2022-05-11T23:56:50Z</time>
      </trkpt>
      <trkpt lat="39.81752961169882" lon="116.42019347867875">
        <ele>26.450333294657778</ele>
        <time>2022-05-11T23:56:52Z</time>
      </trkpt>
      <trkpt lat="39.81759753125288" lon="116.42012236913283">
        <ele>26.450333294657778</ele>
        <time>2022-05-11T23:56:54Z</time>
      </trkpt>
      <trkpt lat="39.81766445322237" lon="116.42005326282448">
        <ele>26.450333294657778</ele>
        <time>2022-05-11T23:56:56Z</time>
      </trkpt>
      <trkpt lat="39.81772837984596" lon="116.41998816280847">
        <ele>26.475203743957163</ele>
        <time>2022-05-11T23:56:58Z</time>
      </trkpt>
      <trkpt lat="39.8177913141088" lon="116.4199300730143">
        <ele>26.475203743957163</ele>
        <time>2022-05-11T23:57:00Z</time>
      </trkpt>
      <trkpt lat="39.81785525055401" lon="116.41987398609142">
        <ele>26.64879098316236</ele>
        <time>2022-05-11T23:57:02Z</time>
      </trkpt>
      <trkpt lat="39.81792118909536" lon="116.41981990189441">
        <ele>26.64879098316236</ele>
        <time>2022-05-11T23:57:04Z</time>
      </trkpt>
      <trkpt lat="39.81798912657732" lon="116.419764816206">
        <ele>26.64879098316236</ele>
        <time>2022-05-11T23:57:06Z</time>
      </trkpt>
      <trkpt lat="39.818055061204056" lon="116.41970672674948">
        <ele>26.85638887920835</ele>
        <time>2022-05-11T23:57:08Z</time>
      </trkpt>
      <trkpt lat="39.81811999292704" lon="116.41964563342712">
        <ele>26.85638887920835</ele>
        <time>2022-05-11T23:57:10Z</time>
      </trkpt>
      <trkpt lat="39.818183923848544" lon="116.41958353904865">
        <ele>26.743199293143913</ele>
        <time>2022-05-11T23:57:12Z</time>
      </trkpt>
      <trkpt lat="39.81825085680041" lon="116.41952344727589">
        <ele>26.743199293143913</ele>
        <time>2022-05-11T23:57:14Z</time>
      </trkpt>
      <trkpt lat="39.81831579005604" lon="116.41946335595685">
        <ele>26.743199293143913</ele>
        <time>2022-05-11T23:57:16Z</time>
      </trkpt>
      <trkpt lat="39.818381726495" lon="116.41940626885027">
        <ele>26.898518052821533</ele>
        <time>2022-05-11T23:57:18Z</time>
      </trkpt>
      <trkpt lat="39.81844566116467" lon="116.41934717942482">
        <ele>26.898518052821533</ele>
        <time>2022-05-11T23:57:20Z</time>
      </trkpt>
      <trkpt lat="39.81851059899721" lon="116.41929109418612">
        <ele>26.973132790656813</ele>
        <time>2022-05-11T23:57:22Z</time>
      </trkpt>
      <trkpt lat="39.81857453704155" lon="116.41923500924868">
        <ele>26.973132790656813</ele>
        <time>2022-05-11T23:57:24Z</time>
      </trkpt>
      <trkpt lat="39.81863647843272" lon="116.41918192884106">
        <ele>26.973132790656813</ele>
        <time>2022-05-11T23:57:26Z</time>
      </trkpt>
      <trkpt lat="39.81870041675073" lon="116.41912584424331">
        <ele>26.92998814915449</ele>
        <time>2022-05-11T23:57:28Z</time>
      </trkpt>
      <trkpt lat="39.81876635201806" lon="116.41906675548354">
        <ele>26.92998814915449</ele>
        <time>2022-05-11T23:57:30Z</time>
      </trkpt>
      <trkpt lat="39.81883628411624" lon="116.41900466233776">
        <ele>26.90562419529156</ele>
        <time>2022-05-11T23:57:32Z</time>
      </trkpt>
      <trkpt lat="39.81890621638678" lon="116.41894256940606">
        <ele>26.90562419529156</ele>
        <time>2022-05-11T23:57:34Z</time>
      </trkpt>
      <trkpt lat="39.81897914962472" lon="116.41888147765866">
        <ele>26.90562419529156</ele>
        <time>2022-05-11T23:57:36Z</time>
      </trkpt>
      <trkpt lat="39.81905207800346" lon="116.41881537938325">
        <ele>27.125409424976</ele>
        <time>2022-05-11T23:57:38Z</time>
      </trkpt>
      <trkpt lat="39.81912400664852" lon="116.41874928147742">
        <ele>27.125409424976</ele>
        <time>2022-05-11T23:57:40Z</time>
      </trkpt>
      <trkpt lat="39.819192930705654" lon="116.41867817749778">
        <ele>27.094446328948983</ele>
        <time>2022-05-11T23:57:42Z</time>
      </trkpt>
      <trkpt lat="39.81925886117753" lon="116.4186130821926">
        <ele>27.094446328948983</ele>
        <time>2022-05-11T23:57:44Z</time>
      </trkpt>
      <trkpt lat="39.81932479481884" lon="116.41855099111945">
        <ele>27.094446328948983</ele>
        <time>2022-05-11T23:57:46Z</time>
      </trkpt>
      <trkpt lat="39.819392733445014" lon="116.41849390665146">
        <ele>27.102567787850248</ele>
        <time>2022-05-11T23:57:48Z</time>
      </trkpt>
      <trkpt lat="39.81946466798082" lon="116.41843281655458">
        <ele>27.102567787850248</ele>
        <time>2022-05-11T23:57:50Z</time>
      </trkpt>
      <trkpt lat="39.81953960345722" lon="116.41837272760712">
        <ele>27.16957006550362</ele>
        <time>2022-05-11T23:57:52Z</time>
      </trkpt>
      <trkpt lat="39.81961454007879" lon="116.41831364017955">
        <ele>27.16957006550362</ele>
        <time>2022-05-11T23:57:54Z</time>
      </trkpt>
      <trkpt lat="39.819689475877034" lon="116.41825355163063">
        <ele>27.16957006550362</ele>
        <time>2022-05-11T23:57:56Z</time>
      </trkpt>
      <trkpt lat="39.819760412120246" lon="116.41819346379005">
        <ele>27.11881072465515</ele>
        <time>2022-05-11T23:57:58Z</time>
      </trkpt>
      <trkpt lat="39.819828344837916" lon="116.41812937129582">
        <ele>27.11881072465515</ele>
        <time>2022-05-11T23:58:00Z</time>
      </trkpt>
      <trkpt lat="39.81989327989533" lon="116.41806728202124">
        <ele>26.969579695775884</ele>
        <time>2022-05-11T23:58:02Z</time>
      </trkpt>
      <trkpt lat="39.81995821318686" lon="116.41800319035809">
        <ele>26.969579695775884</ele>
        <time>2022-05-11T23:58:04Z</time>
      </trkpt>
      <trkpt lat="39.8200241494909" lon="116.41794210269147">
        <ele>26.969579695775884</ele>
        <time>2022-05-11T23:58:06Z</time>
      </trkpt>
      <trkpt lat="39.82008908506895" lon="116.4178800140649">
        <ele>26.91120759634777</ele>
        <time>2022-05-11T23:58:08Z</time>
      </trkpt>
      <trkpt lat="39.82015302761814" lon="116.41782493482052">
        <ele>26.91120759634777</ele>
        <time>2022-05-11T23:58:10Z</time>
      </trkpt>
      <trkpt lat="39.82021497236231" lon="116.41777185857629">
        <ele>27.05637707479135</ele>
        <time>2022-05-11T23:58:12Z</time>
      </trkpt>
      <trkpt lat="39.820276914363504" lon="116.41771577863216">
        <ele>27.05637707479135</ele>
        <time>2022-05-11T23:58:14Z</time>
      </trkpt>
      <trkpt lat="39.82033885173659" lon="116.41765469245192">
        <ele>27.05637707479135</ele>
        <time>2022-05-11T23:58:16Z</time>
      </trkpt>
      <trkpt lat="39.82039778568424" lon="116.41758960174587">
        <ele>27.02947488578697</ele>
        <time>2022-05-11T23:58:18Z</time>
      </trkpt>
      <trkpt lat="39.82045472091003" lon="116.41752551280493">
        <ele>27.02947488578697</ele>
        <time>2022-05-11T23:58:20Z</time>
      </trkpt>
      <trkpt lat="39.820512658139506" lon="116.41746342650929">
        <ele>27.24773993438698</ele>
        <time>2022-05-11T23:58:22Z</time>
      </trkpt>
      <trkpt lat="39.82057259822854" lon="116.41740434397944">
        <ele>27.24773993438698</ele>
        <time>2022-05-11T23:58:24Z</time>
      </trkpt>
      <trkpt lat="39.820637541883" lon="116.4173492660702">
        <ele>27.24773993438698</ele>
        <time>2022-05-11T23:58:26Z</time>
      </trkpt>
      <trkpt lat="39.82070449022265" lon="116.4172991943874">
        <ele>27.426923731399942</ele>
        <time>2022-05-11T23:58:28Z</time>
      </trkpt>
      <trkpt lat="39.820772438605374" lon="116.41724912271775">
        <ele>27.426923731399942</ele>
        <time>2022-05-11T23:58:30Z</time>
      </trkpt>
      <trkpt lat="39.82083938810515" lon="116.41720005257169">
        <ele>27.426923731399942</ele>
        <time>2022-05-11T23:58:32Z</time>
      </trkpt>
      <trkpt lat="39.820908339436336" lon="116.41715298481454">
        <ele>27.470578041449</ele>
        <time>2022-05-11T23:58:34Z</time>
      </trkpt>
      <trkpt lat="39.820979290727756" lon="116.41710591692743">
        <ele>27.470578041449</ele>
        <time>2022-05-11T23:58:36Z</time>
      </trkpt>
      <trkpt lat="39.82105224197963" lon="116.41705884891037">
        <ele>27.69037519719487</ele>
        <time>2022-05-11T23:58:38Z</time>
      </trkpt>
      <trkpt lat="39.82112618771202" lon="116.4170057734141">
        <ele>27.69037519719487</ele>
        <time>2022-05-11T23:58:40Z</time>
      </trkpt>
      <trkpt lat="39.821199133642004" lon="116.41695269820214">
        <ele>27.69037519719487</ele>
        <time>2022-05-11T23:58:42Z</time>
      </trkpt>
      <trkpt lat="39.821275078569386" lon="116.41689862152722">
        <ele>27.680222801417816</ele>
        <time>2022-05-11T23:58:44Z</time>
      </trkpt>
      <trkpt lat="39.82135302899655" lon="116.41685055218402">
        <ele>27.680222801417816</ele>
        <time>2022-05-11T23:58:46Z</time>
      </trkpt>
      <trkpt lat="39.82142998143082" lon="116.4168044855659">
        <ele>27.48732916249951</ele>
        <time>2022-05-11T23:58:48Z</time>
      </trkpt>
      <trkpt lat="39.821507940290516" lon="116.41676542756494">
        <ele>27.48732916249951</ele>
        <time>2022-05-11T23:58:50Z</time>
      </trkpt>
      <trkpt lat="39.82158589648352" lon="116.4167233659589">
        <ele>27.48732916249951</ele>
        <time>2022-05-11T23:58:52Z</time>
      </trkpt>
      <trkpt lat="39.82166685163801" lon="116.41668030284353">
        <ele>27.58174507609645</ele>
        <time>2022-05-11T23:58:54Z</time>
      </trkpt>
      <trkpt lat="39.82174880408277" lon="116.41663423602962">
        <ele>27.58174507609645</ele>
        <time>2022-05-11T23:58:56Z</time>
      </trkpt>
      <trkpt lat="39.821829754882096" lon="116.41658616701648">
        <ele>27.533014175071642</ele>
        <time>2022-05-11T23:58:58Z</time>
      </trkpt>
      <trkpt lat="39.82190970404871" lon="116.41653609582029">
        <ele>27.533014175071642</ele>
        <time>2022-05-11T23:59:00Z</time>
      </trkpt>
      <trkpt lat="39.82199065145656" lon="116.41648402220416">
        <ele>27.533014175071642</ele>
        <time>2022-05-11T23:59:02Z</time>
      </trkpt>
      <trkpt lat="39.8220726016166" lon="116.41643495225429">
        <ele>27.520323873694878</ele>
        <time>2022-05-11T23:59:04Z</time>
      </trkpt>
      <trkpt lat="39.82215555181715" lon="116.41638588231231">
        <ele>27.520323873694878</ele>
        <time>2022-05-11T23:59:06Z</time>
      </trkpt>
      <trkpt lat="39.822237506673595" lon="116.41634181867448">
        <ele>27.580729846664664</ele>
        <time>2022-05-11T23:59:08Z</time>
      </trkpt>
      <trkpt lat="39.82231746622593" lon="116.41630276143061">
        <ele>27.580729846664664</ele>
        <time>2022-05-11T23:59:10Z</time>
      </trkpt>
      <trkpt lat="39.82239743030885" lon="116.41626871029409">
        <ele>27.580729846664664</ele>
        <time>2022-05-11T23:59:12Z</time>
      </trkpt>
      <trkpt lat="39.82247739622742" lon="116.4162366616278">
        <ele>27.36245781756064</ele>
        <time>2022-05-11T23:59:14Z</time>
      </trkpt>
      <trkpt lat="39.82255936205572" lon="116.41620461276524">
        <ele>27.36245781756064</ele>
        <time>2022-05-11T23:59:16Z</time>
      </trkpt>
      <trkpt lat="39.822644329500264" lon="116.4161745659779">
        <ele>27.05383912946434</ele>
        <time>2022-05-11T23:59:18Z</time>
      </trkpt>
      <trkpt lat="39.822727298900055" lon="116.41614652189006">
        <ele>27.05383912946434</ele>
        <time>2022-05-11T23:59:20Z</time>
      </trkpt>
      <trkpt lat="39.822810271879824" lon="116.41612248263108">
        <ele>27.05383912946434</ele>
        <time>2022-05-11T23:59:22Z</time>
      </trkpt>
      <trkpt lat="39.82289624468055" lon="116.41609844302377">
        <ele>27.109674069587317</ele>
        <time>2022-05-11T23:59:24Z</time>
      </trkpt>
      <trkpt lat="39.82298622165105" lon="116.41607940891012">
        <ele>27.109674069587317</ele>
        <time>2022-05-11T23:59:26Z</time>
      </trkpt>
      <trkpt lat="39.82307720033775" lon="116.41606237707559">
        <ele>27.249770328408232</ele>
        <time>2022-05-11T23:59:28Z</time>
      </trkpt>
      <trkpt lat="39.82316618094365" lon="116.41604734789513">
        <ele>27.249770328408232</ele>
        <time>2022-05-11T23:59:30Z</time>
      </trkpt>
      <trkpt lat="39.82325216353362" lon="116.41603432149056">
        <ele>27.249770328408232</ele>
        <time>2022-05-11T23:59:32Z</time>
      </trkpt>
      <trkpt lat="39.82333714796567" lon="116.41602329760372">
        <ele>27.181244748901563</ele>
        <time>2022-05-11T23:59:34Z</time>
      </trkpt>
      <trkpt lat="39.823425133079894" lon="116.41601327453314">
        <ele>27.181244748901563</ele>
        <time>2022-05-11T23:59:36Z</time>
      </trkpt>
      <trkpt lat="39.82351212003158" lon="116.41600525397442">
        <ele>27.570069943615568</ele>
        <time>2022-05-11T23:59:38Z</time>
      </trkpt>
      <trkpt lat="39.82359910610951" lon="116.41599623222996">
        <ele>27.570069943615568</ele>
        <time>2022-05-11T23:59:40Z</time>
      </trkpt>
      <trkpt lat="39.82368509226331" lon="116.41598721061686">
        <ele>27.570069943615568</ele>
        <time>2022-05-11T23:59:42Z</time>
      </trkpt>
      <trkpt lat="39.8237720783551" lon="116.41597818888138">
        <ele>27.31017473174586</ele>
        <time>2022-05-11T23:59:44Z</time>
      </trkpt>
      <trkpt lat="39.82385806628023" lon="116.41597116965285">
        <ele>27.31017473174586</ele>
        <time>2022-05-11T23:59:46Z</time>
      </trkpt>
      <trkpt lat="39.82394405069713" lon="116.41596014567764">
        <ele>27.29697710109724</ele>
        <time>2022-05-11T23:59:48Z</time>
      </trkpt>
      <trkpt lat="39.82403103329832" lon="116.41594711920915">
        <ele>27.29697710109724</ele>
        <time>2022-05-11T23:59:50Z</time>
      </trkpt>
      <trkpt lat="39.82412201388123" lon="116.41593208987109">
        <ele>27.29697710109724</ele>
        <time>2022-05-11T23:59:52Z</time>
      </trkpt>
      <trkpt lat="39.82421699946235" lon="116.41592306714801">
        <ele>27.29799230286461</ele>
        <time>2022-05-11T23:59:54Z</time>
      </trkpt>
      <trkpt lat="39.82431098862516" lon="116.41591804929536">
        <ele>27.29799230286461</ele>
        <time>2022-05-11T23:59:56Z</time>
      </trkpt>
      <trkpt lat="39.824404983051146" lon="116.41591903855264">
        <ele>27.202056173510435</ele>
        <time>2022-05-11T23:59:58Z</time>
      </trkpt>
      <trkpt lat="39.82449797842618" lon="116.41592102912186">
        <ele>27.202056173510435</ele>
        <time>2022-05-12T00:00:00Z</time>
      </trkpt>
      <trkpt lat="39.82458797488744" lon="116.41592402125714">
        <ele>27.202056173510435</ele>
        <time>2022-05-12T00:00:02Z</time>
      </trkpt>
      <trkpt lat="39.82467197439432" lon="116.41593001771065">
        <ele>27.175153608105582</ele>
        <time>2022-05-12T00:00:04Z</time>
      </trkpt>
      <trkpt lat="39.82475497134277" lon="116.41593301073561">
        <ele>27.175153608105582</ele>
        <time>2022-05-12T00:00:06Z</time>
      </trkpt>
      <trkpt lat="39.82483596579987" lon="116.41593300045739">
        <ele>27.02541418404997</ele>
        <time>2022-05-12T00:00:08Z</time>
      </trkpt>
      <trkpt lat="39.82492095910923" lon="116.41593198848584">
        <ele>27.02541418404997</ele>
        <time>2022-05-12T00:00:10Z</time>
      </trkpt>
      <trkpt lat="39.82500595154477" lon="116.41592997532872">
        <ele>27.02541418404997</ele>
        <time>2022-05-12T00:00:12Z</time>
      </trkpt>
      <trkpt lat="39.825090948368704" lon="116.41593296809977">
        <ele>27.0421645889213</ele>
        <time>2022-05-12T00:00:14Z</time>
      </trkpt>
      <trkpt lat="39.825176944250686" lon="116.4159349595585">
        <ele>27.0421645889213</ele>
        <time>2022-05-12T00:00:16Z</time>
      </trkpt>
      <trkpt lat="39.825261942836406" lon="116.41593995470247">
        <ele>27.112719620387423</ele>
        <time>2022-05-12T00:00:18Z</time>
      </trkpt>
      <trkpt lat="39.82534394163096" lon="116.4159449502285">
        <ele>27.112719620387423</ele>
        <time>2022-05-12T00:00:20Z</time>
      </trkpt>
      <trkpt lat="39.82542494225357" lon="116.41595194825632">
        <ele>27.112719620387423</ele>
        <time>2022-05-12T00:00:22Z</time>
      </trkpt>
      <trkpt lat="39.82550794450164" lon="116.41596094840762">
        <ele>27.049778418223696</ele>
        <time>2022-05-12T00:00:24Z</time>
      </trkpt>
      <trkpt lat="39.82558995033987" lon="116.41597395344209">
        <ele>27.049778418223696</ele>
        <time>2022-05-12T00:00:26Z</time>
      </trkpt>
      <trkpt lat="39.82567096241444" lon="116.41599396693584">
        <ele>27.195965020538367</ele>
        <time>2022-05-12T00:00:28Z</time>
      </trkpt>
      <trkpt lat="39.825751974509735" lon="116.41601398045212">
        <ele>27.195965020538367</ele>
        <time>2022-05-12T00:00:30Z</time>
      </trkpt>
      <trkpt lat="39.825833988321115" lon="116.41603599624699">
        <ele>27.195965020538367</ele>
        <time>2022-05-12T00:00:32Z</time>
      </trkpt>
      <trkpt lat="39.82591399787993" lon="116.4160530063597">
        <ele>26.98379208256391</ele>
        <time>2022-05-12T00:00:34Z</time>
      </trkpt>
      <trkpt lat="39.825989009560544" lon="116.4160720195102">
        <ele>26.98379208256391</ele>
        <time>2022-05-12T00:00:36Z</time>
      </trkpt>
      <trkpt lat="39.82606101704302" lon="116.4160860270892">
        <ele>26.98379208256391</ele>
        <time>2022-05-12T00:00:38Z</time>
      </trkpt>
      <trkpt lat="39.82613402712258" lon="116.41610303813802">
        <ele>26.971102450576502</ele>
        <time>2022-05-12T00:00:40Z</time>
      </trkpt>
      <trkpt lat="39.82621403674263" lon="116.41612004831485">
        <ele>26.971102450576502</ele>
        <time>2022-05-12T00:00:42Z</time>
      </trkpt>
      <trkpt lat="39.826299047812" lon="116.41613906026802">
        <ele>27.01577002377718</ele>
        <time>2022-05-12T00:00:44Z</time>
      </trkpt>
      <trkpt lat="39.82638605876513" lon="116.41615807198774">
        <ele>27.01577002377718</ele>
        <time>2022-05-12T00:00:46Z</time>
      </trkpt>
      <trkpt lat="39.8264740723342" lon="116.41618008719956">
        <ele>27.01577002377718</ele>
        <time>2022-05-12T00:00:48Z</time>
      </trkpt>
      <trkpt lat="39.82656108777423" lon="116.41620410496743">
        <ele>25.951414177521066</ele>
        <time>2022-05-12T00:00:50Z</time>
      </trkpt>
      <trkpt lat="39.8266521047534" lon="116.41623012466496">
        <ele>25.951414177521066</ele>
        <time>2022-05-12T00:00:52Z</time>
      </trkpt>
      <trkpt lat="39.82674711882153" lon="116.4162531402814">
        <ele>25.346449718317853</ele>
        <time>2022-05-12T00:00:54Z</time>
      </trkpt>
      <trkpt lat="39.82684612818536" lon="116.41627114939543">
        <ele>25.346449718317853</ele>
        <time>2022-05-12T00:00:56Z</time>
      </trkpt>
      <trkpt lat="39.82694313145283" lon="116.41628215034231">
        <ele>25.346449718317853</ele>
        <time>2022-05-12T00:00:58Z</time>
      </trkpt>
      <trkpt lat="39.82704213012941" lon="116.41628814501279">
        <ele>23.90269588255571</ele>
        <time>2022-05-12T00:01:00Z</time>
      </trkpt>
      <trkpt lat="39.827146127581535" lon="116.4162931378447">
        <ele>23.90269588255571</ele>
        <time>2022-05-12T00:01:02Z</time>
      </trkpt>
      <trkpt lat="39.827254124769944" lon="116.41629813017039">
        <ele>23.157807340652525</ele>
        <time>2022-05-12T00:01:04Z</time>
      </trkpt>
      <trkpt lat="39.82736412540475" lon="116.41630712707043">
        <ele>23.157807340652525</ele>
        <time>2022-05-12T00:01:06Z</time>
      </trkpt>
      <trkpt lat="39.827478130250924" lon="116.41632112950468">
        <ele>23.157807340652525</ele>
        <time>2022-05-12T00:01:08Z</time>
      </trkpt>
      <trkpt lat="39.827598140974665" lon="116.41634213964862">
        <ele>22.003538333269464</ele>
        <time>2022-05-12T00:01:10Z</time>
      </trkpt>
      <trkpt lat="39.82772215952424" lon="116.41637216020172">
        <ele>22.003538333269464</ele>
        <time>2022-05-12T00:01:12Z</time>
      </trkpt>
      <trkpt lat="39.82784418723757" lon="116.41641219318365">
        <ele>21.549983682642566</ele>
        <time>2022-05-12T00:01:14Z</time>
      </trkpt>
      <trkpt lat="39.82796421606307" lon="116.41645322772439">
        <ele>21.549983682642566</ele>
        <time>2022-05-12T00:01:16Z</time>
      </trkpt>
      <trkpt lat="39.828090244567626" lon="116.41649426159827">
        <ele>21.549983682642566</ele>
        <time>2022-05-12T00:01:18Z</time>
      </trkpt>
      <trkpt lat="39.82821927295305" lon="116.41653529518602">
        <ele>21.078186049455297</ele>
        <time>2022-05-12T00:01:20Z</time>
      </trkpt>
      <trkpt lat="39.82833930474029" lon="116.4165793336765">
        <ele>21.078186049455297</ele>
        <time>2022-05-12T00:01:22Z</time>
      </trkpt>
      <trkpt lat="39.82843433919936" lon="116.41662437667297">
        <ele>21.638257871740805</ele>
        <time>2022-05-12T00:01:24Z</time>
      </trkpt>
      <trkpt lat="39.828511374955426" lon="116.41666942206751">
        <ele>21.638257871740805</ele>
        <time>2022-05-12T00:01:26Z</time>
      </trkpt>
      <trkpt lat="39.82858540735716" lon="116.41671046303823">
        <ele>21.638257871740805</ele>
        <time>2022-05-12T00:01:28Z</time>
      </trkpt>
      <trkpt lat="39.82866043611525" lon="116.41674749904983">
        <ele>22.144580607066427</ele>
        <time>2022-05-12T00:01:30Z</time>
      </trkpt>
      <trkpt lat="39.82874446525126" lon="116.41678553522996">
        <ele>22.144580607066427</ele>
        <time>2022-05-12T00:01:32Z</time>
      </trkpt>
      <trkpt lat="39.82883550132381" lon="116.41683158049133">
        <ele>22.611352833565793</ele>
        <time>2022-05-12T00:01:34Z</time>
      </trkpt>
      <trkpt lat="39.82892254051867" lon="116.41688063009605">
        <ele>22.611352833565793</ele>
        <time>2022-05-12T00:01:36Z</time>
      </trkpt>
      <trkpt lat="39.82901758574272" lon="116.4169366875143">
        <ele>22.611352833565793</ele>
        <time>2022-05-12T00:01:38Z</time>
      </trkpt>
      <trkpt lat="39.82910462332549" lon="116.41698373491828">
        <ele>23.080682960926815</ele>
        <time>2022-05-12T00:01:41Z</time>
      </trkpt>
      <trkpt lat="39.82919565889168" lon="116.41702877944394">
        <ele>23.080682960926815</ele>
        <time>2022-05-12T00:01:43Z</time>
      </trkpt>
      <trkpt lat="39.82928168746178" lon="116.41706581472069">
        <ele>23.534811707189434</ele>
        <time>2022-05-12T00:01:45Z</time>
      </trkpt>
      <trkpt lat="39.82936371729111" lon="116.41710385183342">
        <ele>23.534811707189434</ele>
        <time>2022-05-12T00:01:48Z</time>
      </trkpt>
      <trkpt lat="39.829445743463964" lon="116.41713788401296">
        <ele>24.072180689693045</ele>
        <time>2022-05-12T00:01:50Z</time>
      </trkpt>
      <trkpt lat="39.82951576023505" lon="116.41716090397452">
        <ele>24.072180689693045</ele>
        <time>2022-05-12T00:01:52Z</time>
      </trkpt>
      <trkpt lat="39.82958776850504" lon="116.41717491240988">
        <ele>24.466979350939575</ele>
        <time>2022-05-12T00:01:54Z</time>
      </trkpt>
      <trkpt lat="39.82965976838999" lon="116.4171799095516">
        <ele>24.466979350939575</ele>
        <time>2022-05-12T00:01:56Z</time>
      </trkpt>
      <trkpt lat="39.82972775735182" lon="116.41717289213315">
        <ele>24.466979350939575</ele>
        <time>2022-05-12T00:01:58Z</time>
      </trkpt>
      <trkpt lat="39.82978773659813" lon="116.4171548619306">
        <ele>24.853165788714776</ele>
        <time>2022-05-12T00:02:00Z</time>
      </trkpt>
      <trkpt lat="39.82984270967742" lon="116.41712982360818">
        <ele>24.853165788714776</ele>
        <time>2022-05-12T00:02:02Z</time>
      </trkpt>
      <trkpt lat="39.82989368212147" lon="116.41710378457675">
        <ele>24.48880027903619</ele>
        <time>2022-05-12T00:02:04Z</time>
      </trkpt>
      <trkpt lat="39.82994264544999" lon="116.41706773333881">
        <ele>24.48880027903619</ele>
        <time>2022-05-12T00:02:06Z</time>
      </trkpt>
      <trkpt lat="39.82998760910205" lon="116.41703168268111">
        <ele>24.48880027903619</ele>
        <time>2022-05-12T00:02:08Z</time>
      </trkpt>
      <trkpt lat="39.830025576974315" lon="116.41699963796684">
        <ele>25.20181157671832</ele>
        <time>2022-05-12T00:02:10Z</time>
      </trkpt>
      <trkpt lat="39.830055570366014" lon="116.41699462793181">
        <ele>25.20181157671832</ele>
        <time>2022-05-12T00:02:12Z</time>
      </trkpt>
      <trkpt lat="39.83010957696461" lon="116.41700563478231">
        <ele>25.25915909072248</ele>
        <time>2022-05-12T00:02:40Z</time>
      </trkpt>
      <trkpt lat="39.83015554065312" lon="116.41696958412278">
        <ele>25.25915909072248</ele>
        <time>2022-05-12T00:02:42Z</time>
      </trkpt>
      <trkpt lat="39.83020950018477" lon="116.41692952755301">
        <ele>25.25915909072248</ele>
        <time>2022-05-12T00:02:44Z</time>
      </trkpt>
      <trkpt lat="39.83027046208581" lon="116.41689247390352">
        <ele>25.912841568943385</ele>
        <time>2022-05-12T00:02:46Z</time>
      </trkpt>
      <trkpt lat="39.83034143349229" lon="116.41686643267924">
        <ele>25.912841568943385</ele>
        <time>2022-05-12T00:02:48Z</time>
      </trkpt>
      <trkpt lat="39.83041741745142" lon="116.4168544081791">
        <ele>26.126515315748346</ele>
        <time>2022-05-12T00:02:50Z</time>
      </trkpt>
      <trkpt lat="39.83049840659626" lon="116.41684839047498">
        <ele>26.126515315748346</ele>
        <time>2022-05-12T00:02:52Z</time>
      </trkpt>
      <trkpt lat="39.830581399284604" lon="116.41684637746715">
        <ele>26.126515315748346</ele>
        <time>2022-05-12T00:02:54Z</time>
      </trkpt>
      <trkpt lat="39.83066739269602" lon="116.41684536531584">
        <ele>26.18031509740822</ele>
        <time>2022-05-12T00:02:56Z</time>
      </trkpt>
      <trkpt lat="39.83074639483345" lon="116.4168533651885">
        <ele>26.18031509740822</ele>
        <time>2022-05-12T00:02:58Z</time>
      </trkpt>
      <trkpt lat="39.83081540866034" lon="116.41687338119384">
        <ele>26.31532332073296</ele>
        <time>2022-05-12T00:03:00Z</time>
      </trkpt>
      <trkpt lat="39.830878428422515" lon="116.41689940542284">
        <ele>26.31532332073296</ele>
        <time>2022-05-12T00:03:02Z</time>
      </trkpt>
      <trkpt lat="39.830953434531985" lon="116.41691141079018">
        <ele>26.31532332073296</ele>
        <time>2022-05-12T00:03:04Z</time>
      </trkpt>
      <trkpt lat="39.83104042972961" lon="116.41691240098983">
        <ele>26.47571130476165</ele>
        <time>2022-05-12T00:03:06Z</time>
      </trkpt>
      <trkpt lat="39.83113941677645" lon="116.416905379741">
        <ele>26.47571130476165</ele>
        <time>2022-05-12T00:03:08Z</time>
      </trkpt>
      <trkpt lat="39.8312404082996" lon="116.41690336444212">
        <ele>26.367601411213066</ele>
        <time>2022-05-12T00:03:10Z</time>
      </trkpt>
      <trkpt lat="39.83134239792103" lon="116.4168993465361">
        <ele>26.367601411213066</ele>
        <time>2022-05-12T00:03:12Z</time>
      </trkpt>
      <trkpt lat="39.831443390373394" lon="116.41689833247781">
        <ele>26.367601411213066</ele>
        <time>2022-05-12T00:03:14Z</time>
      </trkpt>
      <trkpt lat="39.831542383881306" lon="116.4168983199134">
        <ele>26.243251043844275</ele>
        <time>2022-05-12T00:03:16Z</time>
      </trkpt>
      <trkpt lat="39.83163738041606" lon="116.4169013115771">
        <ele>26.243251043844275</ele>
        <time>2022-05-12T00:03:18Z</time>
      </trkpt>
      <trkpt lat="39.83172837537611" lon="116.41690230126818">
        <ele>26.156460442936172</ele>
        <time>2022-05-12T00:03:20Z</time>
      </trkpt>
      <trkpt lat="39.83181637053595" lon="116.41690329134002">
        <ele>26.156460442936172</ele>
        <time>2022-05-12T00:03:22Z</time>
      </trkpt>
      <trkpt lat="39.831904361097436" lon="116.41689927521045">
        <ele>26.156460442936172</ele>
        <time>2022-05-12T00:03:24Z</time>
      </trkpt>
      <trkpt lat="39.83199134988824" lon="116.41689325672891">
        <ele>25.976790971620925</ele>
        <time>2022-05-12T00:03:26Z</time>
      </trkpt>
      <trkpt lat="39.83207933402063" lon="116.41688223192575">
        <ele>25.976790971620925</ele>
        <time>2022-05-12T00:03:28Z</time>
      </trkpt>
      <trkpt lat="39.83216531369795" lon="116.41686620119096">
        <ele>25.898630643910558</ele>
        <time>2022-05-12T00:03:30Z</time>
      </trkpt>
      <trkpt lat="39.83225228506404" lon="116.4168411592092">
        <ele>25.898630643910558</ele>
        <time>2022-05-12T00:03:32Z</time>
      </trkpt>
      <trkpt lat="39.83233325410312" lon="116.4168131143177">
        <ele>25.898630643910558</ele>
        <time>2022-05-12T00:03:34Z</time>
      </trkpt>
      <trkpt lat="39.83240622736232" lon="116.41678907542095">
        <ele>26.312785556029354</ele>
        <time>2022-05-12T00:03:36Z</time>
      </trkpt>
      <trkpt lat="39.83246920770186" lon="116.41677204645545">
        <ele>26.312785556029354</ele>
        <time>2022-05-12T00:03:38Z</time>
      </trkpt>
      <trkpt lat="39.83253018910003" lon="116.41675601899206">
        <ele>26.71629791330778</ele>
        <time>2022-05-12T00:03:40Z</time>
      </trkpt>
      <trkpt lat="39.832591170511144" lon="116.416739991543">
        <ele>26.71629791330778</ele>
        <time>2022-05-12T00:03:42Z</time>
      </trkpt>
      <trkpt lat="39.83265115747558" lon="116.41672997161817">
        <ele>26.71629791330778</ele>
        <time>2022-05-12T00:03:44Z</time>
      </trkpt>
      <trkpt lat="39.83270716752602" lon="116.41674498297687">
        <ele>26.768578017084277</ele>
        <time>2022-05-12T00:03:46Z</time>
      </trkpt>
      <trkpt lat="39.83274720973096" lon="116.41679403831147">
        <ele>26.768578017084277</ele>
        <time>2022-05-12T00:03:48Z</time>
      </trkpt>
      <trkpt lat="39.83276827991188" lon="116.41687213208951">
        <ele>26.978716227916447</ele>
        <time>2022-05-12T00:03:50Z</time>
      </trkpt>
      <trkpt lat="39.83277336247775" lon="116.4169622431602">
        <ele>26.978716227916447</ele>
        <time>2022-05-12T00:03:52Z</time>
      </trkpt>
      <trkpt lat="39.83277745010518" lon="116.41705736105689">
        <ele>26.978716227916447</ele>
        <time>2022-05-12T00:03:54Z</time>
      </trkpt>
      <trkpt lat="39.83278654246727" lon="116.41715748509789">
        <ele>27.166016903590243</ele>
        <time>2022-05-12T00:03:56Z</time>
      </trkpt>
      <trkpt lat="39.832796638954534" lon="116.41726161461439">
        <ele>27.166016903590243</ele>
        <time>2022-05-12T00:03:58Z</time>
      </trkpt>
      <trkpt lat="39.832815739102124" lon="116.41736974866089">
        <ele>26.390948992721317</ele>
        <time>2022-05-12T00:04:00Z</time>
      </trkpt>
      <trkpt lat="39.83283684247681" lon="116.41748088692549">
        <ele>26.390948992721317</ele>
        <time>2022-05-12T00:04:02Z</time>
      </trkpt>
      <trkpt lat="39.832857949252926" lon="116.4175950297178">
        <ele>26.390948992721317</ele>
        <time>2022-05-12T00:04:04Z</time>
      </trkpt>
      <trkpt lat="39.83286905630094" lon="116.41770817322178">
        <ele>25.412933187230532</ele>
        <time>2022-05-12T00:04:06Z</time>
      </trkpt>
      <trkpt lat="39.832879157254325" lon="116.41781430852662">
        <ele>25.412933187230532</ele>
        <time>2022-05-12T00:04:08Z</time>
      </trkpt>
      <trkpt lat="39.83289025188398" lon="116.41791343525361">
        <ele>25.87782182438827</ele>
        <time>2022-05-12T00:04:10Z</time>
      </trkpt>
      <trkpt lat="39.832908341646274" lon="116.41800755512911">
        <ele>25.87782182438827</ele>
        <time>2022-05-12T00:04:12Z</time>
      </trkpt>
      <trkpt lat="39.83293042764699" lon="116.41809766976202">
        <ele>25.87782182438827</ele>
        <time>2022-05-12T00:04:14Z</time>
      </trkpt>
      <trkpt lat="39.83295951257527" lon="116.41818678264748">
        <ele>25.747894525888714</ele>
        <time>2022-05-12T00:04:16Z</time>
      </trkpt>
      <trkpt lat="39.8329885968741" lon="116.41827489465875">
        <ele>25.747894525888714</ele>
        <time>2022-05-12T00:04:18Z</time>
      </trkpt>
      <trkpt lat="39.83301368374716" lon="116.41836501025477">
        <ele>25.740789173510745</ele>
        <time>2022-05-12T00:04:20Z</time>
      </trkpt>
      <trkpt lat="39.833033774272515" lon="116.4184581309198">
        <ele>25.740789173510745</ele>
        <time>2022-05-12T00:04:22Z</time>
      </trkpt>
      <trkpt lat="39.833047867558335" lon="116.41855325549463">
        <ele>25.740789173510745</ele>
        <time>2022-05-12T00:04:24Z</time>
      </trkpt>
      <trkpt lat="39.83305696356471" lon="116.41865038388399">
        <ele>25.64689747241461</ele>
        <time>2022-05-12T00:04:26Z</time>
      </trkpt>
      <trkpt lat="39.83306405711144" lon="116.41874450902216">
        <ele>25.64689747241461</ele>
        <time>2022-05-12T00:04:28Z</time>
      </trkpt>
      <trkpt lat="39.83307514173537" lon="116.418829622011">
        <ele>25.68445405125609</ele>
        <time>2022-05-12T00:04:30Z</time>
      </trkpt>
      <trkpt lat="39.83310220142241" lon="116.41889070092128">
        <ele>25.68445405125609</ele>
        <time>2022-05-12T00:04:32Z</time>
      </trkpt>
      <trkpt lat="39.83314422998306" lon="116.41892173751458">
        <ele>25.68445405125609</ele>
        <time>2022-05-12T00:04:34Z</time>
      </trkpt>
      <trkpt lat="39.83319622862893" lon="116.41892373362298">
        <ele>24.957200063863027</ele>
        <time>2022-05-12T00:04:36Z</time>
      </trkpt>
      <trkpt lat="39.83324921610269" lon="116.41891471472036">
        <ele>24.957200063863027</ele>
        <time>2022-05-12T00:04:38Z</time>
      </trkpt>
      <trkpt lat="39.83330320351636" lon="116.4189056956953">
        <ele>24.957200063863027</ele>
        <time>2022-05-12T00:04:40Z</time>
      </trkpt>
      <trkpt lat="39.833361197738455" lon="116.41890368563128">
        <ele>25.54590139857886</ele>
        <time>2022-05-12T00:04:42Z</time>
      </trkpt>
      <trkpt lat="39.83342019290639" lon="116.41890267679268">
        <ele>25.54590139857886</ele>
        <time>2022-05-12T00:04:44Z</time>
      </trkpt>
      <trkpt lat="39.83347819419565" lon="116.41890767619458">
        <ele>25.636747068958005</ele>
        <time>2022-05-12T00:04:46Z</time>
      </trkpt>
      <trkpt lat="39.8335331916438" lon="116.41890867056814">
        <ele>25.636747068958005</ele>
        <time>2022-05-12T00:04:48Z</time>
      </trkpt>
      <trkpt lat="39.83359018593581" lon="116.41890666063057">
        <ele>25.636747068958005</ele>
        <time>2022-05-12T00:04:50Z</time>
      </trkpt>
      <trkpt lat="39.83364717619296" lon="116.4189006452846">
        <ele>25.487029767292857</ele>
        <time>2022-05-12T00:04:52Z</time>
      </trkpt>
      <trkpt lat="39.83370418360798" lon="116.41891165292772">
        <ele>25.487029767292857</ele>
        <time>2022-05-12T00:04:54Z</time>
      </trkpt>
      <trkpt lat="39.83374822016681" lon="116.41895070014067">
        <ele>25.299759291601397</ele>
        <time>2022-05-12T00:04:56Z</time>
      </trkpt>
      <trkpt lat="39.83377428937971" lon="116.41902079181658">
        <ele>25.299759291601397</ele>
        <time>2022-05-12T00:04:58Z</time>
      </trkpt>
      <trkpt lat="39.83378337212062" lon="116.4191029022785">
        <ele>25.299759291601397</ele>
        <time>2022-05-12T00:05:00Z</time>
      </trkpt>
      <trkpt lat="39.8337864545253" lon="116.41918401250867">
        <ele>25.924007309364228</ele>
        <time>2022-05-12T00:05:02Z</time>
      </trkpt>
      <trkpt lat="39.833790523832874" lon="116.41925210514188">
        <ele>25.924007309364228</ele>
        <time>2022-05-12T00:05:04Z</time>
      </trkpt>
      <trkpt lat="39.83379057922221" lon="116.41930617929007">
        <ele>24.880062355345657</ele>
        <time>2022-05-12T00:05:06Z</time>
      </trkpt>
      <trkpt lat="39.83378962965911" lon="116.41935524684013">
        <ele>24.880062355345657</ele>
        <time>2022-05-12T00:05:08Z</time>
      </trkpt>
      <trkpt lat="39.83378968838895" lon="116.41941232543937">
        <ele>24.880062355345657</ele>
        <time>2022-05-12T00:05:10Z</time>
      </trkpt>
      <trkpt lat="39.83379776019271" lon="116.41948242119717">
        <ele>24.986634340109834</ele>
        <time>2022-05-12T00:05:12Z</time>
      </trkpt>
      <trkpt lat="39.833815839870496" lon="116.41956052706719">
        <ele>24.986634340109834</ele>
        <time>2022-05-12T00:05:14Z</time>
      </trkpt>
      <trkpt lat="39.83383691962331" lon="116.41963863289514">
        <ele>25.49058235629537</ele>
        <time>2022-05-12T00:05:16Z</time>
      </trkpt>
      <trkpt lat="39.83385300414848" lon="116.41972074528614">
        <ele>25.49058235629537</ele>
        <time>2022-05-12T00:05:18Z</time>
      </trkpt>
      <trkpt lat="39.8338610947321" lon="116.41980786607782">
        <ele>25.49058235629537</ele>
        <time>2022-05-12T00:05:20Z</time>
      </trkpt>
      <trkpt lat="39.83386818887324" lon="116.41989799163937">
        <ele>25.727593531953996</ele>
        <time>2022-05-12T00:05:22Z</time>
      </trkpt>
      <trkpt lat="39.83387928099943" lon="116.41998611431868">
        <ele>25.727593531953996</ele>
        <time>2022-05-12T00:05:24Z</time>
      </trkpt>
      <trkpt lat="39.83389137552424" lon="116.42007624013596">
        <ele>26.121439879000448</ele>
        <time>2022-05-12T00:05:26Z</time>
      </trkpt>
      <trkpt lat="39.833904473536315" lon="116.42016937054355">
        <ele>26.121439879000448</ele>
        <time>2022-05-12T00:05:28Z</time>
      </trkpt>
      <trkpt lat="39.83391057345077" lon="116.42026350374705">
        <ele>26.121439879000448</ele>
        <time>2022-05-12T00:05:30Z</time>
      </trkpt>
      <trkpt lat="39.83391367394823" lon="116.42035763782144">
        <ele>26.058504668833628</ele>
        <time>2022-05-12T00:05:32Z</time>
      </trkpt>
      <trkpt lat="39.83391377287385" lon="116.4204497698902">
        <ele>26.058504668833628</ele>
        <time>2022-05-12T00:05:34Z</time>
      </trkpt>
      <trkpt lat="39.83391287656238" lon="116.42054590832825">
        <ele>26.099107986686843</ele>
        <time>2022-05-12T00:05:36Z</time>
      </trkpt>
      <trkpt lat="39.8339179813547" lon="116.42064304796463">
        <ele>26.099107986686843</ele>
        <time>2022-05-12T00:05:38Z</time>
      </trkpt>
      <trkpt lat="39.833928087328076" lon="116.42074118894216">
        <ele>26.099107986686843</ele>
        <time>2022-05-12T00:05:40Z</time>
      </trkpt>
      <trkpt lat="39.83394219346545" lon="116.42083932994412">
        <ele>26.025007050804973</ele>
        <time>2022-05-12T00:05:42Z</time>
      </trkpt>
      <trkpt lat="39.833954300154105" lon="116.42093747173142">
        <ele>26.025007050804973</ele>
        <time>2022-05-12T00:05:44Z</time>
      </trkpt>
      <trkpt lat="39.833960401034766" lon="116.42102960598936">
        <ele>25.983896485053947</ele>
        <time>2022-05-12T00:05:46Z</time>
      </trkpt>
      <trkpt lat="39.83396149928976" lon="116.42111873692423">
        <ele>25.983896485053947</ele>
        <time>2022-05-12T00:05:48Z</time>
      </trkpt>
      <trkpt lat="39.833961599067614" lon="116.42120886990385">
        <ele>25.983896485053947</ele>
        <time>2022-05-12T00:05:50Z</time>
      </trkpt>
      <trkpt lat="39.833966701107286" lon="116.42130100566699">
        <ele>26.35034453678808</ele>
        <time>2022-05-12T00:05:52Z</time>
      </trkpt>
      <trkpt lat="39.83397880418502" lon="116.42139414250003">
        <ele>26.35034453678808</ele>
        <time>2022-05-12T00:05:54Z</time>
      </trkpt>
      <trkpt lat="39.83399290189942" lon="116.4214822720807">
        <ele>27.132515722299832</ele>
        <time>2022-05-12T00:05:56Z</time>
      </trkpt>
      <trkpt lat="39.834006995447865" lon="116.42156639608937">
        <ele>27.132515722299832</ele>
        <time>2022-05-12T00:05:58Z</time>
      </trkpt>
      <trkpt lat="39.83401908265569" lon="116.42164451171577">
        <ele>27.132515722299832</ele>
        <time>2022-05-12T00:06:00Z</time>
      </trkpt>
      <trkpt lat="39.83403316320313" lon="116.42171661837492">
        <ele>27.555349143062248</ele>
        <time>2022-05-12T00:06:02Z</time>
      </trkpt>
      <trkpt lat="39.834059223897725" lon="116.42177169810195">
        <ele>27.555349143062248</ele>
        <time>2022-05-12T00:06:04Z</time>
      </trkpt>
      <trkpt lat="39.83410425393503" lon="116.4218007362382">
        <ele>27.535044624726872</ele>
        <time>2022-05-12T00:06:06Z</time>
      </trkpt>
      <trkpt lat="39.83416825662722" lon="116.42180673719764">
        <ele>27.535044624726872</ele>
        <time>2022-05-12T00:06:08Z</time>
      </trkpt>
      <trkpt lat="39.83424124282826" lon="116.42179871583645">
        <ele>27.535044624726872</ele>
        <time>2022-05-12T00:06:10Z</time>
      </trkpt>
      <trkpt lat="39.83431822536855" lon="116.42178768943528">
        <ele>27.880734451001445</ele>
        <time>2022-05-12T00:06:12Z</time>
      </trkpt>
      <trkpt lat="39.83439920652355" lon="116.42177566102204">
        <ele>27.880734451001445</ele>
        <time>2022-05-12T00:06:14Z</time>
      </trkpt>
      <trkpt lat="39.834481191028054" lon="116.42176663702197">
        <ele>26.99800448875788</ele>
        <time>2022-05-12T00:06:16Z</time>
      </trkpt>
      <trkpt lat="39.83456417774387" lon="116.42175961592017">
        <ele>26.99800448875788</ele>
        <time>2022-05-12T00:06:18Z</time>
      </trkpt>
      <trkpt lat="39.8346451725352" lon="116.42175960564617">
        <ele>26.99800448875788</ele>
        <time>2022-05-12T00:06:20Z</time>
      </trkpt>
      <trkpt lat="39.83472917281058" lon="116.42176460254434">
        <ele>26.56758021860175</ele>
        <time>2022-05-12T00:06:22Z</time>
      </trkpt>
      <trkpt lat="39.8348131764956" lon="116.42177260397703">
        <ele>26.56758021860175</ele>
        <time>2022-05-12T00:06:24Z</time>
      </trkpt>
      <trkpt lat="39.83489817330903" lon="116.42177459621796">
        <ele>26.36506363376739</ele>
        <time>2022-05-12T00:06:26Z</time>
      </trkpt>
      <trkpt lat="39.8349801612357" lon="116.42176857675054">
        <ele>26.36506363376739</ele>
        <time>2022-05-12T00:06:28Z</time>
      </trkpt>
      <trkpt lat="39.83505814601878" lon="116.42175955326093">
        <ele>26.36506363376739</ele>
        <time>2022-05-12T00:06:30Z</time>
      </trkpt>
      <trkpt lat="39.83513113680051" lon="116.42175553796021">
        <ele>25.756014934546087</ele>
        <time>2022-05-12T00:06:32Z</time>
      </trkpt>
      <trkpt lat="39.83519814045021" lon="116.4217625400345">
        <ele>25.756014934546087</ele>
        <time>2022-05-12T00:06:34Z</time>
      </trkpt>
      <trkpt lat="39.83526115344268" lon="116.42177755470841">
        <ele>25.756014934546087</ele>
        <time>2022-05-12T00:06:36Z</time>
      </trkpt>
      <trkpt lat="39.83532616631859" lon="116.42179256914103">
        <ele>26.22091889027638</ele>
        <time>2022-05-12T00:06:38Z</time>
      </trkpt>
      <trkpt lat="39.835397174275194" lon="116.42180357677319">
        <ele>26.22091889027638</ele>
        <time>2022-05-12T00:06:40Z</time>
      </trkpt>
      <trkpt lat="39.83547317396053" lon="116.42180757318496">
        <ele>26.473681061676597</ele>
        <time>2022-05-12T00:06:42Z</time>
      </trkpt>
      <trkpt lat="39.835549172511925" lon="116.42181056808433">
        <ele>26.473681061676597</ele>
        <time>2022-05-12T00:06:44Z</time>
      </trkpt>
      <trkpt lat="39.83562217239483" lon="116.42181456487812">
        <ele>26.473681061676597</ele>
        <time>2022-05-12T00:06:46Z</time>
      </trkpt>
      <trkpt lat="39.83568817613974" lon="116.421821567102">
        <ele>26.282839979256586</ele>
        <time>2022-05-12T00:06:48Z</time>
      </trkpt>
      <trkpt lat="39.83575617407271" lon="116.42182356150438">
        <ele>26.282839979256586</ele>
        <time>2022-05-12T00:06:50Z</time>
      </trkpt>
      <trkpt lat="39.835827168403654" lon="116.42182255098449">
        <ele>26.601079582230113</ele>
        <time>2022-05-12T00:06:52Z</time>
      </trkpt>
      <trkpt lat="39.835907162162655" lon="116.42182153932299">
        <ele>26.601079582230113</ele>
        <time>2022-05-12T00:06:54Z</time>
      </trkpt>
      <trkpt lat="39.83598516970359" lon="116.42183254608476">
        <ele>26.601079582230113</ele>
        <time>2022-05-12T00:06:56Z</time>
      </trkpt>
      <trkpt lat="39.83606218300852" lon="116.42184856055606">
        <ele>26.405160589707666</ele>
        <time>2022-05-12T00:06:58Z</time>
      </trkpt>
      <trkpt lat="39.836139194048485" lon="116.42186257200915">
        <ele>26.405160589707666</ele>
        <time>2022-05-12T00:07:00Z</time>
      </trkpt>
      <trkpt lat="39.836216194842606" lon="116.42186756982328">
        <ele>26.583314754762398</ele>
        <time>2022-05-12T00:07:02Z</time>
      </trkpt>
      <trkpt lat="39.83629118665153" lon="116.42186455576086">
        <ele>26.583314754762398</ele>
        <time>2022-05-12T00:07:04Z</time>
      </trkpt>
      <trkpt lat="39.83636517624841" lon="116.42185953879373">
        <ele>26.583314754762398</ele>
        <time>2022-05-12T00:07:06Z</time>
      </trkpt>
      <trkpt lat="39.83644016350735" lon="116.42185251866984">
        <ele>26.550830577206366</ele>
        <time>2022-05-12T00:07:08Z</time>
      </trkpt>
      <trkpt lat="39.836518148303206" lon="116.42184349513776">
        <ele>26.550830577206366</ele>
        <time>2022-05-12T00:07:10Z</time>
      </trkpt>
      <trkpt lat="39.83659712962773" lon="116.42183146693976">
        <ele>26.590928248538365</ele>
        <time>2022-05-12T00:07:12Z</time>
      </trkpt>
      <trkpt lat="39.836678110834114" lon="116.42181943849592">
        <ele>26.590928248538365</ele>
        <time>2022-05-12T00:07:14Z</time>
      </trkpt>
      <trkpt lat="39.83675910000824" lon="116.42181442065296">
        <ele>26.590928248538365</ele>
        <time>2022-05-12T00:07:16Z</time>
      </trkpt>
      <trkpt lat="39.83683710302234" lon="116.42182142135438">
        <ele>26.455916451572172</ele>
        <time>2022-05-12T00:07:18Z</time>
      </trkpt>
      <trkpt lat="39.83690811786423" lon="116.42183843809177">
        <ele>26.455916451572172</ele>
        <time>2022-05-12T00:07:20Z</time>
      </trkpt>
      <trkpt lat="39.83697513639114" lon="116.4218584599">
        <ele>26.442212344484545</ele>
        <time>2022-05-12T00:07:22Z</time>
      </trkpt>
      <trkpt lat="39.83704214354025" lon="116.4218684665629">
        <ele>26.442212344484545</ele>
        <time>2022-05-12T00:07:24Z</time>
      </trkpt>
      <trkpt lat="39.83711114145091" lon="116.42187046084322">
        <ele>26.442212344484545</ele>
        <time>2022-05-12T00:07:26Z</time>
      </trkpt>
      <trkpt lat="39.83718513107073" lon="116.42186544387401">
        <ele>26.23563780429452</ele>
        <time>2022-05-12T00:07:28Z</time>
      </trkpt>
      <trkpt lat="39.837258124174674" lon="116.42186343158134">
        <ele>26.23563780429452</ele>
        <time>2022-05-12T00:07:30Z</time>
      </trkpt>
      <trkpt lat="39.837331121838" lon="116.42186542535363">
        <ele>26.233607608018986</ele>
        <time>2022-05-12T00:07:32Z</time>
      </trkpt>
      <trkpt lat="39.83740512285896" lon="116.42187042354875">
        <ele>26.233607608018986</ele>
        <time>2022-05-12T00:07:34Z</time>
      </trkpt>
      <trkpt lat="39.837483121351106" lon="116.42187341820424">
        <ele>26.233607608018986</ele>
        <time>2022-05-12T00:07:36Z</time>
      </trkpt>
      <trkpt lat="39.83756111984604" lon="116.42187641286017">
        <ele>26.304157160670304</ele>
        <time>2022-05-12T00:07:38Z</time>
      </trkpt>
      <trkpt lat="39.83763612081309" lon="116.42188141093143">
        <ele>26.304157160670304</ele>
        <time>2022-05-12T00:07:40Z</time>
      </trkpt>
      <trkpt lat="39.8377121228607" lon="116.42188741039469">
        <ele>26.126007771962822</ele>
        <time>2022-05-12T00:07:42Z</time>
      </trkpt>
      <trkpt lat="39.83779112130154" lon="116.42189040492603">
        <ele>26.126007771962822</ele>
        <time>2022-05-12T00:07:44Z</time>
      </trkpt>
      <trkpt lat="39.83787311613471" lon="116.42189039452396">
        <ele>26.126007771962822</ele>
        <time>2022-05-12T00:07:46Z</time>
      </trkpt>
      <trkpt lat="39.837955108689734" lon="116.42188838108655">
        <ele>26.371661856410693</ele>
        <time>2022-05-12T00:07:48Z</time>
      </trkpt>
      <trkpt lat="39.83803210384288" lon="116.42188837131866">
        <ele>26.371661856410693</ele>
        <time>2022-05-12T00:07:50Z</time>
      </trkpt>
      <trkpt lat="39.838104102734164" lon="116.42189136673804">
        <ele>26.393486776476507</ele>
        <time>2022-05-12T00:07:52Z</time>
      </trkpt>
      <trkpt lat="39.838171103082914" lon="116.42189536431013">
        <ele>26.393486776476507</ele>
        <time>2022-05-12T00:07:54Z</time>
      </trkpt>
      <trkpt lat="39.83823710577877" lon="116.42190136504645">
        <ele>26.393486776476507</ele>
        <time>2022-05-12T00:07:56Z</time>
      </trkpt>
      <trkpt lat="39.838306107148256" lon="116.42190636388557">
        <ele>26.468605455698842</ele>
        <time>2022-05-12T00:07:58Z</time>
      </trkpt>
      <trkpt lat="39.838379107128205" lon="116.42191036069977">
        <ele>26.468605455698842</ele>
        <time>2022-05-12T00:08:00Z</time>
      </trkpt>
      <trkpt lat="39.83845210825247" lon="116.4219153590339">
        <ele>26.75842652008338</ele>
        <time>2022-05-12T00:08:02Z</time>
      </trkpt>
      <trkpt lat="39.838522115277506" lon="116.42192536534746">
        <ele>26.75842652008338</ele>
        <time>2022-05-12T00:08:04Z</time>
      </trkpt>
      <trkpt lat="39.83859112122915" lon="116.42193437027323">
        <ele>26.75842652008338</ele>
        <time>2022-05-12T00:08:06Z</time>
      </trkpt>
      <trkpt lat="39.83866412350737" lon="116.42194037013438">
        <ele>26.929480566202724</ele>
        <time>2022-05-12T00:08:08Z</time>
      </trkpt>
      <trkpt lat="39.83873712121802" lon="116.42194236391475">
        <ele>26.929480566202724</ele>
        <time>2022-05-12T00:08:10Z</time>
      </trkpt>
      <trkpt lat="39.83880611803865" lon="116.42194335668209">
        <ele>26.697517745937624</ele>
        <time>2022-05-12T00:08:12Z</time>
      </trkpt>
      <trkpt lat="39.838866110853694" lon="116.4219403445089">
        <ele>26.697517745937624</ele>
        <time>2022-05-12T00:08:14Z</time>
      </trkpt>
      <trkpt lat="39.83892309586181" lon="116.42193032207594">
        <ele>26.697517745937624</ele>
        <time>2022-05-12T00:08:16Z</time>
      </trkpt>
      <trkpt lat="39.83898607935851" lon="116.42191929736795">
        <ele>27.108658886182507</ele>
        <time>2022-05-12T00:08:18Z</time>
      </trkpt>
      <trkpt lat="39.83905406254941" lon="116.42190827203227">
        <ele>27.108658886182507</ele>
        <time>2022-05-12T00:08:20Z</time>
      </trkpt>
      <trkpt lat="39.83912004587241" lon="116.42189724695692">
        <ele>27.470578041449</ele>
        <time>2022-05-12T00:08:22Z</time>
      </trkpt>
      <trkpt lat="39.839176029827215" lon="116.4218862231568">
        <ele>27.470578041449</ele>
        <time>2022-05-12T00:08:24Z</time>
      </trkpt>
      <trkpt lat="39.83921901574035" lon="116.42187620252945">
        <ele>27.470578041449</ele>
        <time>2022-05-12T00:08:26Z</time>
      </trkpt>
      <trkpt lat="39.83925800532677" lon="116.42186918696449">
        <ele>26.033635214843024</ele>
        <time>2022-05-12T00:08:28Z</time>
      </trkpt>
      <trkpt lat="39.839299993589435" lon="116.42186116950546">
        <ele>26.033635214843024</ele>
        <time>2022-05-12T00:08:30Z</time>
      </trkpt>
      <trkpt lat="39.83935098926675" lon="116.42186016151932">
        <ele>27.173123228627713</ele>
        <time>2022-05-12T00:08:32Z</time>
      </trkpt>
      <trkpt lat="39.83940599153091" lon="116.42186516212286">
        <ele>27.173123228627713</ele>
        <time>2022-05-12T00:08:34Z</time>
      </trkpt>
      <trkpt lat="39.83946600830367" lon="116.42188318181425">
        <ele>27.173123228627713</ele>
        <time>2022-05-12T00:08:36Z</time>
      </trkpt>
      <trkpt lat="39.83952502401344" lon="116.42190020013206">
        <ele>27.524892380407707</ele>
        <time>2022-05-12T00:08:38Z</time>
      </trkpt>
      <trkpt lat="39.839587031559915" lon="116.42191020745204">
        <ele>27.524892380407707</ele>
        <time>2022-05-12T00:08:40Z</time>
      </trkpt>
      <trkpt lat="39.83964802890048" lon="116.42191120123219">
        <ele>27.524892380407707</ele>
        <time>2022-05-12T00:08:42Z</time>
      </trkpt>
      <trkpt lat="39.83971202719715" lon="116.42191319615075">
        <ele>28.02947090334966</ele>
        <time>2022-05-12T00:08:44Z</time>
      </trkpt>
      <trkpt lat="39.83977802993763" lon="116.42191919689267">
        <ele>28.02947090334966</ele>
        <time>2022-05-12T00:08:46Z</time>
      </trkpt>
      <trkpt lat="39.83984602913119" lon="116.4219221928241">
        <ele>27.959924925658378</ele>
        <time>2022-05-12T00:08:48Z</time>
      </trkpt>
      <trkpt lat="39.8399120250256" lon="116.42192218445098">
        <ele>27.959924925658378</ele>
        <time>2022-05-12T00:08:50Z</time>
      </trkpt>
      <trkpt lat="39.83997801635465" lon="116.42191817000027">
        <ele>27.959924925658378</ele>
        <time>2022-05-12T00:08:52Z</time>
      </trkpt>
      <trkpt lat="39.84004500876548" lon="116.42191515694262">
        <ele>28.18937765055018</ele>
        <time>2022-05-12T00:08:54Z</time>
      </trkpt>
      <trkpt lat="39.840113003399246" lon="116.4219141467966">
        <ele>28.18937765055018</ele>
        <time>2022-05-12T00:08:56Z</time>
      </trkpt>
      <trkpt lat="39.840179999238416" lon="116.4219141382965">
        <ele>28.425434956506546</ele>
        <time>2022-05-12T00:08:58Z</time>
      </trkpt>
      <trkpt lat="39.84024699051369" lon="116.42191012372055">
        <ele>28.425434956506546</ele>
        <time>2022-05-12T00:09:00Z</time>
      </trkpt>
      <trkpt lat="39.84031597253954" lon="116.42189809674446">
        <ele>28.425434956506546</ele>
        <time>2022-05-12T00:09:02Z</time>
      </trkpt>
      <trkpt lat="39.8403849534333" lon="116.42188506825875">
        <ele>28.685358009028107</ele>
        <time>2022-05-12T00:09:04Z</time>
      </trkpt>
      <trkpt lat="39.84045293895728" lon="116.4218760459766">
        <ele>28.685358009028107</ele>
        <time>2022-05-12T00:09:06Z</time>
      </trkpt>
      <trkpt lat="39.84051892916862" lon="116.42187103001899">
        <ele>29.057485705503694</ele>
        <time>2022-05-12T00:09:08Z</time>
      </trkpt>
      <trkpt lat="39.84058291836723" lon="116.42186501280007">
        <ele>29.057485705503694</ele>
        <time>2022-05-12T00:09:10Z</time>
      </trkpt>
      <trkpt lat="39.84064890630613" lon="116.42185799381332">
        <ele>29.057485705503694</ele>
        <time>2022-05-12T00:09:12Z</time>
      </trkpt>
      <trkpt lat="39.84071289209521" lon="116.42184897205189">
        <ele>29.057993392208104</ele>
        <time>2022-05-12T00:09:14Z</time>
      </trkpt>
      <trkpt lat="39.84077888573462" lon="116.42184696064746">
        <ele>29.057993392208104</ele>
        <time>2022-05-12T00:09:16Z</time>
      </trkpt>
      <trkpt lat="39.84083988082354" lon="116.4218459513929">
        <ele>29.202177418750175</ele>
        <time>2022-05-12T00:09:18Z</time>
      </trkpt>
      <trkpt lat="39.84089687729969" lon="116.42184594416116">
        <ele>29.202177418750175</ele>
        <time>2022-05-12T00:09:20Z</time>
      </trkpt>
      <trkpt lat="39.84094286990305" lon="116.4218419322641">
        <ele>29.202177418750175</ele>
        <time>2022-05-12T00:09:22Z</time>
      </trkpt>
      <trkpt lat="39.8410208696381" lon="116.4218459284289">
        <ele>28.68281966659537</ele>
        <time>2022-05-12T00:09:58Z</time>
      </trkpt>
      <trkpt lat="39.841054873231535" lon="116.42185093169257">
        <ele>28.68281966659537</ele>
        <time>2022-05-12T00:10:00Z</time>
      </trkpt>
      <trkpt lat="39.841096876332635" lon="116.42185593394264">
        <ele>28.68281966659537</ele>
        <time>2022-05-12T00:10:02Z</time>
      </trkpt>
      <trkpt lat="39.8411498833137" lon="116.42186494086356">
        <ele>29.86118476187969</ele>
        <time>2022-05-12T00:10:04Z</time>
      </trkpt>
      <trkpt lat="39.84120489473534" lon="116.42187795360319">
        <ele>29.86118476187969</ele>
        <time>2022-05-12T00:10:06Z</time>
      </trkpt>
      <trkpt lat="39.84126590693604" lon="116.42189196710872">
        <ele>29.95460674406418</ele>
        <time>2022-05-12T00:10:08Z</time>
      </trkpt>
      <trkpt lat="39.84132491584679" lon="116.42190297632314">
        <ele>29.95460674406418</ele>
        <time>2022-05-12T00:10:10Z</time>
      </trkpt>
      <trkpt lat="39.84138092266614" lon="116.42191198288678">
        <ele>29.95460674406418</ele>
        <time>2022-05-12T00:10:12Z</time>
      </trkpt>
      <trkpt lat="39.84143192751473" lon="116.42191898705042">
        <ele>30.100326400681208</ele>
        <time>2022-05-12T00:10:14Z</time>
      </trkpt>
      <trkpt lat="39.84148592989776" lon="116.42192398779673">
        <ele>30.100326400681208</ele>
        <time>2022-05-12T00:10:16Z</time>
      </trkpt>
      <trkpt lat="39.84154992138978" lon="116.42191997359862">
        <ele>30.312562859157886</ele>
        <time>2022-05-12T00:10:18Z</time>
      </trkpt>
      <trkpt lat="39.84161691041639" lon="116.42191395598243">
        <ele>30.312562859157886</ele>
        <time>2022-05-12T00:10:20Z</time>
      </trkpt>
      <trkpt lat="39.84167989969234" lon="116.42190793887569">
        <ele>30.312562859157886</ele>
        <time>2022-05-12T00:10:22Z</time>
      </trkpt>
      <trkpt lat="39.84172989433496" lon="116.42190592949447">
        <ele>30.72181570924105</ele>
        <time>2022-05-12T00:10:24Z</time>
      </trkpt>
      <trkpt lat="39.8417768925865" lon="116.42190692504997">
        <ele>30.72181570924105</ele>
        <time>2022-05-12T00:10:26Z</time>
      </trkpt>
      <trkpt lat="39.84182390453691" lon="116.4219199388347">
        <ele>30.02518151470567</ele>
        <time>2022-05-12T00:10:28Z</time>
      </trkpt>
      <trkpt lat="39.84187492996089" lon="116.421944970367">
        <ele>30.02518151470567</ele>
        <time>2022-05-12T00:10:30Z</time>
      </trkpt>
      <trkpt lat="39.84192995516754" lon="116.42197000142623">
        <ele>30.02518151470567</ele>
        <time>2022-05-12T00:10:32Z</time>
      </trkpt>
      <trkpt lat="39.8419909617193" lon="116.42197900738871">
        <ele>30.481644282461076</ele>
        <time>2022-05-12T00:10:34Z</time>
      </trkpt>
      <trkpt lat="39.8420619516404" lon="116.42197399076777">
        <ele>30.481644282461076</ele>
        <time>2022-05-12T00:10:36Z</time>
      </trkpt>
      <trkpt lat="39.84213294156452" lon="116.42196897414816">
        <ele>30.376539290991108</ele>
        <time>2022-05-12T00:10:38Z</time>
      </trkpt>
      <trkpt lat="39.842201938477174" lon="116.42196996691578">
        <ele>30.376539290991108</ele>
        <time>2022-05-12T00:10:40Z</time>
      </trkpt>
      <trkpt lat="39.842265940274416" lon="116.42197496640728">
        <ele>30.376539290991108</ele>
        <time>2022-05-12T00:10:42Z</time>
      </trkpt>
      <trkpt lat="39.84233293845759" lon="116.42197696095151">
        <ele>30.536482090544546</ele>
        <time>2022-05-12T00:10:44Z</time>
      </trkpt>
      <trkpt lat="39.84239693224934" lon="116.42197494978626">
        <ele>30.536482090544546</ele>
        <time>2022-05-12T00:10:46Z</time>
      </trkpt>
      <trkpt lat="39.84245792165051" lon="116.42196893291282">
        <ele>30.536482090544546</ele>
        <time>2022-05-12T00:10:48Z</time>
      </trkpt>
      <trkpt lat="39.842516919183595" lon="116.42196992694913">
        <ele>30.440008361827722</ele>
        <time>2022-05-12T00:10:50Z</time>
      </trkpt>
      <trkpt lat="39.8425799210497" lon="116.42197492656742">
        <ele>30.440008361827722</ele>
        <time>2022-05-12T00:10:52Z</time>
      </trkpt>
      <trkpt lat="39.84264692381824" lon="116.42198092720233">
        <ele>30.303931148453774</ele>
        <time>2022-05-12T00:10:54Z</time>
      </trkpt>
      <trkpt lat="39.842716919539384" lon="116.42198091832074">
        <ele>30.303931148453774</ele>
        <time>2022-05-12T00:10:56Z</time>
      </trkpt>
      <trkpt lat="39.84278891514022" lon="116.42198090918536">
        <ele>30.303931148453774</ele>
        <time>2022-05-12T00:10:58Z</time>
      </trkpt>
      <trkpt lat="39.84285991423756" lon="116.42198390474552">
        <ele>30.462349566833097</ele>
        <time>2022-05-12T00:11:00Z</time>
      </trkpt>
      <trkpt lat="39.8429269170156" lon="116.42198990538336">
        <ele>30.462349566833097</ele>
        <time>2022-05-12T00:11:02Z</time>
      </trkpt>
      <trkpt lat="39.84299092112506" lon="116.42199690792746">
        <ele>30.363845523254337</ele>
        <time>2022-05-12T00:11:04Z</time>
      </trkpt>
      <trkpt lat="39.84305092433673" lon="116.42200290945776">
        <ele>30.363845523254337</ele>
        <time>2022-05-12T00:11:06Z</time>
      </trkpt>
      <trkpt lat="39.84310992761232" lon="116.42200891111689">
        <ele>30.363845523254337</ele>
        <time>2022-05-12T00:11:08Z</time>
      </trkpt>
      <trkpt lat="39.843164927697025" lon="116.42201190871172">
        <ele>30.034320728621484</ele>
        <time>2022-05-12T00:11:10Z</time>
      </trkpt>
      <trkpt lat="39.84321792332181" lon="116.42201090046247">
        <ele>30.034320728621484</ele>
        <time>2022-05-12T00:11:12Z</time>
      </trkpt>
      <trkpt lat="39.84327291653461" lon="116.42200788891078">
        <ele>29.790103380478378</ele>
        <time>2022-05-12T00:11:14Z</time>
      </trkpt>
      <trkpt lat="39.84333191065092" lon="116.42200587837618">
        <ele>29.790103380478378</ele>
        <time>2022-05-12T00:11:16Z</time>
      </trkpt>
      <trkpt lat="39.84339490796178" lon="116.42200687190679">
        <ele>29.790103380478378</ele>
        <time>2022-05-12T00:11:18Z</time>
      </trkpt>
      <trkpt lat="39.8434569099178" lon="116.42201187166198">
        <ele>30.452194467704416</ele>
        <time>2022-05-12T00:11:20Z</time>
      </trkpt>
      <trkpt lat="39.843517905061965" lon="116.42201086239756">
        <ele>30.452194467704416</ele>
        <time>2022-05-12T00:11:22Z</time>
      </trkpt>
      <trkpt lat="39.84357989327342" lon="116.42200384386075">
        <ele>29.927189336295413</ele>
        <time>2022-05-12T00:11:24Z</time>
      </trkpt>
      <trkpt lat="39.84364487672604" lon="116.42199281885154">
        <ele>29.927189336295413</ele>
        <time>2022-05-12T00:11:26Z</time>
      </trkpt>
      <trkpt lat="39.843710864703034" lon="116.42198579981404">
        <ele>29.927189336295413</ele>
        <time>2022-05-12T00:11:28Z</time>
      </trkpt>
      <trkpt lat="39.84377886057382" lon="116.42198579118582">
        <ele>30.296822686193554</ele>
        <time>2022-05-12T00:11:30Z</time>
      </trkpt>
      <trkpt lat="39.84384586108597" lon="116.42198978877732">
        <ele>30.296822686193554</ele>
        <time>2022-05-12T00:11:32Z</time>
      </trkpt>
      <trkpt lat="39.8439098629275" lon="116.42199478827393">
        <ele>30.557807982800046</ele>
        <time>2022-05-12T00:11:34Z</time>
      </trkpt>
      <trkpt lat="39.84397186374771" lon="116.42199878650182">
        <ele>30.557807982800046</ele>
        <time>2022-05-12T00:11:36Z</time>
      </trkpt>
      <trkpt lat="39.844033864570065" lon="116.42200278473058">
        <ele>30.557807982800046</ele>
        <time>2022-05-12T00:11:38Z</time>
      </trkpt>
      <trkpt lat="39.84409486087327" lon="116.42200277699047">
        <ele>30.306977633770835</ele>
        <time>2022-05-12T00:11:40Z</time>
      </trkpt>
      <trkpt lat="39.8441478496458" lon="116.42199575959843">
        <ele>30.306977633770835</ele>
        <time>2022-05-12T00:11:42Z</time>
      </trkpt>
      <trkpt lat="39.84418681409484" lon="116.42196671048669">
        <ele>30.344551025934596</ele>
        <time>2022-05-12T00:11:44Z</time>
      </trkpt>
      <trkpt lat="39.84420876133541" lon="116.42192163925782">
        <ele>30.344551025934596</ele>
        <time>2022-05-12T00:11:48Z</time>
      </trkpt>
      <trkpt lat="39.84421869343727" lon="116.421862548429">
        <ele>30.20035117820951</ele>
        <time>2022-05-12T00:11:50Z</time>
      </trkpt>
      <trkpt lat="39.8442226283282" lon="116.42180546157962">
        <ele>30.20035117820951</ele>
        <time>2022-05-12T00:11:52Z</time>
      </trkpt>
      <trkpt lat="39.84422356354294" lon="116.42174837529001">
        <ele>30.21609120532659</ele>
        <time>2022-05-12T00:11:54Z</time>
      </trkpt>
      <trkpt lat="39.84422250468044" lon="116.42169629696855">
        <ele>30.21609120532659</ele>
        <time>2022-05-12T00:11:56Z</time>
      </trkpt>
      <trkpt lat="39.84422044712662" lon="116.42164522042744">
        <ele>30.21609120532659</ele>
        <time>2022-05-12T00:11:58Z</time>
      </trkpt>
      <trkpt lat="39.84422038956562" lon="116.42159414377603">
        <ele>30.574564071648773</ele>
        <time>2022-05-12T00:12:00Z</time>
      </trkpt>
    </trkseg>
  </trk>
</gpx>