<?xml version="1.0" encoding="UTF-8"?>
<gpx xmlns="http://www.topografix.com/GPX/1/1" xmlns:gpxtpx="http://www.garmin.com/xmlschemas/TrackPointExtension/v1" xmlns:xsi="http://www.w3.org/2001/XMLSchema-instance" xsi:schemaLocation="http://www.topografix.com/GPX/1/1 http://www.topografix.com/GPX/1/1/gpx.xsd" version="1.1" creator="gpx.py -- https://github.com/tkrajina/gpxpy">
  <trk>
    <name>gpx from codoon</name>
    <type>Run</type>
    <trkseg>
      <trkpt lat="39.813879195198474" lon="116.42353728904482">
        <ele>37.4</ele>
        <time>2022-05-21T22:43:34Z</time>
      </trkpt>
      <trkpt lat="39.81386394261091" lon="116.42355512412878">
        <ele>37.4</ele>
        <time>2022-05-21T22:43:35Z</time>
      </trkpt>
      <trkpt lat="39.813843444256804" lon="116.42357833640831">
        <ele>37.4</ele>
        <time>2022-05-21T22:43:36Z</time>
      </trkpt>
      <trkpt lat="39.81382127794843" lon="116.42360141244184">
        <ele>37.4</ele>
        <time>2022-05-21T22:43:37Z</time>
      </trkpt>
      <trkpt lat="39.81379511046798" lon="116.42362526935842">
        <ele>37.3</ele>
        <time>2022-05-21T22:43:38Z</time>
      </trkpt>
      <trkpt lat="39.81376336639915" lon="116.4236416800455">
        <ele>37.3</ele>
        <time>2022-05-21T22:43:39Z</time>
      </trkpt>
      <trkpt lat="39.813738153115686" lon="116.42366152014934">
        <ele>37.3</ele>
        <time>2022-05-21T22:43:40Z</time>
      </trkpt>
      <trkpt lat="39.813711840748994" lon="116.42368150688452">
        <ele>37.3</ele>
        <time>2022-05-21T22:43:41Z</time>
      </trkpt>
      <trkpt lat="39.813685078487474" lon="116.42370107692098">
        <ele>37.3</ele>
        <time>2022-05-21T22:43:42Z</time>
      </trkpt>
      <trkpt lat="39.81365786293943" lon="116.4237203428284">
        <ele>37.3</ele>
        <time>2022-05-21T22:43:43Z</time>
      </trkpt>
      <trkpt lat="39.81363073103849" lon="116.42373914234282">
        <ele>37.3</ele>
        <time>2022-05-21T22:43:44Z</time>
      </trkpt>
      <trkpt lat="39.813603713267156" lon="116.42375745059991">
        <ele>37.3</ele>
        <time>2022-05-21T22:43:45Z</time>
      </trkpt>
      <trkpt lat="39.813576918036695" lon="116.42377544431395">
        <ele>37.3</ele>
        <time>2022-05-21T22:43:46Z</time>
      </trkpt>
      <trkpt lat="39.81355042547175" lon="116.42379335842388">
        <ele>37.3</ele>
        <time>2022-05-21T22:43:47Z</time>
      </trkpt>
      <trkpt lat="39.813524268783425" lon="116.4238112656748">
        <ele>38.2</ele>
        <time>2022-05-21T22:43:48Z</time>
      </trkpt>
      <trkpt lat="39.81349875038345" lon="116.42382902309332">
        <ele>38.2</ele>
        <time>2022-05-21T22:43:49Z</time>
      </trkpt>
      <trkpt lat="39.81347363574702" lon="116.42384708580784">
        <ele>38.2</ele>
        <time>2022-05-21T22:43:50Z</time>
      </trkpt>
      <trkpt lat="39.81344885162158" lon="116.42386528129792">
        <ele>38.2</ele>
        <time>2022-05-21T22:43:51Z</time>
      </trkpt>
      <trkpt lat="39.813424281897014" lon="116.42388342356064">
        <ele>38.2</ele>
        <time>2022-05-21T22:43:52Z</time>
      </trkpt>
      <trkpt lat="39.81339986302168" lon="116.42390141455894">
        <ele>38.2</ele>
        <time>2022-05-21T22:43:53Z</time>
      </trkpt>
      <trkpt lat="39.813375821641195" lon="116.42391902384259">
        <ele>38.2</ele>
        <time>2022-05-21T22:43:54Z</time>
      </trkpt>
      <trkpt lat="39.81335175244226" lon="116.42393644630006">
        <ele>38.2</ele>
        <time>2022-05-21T22:43:55Z</time>
      </trkpt>
      <trkpt lat="39.81332778931653" lon="116.4239538963418">
        <ele>38.2</ele>
        <time>2022-05-21T22:43:56Z</time>
      </trkpt>
      <trkpt lat="39.81330368941526" lon="116.42397157081793">
        <ele>38.2</ele>
        <time>2022-05-21T22:43:57Z</time>
      </trkpt>
      <trkpt lat="39.81327979358761" lon="116.42398919743235">
        <ele>37</ele>
        <time>2022-05-21T22:43:58Z</time>
      </trkpt>
      <trkpt lat="39.813255750348624" lon="116.42400694081238">
        <ele>37</ele>
        <time>2022-05-21T22:43:59Z</time>
      </trkpt>
      <trkpt lat="39.81323158544448" lon="116.42402477913103">
        <ele>37.8</ele>
        <time>2022-05-21T22:44:00Z</time>
      </trkpt>
      <trkpt lat="39.813207163128" lon="116.42404246293746">
        <ele>37.8</ele>
        <time>2022-05-21T22:44:01Z</time>
      </trkpt>
      <trkpt lat="39.81318255116208" lon="116.4240600878636">
        <ele>37.8</ele>
        <time>2022-05-21T22:44:02Z</time>
      </trkpt>
      <trkpt lat="39.81315782183731" lon="116.42407774625767">
        <ele>37.8</ele>
        <time>2022-05-21T22:44:03Z</time>
      </trkpt>
      <trkpt lat="39.813133001843156" lon="116.42409549236204">
        <ele>37.8</ele>
        <time>2022-05-21T22:44:04Z</time>
      </trkpt>
      <trkpt lat="39.813108127524" lon="116.42411340604524">
        <ele>37.8</ele>
        <time>2022-05-21T22:44:05Z</time>
      </trkpt>
      <trkpt lat="39.81308323050089" lon="116.4241315678058">
        <ele>37.8</ele>
        <time>2022-05-21T22:44:06Z</time>
      </trkpt>
      <trkpt lat="39.81305827151688" lon="116.42414988262493">
        <ele>37.8</ele>
        <time>2022-05-21T22:44:07Z</time>
      </trkpt>
      <trkpt lat="39.813033246168004" lon="116.42416835263447">
        <ele>37.3</ele>
        <time>2022-05-21T22:44:08Z</time>
      </trkpt>
      <trkpt lat="39.81300814510883" lon="116.42418695048381">
        <ele>37.3</ele>
        <time>2022-05-21T22:44:09Z</time>
      </trkpt>
      <trkpt lat="39.81298323827324" lon="116.42420545973977">
        <ele>37.3</ele>
        <time>2022-05-21T22:44:10Z</time>
      </trkpt>
      <trkpt lat="39.81295817830151" lon="116.4242240877052">
        <ele>37.3</ele>
        <time>2022-05-21T22:44:11Z</time>
      </trkpt>
      <trkpt lat="39.81293330663834" lon="116.42424266594509">
        <ele>37.3</ele>
        <time>2022-05-21T22:44:12Z</time>
      </trkpt>
      <trkpt lat="39.81290825135163" lon="116.42426141316312">
        <ele>37.3</ele>
        <time>2022-05-21T22:44:13Z</time>
      </trkpt>
      <trkpt lat="39.812883313910476" lon="116.42428007465075">
        <ele>37.3</ele>
        <time>2022-05-21T22:44:14Z</time>
      </trkpt>
      <trkpt lat="39.81285845476815" lon="116.42429869894002">
        <ele>37.3</ele>
        <time>2022-05-21T22:44:15Z</time>
      </trkpt>
      <trkpt lat="39.812833639493554" lon="116.42431727360703">
        <ele>37.3</ele>
        <time>2022-05-21T22:44:16Z</time>
      </trkpt>
      <trkpt lat="39.812808873324435" lon="116.42433575606974">
        <ele>37.3</ele>
        <time>2022-05-21T22:44:17Z</time>
      </trkpt>
      <trkpt lat="39.812784083069324" lon="116.4243542139371">
        <ele>37</ele>
        <time>2022-05-21T22:44:18Z</time>
      </trkpt>
      <trkpt lat="39.81275948595455" lon="116.42437241895271">
        <ele>37</ele>
        <time>2022-05-21T22:44:19Z</time>
      </trkpt>
      <trkpt lat="39.81273469423434" lon="116.42439060652136">
        <ele>37</ele>
        <time>2022-05-21T22:44:20Z</time>
      </trkpt>
      <trkpt lat="39.81270974027524" lon="116.42440872091485">
        <ele>37</ele>
        <time>2022-05-21T22:44:21Z</time>
      </trkpt>
      <trkpt lat="39.81268461641819" lon="116.42442664526324">
        <ele>37</ele>
        <time>2022-05-21T22:44:22Z</time>
      </trkpt>
      <trkpt lat="39.81265935348464" lon="116.42444435296844">
        <ele>37</ele>
        <time>2022-05-21T22:44:23Z</time>
      </trkpt>
      <trkpt lat="39.81263396790841" lon="116.4244617904588">
        <ele>37</ele>
        <time>2022-05-21T22:44:24Z</time>
      </trkpt>
      <trkpt lat="39.81260847725062" lon="116.42447891473172">
        <ele>37</ele>
        <time>2022-05-21T22:44:25Z</time>
      </trkpt>
      <trkpt lat="39.81258291569692" lon="116.42449574157914">
        <ele>37</ele>
        <time>2022-05-21T22:44:26Z</time>
      </trkpt>
      <trkpt lat="39.81255703294352" lon="116.42451249857247">
        <ele>37</ele>
        <time>2022-05-21T22:44:27Z</time>
      </trkpt>
      <trkpt lat="39.812531202747635" lon="116.4245290249813">
        <ele>37</ele>
        <time>2022-05-21T22:44:28Z</time>
      </trkpt>
      <trkpt lat="39.81250525930651" lon="116.42454555512901">
        <ele>37</ele>
        <time>2022-05-21T22:44:29Z</time>
      </trkpt>
      <trkpt lat="39.81247934826371" lon="116.4245621100304">
        <ele>37</ele>
        <time>2022-05-21T22:44:30Z</time>
      </trkpt>
      <trkpt lat="39.81245358146522" lon="116.42457865252435">
        <ele>37</ele>
        <time>2022-05-21T22:44:31Z</time>
      </trkpt>
      <trkpt lat="39.81242800585754" lon="116.42459513378448">
        <ele>37</ele>
        <time>2022-05-21T22:44:32Z</time>
      </trkpt>
      <trkpt lat="39.812402676580085" lon="116.42461160533547">
        <ele>37</ele>
        <time>2022-05-21T22:44:33Z</time>
      </trkpt>
      <trkpt lat="39.812377613919" lon="116.42462806249883">
        <ele>37</ele>
        <time>2022-05-21T22:44:34Z</time>
      </trkpt>
      <trkpt lat="39.81235313625872" lon="116.42464434580044">
        <ele>37</ele>
        <time>2022-05-21T22:44:35Z</time>
      </trkpt>
      <trkpt lat="39.81232896093258" lon="116.42466088308454">
        <ele>37</ele>
        <time>2022-05-21T22:44:36Z</time>
      </trkpt>
      <trkpt lat="39.81230509375801" lon="116.42467762743817">
        <ele>37</ele>
        <time>2022-05-21T22:44:37Z</time>
      </trkpt>
      <trkpt lat="39.812281533862375" lon="116.4246945380293">
        <ele>37</ele>
        <time>2022-05-21T22:44:38Z</time>
      </trkpt>
      <trkpt lat="39.81225827331035" lon="116.42471152155298">
        <ele>37</ele>
        <time>2022-05-21T22:44:39Z</time>
      </trkpt>
      <trkpt lat="39.812235579506215" lon="116.42472828969457">
        <ele>37</ele>
        <time>2022-05-21T22:44:40Z</time>
      </trkpt>
      <trkpt lat="39.812213129442554" lon="116.42474506737521">
        <ele>37</ele>
        <time>2022-05-21T22:44:41Z</time>
      </trkpt>
      <trkpt lat="39.81219123771123" lon="116.4247616992198">
        <ele>37</ele>
        <time>2022-05-21T22:44:42Z</time>
      </trkpt>
      <trkpt lat="39.81216957837772" lon="116.4247785464656">
        <ele>37</ele>
        <time>2022-05-21T22:44:43Z</time>
      </trkpt>
      <trkpt lat="39.81214840118761" lon="116.42479538551534">
        <ele>37</ele>
        <time>2022-05-21T22:44:44Z</time>
      </trkpt>
      <trkpt lat="39.812127566229336" lon="116.42481220964883">
        <ele>37</ele>
        <time>2022-05-21T22:44:45Z</time>
      </trkpt>
      <trkpt lat="39.81210694739581" lon="116.42482904042689">
        <ele>37</ele>
        <time>2022-05-21T22:44:46Z</time>
      </trkpt>
      <trkpt lat="39.81208643079632" lon="116.42484583353215">
        <ele>37</ele>
        <time>2022-05-21T22:44:47Z</time>
      </trkpt>
      <trkpt lat="39.81206597934155" lon="116.4248626256296">
        <ele>37.3</ele>
        <time>2022-05-21T22:44:48Z</time>
      </trkpt>
      <trkpt lat="39.8120458269199" lon="116.42487927500775">
        <ele>37.3</ele>
        <time>2022-05-21T22:44:49Z</time>
      </trkpt>
      <trkpt lat="39.81202557287191" lon="116.42489608812782">
        <ele>37.3</ele>
        <time>2022-05-21T22:44:50Z</time>
      </trkpt>
      <trkpt lat="39.812005144883535" lon="116.42491303748776">
        <ele>37.3</ele>
        <time>2022-05-21T22:44:51Z</time>
      </trkpt>
      <trkpt lat="39.81198442521146" lon="116.42493005445755">
        <ele>37.3</ele>
        <time>2022-05-21T22:44:52Z</time>
      </trkpt>
      <trkpt lat="39.81196339611687" lon="116.42494708105322">
        <ele>37.3</ele>
        <time>2022-05-21T22:44:53Z</time>
      </trkpt>
      <trkpt lat="39.81194223302252" lon="116.42496377647731">
        <ele>37.3</ele>
        <time>2022-05-21T22:44:54Z</time>
      </trkpt>
      <trkpt lat="39.81192061436881" lon="116.42498042566118">
        <ele>37.3</ele>
        <time>2022-05-21T22:44:55Z</time>
      </trkpt>
      <trkpt lat="39.8118986605107" lon="116.42499710457358">
        <ele>37.3</ele>
        <time>2022-05-21T22:44:56Z</time>
      </trkpt>
      <trkpt lat="39.81187619699424" lon="116.42501394634711">
        <ele>37.3</ele>
        <time>2022-05-21T22:44:57Z</time>
      </trkpt>
      <trkpt lat="39.811853628895484" lon="116.4250305948195">
        <ele>37</ele>
        <time>2022-05-21T22:44:58Z</time>
      </trkpt>
      <trkpt lat="39.811830943055035" lon="116.42504694238805">
        <ele>37</ele>
        <time>2022-05-21T22:44:59Z</time>
      </trkpt>
      <trkpt lat="39.81180814398972" lon="116.42506287069916">
        <ele>37.2</ele>
        <time>2022-05-21T22:45:00Z</time>
      </trkpt>
      <trkpt lat="39.81178519713982" lon="116.42507826258907">
        <ele>37.2</ele>
        <time>2022-05-21T22:45:01Z</time>
      </trkpt>
      <trkpt lat="39.81176217929379" lon="116.4250931207662">
        <ele>37.2</ele>
        <time>2022-05-21T22:45:02Z</time>
      </trkpt>
      <trkpt lat="39.811739155597564" lon="116.4251074068797">
        <ele>37.2</ele>
        <time>2022-05-21T22:45:03Z</time>
      </trkpt>
      <trkpt lat="39.8117161353841" lon="116.42512119663566">
        <ele>37.2</ele>
        <time>2022-05-21T22:45:04Z</time>
      </trkpt>
      <trkpt lat="39.81169324754132" lon="116.42513463860894">
        <ele>37.2</ele>
        <time>2022-05-21T22:45:05Z</time>
      </trkpt>
      <trkpt lat="39.8116705397023" lon="116.42514771600469">
        <ele>37.2</ele>
        <time>2022-05-21T22:45:06Z</time>
      </trkpt>
      <trkpt lat="39.81164806005956" lon="116.42516050874622">
        <ele>37.2</ele>
        <time>2022-05-21T22:45:07Z</time>
      </trkpt>
      <trkpt lat="39.81162587063716" lon="116.42517316507673">
        <ele>37.2</ele>
        <time>2022-05-21T22:45:08Z</time>
      </trkpt>
      <trkpt lat="39.81160402534209" lon="116.42518581340033">
        <ele>37.2</ele>
        <time>2022-05-21T22:45:09Z</time>
      </trkpt>
      <trkpt lat="39.811582585688114" lon="116.42519859187851">
        <ele>37.2</ele>
        <time>2022-05-21T22:45:10Z</time>
      </trkpt>
      <trkpt lat="39.81156129594016" lon="116.42521179698286">
        <ele>37.2</ele>
        <time>2022-05-21T22:45:11Z</time>
      </trkpt>
      <trkpt lat="39.81154059729064" lon="116.42522529907791">
        <ele>37.2</ele>
        <time>2022-05-21T22:45:12Z</time>
      </trkpt>
      <trkpt lat="39.8115201423759" lon="116.42523934311417">
        <ele>37.2</ele>
        <time>2022-05-21T22:45:13Z</time>
      </trkpt>
      <trkpt lat="39.81150021671752" lon="116.4252537258451">
        <ele>37.2</ele>
        <time>2022-05-21T22:45:14Z</time>
      </trkpt>
      <trkpt lat="39.811480671768635" lon="116.4252683853818">
        <ele>37.2</ele>
        <time>2022-05-21T22:45:15Z</time>
      </trkpt>
      <trkpt lat="39.81146139994386" lon="116.4252833307983">
        <ele>37.2</ele>
        <time>2022-05-21T22:45:16Z</time>
      </trkpt>
      <trkpt lat="39.81144232206597" lon="116.42529864809221">
        <ele>37.2</ele>
        <time>2022-05-21T22:45:17Z</time>
      </trkpt>
      <trkpt lat="39.81142334079704" lon="116.42531428954233">
        <ele>37.8</ele>
        <time>2022-05-21T22:45:18Z</time>
      </trkpt>
      <trkpt lat="39.811404632671014" lon="116.42533000760594">
        <ele>37.8</ele>
        <time>2022-05-21T22:45:19Z</time>
      </trkpt>
      <trkpt lat="39.811385812184696" lon="116.4253461081253">
        <ele>37.8</ele>
        <time>2022-05-21T22:45:20Z</time>
      </trkpt>
      <trkpt lat="39.81136680413385" lon="116.42536246547483">
        <ele>37.8</ele>
        <time>2022-05-21T22:45:21Z</time>
      </trkpt>
      <trkpt lat="39.81134758377105" lon="116.42537902239309">
        <ele>37.8</ele>
        <time>2022-05-21T22:45:22Z</time>
      </trkpt>
      <trkpt lat="39.811328103356516" lon="116.42539567430873">
        <ele>37.8</ele>
        <time>2022-05-21T22:45:23Z</time>
      </trkpt>
      <trkpt lat="39.81130855353982" lon="116.42541192263016">
        <ele>37.8</ele>
        <time>2022-05-21T22:45:24Z</time>
      </trkpt>
      <trkpt lat="39.81128857394783" lon="116.42542786706038">
        <ele>37.8</ele>
        <time>2022-05-21T22:45:25Z</time>
      </trkpt>
      <trkpt lat="39.8112682790826" lon="116.42544348511302">
        <ele>37.8</ele>
        <time>2022-05-21T22:45:26Z</time>
      </trkpt>
      <trkpt lat="39.811247441209865" lon="116.42545891950098">
        <ele>37.8</ele>
        <time>2022-05-21T22:45:27Z</time>
      </trkpt>
      <trkpt lat="39.81122645899162" lon="116.42547383706852">
        <ele>37.4</ele>
        <time>2022-05-21T22:45:28Z</time>
      </trkpt>
      <trkpt lat="39.81120514948925" lon="116.42548867222501">
        <ele>37.4</ele>
        <time>2022-05-21T22:45:29Z</time>
      </trkpt>
      <trkpt lat="39.81118360291346" lon="116.42550340935567">
        <ele>37.4</ele>
        <time>2022-05-21T22:45:30Z</time>
      </trkpt>
      <trkpt lat="39.81116217154125" lon="116.42551765825539">
        <ele>37.4</ele>
        <time>2022-05-21T22:45:31Z</time>
      </trkpt>
      <trkpt lat="39.811140855636395" lon="116.4255314886746">
        <ele>37.4</ele>
        <time>2022-05-21T22:45:32Z</time>
      </trkpt>
      <trkpt lat="39.81111987106686" lon="116.42554478639433">
        <ele>37.4</ele>
        <time>2022-05-21T22:45:33Z</time>
      </trkpt>
      <trkpt lat="39.811099072747396" lon="116.42555766468082">
        <ele>37.4</ele>
        <time>2022-05-21T22:45:34Z</time>
      </trkpt>
      <trkpt lat="39.81107819438383" lon="116.42557071283566">
        <ele>37.4</ele>
        <time>2022-05-21T22:45:35Z</time>
      </trkpt>
      <trkpt lat="39.811057593483596" lon="116.42558394539422">
        <ele>37.4</ele>
        <time>2022-05-21T22:45:36Z</time>
      </trkpt>
      <trkpt lat="39.811037394349746" lon="116.42559735160886">
        <ele>37.4</ele>
        <time>2022-05-21T22:45:37Z</time>
      </trkpt>
      <trkpt lat="39.811017776394934" lon="116.42561083256093">
        <ele>37.5</ele>
        <time>2022-05-21T22:45:38Z</time>
      </trkpt>
      <trkpt lat="39.81099859016635" lon="116.4256245116018">
        <ele>37.5</ele>
        <time>2022-05-21T22:45:39Z</time>
      </trkpt>
      <trkpt lat="39.81097964894124" lon="116.42563820754015">
        <ele>37.5</ele>
        <time>2022-05-21T22:45:40Z</time>
      </trkpt>
      <trkpt lat="39.810960882052036" lon="116.42565191536781">
        <ele>37.5</ele>
        <time>2022-05-21T22:45:41Z</time>
      </trkpt>
      <trkpt lat="39.8109419278055" lon="116.42566590509514">
        <ele>37.5</ele>
        <time>2022-05-21T22:45:42Z</time>
      </trkpt>
      <trkpt lat="39.81092289155308" lon="116.42568018184015">
        <ele>37.5</ele>
        <time>2022-05-21T22:45:43Z</time>
      </trkpt>
      <trkpt lat="39.8109039434335" lon="116.42569473327465">
        <ele>37.5</ele>
        <time>2022-05-21T22:45:44Z</time>
      </trkpt>
      <trkpt lat="39.81088494727485" lon="116.42570974722473">
        <ele>37.5</ele>
        <time>2022-05-21T22:45:45Z</time>
      </trkpt>
      <trkpt lat="39.81086630783822" lon="116.42572485343035">
        <ele>37.5</ele>
        <time>2022-05-21T22:45:46Z</time>
      </trkpt>
      <trkpt lat="39.81084802715505" lon="116.42573998668539">
        <ele>37.5</ele>
        <time>2022-05-21T22:45:47Z</time>
      </trkpt>
      <trkpt lat="39.810829884773106" lon="116.42575508694246">
        <ele>37.3</ele>
        <time>2022-05-21T22:45:48Z</time>
      </trkpt>
      <trkpt lat="39.8108116476422" lon="116.42577019001646">
        <ele>37.3</ele>
        <time>2022-05-21T22:45:49Z</time>
      </trkpt>
      <trkpt lat="39.810793390948305" lon="116.4257850622043">
        <ele>37.3</ele>
        <time>2022-05-21T22:45:50Z</time>
      </trkpt>
      <trkpt lat="39.81077513084012" lon="116.42579942933162">
        <ele>37.3</ele>
        <time>2022-05-21T22:45:51Z</time>
      </trkpt>
      <trkpt lat="39.81075689940461" lon="116.4258131536416">
        <ele>37.3</ele>
        <time>2022-05-21T22:45:52Z</time>
      </trkpt>
      <trkpt lat="39.81073867193265" lon="116.42582605698736">
        <ele>37.3</ele>
        <time>2022-05-21T22:45:53Z</time>
      </trkpt>
      <trkpt lat="39.81072044062604" lon="116.42583809848428">
        <ele>37.3</ele>
        <time>2022-05-21T22:45:54Z</time>
      </trkpt>
      <trkpt lat="39.81070215781668" lon="116.42584925022587">
        <ele>37.3</ele>
        <time>2022-05-21T22:45:55Z</time>
      </trkpt>
      <trkpt lat="39.81068377073755" lon="116.42585948825192">
        <ele>37.3</ele>
        <time>2022-05-21T22:45:56Z</time>
      </trkpt>
      <trkpt lat="39.81066529865442" lon="116.42586890436068">
        <ele>37.3</ele>
        <time>2022-05-21T22:45:57Z</time>
      </trkpt>
      <trkpt lat="39.81064643863078" lon="116.42587763211989">
        <ele>37</ele>
        <time>2022-05-21T22:45:58Z</time>
      </trkpt>
      <trkpt lat="39.81062732983659" lon="116.42588587271615">
        <ele>37</ele>
        <time>2022-05-21T22:45:59Z</time>
      </trkpt>
      <trkpt lat="39.810608375441696" lon="116.42589367849361">
        <ele>37.4</ele>
        <time>2022-05-21T22:46:00Z</time>
      </trkpt>
      <trkpt lat="39.810589335396564" lon="116.42590161471473">
        <ele>37.4</ele>
        <time>2022-05-21T22:46:01Z</time>
      </trkpt>
      <trkpt lat="39.81057051109006" lon="116.42591028575356">
        <ele>37.4</ele>
        <time>2022-05-21T22:46:02Z</time>
      </trkpt>
      <trkpt lat="39.81055235864695" lon="116.42592030942602">
        <ele>37.4</ele>
        <time>2022-05-21T22:46:03Z</time>
      </trkpt>
      <trkpt lat="39.81053557158539" lon="116.42593183919732">
        <ele>37.4</ele>
        <time>2022-05-21T22:46:04Z</time>
      </trkpt>
      <trkpt lat="39.81051987702273" lon="116.42594529161008">
        <ele>37.4</ele>
        <time>2022-05-21T22:46:05Z</time>
      </trkpt>
      <trkpt lat="39.81050604281879" lon="116.425960701805">
        <ele>37.4</ele>
        <time>2022-05-21T22:46:06Z</time>
      </trkpt>
      <trkpt lat="39.81049458306532" lon="116.4259781948425">
        <ele>37.4</ele>
        <time>2022-05-21T22:46:07Z</time>
      </trkpt>
      <trkpt lat="39.810485369549504" lon="116.42599754985926">
        <ele>37.7</ele>
        <time>2022-05-21T22:46:08Z</time>
      </trkpt>
      <trkpt lat="39.81047860505575" lon="116.4260185845609">
        <ele>37.7</ele>
        <time>2022-05-21T22:46:09Z</time>
      </trkpt>
      <trkpt lat="39.81047410650877" lon="116.42604159875697">
        <ele>37.7</ele>
        <time>2022-05-21T22:46:10Z</time>
      </trkpt>
      <trkpt lat="39.810471582276115" lon="116.4260663237068">
        <ele>37.7</ele>
        <time>2022-05-21T22:46:11Z</time>
      </trkpt>
      <trkpt lat="39.81047117068602" lon="116.42609269409493">
        <ele>37.7</ele>
        <time>2022-05-21T22:46:12Z</time>
      </trkpt>
      <trkpt lat="39.810472709331385" lon="116.42611997342655">
        <ele>37.7</ele>
        <time>2022-05-21T22:46:13Z</time>
      </trkpt>
      <trkpt lat="39.810475577137005" lon="116.42614760195112">
        <ele>37.7</ele>
        <time>2022-05-21T22:46:14Z</time>
      </trkpt>
      <trkpt lat="39.810479324238024" lon="116.42617572595714">
        <ele>37.7</ele>
        <time>2022-05-21T22:46:15Z</time>
      </trkpt>
      <trkpt lat="39.810484015636916" lon="116.42620390666674">
        <ele>37.7</ele>
        <time>2022-05-21T22:46:16Z</time>
      </trkpt>
      <trkpt lat="39.810488819923386" lon="116.42623243692239">
        <ele>37.7</ele>
        <time>2022-05-21T22:46:17Z</time>
      </trkpt>
      <trkpt lat="39.810493403002354" lon="116.42626087575401">
        <ele>37.8</ele>
        <time>2022-05-21T22:46:18Z</time>
      </trkpt>
      <trkpt lat="39.810497656566575" lon="116.42628937330268">
        <ele>37.8</ele>
        <time>2022-05-21T22:46:19Z</time>
      </trkpt>
      <trkpt lat="39.810501482564405" lon="116.4263183770263">
        <ele>37.8</ele>
        <time>2022-05-21T22:46:20Z</time>
      </trkpt>
      <trkpt lat="39.81050488025398" lon="116.42634757122929">
        <ele>37.8</ele>
        <time>2022-05-21T22:46:21Z</time>
      </trkpt>
      <trkpt lat="39.81050797330253" lon="116.42637710337868">
        <ele>37.8</ele>
        <time>2022-05-21T22:46:22Z</time>
      </trkpt>
      <trkpt lat="39.810510758990326" lon="116.42640622103038">
        <ele>37.8</ele>
        <time>2022-05-21T22:46:23Z</time>
      </trkpt>
      <trkpt lat="39.810513285994865" lon="116.4264354676672">
        <ele>37.8</ele>
        <time>2022-05-21T22:46:24Z</time>
      </trkpt>
      <trkpt lat="39.810515760812216" lon="116.42646477987354">
        <ele>37.8</ele>
        <time>2022-05-21T22:46:25Z</time>
      </trkpt>
      <trkpt lat="39.81051829281499" lon="116.42649411639329">
        <ele>37.8</ele>
        <time>2022-05-21T22:46:26Z</time>
      </trkpt>
      <trkpt lat="39.810520960783826" lon="116.42652342339005">
        <ele>37.8</ele>
        <time>2022-05-21T22:46:27Z</time>
      </trkpt>
      <trkpt lat="39.810523693755016" lon="116.42655273524701">
        <ele>37.7</ele>
        <time>2022-05-21T22:46:28Z</time>
      </trkpt>
      <trkpt lat="39.81052639130623" lon="116.42658208320121">
        <ele>37.7</ele>
        <time>2022-05-21T22:46:29Z</time>
      </trkpt>
      <trkpt lat="39.81052902980769" lon="116.426611466103">
        <ele>37.7</ele>
        <time>2022-05-21T22:46:30Z</time>
      </trkpt>
      <trkpt lat="39.810531662788954" lon="116.42664088271168">
        <ele>37.7</ele>
        <time>2022-05-21T22:46:31Z</time>
      </trkpt>
      <trkpt lat="39.81053427178582" lon="116.42667011829033">
        <ele>37.7</ele>
        <time>2022-05-21T22:46:32Z</time>
      </trkpt>
      <trkpt lat="39.81053689088009" lon="116.42669939257465">
        <ele>37.7</ele>
        <time>2022-05-21T22:46:33Z</time>
      </trkpt>
      <trkpt lat="39.81053958338156" lon="116.42672890417313">
        <ele>37.7</ele>
        <time>2022-05-21T22:46:34Z</time>
      </trkpt>
      <trkpt lat="39.81054239502531" lon="116.4267580961199">
        <ele>37.7</ele>
        <time>2022-05-21T22:46:35Z</time>
      </trkpt>
      <trkpt lat="39.81054520563344" lon="116.42678743486671">
        <ele>37.7</ele>
        <time>2022-05-21T22:46:36Z</time>
      </trkpt>
      <trkpt lat="39.810547837410176" lon="116.4268164422745">
        <ele>37.7</ele>
        <time>2022-05-21T22:46:37Z</time>
      </trkpt>
      <trkpt lat="39.81055027758671" lon="116.42684556429106">
        <ele>37.5</ele>
        <time>2022-05-21T22:46:38Z</time>
      </trkpt>
      <trkpt lat="39.81055251303111" lon="116.42687427745204">
        <ele>37.5</ele>
        <time>2022-05-21T22:46:39Z</time>
      </trkpt>
      <trkpt lat="39.81055467051362" lon="116.42690259287846">
        <ele>37.5</ele>
        <time>2022-05-21T22:46:40Z</time>
      </trkpt>
      <trkpt lat="39.81055687082696" lon="116.42693092438502">
        <ele>37.5</ele>
        <time>2022-05-21T22:46:41Z</time>
      </trkpt>
      <trkpt lat="39.810559107222495" lon="116.42695872034763">
        <ele>37.5</ele>
        <time>2022-05-21T22:46:42Z</time>
      </trkpt>
      <trkpt lat="39.810561391696794" lon="116.4269860706541">
        <ele>37.5</ele>
        <time>2022-05-21T22:46:43Z</time>
      </trkpt>
      <trkpt lat="39.81056372444023" lon="116.42701304327339">
        <ele>37.5</ele>
        <time>2022-05-21T22:46:44Z</time>
      </trkpt>
      <trkpt lat="39.81056602117968" lon="116.42703971771432">
        <ele>37.5</ele>
        <time>2022-05-21T22:46:45Z</time>
      </trkpt>
      <trkpt lat="39.810568290511405" lon="116.42706655678226">
        <ele>37.5</ele>
        <time>2022-05-21T22:46:46Z</time>
      </trkpt>
      <trkpt lat="39.81057048247034" lon="116.42709307065623">
        <ele>37.5</ele>
        <time>2022-05-21T22:46:47Z</time>
      </trkpt>
      <trkpt lat="39.81057262091264" lon="116.42711971944539">
        <ele>38.2</ele>
        <time>2022-05-21T22:46:48Z</time>
      </trkpt>
      <trkpt lat="39.8105746450256" lon="116.42714602005107">
        <ele>38.2</ele>
        <time>2022-05-21T22:46:49Z</time>
      </trkpt>
      <trkpt lat="39.810576642580536" lon="116.4271720318261">
        <ele>38.2</ele>
        <time>2022-05-21T22:46:50Z</time>
      </trkpt>
      <trkpt lat="39.81057874750556" lon="116.42719817508517">
        <ele>38.2</ele>
        <time>2022-05-21T22:46:51Z</time>
      </trkpt>
      <trkpt lat="39.81058096416912" lon="116.42722396619968">
        <ele>38.2</ele>
        <time>2022-05-21T22:46:52Z</time>
      </trkpt>
      <trkpt lat="39.810583352861684" lon="116.4272495057055">
        <ele>38.2</ele>
        <time>2022-05-21T22:46:53Z</time>
      </trkpt>
      <trkpt lat="39.81058601583409" lon="116.4272752260367">
        <ele>38.2</ele>
        <time>2022-05-21T22:46:54Z</time>
      </trkpt>
      <trkpt lat="39.81058887775261" lon="116.42730066052536">
        <ele>38.2</ele>
        <time>2022-05-21T22:46:55Z</time>
      </trkpt>
      <trkpt lat="39.81059203020581" lon="116.42732629119863">
        <ele>38.2</ele>
        <time>2022-05-21T22:46:56Z</time>
      </trkpt>
      <trkpt lat="39.81059541904196" lon="116.42735166557672">
        <ele>38.2</ele>
        <time>2022-05-21T22:46:57Z</time>
      </trkpt>
      <trkpt lat="39.810599021217186" lon="116.42737682912791">
        <ele>37</ele>
        <time>2022-05-21T22:46:58Z</time>
      </trkpt>
      <trkpt lat="39.810602890724674" lon="116.42740182867495">
        <ele>37</ele>
        <time>2022-05-21T22:46:59Z</time>
      </trkpt>
      <trkpt lat="39.81060697290067" lon="116.42742667380453">
        <ele>37.6</ele>
        <time>2022-05-21T22:47:00Z</time>
      </trkpt>
      <trkpt lat="39.81061119784923" lon="116.42745135997825">
        <ele>37.6</ele>
        <time>2022-05-21T22:47:01Z</time>
      </trkpt>
      <trkpt lat="39.81061539132869" lon="116.42747554134637">
        <ele>37.6</ele>
        <time>2022-05-21T22:47:02Z</time>
      </trkpt>
      <trkpt lat="39.81061955421684" lon="116.42749976519583">
        <ele>37.6</ele>
        <time>2022-05-21T22:47:03Z</time>
      </trkpt>
      <trkpt lat="39.810623696306365" lon="116.42752401895729">
        <ele>37.6</ele>
        <time>2022-05-21T22:47:04Z</time>
      </trkpt>
      <trkpt lat="39.81062771495339" lon="116.42754787821116">
        <ele>37.6</ele>
        <time>2022-05-21T22:47:05Z</time>
      </trkpt>
      <trkpt lat="39.81063163548377" lon="116.4275718333129">
        <ele>37.6</ele>
        <time>2022-05-21T22:47:06Z</time>
      </trkpt>
      <trkpt lat="39.8106353823444" lon="116.42759540742179">
        <ele>37.6</ele>
        <time>2022-05-21T22:47:07Z</time>
      </trkpt>
      <trkpt lat="39.810638952115774" lon="116.427618667211">
        <ele>37.6</ele>
        <time>2022-05-21T22:47:08Z</time>
      </trkpt>
      <trkpt lat="39.8106423861348" lon="116.42764212086554">
        <ele>37.6</ele>
        <time>2022-05-21T22:47:09Z</time>
      </trkpt>
      <trkpt lat="39.81064555372272" lon="116.42766530954238">
        <ele>37.6</ele>
        <time>2022-05-21T22:47:10Z</time>
      </trkpt>
      <trkpt lat="39.81064856495521" lon="116.4276887548646">
        <ele>37.6</ele>
        <time>2022-05-21T22:47:11Z</time>
      </trkpt>
      <trkpt lat="39.81065140925626" lon="116.42771244247993">
        <ele>37.6</ele>
        <time>2022-05-21T22:47:12Z</time>
      </trkpt>
      <trkpt lat="39.810654156218334" lon="116.42773635539515">
        <ele>37.6</ele>
        <time>2022-05-21T22:47:13Z</time>
      </trkpt>
      <trkpt lat="39.81065681826065" lon="116.42776047162282">
        <ele>37.6</ele>
        <time>2022-05-21T22:47:14Z</time>
      </trkpt>
      <trkpt lat="39.81065940244792" lon="116.42778478616144">
        <ele>37.6</ele>
        <time>2022-05-21T22:47:15Z</time>
      </trkpt>
      <trkpt lat="39.81066198346431" lon="116.4278096845012">
        <ele>37.6</ele>
        <time>2022-05-21T22:47:16Z</time>
      </trkpt>
      <trkpt lat="39.810664554391956" lon="116.4278347034939">
        <ele>37.6</ele>
        <time>2022-05-21T22:47:17Z</time>
      </trkpt>
      <trkpt lat="39.81066725659928" lon="116.42786023316881">
        <ele>37.6</ele>
        <time>2022-05-21T22:47:18Z</time>
      </trkpt>
      <trkpt lat="39.81067003483351" lon="116.427886198351">
        <ele>37.6</ele>
        <time>2022-05-21T22:47:19Z</time>
      </trkpt>
      <trkpt lat="39.81067279125668" lon="116.42791212521647">
        <ele>37.6</ele>
        <time>2022-05-21T22:47:20Z</time>
      </trkpt>
      <trkpt lat="39.810675584545464" lon="116.42793850666044">
        <ele>37.6</ele>
        <time>2022-05-21T22:47:21Z</time>
      </trkpt>
      <trkpt lat="39.81067832943697" lon="116.42796485281242">
        <ele>37.6</ele>
        <time>2022-05-21T22:47:22Z</time>
      </trkpt>
      <trkpt lat="39.81068102581781" lon="116.4279915807426">
        <ele>37.6</ele>
        <time>2022-05-21T22:47:23Z</time>
      </trkpt>
      <trkpt lat="39.81068367359107" lon="116.42801856707207">
        <ele>37.6</ele>
        <time>2022-05-21T22:47:24Z</time>
      </trkpt>
      <trkpt lat="39.81068628491141" lon="116.42804528157853">
        <ele>37.6</ele>
        <time>2022-05-21T22:47:25Z</time>
      </trkpt>
      <trkpt lat="39.81068906356107" lon="116.42807210850518">
        <ele>37.6</ele>
        <time>2022-05-21T22:47:26Z</time>
      </trkpt>
      <trkpt lat="39.810692082399704" lon="116.42809853885996">
        <ele>37.6</ele>
        <time>2022-05-21T22:47:27Z</time>
      </trkpt>
      <trkpt lat="39.81069562772645" lon="116.42812442817848">
        <ele>37.6</ele>
        <time>2022-05-21T22:47:28Z</time>
      </trkpt>
      <trkpt lat="39.81069985195664" lon="116.4281496811183">
        <ele>37.6</ele>
        <time>2022-05-21T22:47:29Z</time>
      </trkpt>
      <trkpt lat="39.8107048581479" lon="116.428174372719">
        <ele>37.6</ele>
        <time>2022-05-21T22:47:30Z</time>
      </trkpt>
      <trkpt lat="39.81071067394384" lon="116.42819859728928">
        <ele>37.6</ele>
        <time>2022-05-21T22:47:31Z</time>
      </trkpt>
      <trkpt lat="39.810717227371754" lon="116.42822202590486">
        <ele>37.6</ele>
        <time>2022-05-21T22:47:32Z</time>
      </trkpt>
      <trkpt lat="39.81072441451686" lon="116.42824486165765">
        <ele>37.6</ele>
        <time>2022-05-21T22:47:33Z</time>
      </trkpt>
      <trkpt lat="39.810732193406885" lon="116.42826682784225">
        <ele>37.6</ele>
        <time>2022-05-21T22:47:34Z</time>
      </trkpt>
      <trkpt lat="39.810740439983135" lon="116.42828810881402">
        <ele>37.6</ele>
        <time>2022-05-21T22:47:35Z</time>
      </trkpt>
      <trkpt lat="39.810749042797326" lon="116.42830882637573">
        <ele>37.6</ele>
        <time>2022-05-21T22:47:36Z</time>
      </trkpt>
      <trkpt lat="39.810757660989275" lon="116.42832841536043">
        <ele>37.6</ele>
        <time>2022-05-21T22:47:37Z</time>
      </trkpt>
      <trkpt lat="39.81076621159636" lon="116.42834705242112">
        <ele>37.4</ele>
        <time>2022-05-21T22:47:38Z</time>
      </trkpt>
      <trkpt lat="39.810774464327146" lon="116.42836490932618">
        <ele>37.4</ele>
        <time>2022-05-21T22:47:39Z</time>
      </trkpt>
      <trkpt lat="39.81078223898695" lon="116.4283816487501">
        <ele>37.4</ele>
        <time>2022-05-21T22:47:40Z</time>
      </trkpt>
      <trkpt lat="39.81078938941024" lon="116.42839717522382">
        <ele>37.4</ele>
        <time>2022-05-21T22:47:41Z</time>
      </trkpt>
      <trkpt lat="39.810795955726434" lon="116.42841087114189">
        <ele>37.4</ele>
        <time>2022-05-21T22:47:42Z</time>
      </trkpt>
      <trkpt lat="39.810801918636606" lon="116.42842277183865">
        <ele>37.4</ele>
        <time>2022-05-21T22:47:43Z</time>
      </trkpt>
      <trkpt lat="39.81080693811012" lon="116.42843256608641">
        <ele>37.4</ele>
        <time>2022-05-21T22:47:44Z</time>
      </trkpt>
      <trkpt lat="39.81081114631232" lon="116.42844029485218">
        <ele>37.4</ele>
        <time>2022-05-21T22:47:45Z</time>
      </trkpt>
      <trkpt lat="39.81081470998848" lon="116.42844606629602">
        <ele>37.4</ele>
        <time>2022-05-21T22:47:46Z</time>
      </trkpt>
      <trkpt lat="39.81081767413321" lon="116.42845002428722">
        <ele>37.4</ele>
        <time>2022-05-21T22:47:47Z</time>
      </trkpt>
      <trkpt lat="39.81082016073028" lon="116.42845254314888">
        <ele>37.6</ele>
        <time>2022-05-21T22:47:48Z</time>
      </trkpt>
      <trkpt lat="39.81082216801934" lon="116.4284537512331">
        <ele>37.6</ele>
        <time>2022-05-21T22:47:49Z</time>
      </trkpt>
      <trkpt lat="39.81082367316259" lon="116.4284537846572">
        <ele>37.6</ele>
        <time>2022-05-21T22:47:50Z</time>
      </trkpt>
      <trkpt lat="39.81082456256307" lon="116.42845288101094">
        <ele>37.6</ele>
        <time>2022-05-21T22:47:51Z</time>
      </trkpt>
      <trkpt lat="39.81082498689884" lon="116.42845128171571">
        <ele>37.6</ele>
        <time>2022-05-21T22:47:52Z</time>
      </trkpt>
      <trkpt lat="39.81082497076413" lon="116.42844966724424">
        <ele>37.6</ele>
        <time>2022-05-21T22:47:53Z</time>
      </trkpt>
      <trkpt lat="39.81082458572389" lon="116.42844807798991">
        <ele>37.6</ele>
        <time>2022-05-21T22:47:54Z</time>
      </trkpt>
      <trkpt lat="39.81082433332132" lon="116.42844684308461">
        <ele>37.6</ele>
        <time>2022-05-21T22:47:55Z</time>
      </trkpt>
      <trkpt lat="39.81082414044675" lon="116.4284459565291">
        <ele>37.6</ele>
        <time>2022-05-21T22:47:56Z</time>
      </trkpt>
      <trkpt lat="39.81082398187997" lon="116.42844522651244">
        <ele>37.6</ele>
        <time>2022-05-21T22:47:57Z</time>
      </trkpt>
      <trkpt lat="39.81082386678774" lon="116.42844456829877">
        <ele>37</ele>
        <time>2022-05-21T22:47:58Z</time>
      </trkpt>
      <trkpt lat="39.810823952637236" lon="116.42844381415267">
        <ele>37</ele>
        <time>2022-05-21T22:47:59Z</time>
      </trkpt>
      <trkpt lat="39.81082411758501" lon="116.4284425839041">
        <ele>37.5</ele>
        <time>2022-05-21T22:48:00Z</time>
      </trkpt>
      <trkpt lat="39.81082451589306" lon="116.42844074957101">
        <ele>37.5</ele>
        <time>2022-05-21T22:48:01Z</time>
      </trkpt>
      <trkpt lat="39.81082564769486" lon="116.42843810290744">
        <ele>37.5</ele>
        <time>2022-05-21T22:48:02Z</time>
      </trkpt>
      <trkpt lat="39.81082763432588" lon="116.42843461323928">
        <ele>37.5</ele>
        <time>2022-05-21T22:48:03Z</time>
      </trkpt>
      <trkpt lat="39.81083051342922" lon="116.42843019043639">
        <ele>37.5</ele>
        <time>2022-05-21T22:48:04Z</time>
      </trkpt>
      <trkpt lat="39.810834851945636" lon="116.42842494576152">
        <ele>37.5</ele>
        <time>2022-05-21T22:48:05Z</time>
      </trkpt>
      <trkpt lat="39.81084075770373" lon="116.428419085663">
        <ele>37.5</ele>
        <time>2022-05-21T22:48:06Z</time>
      </trkpt>
      <trkpt lat="39.810848290318205" lon="116.4284127035724">
        <ele>37.5</ele>
        <time>2022-05-21T22:48:07Z</time>
      </trkpt>
      <trkpt lat="39.810857458806154" lon="116.42840603034107">
        <ele>37.6</ele>
        <time>2022-05-21T22:48:08Z</time>
      </trkpt>
      <trkpt lat="39.81086824649326" lon="116.42839922917217">
        <ele>37.6</ele>
        <time>2022-05-21T22:48:09Z</time>
      </trkpt>
      <trkpt lat="39.810880418335024" lon="116.42839261240155">
        <ele>37.6</ele>
        <time>2022-05-21T22:48:10Z</time>
      </trkpt>
      <trkpt lat="39.810893965994914" lon="116.42838656986025">
        <ele>37.6</ele>
        <time>2022-05-21T22:48:11Z</time>
      </trkpt>
      <trkpt lat="39.81090865565994" lon="116.42838135217545">
        <ele>37.6</ele>
        <time>2022-05-21T22:48:12Z</time>
      </trkpt>
      <trkpt lat="39.81092372398687" lon="116.42837714294217">
        <ele>37.6</ele>
        <time>2022-05-21T22:48:13Z</time>
      </trkpt>
      <trkpt lat="39.810939099379134" lon="116.42837387971416">
        <ele>37.6</ele>
        <time>2022-05-21T22:48:14Z</time>
      </trkpt>
      <trkpt lat="39.81095474024047" lon="116.42837153368848">
        <ele>37.6</ele>
        <time>2022-05-21T22:48:15Z</time>
      </trkpt>
      <trkpt lat="39.81096981758957" lon="116.42836993209086">
        <ele>37.6</ele>
        <time>2022-05-21T22:48:16Z</time>
      </trkpt>
      <trkpt lat="39.81098407194111" lon="116.42836837418263">
        <ele>37.6</ele>
        <time>2022-05-21T22:48:17Z</time>
      </trkpt>
      <trkpt lat="39.81099743717364" lon="116.42836670748933">
        <ele>37.6</ele>
        <time>2022-05-21T22:48:18Z</time>
      </trkpt>
      <trkpt lat="39.81100998876308" lon="116.42836507938522">
        <ele>37.6</ele>
        <time>2022-05-21T22:48:19Z</time>
      </trkpt>
      <trkpt lat="39.811021552080874" lon="116.42836340717172">
        <ele>37.6</ele>
        <time>2022-05-21T22:48:20Z</time>
      </trkpt>
      <trkpt lat="39.81103222436901" lon="116.42836138450694">
        <ele>37.6</ele>
        <time>2022-05-21T22:48:21Z</time>
      </trkpt>
      <trkpt lat="39.81104223025243" lon="116.42835944646616">
        <ele>37.6</ele>
        <time>2022-05-21T22:48:22Z</time>
      </trkpt>
      <trkpt lat="39.81105146718443" lon="116.42835744106672">
        <ele>37.6</ele>
        <time>2022-05-21T22:48:23Z</time>
      </trkpt>
      <trkpt lat="39.81106028231277" lon="116.42835548596386">
        <ele>37.6</ele>
        <time>2022-05-21T22:48:24Z</time>
      </trkpt>
      <trkpt lat="39.81106870930908" lon="116.42835367566332">
        <ele>37.6</ele>
        <time>2022-05-21T22:48:25Z</time>
      </trkpt>
      <trkpt lat="39.811076704965664" lon="116.42835244348767">
        <ele>37.6</ele>
        <time>2022-05-21T22:48:26Z</time>
      </trkpt>
      <trkpt lat="39.811084431420085" lon="116.428351684286">
        <ele>37.6</ele>
        <time>2022-05-21T22:48:27Z</time>
      </trkpt>
      <trkpt lat="39.81109219162215" lon="116.42835167151443">
        <ele>37.5</ele>
        <time>2022-05-21T22:48:28Z</time>
      </trkpt>
      <trkpt lat="39.81110002426586" lon="116.42835261786435">
        <ele>37.5</ele>
        <time>2022-05-21T22:48:29Z</time>
      </trkpt>
      <trkpt lat="39.81110810305152" lon="116.42835454825678">
        <ele>37.5</ele>
        <time>2022-05-21T22:48:30Z</time>
      </trkpt>
      <trkpt lat="39.81111637759948" lon="116.4283572615316">
        <ele>37.5</ele>
        <time>2022-05-21T22:48:31Z</time>
      </trkpt>
      <trkpt lat="39.81112479169212" lon="116.42836102310396">
        <ele>37.5</ele>
        <time>2022-05-21T22:48:32Z</time>
      </trkpt>
      <trkpt lat="39.81113316594402" lon="116.42836529172389">
        <ele>37.5</ele>
        <time>2022-05-21T22:48:33Z</time>
      </trkpt>
      <trkpt lat="39.81114164975268" lon="116.42837014340313">
        <ele>37.5</ele>
        <time>2022-05-21T22:48:34Z</time>
      </trkpt>
      <trkpt lat="39.811150215770354" lon="116.42837560633626">
        <ele>37.5</ele>
        <time>2022-05-21T22:48:35Z</time>
      </trkpt>
      <trkpt lat="39.81115860956435" lon="116.4283814882554">
        <ele>37.5</ele>
        <time>2022-05-21T22:48:36Z</time>
      </trkpt>
      <trkpt lat="39.81116686952873" lon="116.42838747331011">
        <ele>37.5</ele>
        <time>2022-05-21T22:48:37Z</time>
      </trkpt>
      <trkpt lat="39.81117514901246" lon="116.4283937378677">
        <ele>37.4</ele>
        <time>2022-05-21T22:48:38Z</time>
      </trkpt>
      <trkpt lat="39.811183198478794" lon="116.42840036464841">
        <ele>37.4</ele>
        <time>2022-05-21T22:48:39Z</time>
      </trkpt>
      <trkpt lat="39.811191080218784" lon="116.42840728021253">
        <ele>37.4</ele>
        <time>2022-05-21T22:48:40Z</time>
      </trkpt>
      <trkpt lat="39.81119875468821" lon="116.42841451535428">
        <ele>37.4</ele>
        <time>2022-05-21T22:48:41Z</time>
      </trkpt>
      <trkpt lat="39.81120649017499" lon="116.42842221726191">
        <ele>37.4</ele>
        <time>2022-05-21T22:48:42Z</time>
      </trkpt>
      <trkpt lat="39.81121413142481" lon="116.42843005974856">
        <ele>37.4</ele>
        <time>2022-05-21T22:48:43Z</time>
      </trkpt>
      <trkpt lat="39.811221785711346" lon="116.42843810398902">
        <ele>37.4</ele>
        <time>2022-05-21T22:48:44Z</time>
      </trkpt>
      <trkpt lat="39.811229391404325" lon="116.42844653774571">
        <ele>37.4</ele>
        <time>2022-05-21T22:48:45Z</time>
      </trkpt>
      <trkpt lat="39.811235190042986" lon="116.42845285184092">
        <ele>37.4</ele>
        <time>2022-05-21T22:48:46Z</time>
      </trkpt>
      <trkpt lat="39.81124492914176" lon="116.4284635993819">
        <ele>37.4</ele>
        <time>2022-05-21T22:48:47Z</time>
      </trkpt>
      <trkpt lat="39.81125272559983" lon="116.42847221613866">
        <ele>0</ele>
        <time>2022-05-21T22:48:48Z</time>
      </trkpt>
      <trkpt lat="39.81126135951613" lon="116.42848097605336">
        <ele>0</ele>
        <time>2022-05-21T22:48:49Z</time>
      </trkpt>
    </trkseg>
  </trk>
</gpx>