<?xml version="1.0" encoding="UTF-8"?>
<gpx xmlns="http://www.topografix.com/GPX/1/1" xmlns:gpxtpx="http://www.garmin.com/xmlschemas/TrackPointExtension/v1" xmlns:xsi="http://www.w3.org/2001/XMLSchema-instance" xsi:schemaLocation="http://www.topografix.com/GPX/1/1 http://www.topografix.com/GPX/1/1/gpx.xsd" version="1.1" creator="gpx.py -- https://github.com/tkrajina/gpxpy">
  <trk>
    <name>gpx from codoon</name>
    <type>Run</type>
    <trkseg>
      <trkpt lat="39.813849337376254" lon="116.42362747935641">
        <ele>29.4</ele>
        <time>2022-05-23T10:37:11Z</time>
      </trkpt>
      <trkpt lat="39.813841585081086" lon="116.42363569166132">
        <ele>29.4</ele>
        <time>2022-05-23T10:37:12Z</time>
      </trkpt>
      <trkpt lat="39.81382708682183" lon="116.42364490889938">
        <ele>29.4</ele>
        <time>2022-05-23T10:37:13Z</time>
      </trkpt>
      <trkpt lat="39.81381083174159" lon="116.4236536674029">
        <ele>29.4</ele>
        <time>2022-05-23T10:37:14Z</time>
      </trkpt>
      <trkpt lat="39.81379365318192" lon="116.42366355910399">
        <ele>29.4</ele>
        <time>2022-05-23T10:37:15Z</time>
      </trkpt>
      <trkpt lat="39.813764399714515" lon="116.42367559865522">
        <ele>29.4</ele>
        <time>2022-05-23T10:37:16Z</time>
      </trkpt>
      <trkpt lat="39.81374452981647" lon="116.42368540635445">
        <ele>29.4</ele>
        <time>2022-05-23T10:37:17Z</time>
      </trkpt>
      <trkpt lat="39.81372338334993" lon="116.42369521544204">
        <ele>29.4</ele>
        <time>2022-05-23T10:37:18Z</time>
      </trkpt>
      <trkpt lat="39.81370141831733" lon="116.42370506481662">
        <ele>29.4</ele>
        <time>2022-05-23T10:37:19Z</time>
      </trkpt>
      <trkpt lat="39.81367899971171" lon="116.42371500283654">
        <ele>29.4</ele>
        <time>2022-05-23T10:37:20Z</time>
      </trkpt>
      <trkpt lat="39.81365634659634" lon="116.42372483850474">
        <ele>29.4</ele>
        <time>2022-05-23T10:37:21Z</time>
      </trkpt>
      <trkpt lat="39.81363369241048" lon="116.42373457041094">
        <ele>29.4</ele>
        <time>2022-05-23T10:37:22Z</time>
      </trkpt>
      <trkpt lat="39.81361123908982" lon="116.42374434244455">
        <ele>29.4</ele>
        <time>2022-05-23T10:37:23Z</time>
      </trkpt>
      <trkpt lat="39.81358918550317" lon="116.42375429529427">
        <ele>29.4</ele>
        <time>2022-05-23T10:37:24Z</time>
      </trkpt>
      <trkpt lat="39.813567612954984" lon="116.42376446521162">
        <ele>29.2</ele>
        <time>2022-05-23T10:37:25Z</time>
      </trkpt>
      <trkpt lat="39.813546560481335" lon="116.42377487774719">
        <ele>29.2</ele>
        <time>2022-05-23T10:37:26Z</time>
      </trkpt>
      <trkpt lat="39.81352600493225" lon="116.42378552811607">
        <ele>29.2</ele>
        <time>2022-05-23T10:37:27Z</time>
      </trkpt>
      <trkpt lat="39.81350596039904" lon="116.42379656298975">
        <ele>29.2</ele>
        <time>2022-05-23T10:37:28Z</time>
      </trkpt>
      <trkpt lat="39.81348615499927" lon="116.42380828503671">
        <ele>29.2</ele>
        <time>2022-05-23T10:37:29Z</time>
      </trkpt>
      <trkpt lat="39.81346688346761" lon="116.42382048237691">
        <ele>29.2</ele>
        <time>2022-05-23T10:37:30Z</time>
      </trkpt>
      <trkpt lat="39.81344803965377" lon="116.42383311637559">
        <ele>29.2</ele>
        <time>2022-05-23T10:37:31Z</time>
      </trkpt>
      <trkpt lat="39.813429276398345" lon="116.42384639858396">
        <ele>29.2</ele>
        <time>2022-05-23T10:37:32Z</time>
      </trkpt>
      <trkpt lat="39.813410771330894" lon="116.42385994112966">
        <ele>29.2</ele>
        <time>2022-05-23T10:37:33Z</time>
      </trkpt>
      <trkpt lat="39.81339235781788" lon="116.42387360970348">
        <ele>29.2</ele>
        <time>2022-05-23T10:37:34Z</time>
      </trkpt>
      <trkpt lat="39.81337396099814" lon="116.42388743842584">
        <ele>29.1</ele>
        <time>2022-05-23T10:37:35Z</time>
      </trkpt>
      <trkpt lat="39.81335553336242" lon="116.42390143948643">
        <ele>29.1</ele>
        <time>2022-05-23T10:37:36Z</time>
      </trkpt>
      <trkpt lat="39.813337060436346" lon="116.4239156463051">
        <ele>29.1</ele>
        <time>2022-05-23T10:37:37Z</time>
      </trkpt>
      <trkpt lat="39.81331856698805" lon="116.42393010727976">
        <ele>29.1</ele>
        <time>2022-05-23T10:37:38Z</time>
      </trkpt>
      <trkpt lat="39.813300027306084" lon="116.42394476549237">
        <ele>29.1</ele>
        <time>2022-05-23T10:37:39Z</time>
      </trkpt>
      <trkpt lat="39.813281633446245" lon="116.42395931930093">
        <ele>29.1</ele>
        <time>2022-05-23T10:37:40Z</time>
      </trkpt>
      <trkpt lat="39.813263058850154" lon="116.42397400734261">
        <ele>29.1</ele>
        <time>2022-05-23T10:37:41Z</time>
      </trkpt>
      <trkpt lat="39.813244266097215" lon="116.42398867867921">
        <ele>29.1</ele>
        <time>2022-05-23T10:37:42Z</time>
      </trkpt>
      <trkpt lat="39.81322554974399" lon="116.42400315978563">
        <ele>29.1</ele>
        <time>2022-05-23T10:37:43Z</time>
      </trkpt>
      <trkpt lat="39.81320690946799" lon="116.42401758343183">
        <ele>29.1</ele>
        <time>2022-05-23T10:37:44Z</time>
      </trkpt>
      <trkpt lat="39.81318839782931" lon="116.42403209622589">
        <ele>29.3</ele>
        <time>2022-05-23T10:37:45Z</time>
      </trkpt>
      <trkpt lat="39.81317004092473" lon="116.42404678675958">
        <ele>29.3</ele>
        <time>2022-05-23T10:37:46Z</time>
      </trkpt>
      <trkpt lat="39.81315185072164" lon="116.42406163761967">
        <ele>29.3</ele>
        <time>2022-05-23T10:37:47Z</time>
      </trkpt>
      <trkpt lat="39.81313379542138" lon="116.42407656486492">
        <ele>29.3</ele>
        <time>2022-05-23T10:37:48Z</time>
      </trkpt>
      <trkpt lat="39.813115843894956" lon="116.4240915078612">
        <ele>29.3</ele>
        <time>2022-05-23T10:37:49Z</time>
      </trkpt>
      <trkpt lat="39.81309791182996" lon="116.42410632978952">
        <ele>29.3</ele>
        <time>2022-05-23T10:37:50Z</time>
      </trkpt>
      <trkpt lat="39.81307998373139" lon="116.42412101908401">
        <ele>29.3</ele>
        <time>2022-05-23T10:37:51Z</time>
      </trkpt>
      <trkpt lat="39.81306202501849" lon="116.42413552789148">
        <ele>29.3</ele>
        <time>2022-05-23T10:37:52Z</time>
      </trkpt>
      <trkpt lat="39.81304408610579" lon="116.42414994861578">
        <ele>29.3</ele>
        <time>2022-05-23T10:37:53Z</time>
      </trkpt>
      <trkpt lat="39.8130261928575" lon="116.42416431253459">
        <ele>29.3</ele>
        <time>2022-05-23T10:37:54Z</time>
      </trkpt>
      <trkpt lat="39.813008095382536" lon="116.42417877052472">
        <ele>29</ele>
        <time>2022-05-23T10:37:55Z</time>
      </trkpt>
      <trkpt lat="39.81298982174492" lon="116.42419315956913">
        <ele>29</ele>
        <time>2022-05-23T10:37:56Z</time>
      </trkpt>
      <trkpt lat="39.81297141206395" lon="116.4242073809402">
        <ele>29</ele>
        <time>2022-05-23T10:37:57Z</time>
      </trkpt>
      <trkpt lat="39.81295290014317" lon="116.42422140312472">
        <ele>29</ele>
        <time>2022-05-23T10:37:58Z</time>
      </trkpt>
      <trkpt lat="39.812934038239945" lon="116.42423543791404">
        <ele>29</ele>
        <time>2022-05-23T10:37:59Z</time>
      </trkpt>
      <trkpt lat="39.81291517550564" lon="116.42424921733341">
        <ele>29.3</ele>
        <time>2022-05-23T10:38:00Z</time>
      </trkpt>
      <trkpt lat="39.81289632991271" lon="116.42426281870051">
        <ele>29.3</ele>
        <time>2022-05-23T10:38:01Z</time>
      </trkpt>
      <trkpt lat="39.81287721104218" lon="116.42427639768727">
        <ele>29.3</ele>
        <time>2022-05-23T10:38:02Z</time>
      </trkpt>
      <trkpt lat="39.81285810554037" lon="116.42428976345596">
        <ele>29.3</ele>
        <time>2022-05-23T10:38:03Z</time>
      </trkpt>
      <trkpt lat="39.81283895275451" lon="116.42430300584788">
        <ele>29.3</ele>
        <time>2022-05-23T10:38:04Z</time>
      </trkpt>
      <trkpt lat="39.812819473131995" lon="116.42431630390072">
        <ele>29.2</ele>
        <time>2022-05-23T10:38:05Z</time>
      </trkpt>
      <trkpt lat="39.812799965087876" lon="116.42432961547455">
        <ele>29.2</ele>
        <time>2022-05-23T10:38:06Z</time>
      </trkpt>
      <trkpt lat="39.812780396978134" lon="116.42434311686084">
        <ele>29.2</ele>
        <time>2022-05-23T10:38:07Z</time>
      </trkpt>
      <trkpt lat="39.81276071036816" lon="116.42435684899677">
        <ele>29.2</ele>
        <time>2022-05-23T10:38:08Z</time>
      </trkpt>
      <trkpt lat="39.81274084976115" lon="116.42437082259306">
        <ele>29.2</ele>
        <time>2022-05-23T10:38:09Z</time>
      </trkpt>
      <trkpt lat="39.81272105937893" lon="116.4243848087856">
        <ele>29.2</ele>
        <time>2022-05-23T10:38:10Z</time>
      </trkpt>
      <trkpt lat="39.81270094861172" lon="116.42439899192">
        <ele>29.2</ele>
        <time>2022-05-23T10:38:11Z</time>
      </trkpt>
      <trkpt lat="39.8126805544751" lon="116.42441333032797">
        <ele>29.2</ele>
        <time>2022-05-23T10:38:12Z</time>
      </trkpt>
      <trkpt lat="39.81265994891835" lon="116.42442788333307">
        <ele>29.2</ele>
        <time>2022-05-23T10:38:13Z</time>
      </trkpt>
      <trkpt lat="39.812639213171686" lon="116.4244426454582">
        <ele>29.2</ele>
        <time>2022-05-23T10:38:14Z</time>
      </trkpt>
      <trkpt lat="39.812618415800706" lon="116.42445759817463">
        <ele>29.2</ele>
        <time>2022-05-23T10:38:15Z</time>
      </trkpt>
      <trkpt lat="39.81259756385117" lon="116.42447281549937">
        <ele>29.2</ele>
        <time>2022-05-23T10:38:16Z</time>
      </trkpt>
      <trkpt lat="39.8125766896283" lon="116.4244881475918">
        <ele>29.2</ele>
        <time>2022-05-23T10:38:17Z</time>
      </trkpt>
      <trkpt lat="39.812555822013216" lon="116.42450354887555">
        <ele>29.2</ele>
        <time>2022-05-23T10:38:18Z</time>
      </trkpt>
      <trkpt lat="39.81253496365864" lon="116.42451898032836">
        <ele>29.2</ele>
        <time>2022-05-23T10:38:19Z</time>
      </trkpt>
      <trkpt lat="39.812514133015966" lon="116.42453441352774">
        <ele>29.2</ele>
        <time>2022-05-23T10:38:20Z</time>
      </trkpt>
      <trkpt lat="39.812493356297445" lon="116.42454985398233">
        <ele>29.2</ele>
        <time>2022-05-23T10:38:21Z</time>
      </trkpt>
      <trkpt lat="39.81247267571871" lon="116.42456532209488">
        <ele>29.2</ele>
        <time>2022-05-23T10:38:22Z</time>
      </trkpt>
      <trkpt lat="39.812452106411605" lon="116.4245808723338">
        <ele>29.2</ele>
        <time>2022-05-23T10:38:23Z</time>
      </trkpt>
      <trkpt lat="39.81243188539637" lon="116.42459630766693">
        <ele>29.2</ele>
        <time>2022-05-23T10:38:24Z</time>
      </trkpt>
      <trkpt lat="39.8124116352183" lon="116.42461184801213">
        <ele>29.4</ele>
        <time>2022-05-23T10:38:25Z</time>
      </trkpt>
      <trkpt lat="39.8123913518231" lon="116.4246274469689">
        <ele>29.4</ele>
        <time>2022-05-23T10:38:26Z</time>
      </trkpt>
      <trkpt lat="39.81237128905389" lon="116.42464286162856">
        <ele>29.4</ele>
        <time>2022-05-23T10:38:27Z</time>
      </trkpt>
      <trkpt lat="39.81235112668705" lon="116.42465842250733">
        <ele>29.4</ele>
        <time>2022-05-23T10:38:28Z</time>
      </trkpt>
      <trkpt lat="39.81233063799281" lon="116.4246743218643">
        <ele>29.4</ele>
        <time>2022-05-23T10:38:29Z</time>
      </trkpt>
      <trkpt lat="39.81231017459356" lon="116.42469028036196">
        <ele>29.4</ele>
        <time>2022-05-23T10:38:30Z</time>
      </trkpt>
      <trkpt lat="39.81228968377989" lon="116.42470624860202">
        <ele>29.4</ele>
        <time>2022-05-23T10:38:31Z</time>
      </trkpt>
      <trkpt lat="39.81226890175952" lon="116.42472244713095">
        <ele>29.4</ele>
        <time>2022-05-23T10:38:32Z</time>
      </trkpt>
      <trkpt lat="39.81224814959848" lon="116.42473865149076">
        <ele>29.4</ele>
        <time>2022-05-23T10:38:33Z</time>
      </trkpt>
      <trkpt lat="39.81222738436919" lon="116.42475485925152">
        <ele>29.4</ele>
        <time>2022-05-23T10:38:34Z</time>
      </trkpt>
      <trkpt lat="39.81220634542793" lon="116.42477129960541">
        <ele>29.5</ele>
        <time>2022-05-23T10:38:35Z</time>
      </trkpt>
      <trkpt lat="39.81218542983244" lon="116.42478781929424">
        <ele>29.5</ele>
        <time>2022-05-23T10:38:36Z</time>
      </trkpt>
      <trkpt lat="39.81216459558779" lon="116.42480439526871">
        <ele>29.5</ele>
        <time>2022-05-23T10:38:37Z</time>
      </trkpt>
      <trkpt lat="39.812143550121384" lon="116.4248211602772">
        <ele>29.5</ele>
        <time>2022-05-23T10:38:38Z</time>
      </trkpt>
      <trkpt lat="39.81212261199491" lon="116.42483775139394">
        <ele>29.5</ele>
        <time>2022-05-23T10:38:39Z</time>
      </trkpt>
      <trkpt lat="39.81210197831741" lon="116.42485385632227">
        <ele>29.5</ele>
        <time>2022-05-23T10:38:40Z</time>
      </trkpt>
      <trkpt lat="39.81208129903475" lon="116.42486971334954">
        <ele>29.5</ele>
        <time>2022-05-23T10:38:41Z</time>
      </trkpt>
      <trkpt lat="39.812060620123106" lon="116.42488539287598">
        <ele>29.5</ele>
        <time>2022-05-23T10:38:42Z</time>
      </trkpt>
      <trkpt lat="39.81203991815116" lon="116.42490087390298">
        <ele>29.5</ele>
        <time>2022-05-23T10:38:43Z</time>
      </trkpt>
      <trkpt lat="39.812019178724896" lon="116.42491611528216">
        <ele>29.5</ele>
        <time>2022-05-23T10:38:44Z</time>
      </trkpt>
      <trkpt lat="39.81199810686422" lon="116.42493123611597">
        <ele>29.5</ele>
        <time>2022-05-23T10:38:45Z</time>
      </trkpt>
      <trkpt lat="39.811977018052175" lon="116.42494594096858">
        <ele>29.5</ele>
        <time>2022-05-23T10:38:46Z</time>
      </trkpt>
      <trkpt lat="39.81195582895886" lon="116.4249601458045">
        <ele>29.5</ele>
        <time>2022-05-23T10:38:47Z</time>
      </trkpt>
      <trkpt lat="39.811934254078835" lon="116.42497405868124">
        <ele>29.5</ele>
        <time>2022-05-23T10:38:48Z</time>
      </trkpt>
      <trkpt lat="39.81191265795196" lon="116.42498757648642">
        <ele>29.5</ele>
        <time>2022-05-23T10:38:49Z</time>
      </trkpt>
      <trkpt lat="39.81189104053781" lon="116.42500087337376">
        <ele>29.5</ele>
        <time>2022-05-23T10:38:50Z</time>
      </trkpt>
      <trkpt lat="39.811869161808325" lon="116.42501427462771">
        <ele>29.5</ele>
        <time>2022-05-23T10:38:51Z</time>
      </trkpt>
      <trkpt lat="39.811847366468164" lon="116.42502762491617">
        <ele>29.5</ele>
        <time>2022-05-23T10:38:52Z</time>
      </trkpt>
      <trkpt lat="39.81182562649199" lon="116.42504093219813">
        <ele>29.5</ele>
        <time>2022-05-23T10:38:53Z</time>
      </trkpt>
      <trkpt lat="39.811803905309766" lon="116.42505423983636">
        <ele>29.5</ele>
        <time>2022-05-23T10:38:54Z</time>
      </trkpt>
      <trkpt lat="39.81178222617492" lon="116.42506768325217">
        <ele>29</ele>
        <time>2022-05-23T10:38:55Z</time>
      </trkpt>
      <trkpt lat="39.811760610084335" lon="116.42508139507511">
        <ele>29</ele>
        <time>2022-05-23T10:38:56Z</time>
      </trkpt>
      <trkpt lat="39.81173906192027" lon="116.42509545466677">
        <ele>29</ele>
        <time>2022-05-23T10:38:57Z</time>
      </trkpt>
      <trkpt lat="39.81171758544332" lon="116.425109920745">
        <ele>29</ele>
        <time>2022-05-23T10:38:58Z</time>
      </trkpt>
      <trkpt lat="39.81169643554911" lon="116.42512460790356">
        <ele>29</ele>
        <time>2022-05-23T10:38:59Z</time>
      </trkpt>
      <trkpt lat="39.81167548690364" lon="116.42513945045968">
        <ele>29.3</ele>
        <time>2022-05-23T10:39:00Z</time>
      </trkpt>
      <trkpt lat="39.81165437815855" lon="116.42515458381952">
        <ele>29.3</ele>
        <time>2022-05-23T10:39:01Z</time>
      </trkpt>
      <trkpt lat="39.81163338919161" lon="116.42516972325697">
        <ele>29.3</ele>
        <time>2022-05-23T10:39:02Z</time>
      </trkpt>
      <trkpt lat="39.81161247358556" lon="116.42518486329008">
        <ele>29.3</ele>
        <time>2022-05-23T10:39:03Z</time>
      </trkpt>
      <trkpt lat="39.81159132788508" lon="116.42520018188057">
        <ele>29.3</ele>
        <time>2022-05-23T10:39:04Z</time>
      </trkpt>
      <trkpt lat="39.811570329504086" lon="116.42521545115598">
        <ele>29.2</ele>
        <time>2022-05-23T10:39:05Z</time>
      </trkpt>
      <trkpt lat="39.811549448596516" lon="116.42523065715687">
        <ele>29.2</ele>
        <time>2022-05-23T10:39:06Z</time>
      </trkpt>
      <trkpt lat="39.8115286534391" lon="116.42524576858385">
        <ele>29.2</ele>
        <time>2022-05-23T10:39:07Z</time>
      </trkpt>
      <trkpt lat="39.81150792975927" lon="116.42526075189458">
        <ele>29.2</ele>
        <time>2022-05-23T10:39:08Z</time>
      </trkpt>
      <trkpt lat="39.8114870273125" lon="116.42527584551608">
        <ele>29.2</ele>
        <time>2022-05-23T10:39:09Z</time>
      </trkpt>
      <trkpt lat="39.811466033591884" lon="116.42529100149207">
        <ele>29.2</ele>
        <time>2022-05-23T10:39:10Z</time>
      </trkpt>
      <trkpt lat="39.81144502140503" lon="116.42530618510052">
        <ele>29.2</ele>
        <time>2022-05-23T10:39:11Z</time>
      </trkpt>
      <trkpt lat="39.81142402579004" lon="116.42532135285651">
        <ele>29.2</ele>
        <time>2022-05-23T10:39:12Z</time>
      </trkpt>
      <trkpt lat="39.811403065279166" lon="116.42533649163877">
        <ele>29.2</ele>
        <time>2022-05-23T10:39:13Z</time>
      </trkpt>
      <trkpt lat="39.811381858215654" lon="116.42535171102877">
        <ele>29.2</ele>
        <time>2022-05-23T10:39:14Z</time>
      </trkpt>
      <trkpt lat="39.811360751193384" lon="116.42536672957621">
        <ele>29.3</ele>
        <time>2022-05-23T10:39:15Z</time>
      </trkpt>
      <trkpt lat="39.811339703827954" lon="116.42538150932535">
        <ele>29.3</ele>
        <time>2022-05-23T10:39:16Z</time>
      </trkpt>
      <trkpt lat="39.81131844170726" lon="116.42539619804415">
        <ele>29.3</ele>
        <time>2022-05-23T10:39:17Z</time>
      </trkpt>
      <trkpt lat="39.81129733892562" lon="116.42541060205117">
        <ele>29.3</ele>
        <time>2022-05-23T10:39:18Z</time>
      </trkpt>
      <trkpt lat="39.81127638268954" lon="116.42542478285043">
        <ele>29.3</ele>
        <time>2022-05-23T10:39:19Z</time>
      </trkpt>
      <trkpt lat="39.81125551848932" lon="116.42543867709422">
        <ele>29.3</ele>
        <time>2022-05-23T10:39:20Z</time>
      </trkpt>
      <trkpt lat="39.811234731149476" lon="116.42545231405794">
        <ele>29.3</ele>
        <time>2022-05-23T10:39:21Z</time>
      </trkpt>
      <trkpt lat="39.81121399002924" lon="116.42546573949885">
        <ele>29.3</ele>
        <time>2022-05-23T10:39:22Z</time>
      </trkpt>
      <trkpt lat="39.811193289726816" lon="116.42547903156272">
        <ele>29.3</ele>
        <time>2022-05-23T10:39:23Z</time>
      </trkpt>
      <trkpt lat="39.81117263643108" lon="116.42549225905816">
        <ele>29.3</ele>
        <time>2022-05-23T10:39:24Z</time>
      </trkpt>
      <trkpt lat="39.81115206540298" lon="116.42550554139902">
        <ele>29.3</ele>
        <time>2022-05-23T10:39:25Z</time>
      </trkpt>
      <trkpt lat="39.811131631758286" lon="116.42551906393294">
        <ele>29.3</ele>
        <time>2022-05-23T10:39:26Z</time>
      </trkpt>
      <trkpt lat="39.81111137327209" lon="116.42553294513262">
        <ele>29.3</ele>
        <time>2022-05-23T10:39:27Z</time>
      </trkpt>
      <trkpt lat="39.811091283718504" lon="116.42554727949549">
        <ele>29.3</ele>
        <time>2022-05-23T10:39:28Z</time>
      </trkpt>
      <trkpt lat="39.81107134145308" lon="116.42556202190433">
        <ele>29.3</ele>
        <time>2022-05-23T10:39:29Z</time>
      </trkpt>
      <trkpt lat="39.81105130053514" lon="116.42557740484824">
        <ele>29.3</ele>
        <time>2022-05-23T10:39:30Z</time>
      </trkpt>
      <trkpt lat="39.811031488702255" lon="116.42559310337984">
        <ele>29.3</ele>
        <time>2022-05-23T10:39:31Z</time>
      </trkpt>
      <trkpt lat="39.81101186780641" lon="116.42560905643943">
        <ele>29.3</ele>
        <time>2022-05-23T10:39:32Z</time>
      </trkpt>
      <trkpt lat="39.81099213895013" lon="116.42562536354639">
        <ele>29.3</ele>
        <time>2022-05-23T10:39:33Z</time>
      </trkpt>
      <trkpt lat="39.81097261872871" lon="116.42564167169658">
        <ele>29.3</ele>
        <time>2022-05-23T10:39:34Z</time>
      </trkpt>
      <trkpt lat="39.81095326129791" lon="116.42565793747941">
        <ele>29.4</ele>
        <time>2022-05-23T10:39:35Z</time>
      </trkpt>
      <trkpt lat="39.810934016854375" lon="116.42567413651383">
        <ele>29.4</ele>
        <time>2022-05-23T10:39:36Z</time>
      </trkpt>
      <trkpt lat="39.81091481836561" lon="116.42569016828783">
        <ele>29.4</ele>
        <time>2022-05-23T10:39:37Z</time>
      </trkpt>
      <trkpt lat="39.81089563216534" lon="116.4257060109508">
        <ele>29.4</ele>
        <time>2022-05-23T10:39:38Z</time>
      </trkpt>
      <trkpt lat="39.81087646631258" lon="116.42572165867237">
        <ele>29.4</ele>
        <time>2022-05-23T10:39:39Z</time>
      </trkpt>
      <trkpt lat="39.81085729064933" lon="116.42573710692584">
        <ele>29.4</ele>
        <time>2022-05-23T10:39:40Z</time>
      </trkpt>
      <trkpt lat="39.810838330693464" lon="116.42575211945612">
        <ele>29.4</ele>
        <time>2022-05-23T10:39:41Z</time>
      </trkpt>
      <trkpt lat="39.81081925822397" lon="116.42576699202083">
        <ele>29.4</ele>
        <time>2022-05-23T10:39:42Z</time>
      </trkpt>
      <trkpt lat="39.81080005880962" lon="116.42578165602175">
        <ele>29.4</ele>
        <time>2022-05-23T10:39:43Z</time>
      </trkpt>
      <trkpt lat="39.8107807300647" lon="116.42579603902719">
        <ele>29.4</ele>
        <time>2022-05-23T10:39:44Z</time>
      </trkpt>
      <trkpt lat="39.810761282943865" lon="116.42581010291147">
        <ele>29.3</ele>
        <time>2022-05-23T10:39:45Z</time>
      </trkpt>
      <trkpt lat="39.810741704039806" lon="116.4258237627579">
        <ele>29.3</ele>
        <time>2022-05-23T10:39:46Z</time>
      </trkpt>
      <trkpt lat="39.810721997009495" lon="116.4258369596748">
        <ele>29.3</ele>
        <time>2022-05-23T10:39:47Z</time>
      </trkpt>
      <trkpt lat="39.810702162356364" lon="116.42584967943777">
        <ele>29.3</ele>
        <time>2022-05-23T10:39:48Z</time>
      </trkpt>
      <trkpt lat="39.810682204896565" lon="116.42586198788499">
        <ele>29.3</ele>
        <time>2022-05-23T10:39:49Z</time>
      </trkpt>
      <trkpt lat="39.81066217901664" lon="116.42587400632925">
        <ele>29.3</ele>
        <time>2022-05-23T10:39:50Z</time>
      </trkpt>
      <trkpt lat="39.81064229159697" lon="116.42588609698456">
        <ele>29.3</ele>
        <time>2022-05-23T10:39:51Z</time>
      </trkpt>
      <trkpt lat="39.81062285099083" lon="116.42589863124296">
        <ele>29.3</ele>
        <time>2022-05-23T10:39:52Z</time>
      </trkpt>
      <trkpt lat="39.810604382481074" lon="116.42591208740514">
        <ele>29.3</ele>
        <time>2022-05-23T10:39:53Z</time>
      </trkpt>
      <trkpt lat="39.81058727664985" lon="116.42592669512469">
        <ele>29.3</ele>
        <time>2022-05-23T10:39:54Z</time>
      </trkpt>
      <trkpt lat="39.810572155285975" lon="116.42594240072809">
        <ele>29</ele>
        <time>2022-05-23T10:39:55Z</time>
      </trkpt>
      <trkpt lat="39.81055915197635" lon="116.42595966350676">
        <ele>29</ele>
        <time>2022-05-23T10:39:56Z</time>
      </trkpt>
      <trkpt lat="39.81054825117148" lon="116.42597845204881">
        <ele>29</ele>
        <time>2022-05-23T10:39:57Z</time>
      </trkpt>
      <trkpt lat="39.8105395920569" lon="116.42599855894865">
        <ele>29</ele>
        <time>2022-05-23T10:39:58Z</time>
      </trkpt>
      <trkpt lat="39.81053301813646" lon="116.42602038933889">
        <ele>29</ele>
        <time>2022-05-23T10:39:59Z</time>
      </trkpt>
      <trkpt lat="39.8105283411226" lon="116.42604376386488">
        <ele>29.5</ele>
        <time>2022-05-23T10:40:00Z</time>
      </trkpt>
      <trkpt lat="39.81052564612137" lon="116.42606868209947">
        <ele>29.5</ele>
        <time>2022-05-23T10:40:01Z</time>
      </trkpt>
      <trkpt lat="39.810524657923615" lon="116.42609475584369">
        <ele>29.5</ele>
        <time>2022-05-23T10:40:02Z</time>
      </trkpt>
      <trkpt lat="39.81052498362172" lon="116.42612166984763">
        <ele>29.5</ele>
        <time>2022-05-23T10:40:03Z</time>
      </trkpt>
      <trkpt lat="39.81052631843862" lon="116.42614885821546">
        <ele>29.5</ele>
        <time>2022-05-23T10:40:04Z</time>
      </trkpt>
      <trkpt lat="39.810528305387436" lon="116.4261759464233">
        <ele>29.5</ele>
        <time>2022-05-23T10:40:05Z</time>
      </trkpt>
      <trkpt lat="39.81053054405024" lon="116.4262030059966">
        <ele>29.5</ele>
        <time>2022-05-23T10:40:06Z</time>
      </trkpt>
      <trkpt lat="39.81053279873742" lon="116.426230165968">
        <ele>29.5</ele>
        <time>2022-05-23T10:40:07Z</time>
      </trkpt>
      <trkpt lat="39.81053504260224" lon="116.42625743996419">
        <ele>29.5</ele>
        <time>2022-05-23T10:40:08Z</time>
      </trkpt>
      <trkpt lat="39.81053739617324" lon="116.42628476872143">
        <ele>29.5</ele>
        <time>2022-05-23T10:40:09Z</time>
      </trkpt>
      <trkpt lat="39.81054008332395" lon="116.42631203142406">
        <ele>29.5</ele>
        <time>2022-05-23T10:40:11Z</time>
      </trkpt>
      <trkpt lat="39.81054320717863" lon="116.42633909416764">
        <ele>29.5</ele>
        <time>2022-05-23T10:40:12Z</time>
      </trkpt>
      <trkpt lat="39.81054678736468" lon="116.42636553304645">
        <ele>29.5</ele>
        <time>2022-05-23T10:40:13Z</time>
      </trkpt>
      <trkpt lat="39.81055070168797" lon="116.42639144772056">
        <ele>29.5</ele>
        <time>2022-05-23T10:40:14Z</time>
      </trkpt>
      <trkpt lat="39.81055481544302" lon="116.4264168161061">
        <ele>29.3</ele>
        <time>2022-05-23T10:40:15Z</time>
      </trkpt>
      <trkpt lat="39.81055899387137" lon="116.42644163245372">
        <ele>29.3</ele>
        <time>2022-05-23T10:40:16Z</time>
      </trkpt>
      <trkpt lat="39.81056308509684" lon="116.42646662722723">
        <ele>29.3</ele>
        <time>2022-05-23T10:40:17Z</time>
      </trkpt>
      <trkpt lat="39.810567045961136" lon="116.42649166233525">
        <ele>29.3</ele>
        <time>2022-05-23T10:40:18Z</time>
      </trkpt>
      <trkpt lat="39.81057083294547" lon="116.42651621893843">
        <ele>29.3</ele>
        <time>2022-05-23T10:40:19Z</time>
      </trkpt>
      <trkpt lat="39.8105744214439" lon="116.4265407954572">
        <ele>29.3</ele>
        <time>2022-05-23T10:40:20Z</time>
      </trkpt>
      <trkpt lat="39.81057776392906" lon="116.42656541287619">
        <ele>29.3</ele>
        <time>2022-05-23T10:40:21Z</time>
      </trkpt>
      <trkpt lat="39.810580692175876" lon="116.42658978293966">
        <ele>29.3</ele>
        <time>2022-05-23T10:40:22Z</time>
      </trkpt>
      <trkpt lat="39.810583200859206" lon="116.42661452084735">
        <ele>29.3</ele>
        <time>2022-05-23T10:40:23Z</time>
      </trkpt>
      <trkpt lat="39.810585313749066" lon="116.42663954580058">
        <ele>29.3</ele>
        <time>2022-05-23T10:40:24Z</time>
      </trkpt>
      <trkpt lat="39.81058719735453" lon="116.42666475704283">
        <ele>29.8</ele>
        <time>2022-05-23T10:40:25Z</time>
      </trkpt>
      <trkpt lat="39.81058909177532" lon="116.42669045511485">
        <ele>29.8</ele>
        <time>2022-05-23T10:40:26Z</time>
      </trkpt>
      <trkpt lat="39.810591191935806" lon="116.42671643273952">
        <ele>29.8</ele>
        <time>2022-05-23T10:40:27Z</time>
      </trkpt>
      <trkpt lat="39.81059363263322" lon="116.42674218908952">
        <ele>29.8</ele>
        <time>2022-05-23T10:40:28Z</time>
      </trkpt>
      <trkpt lat="39.81059654052249" lon="116.42676814779958">
        <ele>29.8</ele>
        <time>2022-05-23T10:40:29Z</time>
      </trkpt>
      <trkpt lat="39.810599841454874" lon="116.42679430696387">
        <ele>29.8</ele>
        <time>2022-05-23T10:40:30Z</time>
      </trkpt>
      <trkpt lat="39.81060349034508" lon="116.42682065158553">
        <ele>29.8</ele>
        <time>2022-05-23T10:40:31Z</time>
      </trkpt>
      <trkpt lat="39.81060734133437" lon="116.42684719584291">
        <ele>29.8</ele>
        <time>2022-05-23T10:40:32Z</time>
      </trkpt>
      <trkpt lat="39.81061128020231" lon="116.4268739484546">
        <ele>29.8</ele>
        <time>2022-05-23T10:40:33Z</time>
      </trkpt>
      <trkpt lat="39.8106152692258" lon="116.42690087039118">
        <ele>29.8</ele>
        <time>2022-05-23T10:40:34Z</time>
      </trkpt>
      <trkpt lat="39.81061933912831" lon="116.42692799730723">
        <ele>29.4</ele>
        <time>2022-05-23T10:40:35Z</time>
      </trkpt>
      <trkpt lat="39.81062347243812" lon="116.42695535206843">
        <ele>29.4</ele>
        <time>2022-05-23T10:40:36Z</time>
      </trkpt>
      <trkpt lat="39.81062767008614" lon="116.42698294123569">
        <ele>29.4</ele>
        <time>2022-05-23T10:40:37Z</time>
      </trkpt>
      <trkpt lat="39.81063192401166" lon="116.42701078715406">
        <ele>29.4</ele>
        <time>2022-05-23T10:40:38Z</time>
      </trkpt>
      <trkpt lat="39.81063621044588" lon="116.4270388957707">
        <ele>29.4</ele>
        <time>2022-05-23T10:40:39Z</time>
      </trkpt>
      <trkpt lat="39.81064052823046" lon="116.4270672934245">
        <ele>29.4</ele>
        <time>2022-05-23T10:40:40Z</time>
      </trkpt>
      <trkpt lat="39.81064493374286" lon="116.4270959120735">
        <ele>29.4</ele>
        <time>2022-05-23T10:40:41Z</time>
      </trkpt>
      <trkpt lat="39.81064951290569" lon="116.42712475037628">
        <ele>29.4</ele>
        <time>2022-05-23T10:40:42Z</time>
      </trkpt>
      <trkpt lat="39.810654298242945" lon="116.42715377634129">
        <ele>29.4</ele>
        <time>2022-05-23T10:40:43Z</time>
      </trkpt>
      <trkpt lat="39.81065926680835" lon="116.42718297847591">
        <ele>29.4</ele>
        <time>2022-05-23T10:40:44Z</time>
      </trkpt>
      <trkpt lat="39.810664365009046" lon="116.42721194687945">
        <ele>29.2</ele>
        <time>2022-05-23T10:40:45Z</time>
      </trkpt>
      <trkpt lat="39.81066949817125" lon="116.42724074703393">
        <ele>29.2</ele>
        <time>2022-05-23T10:40:46Z</time>
      </trkpt>
      <trkpt lat="39.81067455608321" lon="116.42726982487768">
        <ele>29.2</ele>
        <time>2022-05-23T10:40:47Z</time>
      </trkpt>
      <trkpt lat="39.8106793509082" lon="116.42729872210414">
        <ele>29.2</ele>
        <time>2022-05-23T10:40:48Z</time>
      </trkpt>
      <trkpt lat="39.81068381708078" lon="116.42732748743458">
        <ele>29.2</ele>
        <time>2022-05-23T10:40:49Z</time>
      </trkpt>
      <trkpt lat="39.81068786196463" lon="116.42735654543819">
        <ele>29.2</ele>
        <time>2022-05-23T10:40:50Z</time>
      </trkpt>
      <trkpt lat="39.810691358401925" lon="116.42738540421848">
        <ele>29.2</ele>
        <time>2022-05-23T10:40:51Z</time>
      </trkpt>
      <trkpt lat="39.81069432457539" lon="116.42741412372298">
        <ele>29.2</ele>
        <time>2022-05-23T10:40:52Z</time>
      </trkpt>
      <trkpt lat="39.81069670231673" lon="116.4274426818097">
        <ele>29.2</ele>
        <time>2022-05-23T10:40:53Z</time>
      </trkpt>
      <trkpt lat="39.81069862997938" lon="116.42747105660393">
        <ele>29.2</ele>
        <time>2022-05-23T10:40:54Z</time>
      </trkpt>
      <trkpt lat="39.810700303343346" lon="116.42749919845645">
        <ele>29</ele>
        <time>2022-05-23T10:40:55Z</time>
      </trkpt>
      <trkpt lat="39.810701881821146" lon="116.42752746101232">
        <ele>29</ele>
        <time>2022-05-23T10:40:56Z</time>
      </trkpt>
      <trkpt lat="39.81070347656689" lon="116.42755574205509">
        <ele>29</ele>
        <time>2022-05-23T10:40:57Z</time>
      </trkpt>
      <trkpt lat="39.81070518161782" lon="116.42758357105568">
        <ele>29</ele>
        <time>2022-05-23T10:40:58Z</time>
      </trkpt>
      <trkpt lat="39.810707124557354" lon="116.42761140260048">
        <ele>29</ele>
        <time>2022-05-23T10:40:59Z</time>
      </trkpt>
      <trkpt lat="39.81070923658839" lon="116.42763918031905">
        <ele>29.5</ele>
        <time>2022-05-23T10:41:00Z</time>
      </trkpt>
      <trkpt lat="39.81071161441445" lon="116.42766686766291">
        <ele>29.5</ele>
        <time>2022-05-23T10:41:01Z</time>
      </trkpt>
      <trkpt lat="39.81071426760873" lon="116.42769443783725">
        <ele>29.5</ele>
        <time>2022-05-23T10:41:02Z</time>
      </trkpt>
      <trkpt lat="39.81071716842622" lon="116.42772188506423">
        <ele>29.5</ele>
        <time>2022-05-23T10:41:03Z</time>
      </trkpt>
      <trkpt lat="39.8107203539507" lon="116.42774925295478">
        <ele>29.5</ele>
        <time>2022-05-23T10:41:04Z</time>
      </trkpt>
      <trkpt lat="39.81072379150041" lon="116.4277765664872">
        <ele>29.6</ele>
        <time>2022-05-23T10:41:05Z</time>
      </trkpt>
      <trkpt lat="39.81072737848765" lon="116.42780387432437">
        <ele>29.6</ele>
        <time>2022-05-23T10:41:06Z</time>
      </trkpt>
      <trkpt lat="39.81073106255444" lon="116.42783121430833">
        <ele>29.6</ele>
        <time>2022-05-23T10:41:07Z</time>
      </trkpt>
      <trkpt lat="39.81073476843566" lon="116.42785862360219">
        <ele>29.6</ele>
        <time>2022-05-23T10:41:08Z</time>
      </trkpt>
      <trkpt lat="39.8107384094886" lon="116.42788612202814">
        <ele>29.6</ele>
        <time>2022-05-23T10:41:09Z</time>
      </trkpt>
      <trkpt lat="39.810741904619114" lon="116.42791367319019">
        <ele>29.6</ele>
        <time>2022-05-23T10:41:10Z</time>
      </trkpt>
      <trkpt lat="39.81074524897768" lon="116.42794131661361">
        <ele>29.6</ele>
        <time>2022-05-23T10:41:11Z</time>
      </trkpt>
      <trkpt lat="39.81074837741504" lon="116.42796866719472">
        <ele>29.6</ele>
        <time>2022-05-23T10:41:12Z</time>
      </trkpt>
      <trkpt lat="39.81075136978094" lon="116.42799579767075">
        <ele>29.6</ele>
        <time>2022-05-23T10:41:13Z</time>
      </trkpt>
      <trkpt lat="39.810754185506475" lon="116.42802271941287">
        <ele>29.6</ele>
        <time>2022-05-23T10:41:14Z</time>
      </trkpt>
      <trkpt lat="39.810757023486126" lon="116.42804865723053">
        <ele>29.1</ele>
        <time>2022-05-23T10:41:15Z</time>
      </trkpt>
      <trkpt lat="39.81075931791036" lon="116.42807384541673">
        <ele>29.1</ele>
        <time>2022-05-23T10:41:16Z</time>
      </trkpt>
      <trkpt lat="39.81076232033349" lon="116.42810532071731">
        <ele>29.1</ele>
        <time>2022-05-23T10:41:17Z</time>
      </trkpt>
      <trkpt lat="39.81076452130531" lon="116.42812992816718">
        <ele>29.1</ele>
        <time>2022-05-23T10:41:18Z</time>
      </trkpt>
      <trkpt lat="39.81076575070058" lon="116.42815326145927">
        <ele>29.1</ele>
        <time>2022-05-23T10:41:19Z</time>
      </trkpt>
      <trkpt lat="39.810769540006675" lon="116.42817168118403">
        <ele>0</ele>
        <time>2022-05-23T10:41:20Z</time>
      </trkpt>
    </trkseg>
  </trk>
</gpx>