<?xml version="1.0" encoding="UTF-8"?>
<gpx xmlns="http://www.topografix.com/GPX/1/1" xmlns:gpxtpx="http://www.garmin.com/xmlschemas/TrackPointExtension/v1" xmlns:xsi="http://www.w3.org/2001/XMLSchema-instance" xsi:schemaLocation="http://www.topografix.com/GPX/1/1 http://www.topografix.com/GPX/1/1/gpx.xsd" version="1.1" creator="gpx.py -- https://github.com/tkrajina/gpxpy">
  <trk>
    <name>gpx from codoon</name>
    <type>Run</type>
    <trkseg>
      <trkpt lat="39.81409117529989" lon="116.42377349803239">
        <ele>38.9</ele>
        <time>2022-05-24T10:45:53Z</time>
      </trkpt>
      <trkpt lat="39.81408327209446" lon="116.42378172742428">
        <ele>38.9</ele>
        <time>2022-05-24T10:45:54Z</time>
      </trkpt>
      <trkpt lat="39.814079113385766" lon="116.4237968847797">
        <ele>38.9</ele>
        <time>2022-05-24T10:45:55Z</time>
      </trkpt>
      <trkpt lat="39.8140693600912" lon="116.42380921099361">
        <ele>38.9</ele>
        <time>2022-05-24T10:45:56Z</time>
      </trkpt>
      <trkpt lat="39.81406096286034" lon="116.42382051504647">
        <ele>38.9</ele>
        <time>2022-05-24T10:45:57Z</time>
      </trkpt>
      <trkpt lat="39.814045425694395" lon="116.42383111293505">
        <ele>38</ele>
        <time>2022-05-24T10:45:58Z</time>
      </trkpt>
      <trkpt lat="39.81403401231464" lon="116.42384287971454">
        <ele>38</ele>
        <time>2022-05-24T10:45:59Z</time>
      </trkpt>
      <trkpt lat="39.81402160248355" lon="116.42385534084576">
        <ele>39</ele>
        <time>2022-05-24T10:46:00Z</time>
      </trkpt>
      <trkpt lat="39.81400780615432" lon="116.42386773143721">
        <ele>39</ele>
        <time>2022-05-24T10:46:01Z</time>
      </trkpt>
      <trkpt lat="39.81399307962067" lon="116.423880076326">
        <ele>39</ele>
        <time>2022-05-24T10:46:02Z</time>
      </trkpt>
      <trkpt lat="39.81397727956426" lon="116.42389225833516">
        <ele>39</ele>
        <time>2022-05-24T10:46:03Z</time>
      </trkpt>
      <trkpt lat="39.813960592518676" lon="116.42390409305557">
        <ele>39</ele>
        <time>2022-05-24T10:46:04Z</time>
      </trkpt>
      <trkpt lat="39.813943036739445" lon="116.42391563108497">
        <ele>39</ele>
        <time>2022-05-24T10:46:05Z</time>
      </trkpt>
      <trkpt lat="39.81392501579054" lon="116.42392731672908">
        <ele>39</ele>
        <time>2022-05-24T10:46:06Z</time>
      </trkpt>
      <trkpt lat="39.813906959280246" lon="116.42393888358569">
        <ele>39</ele>
        <time>2022-05-24T10:46:07Z</time>
      </trkpt>
      <trkpt lat="39.81388904804562" lon="116.42395032105705">
        <ele>39</ele>
        <time>2022-05-24T10:46:08Z</time>
      </trkpt>
      <trkpt lat="39.81387136396448" lon="116.4239614117289">
        <ele>39</ele>
        <time>2022-05-24T10:46:09Z</time>
      </trkpt>
      <trkpt lat="39.81385371707092" lon="116.42397226094458">
        <ele>39</ele>
        <time>2022-05-24T10:46:10Z</time>
      </trkpt>
      <trkpt lat="39.81383639820953" lon="116.42398237956986">
        <ele>39</ele>
        <time>2022-05-24T10:46:11Z</time>
      </trkpt>
      <trkpt lat="39.81381971140062" lon="116.42399178206597">
        <ele>39</ele>
        <time>2022-05-24T10:46:12Z</time>
      </trkpt>
      <trkpt lat="39.813803698661964" lon="116.42400058971685">
        <ele>39</ele>
        <time>2022-05-24T10:46:13Z</time>
      </trkpt>
      <trkpt lat="39.81378858370379" lon="116.42400893561005">
        <ele>39</ele>
        <time>2022-05-24T10:46:14Z</time>
      </trkpt>
      <trkpt lat="39.81377430375056" lon="116.42401694712945">
        <ele>39</ele>
        <time>2022-05-24T10:46:15Z</time>
      </trkpt>
      <trkpt lat="39.81376092491424" lon="116.42402458870015">
        <ele>39</ele>
        <time>2022-05-24T10:46:16Z</time>
      </trkpt>
      <trkpt lat="39.81374827401173" lon="116.4240318198746">
        <ele>39</ele>
        <time>2022-05-24T10:46:17Z</time>
      </trkpt>
      <trkpt lat="39.81373618945134" lon="116.424038619006">
        <ele>39</ele>
        <time>2022-05-24T10:46:18Z</time>
      </trkpt>
      <trkpt lat="39.813724556907204" lon="116.42404509297">
        <ele>39</ele>
        <time>2022-05-24T10:46:19Z</time>
      </trkpt>
      <trkpt lat="39.81371326927977" lon="116.42405132167906">
        <ele>39</ele>
        <time>2022-05-24T10:46:20Z</time>
      </trkpt>
      <trkpt lat="39.81370228342556" lon="116.42405744331771">
        <ele>39</ele>
        <time>2022-05-24T10:46:21Z</time>
      </trkpt>
      <trkpt lat="39.81369161804443" lon="116.42406364079483">
        <ele>39</ele>
        <time>2022-05-24T10:46:22Z</time>
      </trkpt>
      <trkpt lat="39.81368118335884" lon="116.4240699108971">
        <ele>39</ele>
        <time>2022-05-24T10:46:23Z</time>
      </trkpt>
      <trkpt lat="39.81367087406988" lon="116.42407629300217">
        <ele>39</ele>
        <time>2022-05-24T10:46:24Z</time>
      </trkpt>
      <trkpt lat="39.8136604344616" lon="116.42408287639128">
        <ele>39</ele>
        <time>2022-05-24T10:46:25Z</time>
      </trkpt>
      <trkpt lat="39.81364985992264" lon="116.42408973488863">
        <ele>39</ele>
        <time>2022-05-24T10:46:26Z</time>
      </trkpt>
      <trkpt lat="39.8136389845535" lon="116.42409704019036">
        <ele>39</ele>
        <time>2022-05-24T10:46:27Z</time>
      </trkpt>
      <trkpt lat="39.81362781700562" lon="116.42410475105247">
        <ele>39.1</ele>
        <time>2022-05-24T10:46:28Z</time>
      </trkpt>
      <trkpt lat="39.81361637013422" lon="116.42411288348987">
        <ele>39.1</ele>
        <time>2022-05-24T10:46:29Z</time>
      </trkpt>
      <trkpt lat="39.8136046511085" lon="116.42412140568321">
        <ele>39.1</ele>
        <time>2022-05-24T10:46:30Z</time>
      </trkpt>
      <trkpt lat="39.813592632147106" lon="116.42413021057953">
        <ele>39.1</ele>
        <time>2022-05-24T10:46:31Z</time>
      </trkpt>
      <trkpt lat="39.813580553883185" lon="116.42413910493755">
        <ele>39.1</ele>
        <time>2022-05-24T10:46:32Z</time>
      </trkpt>
      <trkpt lat="39.8135683932729" lon="116.42414822920108">
        <ele>39.1</ele>
        <time>2022-05-24T10:46:33Z</time>
      </trkpt>
      <trkpt lat="39.81355597829921" lon="116.42415780343038">
        <ele>39.1</ele>
        <time>2022-05-24T10:46:34Z</time>
      </trkpt>
      <trkpt lat="39.81354342981395" lon="116.42416798231855">
        <ele>39.1</ele>
        <time>2022-05-24T10:46:35Z</time>
      </trkpt>
      <trkpt lat="39.813530864512465" lon="116.42417888879926">
        <ele>39.1</ele>
        <time>2022-05-24T10:46:36Z</time>
      </trkpt>
      <trkpt lat="39.81351829927766" lon="116.42419051103217">
        <ele>39.1</ele>
        <time>2022-05-24T10:46:37Z</time>
      </trkpt>
      <trkpt lat="39.81350593138631" lon="116.42420253060165">
        <ele>39</ele>
        <time>2022-05-24T10:46:38Z</time>
      </trkpt>
      <trkpt lat="39.813493627977635" lon="116.42421447679949">
        <ele>39</ele>
        <time>2022-05-24T10:46:39Z</time>
      </trkpt>
      <trkpt lat="39.813481204787365" lon="116.42422622018253">
        <ele>39</ele>
        <time>2022-05-24T10:46:40Z</time>
      </trkpt>
      <trkpt lat="39.8134685787991" lon="116.42423769366448">
        <ele>39</ele>
        <time>2022-05-24T10:46:41Z</time>
      </trkpt>
      <trkpt lat="39.81345570559941" lon="116.42424891161671">
        <ele>39</ele>
        <time>2022-05-24T10:46:42Z</time>
      </trkpt>
      <trkpt lat="39.81344263316383" lon="116.42425988920861">
        <ele>39</ele>
        <time>2022-05-24T10:46:43Z</time>
      </trkpt>
      <trkpt lat="39.81342930537423" lon="116.42427073897801">
        <ele>39</ele>
        <time>2022-05-24T10:46:44Z</time>
      </trkpt>
      <trkpt lat="39.81341576915052" lon="116.42428150553347">
        <ele>39</ele>
        <time>2022-05-24T10:46:45Z</time>
      </trkpt>
      <trkpt lat="39.813402047373465" lon="116.42429213328619">
        <ele>39</ele>
        <time>2022-05-24T10:46:46Z</time>
      </trkpt>
      <trkpt lat="39.81338805843186" lon="116.42430249635719">
        <ele>39</ele>
        <time>2022-05-24T10:46:47Z</time>
      </trkpt>
      <trkpt lat="39.81337377730472" lon="116.42431245625346">
        <ele>38.9</ele>
        <time>2022-05-24T10:46:48Z</time>
      </trkpt>
      <trkpt lat="39.81335897375944" lon="116.42432218955508">
        <ele>38.9</ele>
        <time>2022-05-24T10:46:49Z</time>
      </trkpt>
      <trkpt lat="39.81334379075877" lon="116.42433201935218">
        <ele>38.9</ele>
        <time>2022-05-24T10:46:50Z</time>
      </trkpt>
      <trkpt lat="39.81332839501975" lon="116.42434190935795">
        <ele>38.9</ele>
        <time>2022-05-24T10:46:51Z</time>
      </trkpt>
      <trkpt lat="39.813312911439674" lon="116.42435180579714">
        <ele>38.9</ele>
        <time>2022-05-24T10:46:52Z</time>
      </trkpt>
      <trkpt lat="39.81329765749364" lon="116.42436160699188">
        <ele>38.9</ele>
        <time>2022-05-24T10:46:53Z</time>
      </trkpt>
      <trkpt lat="39.81328234493191" lon="116.42437144051583">
        <ele>38.9</ele>
        <time>2022-05-24T10:46:54Z</time>
      </trkpt>
      <trkpt lat="39.81326704896864" lon="116.42438101396756">
        <ele>38.9</ele>
        <time>2022-05-24T10:46:55Z</time>
      </trkpt>
      <trkpt lat="39.813251723397485" lon="116.42439018665213">
        <ele>38.9</ele>
        <time>2022-05-24T10:46:56Z</time>
      </trkpt>
      <trkpt lat="39.813236313316615" lon="116.42439896293513">
        <ele>38.9</ele>
        <time>2022-05-24T10:46:57Z</time>
      </trkpt>
      <trkpt lat="39.81322082064765" lon="116.42440734674071">
        <ele>38</ele>
        <time>2022-05-24T10:46:58Z</time>
      </trkpt>
      <trkpt lat="39.81320529391187" lon="116.42441537403583">
        <ele>38</ele>
        <time>2022-05-24T10:46:59Z</time>
      </trkpt>
      <trkpt lat="39.81318977654737" lon="116.42442324709225">
        <ele>38.7</ele>
        <time>2022-05-24T10:47:00Z</time>
      </trkpt>
      <trkpt lat="39.8131743166463" lon="116.42443110163225">
        <ele>38.7</ele>
        <time>2022-05-24T10:47:01Z</time>
      </trkpt>
      <trkpt lat="39.81315897836987" lon="116.4244390710465">
        <ele>38.7</ele>
        <time>2022-05-24T10:47:02Z</time>
      </trkpt>
      <trkpt lat="39.81314403076865" lon="116.42444704592664">
        <ele>38.7</ele>
        <time>2022-05-24T10:47:03Z</time>
      </trkpt>
      <trkpt lat="39.81312899576937" lon="116.42445546260535">
        <ele>38.7</ele>
        <time>2022-05-24T10:47:04Z</time>
      </trkpt>
      <trkpt lat="39.81311419619602" lon="116.42446412141064">
        <ele>38.7</ele>
        <time>2022-05-24T10:47:05Z</time>
      </trkpt>
      <trkpt lat="39.81309947453966" lon="116.42447285063972">
        <ele>38.7</ele>
        <time>2022-05-24T10:47:06Z</time>
      </trkpt>
      <trkpt lat="39.81308474069606" lon="116.4244815377027">
        <ele>38.7</ele>
        <time>2022-05-24T10:47:07Z</time>
      </trkpt>
      <trkpt lat="39.813069985802564" lon="116.4244901039233">
        <ele>38.6</ele>
        <time>2022-05-24T10:47:08Z</time>
      </trkpt>
      <trkpt lat="39.8130551941736" lon="116.42449851484746">
        <ele>38.6</ele>
        <time>2022-05-24T10:47:09Z</time>
      </trkpt>
      <trkpt lat="39.813040590608914" lon="116.4245066959619">
        <ele>38.6</ele>
        <time>2022-05-24T10:47:10Z</time>
      </trkpt>
      <trkpt lat="39.81302620569852" lon="116.42451478373438">
        <ele>38.6</ele>
        <time>2022-05-24T10:47:11Z</time>
      </trkpt>
      <trkpt lat="39.81301212258091" lon="116.42452292502514">
        <ele>38.6</ele>
        <time>2022-05-24T10:47:12Z</time>
      </trkpt>
      <trkpt lat="39.812998392238406" lon="116.42453112732865">
        <ele>38.6</ele>
        <time>2022-05-24T10:47:13Z</time>
      </trkpt>
      <trkpt lat="39.812984781526474" lon="116.42453958621569">
        <ele>38.6</ele>
        <time>2022-05-24T10:47:14Z</time>
      </trkpt>
      <trkpt lat="39.81297152168687" lon="116.42454792373366">
        <ele>38.6</ele>
        <time>2022-05-24T10:47:15Z</time>
      </trkpt>
      <trkpt lat="39.81295830919593" lon="116.42455629233649">
        <ele>38.6</ele>
        <time>2022-05-24T10:47:16Z</time>
      </trkpt>
      <trkpt lat="39.812945344950265" lon="116.42456488483292">
        <ele>38.6</ele>
        <time>2022-05-24T10:47:17Z</time>
      </trkpt>
      <trkpt lat="39.81293269551621" lon="116.42457376627904">
        <ele>38.6</ele>
        <time>2022-05-24T10:47:18Z</time>
      </trkpt>
      <trkpt lat="39.8129204003209" lon="116.42458300152336">
        <ele>38.6</ele>
        <time>2022-05-24T10:47:19Z</time>
      </trkpt>
      <trkpt lat="39.81290852980129" lon="116.42459265956701">
        <ele>38.6</ele>
        <time>2022-05-24T10:47:20Z</time>
      </trkpt>
      <trkpt lat="39.81289701544335" lon="116.424602670322">
        <ele>38.6</ele>
        <time>2022-05-24T10:47:21Z</time>
      </trkpt>
      <trkpt lat="39.8128857647049" lon="116.4246128784784">
        <ele>38.6</ele>
        <time>2022-05-24T10:47:22Z</time>
      </trkpt>
      <trkpt lat="39.81287462376166" lon="116.4246231575438">
        <ele>38.6</ele>
        <time>2022-05-24T10:47:23Z</time>
      </trkpt>
      <trkpt lat="39.81286348629705" lon="116.42463345699832">
        <ele>38.6</ele>
        <time>2022-05-24T10:47:24Z</time>
      </trkpt>
      <trkpt lat="39.81285224629241" lon="116.4246437405444">
        <ele>38.6</ele>
        <time>2022-05-24T10:47:25Z</time>
      </trkpt>
      <trkpt lat="39.81284086771756" lon="116.42465408045963">
        <ele>38.6</ele>
        <time>2022-05-24T10:47:26Z</time>
      </trkpt>
      <trkpt lat="39.812829348451515" lon="116.424664492769">
        <ele>38.6</ele>
        <time>2022-05-24T10:47:27Z</time>
      </trkpt>
      <trkpt lat="39.81281789369617" lon="116.42467480199568">
        <ele>38.5</ele>
        <time>2022-05-24T10:47:28Z</time>
      </trkpt>
      <trkpt lat="39.81280635306831" lon="116.42468503950153">
        <ele>38.5</ele>
        <time>2022-05-24T10:47:29Z</time>
      </trkpt>
      <trkpt lat="39.81279467904265" lon="116.42469525906515">
        <ele>38.5</ele>
        <time>2022-05-24T10:47:30Z</time>
      </trkpt>
      <trkpt lat="39.81278280741032" lon="116.42470547343966">
        <ele>38.5</ele>
        <time>2022-05-24T10:47:31Z</time>
      </trkpt>
      <trkpt lat="39.81277059060694" lon="116.42471589582689">
        <ele>38.5</ele>
        <time>2022-05-24T10:47:32Z</time>
      </trkpt>
      <trkpt lat="39.812758307314084" lon="116.42472620685129">
        <ele>38.5</ele>
        <time>2022-05-24T10:47:33Z</time>
      </trkpt>
      <trkpt lat="39.81274592787112" lon="116.42473645052338">
        <ele>38.5</ele>
        <time>2022-05-24T10:47:34Z</time>
      </trkpt>
      <trkpt lat="39.81273347777242" lon="116.42474662580891">
        <ele>38.5</ele>
        <time>2022-05-24T10:47:35Z</time>
      </trkpt>
      <trkpt lat="39.81272092620162" lon="116.42475676838968">
        <ele>38.5</ele>
        <time>2022-05-24T10:47:36Z</time>
      </trkpt>
      <trkpt lat="39.81270828041813" lon="116.42476684012694">
        <ele>38.5</ele>
        <time>2022-05-24T10:47:37Z</time>
      </trkpt>
      <trkpt lat="39.81269554511665" lon="116.4247768224868">
        <ele>38.7</ele>
        <time>2022-05-24T10:47:38Z</time>
      </trkpt>
      <trkpt lat="39.81268250850504" lon="116.4247867979413">
        <ele>38.7</ele>
        <time>2022-05-24T10:47:39Z</time>
      </trkpt>
      <trkpt lat="39.81266935870167" lon="116.42479673686871">
        <ele>38.7</ele>
        <time>2022-05-24T10:47:40Z</time>
      </trkpt>
      <trkpt lat="39.81265615845195" lon="116.42480655223719">
        <ele>38.7</ele>
        <time>2022-05-24T10:47:41Z</time>
      </trkpt>
      <trkpt lat="39.812643184887506" lon="116.42481602928463">
        <ele>38.7</ele>
        <time>2022-05-24T10:47:42Z</time>
      </trkpt>
      <trkpt lat="39.812630382528255" lon="116.42482519244435">
        <ele>38.7</ele>
        <time>2022-05-24T10:47:43Z</time>
      </trkpt>
      <trkpt lat="39.81261754906914" lon="116.42483428227531">
        <ele>38.7</ele>
        <time>2022-05-24T10:47:44Z</time>
      </trkpt>
      <trkpt lat="39.81260473489981" lon="116.42484317745685">
        <ele>38.7</ele>
        <time>2022-05-24T10:47:45Z</time>
      </trkpt>
      <trkpt lat="39.8125919522509" lon="116.4248518137906">
        <ele>38.7</ele>
        <time>2022-05-24T10:47:46Z</time>
      </trkpt>
      <trkpt lat="39.81257926322141" lon="116.42486008567037">
        <ele>38.7</ele>
        <time>2022-05-24T10:47:47Z</time>
      </trkpt>
      <trkpt lat="39.81256672430375" lon="116.42486798229979">
        <ele>38.5</ele>
        <time>2022-05-24T10:47:48Z</time>
      </trkpt>
      <trkpt lat="39.8125543618549" lon="116.42487552535805">
        <ele>38.5</ele>
        <time>2022-05-24T10:47:49Z</time>
      </trkpt>
      <trkpt lat="39.812542390027446" lon="116.4248826978998">
        <ele>38.5</ele>
        <time>2022-05-24T10:47:50Z</time>
      </trkpt>
      <trkpt lat="39.81253077007823" lon="116.42488967567478">
        <ele>38.5</ele>
        <time>2022-05-24T10:47:51Z</time>
      </trkpt>
      <trkpt lat="39.81251946891936" lon="116.42489657802882">
        <ele>38.5</ele>
        <time>2022-05-24T10:47:52Z</time>
      </trkpt>
      <trkpt lat="39.812508214302746" lon="116.42490357293218">
        <ele>38.5</ele>
        <time>2022-05-24T10:47:53Z</time>
      </trkpt>
      <trkpt lat="39.812497053841845" lon="116.4249106764931">
        <ele>38.5</ele>
        <time>2022-05-24T10:47:54Z</time>
      </trkpt>
      <trkpt lat="39.81248593080458" lon="116.42491776977471">
        <ele>38.5</ele>
        <time>2022-05-24T10:47:55Z</time>
      </trkpt>
      <trkpt lat="39.81247504443029" lon="116.42492471855381">
        <ele>38.5</ele>
        <time>2022-05-24T10:47:56Z</time>
      </trkpt>
      <trkpt lat="39.812464368759755" lon="116.42493169713421">
        <ele>38.5</ele>
        <time>2022-05-24T10:47:57Z</time>
      </trkpt>
      <trkpt lat="39.812453926726185" lon="116.42493886383761">
        <ele>38</ele>
        <time>2022-05-24T10:47:58Z</time>
      </trkpt>
      <trkpt lat="39.81244374050867" lon="116.42494628299625">
        <ele>38</ele>
        <time>2022-05-24T10:47:59Z</time>
      </trkpt>
      <trkpt lat="39.812433847368816" lon="116.42495405350692">
        <ele>38.4</ele>
        <time>2022-05-24T10:48:00Z</time>
      </trkpt>
      <trkpt lat="39.81242405185961" lon="116.42496232507393">
        <ele>38.4</ele>
        <time>2022-05-24T10:48:01Z</time>
      </trkpt>
      <trkpt lat="39.81241435823242" lon="116.4249709847115">
        <ele>38.4</ele>
        <time>2022-05-24T10:48:02Z</time>
      </trkpt>
      <trkpt lat="39.812404648982124" lon="116.42497977921093">
        <ele>38.4</ele>
        <time>2022-05-24T10:48:03Z</time>
      </trkpt>
      <trkpt lat="39.81239507874882" lon="116.42498858892625">
        <ele>38.4</ele>
        <time>2022-05-24T10:48:04Z</time>
      </trkpt>
      <trkpt lat="39.81238545880383" lon="116.42499736476758">
        <ele>38.4</ele>
        <time>2022-05-24T10:48:05Z</time>
      </trkpt>
      <trkpt lat="39.81237574578136" lon="116.42500619038">
        <ele>38.4</ele>
        <time>2022-05-24T10:48:06Z</time>
      </trkpt>
      <trkpt lat="39.81236570690247" lon="116.42501521776194">
        <ele>38.4</ele>
        <time>2022-05-24T10:48:07Z</time>
      </trkpt>
      <trkpt lat="39.81235541127044" lon="116.42502447469279">
        <ele>38.5</ele>
        <time>2022-05-24T10:48:08Z</time>
      </trkpt>
      <trkpt lat="39.81234490258118" lon="116.42503393130936">
        <ele>38.5</ele>
        <time>2022-05-24T10:48:09Z</time>
      </trkpt>
      <trkpt lat="39.81233416678857" lon="116.42504358463444">
        <ele>38.5</ele>
        <time>2022-05-24T10:48:10Z</time>
      </trkpt>
      <trkpt lat="39.81232335383606" lon="116.42505319547655">
        <ele>38.5</ele>
        <time>2022-05-24T10:48:11Z</time>
      </trkpt>
      <trkpt lat="39.812312335875205" lon="116.4250626888251">
        <ele>38.5</ele>
        <time>2022-05-24T10:48:12Z</time>
      </trkpt>
      <trkpt lat="39.81230106978208" lon="116.42507201583928">
        <ele>38.5</ele>
        <time>2022-05-24T10:48:13Z</time>
      </trkpt>
      <trkpt lat="39.81228964567291" lon="116.42508135974741">
        <ele>38.5</ele>
        <time>2022-05-24T10:48:14Z</time>
      </trkpt>
      <trkpt lat="39.81227789600293" lon="116.42509080459232">
        <ele>38.5</ele>
        <time>2022-05-24T10:48:15Z</time>
      </trkpt>
      <trkpt lat="39.81226599015848" lon="116.42510031425992">
        <ele>38.5</ele>
        <time>2022-05-24T10:48:16Z</time>
      </trkpt>
      <trkpt lat="39.81225401432797" lon="116.425109891256">
        <ele>38.5</ele>
        <time>2022-05-24T10:48:17Z</time>
      </trkpt>
      <trkpt lat="39.81224201485569" lon="116.42511955207877">
        <ele>38.3</ele>
        <time>2022-05-24T10:48:18Z</time>
      </trkpt>
      <trkpt lat="39.81223014998917" lon="116.4251289904795">
        <ele>38.3</ele>
        <time>2022-05-24T10:48:19Z</time>
      </trkpt>
      <trkpt lat="39.812218242498794" lon="116.4251381547683">
        <ele>38.3</ele>
        <time>2022-05-24T10:48:20Z</time>
      </trkpt>
      <trkpt lat="39.812206219119496" lon="116.42514705328321">
        <ele>38.3</ele>
        <time>2022-05-24T10:48:21Z</time>
      </trkpt>
      <trkpt lat="39.812193820624074" lon="116.42515586177197">
        <ele>38.3</ele>
        <time>2022-05-24T10:48:22Z</time>
      </trkpt>
      <trkpt lat="39.812181105043194" lon="116.42516457479607">
        <ele>38.3</ele>
        <time>2022-05-24T10:48:23Z</time>
      </trkpt>
      <trkpt lat="39.81216811984206" lon="116.42517323852495">
        <ele>38.3</ele>
        <time>2022-05-24T10:48:24Z</time>
      </trkpt>
      <trkpt lat="39.8121549601411" lon="116.42518193799135">
        <ele>38.3</ele>
        <time>2022-05-24T10:48:25Z</time>
      </trkpt>
      <trkpt lat="39.81214188747999" lon="116.42519054406866">
        <ele>38.3</ele>
        <time>2022-05-24T10:48:26Z</time>
      </trkpt>
      <trkpt lat="39.812128884710916" lon="116.42519920805543">
        <ele>38.3</ele>
        <time>2022-05-24T10:48:27Z</time>
      </trkpt>
      <trkpt lat="39.8121159651748" lon="116.42520798464155">
        <ele>38.4</ele>
        <time>2022-05-24T10:48:28Z</time>
      </trkpt>
      <trkpt lat="39.81210311830452" lon="116.42521685600936">
        <ele>38.4</ele>
        <time>2022-05-24T10:48:29Z</time>
      </trkpt>
      <trkpt lat="39.812090079416336" lon="116.42522596505454">
        <ele>38.4</ele>
        <time>2022-05-24T10:48:30Z</time>
      </trkpt>
      <trkpt lat="39.812076992051686" lon="116.42523536261913">
        <ele>38.4</ele>
        <time>2022-05-24T10:48:31Z</time>
      </trkpt>
      <trkpt lat="39.81206393442881" lon="116.42524508763613">
        <ele>38.4</ele>
        <time>2022-05-24T10:48:32Z</time>
      </trkpt>
      <trkpt lat="39.81205099624623" lon="116.42525519038631">
        <ele>38.4</ele>
        <time>2022-05-24T10:48:33Z</time>
      </trkpt>
      <trkpt lat="39.81203822711435" lon="116.42526571954019">
        <ele>38.4</ele>
        <time>2022-05-24T10:48:34Z</time>
      </trkpt>
      <trkpt lat="39.81202585137134" lon="116.42527646561477">
        <ele>38.4</ele>
        <time>2022-05-24T10:48:35Z</time>
      </trkpt>
      <trkpt lat="39.81201359222292" lon="116.42528720489405">
        <ele>38.4</ele>
        <time>2022-05-24T10:48:36Z</time>
      </trkpt>
      <trkpt lat="39.81200108889941" lon="116.42529807710402">
        <ele>38.4</ele>
        <time>2022-05-24T10:48:37Z</time>
      </trkpt>
      <trkpt lat="39.81198824409202" lon="116.42530890274934">
        <ele>38.2</ele>
        <time>2022-05-24T10:48:38Z</time>
      </trkpt>
      <trkpt lat="39.81197497020388" lon="116.42531958124121">
        <ele>38.2</ele>
        <time>2022-05-24T10:48:39Z</time>
      </trkpt>
      <trkpt lat="39.8119612581676" lon="116.42533008027846">
        <ele>38.2</ele>
        <time>2022-05-24T10:48:40Z</time>
      </trkpt>
      <trkpt lat="39.8119472756151" lon="116.42534059708592">
        <ele>38.2</ele>
        <time>2022-05-24T10:48:41Z</time>
      </trkpt>
      <trkpt lat="39.81193330182435" lon="116.42535090530261">
        <ele>38.2</ele>
        <time>2022-05-24T10:48:42Z</time>
      </trkpt>
      <trkpt lat="39.81191936454446" lon="116.42536113079649">
        <ele>38.2</ele>
        <time>2022-05-24T10:48:43Z</time>
      </trkpt>
      <trkpt lat="39.81190546908164" lon="116.42537129520976">
        <ele>38.2</ele>
        <time>2022-05-24T10:48:44Z</time>
      </trkpt>
      <trkpt lat="39.811891630981826" lon="116.42538146387523">
        <ele>38.2</ele>
        <time>2022-05-24T10:48:45Z</time>
      </trkpt>
      <trkpt lat="39.8118776596962" lon="116.42539182762621">
        <ele>38.2</ele>
        <time>2022-05-24T10:48:46Z</time>
      </trkpt>
      <trkpt lat="39.81186376673705" lon="116.42540250361384">
        <ele>38.2</ele>
        <time>2022-05-24T10:48:47Z</time>
      </trkpt>
      <trkpt lat="39.811850192432175" lon="116.42541342236541">
        <ele>38.2</ele>
        <time>2022-05-24T10:48:48Z</time>
      </trkpt>
      <trkpt lat="39.81183698836886" lon="116.42542463040816">
        <ele>38.2</ele>
        <time>2022-05-24T10:48:49Z</time>
      </trkpt>
      <trkpt lat="39.81182440644416" lon="116.42543595544299">
        <ele>38.2</ele>
        <time>2022-05-24T10:48:50Z</time>
      </trkpt>
      <trkpt lat="39.811812322674236" lon="116.4254473948393">
        <ele>38.2</ele>
        <time>2022-05-24T10:48:51Z</time>
      </trkpt>
      <trkpt lat="39.81180055817792" lon="116.4254586980602">
        <ele>38.2</ele>
        <time>2022-05-24T10:48:53Z</time>
      </trkpt>
      <trkpt lat="39.81178878594147" lon="116.42547003799943">
        <ele>38.2</ele>
        <time>2022-05-24T10:48:54Z</time>
      </trkpt>
      <trkpt lat="39.81177692441084" lon="116.42548125103698">
        <ele>38.2</ele>
        <time>2022-05-24T10:48:55Z</time>
      </trkpt>
      <trkpt lat="39.81176493724305" lon="116.42549223795656">
        <ele>38.2</ele>
        <time>2022-05-24T10:48:56Z</time>
      </trkpt>
      <trkpt lat="39.811752835254026" lon="116.42550302606605">
        <ele>38.2</ele>
        <time>2022-05-24T10:48:57Z</time>
      </trkpt>
      <trkpt lat="39.811740595564174" lon="116.4255136650677">
        <ele>38</ele>
        <time>2022-05-24T10:48:58Z</time>
      </trkpt>
      <trkpt lat="39.81172842958058" lon="116.42552397938616">
        <ele>38</ele>
        <time>2022-05-24T10:48:59Z</time>
      </trkpt>
      <trkpt lat="39.81171612431218" lon="116.42553407549397">
        <ele>38.1</ele>
        <time>2022-05-24T10:49:00Z</time>
      </trkpt>
      <trkpt lat="39.81170367344959" lon="116.42554395542115">
        <ele>38.1</ele>
        <time>2022-05-24T10:49:01Z</time>
      </trkpt>
      <trkpt lat="39.81169085352398" lon="116.42555375761145">
        <ele>38.1</ele>
        <time>2022-05-24T10:49:02Z</time>
      </trkpt>
      <trkpt lat="39.81167776299914" lon="116.42556349471671">
        <ele>38.1</ele>
        <time>2022-05-24T10:49:03Z</time>
      </trkpt>
      <trkpt lat="39.811664466349285" lon="116.4255731958082">
        <ele>38.1</ele>
        <time>2022-05-24T10:49:04Z</time>
      </trkpt>
      <trkpt lat="39.811651039909194" lon="116.42558285853812">
        <ele>38.1</ele>
        <time>2022-05-24T10:49:05Z</time>
      </trkpt>
      <trkpt lat="39.81163749846503" lon="116.4255925186898">
        <ele>38.1</ele>
        <time>2022-05-24T10:49:06Z</time>
      </trkpt>
      <trkpt lat="39.811624101079495" lon="116.42560203968144">
        <ele>38.1</ele>
        <time>2022-05-24T10:49:07Z</time>
      </trkpt>
      <trkpt lat="39.8116107162285" lon="116.42561137424876">
        <ele>38.1</ele>
        <time>2022-05-24T10:49:08Z</time>
      </trkpt>
      <trkpt lat="39.811597304161516" lon="116.42562049339813">
        <ele>38.1</ele>
        <time>2022-05-24T10:49:09Z</time>
      </trkpt>
      <trkpt lat="39.811583635254834" lon="116.42562961755286">
        <ele>38.1</ele>
        <time>2022-05-24T10:49:10Z</time>
      </trkpt>
      <trkpt lat="39.81156966085797" lon="116.4256385365697">
        <ele>38.1</ele>
        <time>2022-05-24T10:49:11Z</time>
      </trkpt>
      <trkpt lat="39.81155535745486" lon="116.42564733695961">
        <ele>38.1</ele>
        <time>2022-05-24T10:49:12Z</time>
      </trkpt>
      <trkpt lat="39.81154071825968" lon="116.42565616153995">
        <ele>38.1</ele>
        <time>2022-05-24T10:49:13Z</time>
      </trkpt>
      <trkpt lat="39.811526034312145" lon="116.42566487992681">
        <ele>38.1</ele>
        <time>2022-05-24T10:49:14Z</time>
      </trkpt>
      <trkpt lat="39.81151118401924" lon="116.42567361449422">
        <ele>38.1</ele>
        <time>2022-05-24T10:49:15Z</time>
      </trkpt>
      <trkpt lat="39.81149627021834" lon="116.42568260067564">
        <ele>38.1</ele>
        <time>2022-05-24T10:49:16Z</time>
      </trkpt>
      <trkpt lat="39.811481335491294" lon="116.42569170897933">
        <ele>38.1</ele>
        <time>2022-05-24T10:49:17Z</time>
      </trkpt>
      <trkpt lat="39.81146616266181" lon="116.42570104307114">
        <ele>38.2</ele>
        <time>2022-05-24T10:49:18Z</time>
      </trkpt>
      <trkpt lat="39.81145089402833" lon="116.42571049213485">
        <ele>38.2</ele>
        <time>2022-05-24T10:49:19Z</time>
      </trkpt>
      <trkpt lat="39.81143561199997" lon="116.42572001483802">
        <ele>38.2</ele>
        <time>2022-05-24T10:49:20Z</time>
      </trkpt>
      <trkpt lat="39.81142036041139" lon="116.42572950719598">
        <ele>38.2</ele>
        <time>2022-05-24T10:49:21Z</time>
      </trkpt>
      <trkpt lat="39.81140531502447" lon="116.42573910701907">
        <ele>38.2</ele>
        <time>2022-05-24T10:49:22Z</time>
      </trkpt>
      <trkpt lat="39.81139078892017" lon="116.42574855552094">
        <ele>38.2</ele>
        <time>2022-05-24T10:49:23Z</time>
      </trkpt>
      <trkpt lat="39.81137675977127" lon="116.42575781966259">
        <ele>38.2</ele>
        <time>2022-05-24T10:49:24Z</time>
      </trkpt>
      <trkpt lat="39.811362956731955" lon="116.42576710691748">
        <ele>38.2</ele>
        <time>2022-05-24T10:49:25Z</time>
      </trkpt>
      <trkpt lat="39.81134951453553" lon="116.42577642426649">
        <ele>38.2</ele>
        <time>2022-05-24T10:49:26Z</time>
      </trkpt>
      <trkpt lat="39.811336350162996" lon="116.42578563187388">
        <ele>38.2</ele>
        <time>2022-05-24T10:49:27Z</time>
      </trkpt>
      <trkpt lat="39.811323463928204" lon="116.42579485567103">
        <ele>38</ele>
        <time>2022-05-24T10:49:28Z</time>
      </trkpt>
      <trkpt lat="39.81131084052274" lon="116.42580415581676">
        <ele>38</ele>
        <time>2022-05-24T10:49:29Z</time>
      </trkpt>
      <trkpt lat="39.81129864144051" lon="116.42581340218622">
        <ele>38</ele>
        <time>2022-05-24T10:49:30Z</time>
      </trkpt>
      <trkpt lat="39.81128678155117" lon="116.42582272546301">
        <ele>38</ele>
        <time>2022-05-24T10:49:31Z</time>
      </trkpt>
      <trkpt lat="39.81127520697433" lon="116.42583222020038">
        <ele>38</ele>
        <time>2022-05-24T10:49:32Z</time>
      </trkpt>
      <trkpt lat="39.81126386711243" lon="116.42584195893434">
        <ele>38</ele>
        <time>2022-05-24T10:49:33Z</time>
      </trkpt>
      <trkpt lat="39.811252533485515" lon="116.42585212083394">
        <ele>38</ele>
        <time>2022-05-24T10:49:34Z</time>
      </trkpt>
      <trkpt lat="39.81124125608192" lon="116.42586258590413">
        <ele>38</ele>
        <time>2022-05-24T10:49:35Z</time>
      </trkpt>
      <trkpt lat="39.81123001102746" lon="116.42587320425088">
        <ele>38</ele>
        <time>2022-05-24T10:49:36Z</time>
      </trkpt>
      <trkpt lat="39.81121875989063" lon="116.42588377538799">
        <ele>38</ele>
        <time>2022-05-24T10:49:37Z</time>
      </trkpt>
      <trkpt lat="39.811207655156856" lon="116.42589407826515">
        <ele>38.1</ele>
        <time>2022-05-24T10:49:38Z</time>
      </trkpt>
      <trkpt lat="39.81119658218952" lon="116.42590403315766">
        <ele>38.1</ele>
        <time>2022-05-24T10:49:39Z</time>
      </trkpt>
      <trkpt lat="39.81118547203894" lon="116.42591365439453">
        <ele>38.1</ele>
        <time>2022-05-24T10:49:40Z</time>
      </trkpt>
      <trkpt lat="39.811174095407296" lon="116.42592314308058">
        <ele>38.1</ele>
        <time>2022-05-24T10:49:41Z</time>
      </trkpt>
      <trkpt lat="39.8111625003708" lon="116.42593247870242">
        <ele>38.1</ele>
        <time>2022-05-24T10:49:42Z</time>
      </trkpt>
      <trkpt lat="39.81115071153961" lon="116.42594165062164">
        <ele>38.1</ele>
        <time>2022-05-24T10:49:43Z</time>
      </trkpt>
      <trkpt lat="39.811138738141736" lon="116.4259506329878">
        <ele>38.1</ele>
        <time>2022-05-24T10:49:44Z</time>
      </trkpt>
      <trkpt lat="39.811126795449596" lon="116.42595923848177">
        <ele>38.1</ele>
        <time>2022-05-24T10:49:45Z</time>
      </trkpt>
      <trkpt lat="39.81111496435632" lon="116.42596776964966">
        <ele>38.1</ele>
        <time>2022-05-24T10:49:46Z</time>
      </trkpt>
      <trkpt lat="39.81110330652054" lon="116.4259763672893">
        <ele>38.1</ele>
        <time>2022-05-24T10:49:47Z</time>
      </trkpt>
      <trkpt lat="39.81109184186575" lon="116.42598516762531">
        <ele>37.9</ele>
        <time>2022-05-24T10:49:48Z</time>
      </trkpt>
      <trkpt lat="39.81108036251991" lon="116.42599430523903">
        <ele>37.9</ele>
        <time>2022-05-24T10:49:49Z</time>
      </trkpt>
      <trkpt lat="39.81106886889872" lon="116.42600367949488">
        <ele>37.9</ele>
        <time>2022-05-24T10:49:50Z</time>
      </trkpt>
      <trkpt lat="39.81105733770664" lon="116.42601310797505">
        <ele>37.9</ele>
        <time>2022-05-24T10:49:51Z</time>
      </trkpt>
      <trkpt lat="39.811046001300774" lon="116.42602244477823">
        <ele>37.9</ele>
        <time>2022-05-24T10:49:52Z</time>
      </trkpt>
      <trkpt lat="39.81103474265249" lon="116.42603151444715">
        <ele>37.9</ele>
        <time>2022-05-24T10:49:53Z</time>
      </trkpt>
      <trkpt lat="39.81102354175389" lon="116.42604026828957">
        <ele>37.9</ele>
        <time>2022-05-24T10:49:54Z</time>
      </trkpt>
      <trkpt lat="39.811012378543445" lon="116.42604878703743">
        <ele>37.9</ele>
        <time>2022-05-24T10:49:55Z</time>
      </trkpt>
      <trkpt lat="39.81100121708958" lon="116.4260571249099">
        <ele>37.9</ele>
        <time>2022-05-24T10:49:56Z</time>
      </trkpt>
      <trkpt lat="39.81098989383833" lon="116.42606517046116">
        <ele>37.9</ele>
        <time>2022-05-24T10:49:57Z</time>
      </trkpt>
      <trkpt lat="39.810978335671265" lon="116.4260729107917">
        <ele>38</ele>
        <time>2022-05-24T10:49:58Z</time>
      </trkpt>
      <trkpt lat="39.810966561708796" lon="116.42608030730358">
        <ele>38</ele>
        <time>2022-05-24T10:49:59Z</time>
      </trkpt>
      <trkpt lat="39.810954503052656" lon="116.4260871300416">
        <ele>38.3</ele>
        <time>2022-05-24T10:50:00Z</time>
      </trkpt>
      <trkpt lat="39.81094222471733" lon="116.42609362867209">
        <ele>38.3</ele>
        <time>2022-05-24T10:50:01Z</time>
      </trkpt>
      <trkpt lat="39.810930020628014" lon="116.42609986149685">
        <ele>38.3</ele>
        <time>2022-05-24T10:50:02Z</time>
      </trkpt>
      <trkpt lat="39.81091761828332" lon="116.42610619407606">
        <ele>38.3</ele>
        <time>2022-05-24T10:50:03Z</time>
      </trkpt>
      <trkpt lat="39.81090513312687" lon="116.42611284557773">
        <ele>38.3</ele>
        <time>2022-05-24T10:50:04Z</time>
      </trkpt>
      <trkpt lat="39.81089271820973" lon="116.42612013766932">
        <ele>38.3</ele>
        <time>2022-05-24T10:50:05Z</time>
      </trkpt>
      <trkpt lat="39.81088044863891" lon="116.42612811822485">
        <ele>38.3</ele>
        <time>2022-05-24T10:50:06Z</time>
      </trkpt>
      <trkpt lat="39.81086832907553" lon="116.42613665874525">
        <ele>38.3</ele>
        <time>2022-05-24T10:50:07Z</time>
      </trkpt>
      <trkpt lat="39.81085645664679" lon="116.42614575826103">
        <ele>38</ele>
        <time>2022-05-24T10:50:08Z</time>
      </trkpt>
      <trkpt lat="39.81084513444126" lon="116.42615570089801">
        <ele>38</ele>
        <time>2022-05-24T10:50:09Z</time>
      </trkpt>
      <trkpt lat="39.81083442172195" lon="116.42616660280953">
        <ele>38</ele>
        <time>2022-05-24T10:50:10Z</time>
      </trkpt>
      <trkpt lat="39.810824452255616" lon="116.42617875553192">
        <ele>38</ele>
        <time>2022-05-24T10:50:11Z</time>
      </trkpt>
      <trkpt lat="39.810815227224595" lon="116.4261920351141">
        <ele>38</ele>
        <time>2022-05-24T10:50:12Z</time>
      </trkpt>
      <trkpt lat="39.810806539903496" lon="116.42620657497186">
        <ele>38</ele>
        <time>2022-05-24T10:50:13Z</time>
      </trkpt>
      <trkpt lat="39.810798249056496" lon="116.42622196876158">
        <ele>38</ele>
        <time>2022-05-24T10:50:14Z</time>
      </trkpt>
      <trkpt lat="39.81079051121708" lon="116.42623780097563">
        <ele>38</ele>
        <time>2022-05-24T10:50:15Z</time>
      </trkpt>
      <trkpt lat="39.81078309115579" lon="116.4262538522496">
        <ele>38</ele>
        <time>2022-05-24T10:50:16Z</time>
      </trkpt>
      <trkpt lat="39.81077595675588" lon="116.42627001113681">
        <ele>38</ele>
        <time>2022-05-24T10:50:17Z</time>
      </trkpt>
      <trkpt lat="39.81076848585266" lon="116.426286139701">
        <ele>38.1</ele>
        <time>2022-05-24T10:50:18Z</time>
      </trkpt>
      <trkpt lat="39.81076053286221" lon="116.42630195372993">
        <ele>38.1</ele>
        <time>2022-05-24T10:50:19Z</time>
      </trkpt>
      <trkpt lat="39.81075182217197" lon="116.42631716183381">
        <ele>38.1</ele>
        <time>2022-05-24T10:50:20Z</time>
      </trkpt>
      <trkpt lat="39.81074224302071" lon="116.42633167941345">
        <ele>38.1</ele>
        <time>2022-05-24T10:50:21Z</time>
      </trkpt>
      <trkpt lat="39.810731680387185" lon="116.42634545759178">
        <ele>38.1</ele>
        <time>2022-05-24T10:50:22Z</time>
      </trkpt>
      <trkpt lat="39.81072040641067" lon="116.42635833050257">
        <ele>38.1</ele>
        <time>2022-05-24T10:50:23Z</time>
      </trkpt>
      <trkpt lat="39.81070835477514" lon="116.4263705332341">
        <ele>38.1</ele>
        <time>2022-05-24T10:50:24Z</time>
      </trkpt>
      <trkpt lat="39.81069568991609" lon="116.42638225937637">
        <ele>38.1</ele>
        <time>2022-05-24T10:50:25Z</time>
      </trkpt>
      <trkpt lat="39.8106822849075" lon="116.42639384951957">
        <ele>38.1</ele>
        <time>2022-05-24T10:50:26Z</time>
      </trkpt>
      <trkpt lat="39.81066846295439" lon="116.42640549181165">
        <ele>38.1</ele>
        <time>2022-05-24T10:50:27Z</time>
      </trkpt>
      <trkpt lat="39.810654631769175" lon="116.42641745098133">
        <ele>38.1</ele>
        <time>2022-05-24T10:50:28Z</time>
      </trkpt>
      <trkpt lat="39.81064139587648" lon="116.426429761408">
        <ele>38.1</ele>
        <time>2022-05-24T10:50:29Z</time>
      </trkpt>
      <trkpt lat="39.81062950718579" lon="116.42644280259117">
        <ele>38.1</ele>
        <time>2022-05-24T10:50:30Z</time>
      </trkpt>
      <trkpt lat="39.81061911119146" lon="116.42645652833524">
        <ele>38.1</ele>
        <time>2022-05-24T10:50:31Z</time>
      </trkpt>
      <trkpt lat="39.81061033258199" lon="116.42647091790721">
        <ele>38.1</ele>
        <time>2022-05-24T10:50:32Z</time>
      </trkpt>
      <trkpt lat="39.81060326177849" lon="116.42648594494406">
        <ele>38.1</ele>
        <time>2022-05-24T10:50:33Z</time>
      </trkpt>
      <trkpt lat="39.810597705222804" lon="116.42650175781564">
        <ele>38.1</ele>
        <time>2022-05-24T10:50:34Z</time>
      </trkpt>
      <trkpt lat="39.81059373625037" lon="116.42651810244968">
        <ele>38.1</ele>
        <time>2022-05-24T10:50:35Z</time>
      </trkpt>
      <trkpt lat="39.81059136297641" lon="116.42653466059522">
        <ele>38.1</ele>
        <time>2022-05-24T10:50:36Z</time>
      </trkpt>
      <trkpt lat="39.81059056401538" lon="116.4265514520164">
        <ele>38.1</ele>
        <time>2022-05-24T10:50:37Z</time>
      </trkpt>
      <trkpt lat="39.810591028598346" lon="116.42656829817489">
        <ele>38.1</ele>
        <time>2022-05-24T10:50:38Z</time>
      </trkpt>
      <trkpt lat="39.81059219930038" lon="116.42658497295504">
        <ele>38.1</ele>
        <time>2022-05-24T10:50:39Z</time>
      </trkpt>
      <trkpt lat="39.81059382470383" lon="116.42660186964112">
        <ele>38.1</ele>
        <time>2022-05-24T10:50:40Z</time>
      </trkpt>
      <trkpt lat="39.81059527036901" lon="116.4266187957224">
        <ele>38.1</ele>
        <time>2022-05-24T10:50:41Z</time>
      </trkpt>
      <trkpt lat="39.81059645381556" lon="116.42663547848608">
        <ele>38.1</ele>
        <time>2022-05-24T10:50:42Z</time>
      </trkpt>
      <trkpt lat="39.81059737086231" lon="116.42665206785203">
        <ele>38.1</ele>
        <time>2022-05-24T10:50:43Z</time>
      </trkpt>
      <trkpt lat="39.810598097545515" lon="116.42666861745884">
        <ele>38.1</ele>
        <time>2022-05-24T10:50:44Z</time>
      </trkpt>
      <trkpt lat="39.81059858703193" lon="116.42668486835763">
        <ele>38.1</ele>
        <time>2022-05-24T10:50:45Z</time>
      </trkpt>
      <trkpt lat="39.810599000107146" lon="116.42670094537705">
        <ele>38.1</ele>
        <time>2022-05-24T10:50:46Z</time>
      </trkpt>
      <trkpt lat="39.81059941154486" lon="116.42671725899042">
        <ele>38.1</ele>
        <time>2022-05-24T10:50:47Z</time>
      </trkpt>
      <trkpt lat="39.81059990977113" lon="116.42673433578503">
        <ele>38.1</ele>
        <time>2022-05-24T10:50:48Z</time>
      </trkpt>
      <trkpt lat="39.81060061963765" lon="116.42675214660083">
        <ele>38.1</ele>
        <time>2022-05-24T10:50:49Z</time>
      </trkpt>
      <trkpt lat="39.81060169203667" lon="116.42677073396314">
        <ele>38.1</ele>
        <time>2022-05-24T10:50:50Z</time>
      </trkpt>
      <trkpt lat="39.81060327137015" lon="116.42679040463172">
        <ele>38.1</ele>
        <time>2022-05-24T10:50:51Z</time>
      </trkpt>
      <trkpt lat="39.81060540353169" lon="116.4268110690053">
        <ele>38.1</ele>
        <time>2022-05-24T10:50:52Z</time>
      </trkpt>
      <trkpt lat="39.810608050656505" lon="116.42683289498845">
        <ele>38.1</ele>
        <time>2022-05-24T10:50:53Z</time>
      </trkpt>
      <trkpt lat="39.810611195528715" lon="116.4268557798035">
        <ele>38.1</ele>
        <time>2022-05-24T10:50:54Z</time>
      </trkpt>
      <trkpt lat="39.810614772957855" lon="116.42687967921508">
        <ele>38.1</ele>
        <time>2022-05-24T10:50:55Z</time>
      </trkpt>
      <trkpt lat="39.810618849520985" lon="116.42690527073387">
        <ele>38.1</ele>
        <time>2022-05-24T10:50:56Z</time>
      </trkpt>
      <trkpt lat="39.8106232069576" lon="116.42693227254115">
        <ele>38.1</ele>
        <time>2022-05-24T10:50:57Z</time>
      </trkpt>
      <trkpt lat="39.81062779646542" lon="116.42696045948132">
        <ele>38</ele>
        <time>2022-05-24T10:50:58Z</time>
      </trkpt>
      <trkpt lat="39.81063249012562" lon="116.42698915585997">
        <ele>38</ele>
        <time>2022-05-24T10:50:59Z</time>
      </trkpt>
      <trkpt lat="39.81063722755974" lon="116.42701859823835">
        <ele>38.2</ele>
        <time>2022-05-24T10:51:00Z</time>
      </trkpt>
      <trkpt lat="39.810641902713854" lon="116.42704848250023">
        <ele>38.2</ele>
        <time>2022-05-24T10:51:01Z</time>
      </trkpt>
      <trkpt lat="39.81064645273706" lon="116.42707828956615">
        <ele>38.2</ele>
        <time>2022-05-24T10:51:02Z</time>
      </trkpt>
      <trkpt lat="39.81065089535473" lon="116.42710792674816">
        <ele>38.2</ele>
        <time>2022-05-24T10:51:03Z</time>
      </trkpt>
      <trkpt lat="39.81065537090886" lon="116.42713775291624">
        <ele>38.2</ele>
        <time>2022-05-24T10:51:04Z</time>
      </trkpt>
      <trkpt lat="39.81065986194969" lon="116.4271675333065">
        <ele>38.2</ele>
        <time>2022-05-24T10:51:05Z</time>
      </trkpt>
      <trkpt lat="39.810664307379604" lon="116.42719717881295">
        <ele>38.2</ele>
        <time>2022-05-24T10:51:06Z</time>
      </trkpt>
      <trkpt lat="39.81066861506769" lon="116.42722664784505">
        <ele>38.2</ele>
        <time>2022-05-24T10:51:07Z</time>
      </trkpt>
      <trkpt lat="39.81067265062001" lon="116.4272559638341">
        <ele>38</ele>
        <time>2022-05-24T10:51:08Z</time>
      </trkpt>
      <trkpt lat="39.81067632917963" lon="116.42728556044112">
        <ele>38</ele>
        <time>2022-05-24T10:51:09Z</time>
      </trkpt>
      <trkpt lat="39.8106796303159" lon="116.42731537216598">
        <ele>38</ele>
        <time>2022-05-24T10:51:10Z</time>
      </trkpt>
      <trkpt lat="39.810682590201544" lon="116.42734495992921">
        <ele>38</ele>
        <time>2022-05-24T10:51:11Z</time>
      </trkpt>
      <trkpt lat="39.810685345919744" lon="116.42737486343233">
        <ele>38</ele>
        <time>2022-05-24T10:51:12Z</time>
      </trkpt>
      <trkpt lat="39.81068793652775" lon="116.42740505789263">
        <ele>38</ele>
        <time>2022-05-24T10:51:13Z</time>
      </trkpt>
      <trkpt lat="39.81069033523753" lon="116.42743554425668">
        <ele>38</ele>
        <time>2022-05-24T10:51:14Z</time>
      </trkpt>
      <trkpt lat="39.810692405064316" lon="116.42746589171348">
        <ele>38</ele>
        <time>2022-05-24T10:51:15Z</time>
      </trkpt>
      <trkpt lat="39.81069423815561" lon="116.42749647928143">
        <ele>38</ele>
        <time>2022-05-24T10:51:16Z</time>
      </trkpt>
      <trkpt lat="39.81069600103877" lon="116.42752713189316">
        <ele>38</ele>
        <time>2022-05-24T10:51:17Z</time>
      </trkpt>
      <trkpt lat="39.81069775847461" lon="116.42755730923099">
        <ele>37.7</ele>
        <time>2022-05-24T10:51:18Z</time>
      </trkpt>
      <trkpt lat="39.81069983154631" lon="116.42758736985692">
        <ele>37.7</ele>
        <time>2022-05-24T10:51:19Z</time>
      </trkpt>
      <trkpt lat="39.81070236944057" lon="116.42761679010042">
        <ele>37.7</ele>
        <time>2022-05-24T10:51:20Z</time>
      </trkpt>
      <trkpt lat="39.81070534808953" lon="116.42764564985386">
        <ele>37.7</ele>
        <time>2022-05-24T10:51:21Z</time>
      </trkpt>
      <trkpt lat="39.81070874863321" lon="116.42767442671783">
        <ele>37.7</ele>
        <time>2022-05-24T10:51:22Z</time>
      </trkpt>
      <trkpt lat="39.810712496923685" lon="116.42770263572761">
        <ele>37.7</ele>
        <time>2022-05-24T10:51:23Z</time>
      </trkpt>
      <trkpt lat="39.810716577151446" lon="116.42773070914743">
        <ele>37.7</ele>
        <time>2022-05-24T10:51:24Z</time>
      </trkpt>
      <trkpt lat="39.810720937234834" lon="116.42775863327805">
        <ele>37.7</ele>
        <time>2022-05-24T10:51:25Z</time>
      </trkpt>
      <trkpt lat="39.81072558464372" lon="116.42778646248398">
        <ele>37.7</ele>
        <time>2022-05-24T10:51:26Z</time>
      </trkpt>
      <trkpt lat="39.81073039956983" lon="116.42781389435574">
        <ele>37.7</ele>
        <time>2022-05-24T10:51:27Z</time>
      </trkpt>
      <trkpt lat="39.810735243806135" lon="116.4278410927224">
        <ele>38</ele>
        <time>2022-05-24T10:51:28Z</time>
      </trkpt>
      <trkpt lat="39.8107400921062" lon="116.42786809409026">
        <ele>38</ele>
        <time>2022-05-24T10:51:29Z</time>
      </trkpt>
      <trkpt lat="39.81074474825457" lon="116.42789456520457">
        <ele>38</ele>
        <time>2022-05-24T10:51:30Z</time>
      </trkpt>
      <trkpt lat="39.81074905740996" lon="116.42792061468582">
        <ele>38</ele>
        <time>2022-05-24T10:51:31Z</time>
      </trkpt>
      <trkpt lat="39.81075305485682" lon="116.42794590781916">
        <ele>38</ele>
        <time>2022-05-24T10:51:32Z</time>
      </trkpt>
      <trkpt lat="39.81075643942307" lon="116.42797015906854">
        <ele>38</ele>
        <time>2022-05-24T10:51:33Z</time>
      </trkpt>
      <trkpt lat="39.81076245081914" lon="116.4280005242952">
        <ele>38</ele>
        <time>2022-05-24T10:51:34Z</time>
      </trkpt>
      <trkpt lat="39.8107661441291" lon="116.42802283902535">
        <ele>38</ele>
        <time>2022-05-24T10:51:35Z</time>
      </trkpt>
      <trkpt lat="39.810768574130236" lon="116.42804423366688">
        <ele>38</ele>
        <time>2022-05-24T10:51:36Z</time>
      </trkpt>
      <trkpt lat="39.81077047383983" lon="116.42806127745305">
        <ele>38</ele>
        <time>2022-05-24T10:51:37Z</time>
      </trkpt>
    </trkseg>
  </trk>
</gpx>