<?xml version="1.0" encoding="UTF-8"?>
<gpx xmlns="http://www.topografix.com/GPX/1/1" xmlns:gpxtpx="http://www.garmin.com/xmlschemas/TrackPointExtension/v1" xmlns:xsi="http://www.w3.org/2001/XMLSchema-instance" xsi:schemaLocation="http://www.topografix.com/GPX/1/1 http://www.topografix.com/GPX/1/1/gpx.xsd" version="1.1" creator="gpx.py -- https://github.com/tkrajina/gpxpy">
  <trk>
    <name>gpx from codoon</name>
    <type>Run</type>
    <trkseg>
      <trkpt lat="39.79187098570021" lon="116.48065316506764">
        <ele>24.5</ele>
        <time>2022-08-04T11:37:14Z</time>
      </trkpt>
      <trkpt lat="39.79183895327973" lon="116.48065667737286">
        <ele>24.5</ele>
        <time>2022-08-04T11:37:15Z</time>
      </trkpt>
      <trkpt lat="39.79180316488534" lon="116.480659617373">
        <ele>24.5</ele>
        <time>2022-08-04T11:37:16Z</time>
      </trkpt>
      <trkpt lat="39.79176499132625" lon="116.48066369487198">
        <ele>24.5</ele>
        <time>2022-08-04T11:37:17Z</time>
      </trkpt>
      <trkpt lat="39.791722538281995" lon="116.48066938168908">
        <ele>24.5</ele>
        <time>2022-08-04T11:37:18Z</time>
      </trkpt>
      <trkpt lat="39.79167646703864" lon="116.48068541283915">
        <ele>24.5</ele>
        <time>2022-08-04T11:37:19Z</time>
      </trkpt>
      <trkpt lat="39.791635873044825" lon="116.48069307896284">
        <ele>25.1</ele>
        <time>2022-08-04T11:37:20Z</time>
      </trkpt>
      <trkpt lat="39.79159426090277" lon="116.4807009306151">
        <ele>25.1</ele>
        <time>2022-08-04T11:37:21Z</time>
      </trkpt>
      <trkpt lat="39.79155217626701" lon="116.48070902680806">
        <ele>25.1</ele>
        <time>2022-08-04T11:37:22Z</time>
      </trkpt>
      <trkpt lat="39.7915097063959" lon="116.48071726957083">
        <ele>25.1</ele>
        <time>2022-08-04T11:37:23Z</time>
      </trkpt>
      <trkpt lat="39.79146748335871" lon="116.4807258511959">
        <ele>25.1</ele>
        <time>2022-08-04T11:37:24Z</time>
      </trkpt>
      <trkpt lat="39.791425606903054" lon="116.48073459270883">
        <ele>25.1</ele>
        <time>2022-08-04T11:37:25Z</time>
      </trkpt>
      <trkpt lat="39.79138410862165" lon="116.48074334459517">
        <ele>25.1</ele>
        <time>2022-08-04T11:37:26Z</time>
      </trkpt>
      <trkpt lat="39.79134307757315" lon="116.48075255259344">
        <ele>25.1</ele>
        <time>2022-08-04T11:37:27Z</time>
      </trkpt>
      <trkpt lat="39.791302596531395" lon="116.48076260317964">
        <ele>25.1</ele>
        <time>2022-08-04T11:37:28Z</time>
      </trkpt>
      <trkpt lat="39.79126278977295" lon="116.48077401668712">
        <ele>25.1</ele>
        <time>2022-08-04T11:37:29Z</time>
      </trkpt>
      <trkpt lat="39.791223906601424" lon="116.48078744919542">
        <ele>24.9</ele>
        <time>2022-08-04T11:37:30Z</time>
      </trkpt>
      <trkpt lat="39.79118614178055" lon="116.48080324325814">
        <ele>24.9</ele>
        <time>2022-08-04T11:37:31Z</time>
      </trkpt>
      <trkpt lat="39.79114977285419" lon="116.48082195092037">
        <ele>24.9</ele>
        <time>2022-08-04T11:37:32Z</time>
      </trkpt>
      <trkpt lat="39.791115010907305" lon="116.48084369132897">
        <ele>24.9</ele>
        <time>2022-08-04T11:37:33Z</time>
      </trkpt>
      <trkpt lat="39.791082170290466" lon="116.48086891190776">
        <ele>24.9</ele>
        <time>2022-08-04T11:37:34Z</time>
      </trkpt>
      <trkpt lat="39.79105142187196" lon="116.48089728486363">
        <ele>24.9</ele>
        <time>2022-08-04T11:37:35Z</time>
      </trkpt>
      <trkpt lat="39.7910228812091" lon="116.48092911032839">
        <ele>24.9</ele>
        <time>2022-08-04T11:37:36Z</time>
      </trkpt>
      <trkpt lat="39.79099719482224" lon="116.48096427452927">
        <ele>24.9</ele>
        <time>2022-08-04T11:37:37Z</time>
      </trkpt>
      <trkpt lat="39.79097447820364" lon="116.48100251679344">
        <ele>24.9</ele>
        <time>2022-08-04T11:37:38Z</time>
      </trkpt>
      <trkpt lat="39.790955261440914" lon="116.4810432331029">
        <ele>24.9</ele>
        <time>2022-08-04T11:37:39Z</time>
      </trkpt>
      <trkpt lat="39.790939546331295" lon="116.48108595861638">
        <ele>24.9</ele>
        <time>2022-08-04T11:37:40Z</time>
      </trkpt>
      <trkpt lat="39.79092729212656" lon="116.48113043111647">
        <ele>24.9</ele>
        <time>2022-08-04T11:37:41Z</time>
      </trkpt>
      <trkpt lat="39.79091863225126" lon="116.48117623886709">
        <ele>24.9</ele>
        <time>2022-08-04T11:37:42Z</time>
      </trkpt>
      <trkpt lat="39.79091372097732" lon="116.48122306479881">
        <ele>24.9</ele>
        <time>2022-08-04T11:37:43Z</time>
      </trkpt>
      <trkpt lat="39.790912367589485" lon="116.48127044439313">
        <ele>24.9</ele>
        <time>2022-08-04T11:37:44Z</time>
      </trkpt>
      <trkpt lat="39.79091466892583" lon="116.48131748497785">
        <ele>24.9</ele>
        <time>2022-08-04T11:37:45Z</time>
      </trkpt>
      <trkpt lat="39.790920661140255" lon="116.4813640488392">
        <ele>24.9</ele>
        <time>2022-08-04T11:37:46Z</time>
      </trkpt>
      <trkpt lat="39.79093027890523" lon="116.48140911220067">
        <ele>24.9</ele>
        <time>2022-08-04T11:37:47Z</time>
      </trkpt>
      <trkpt lat="39.790943511834875" lon="116.4814524059783">
        <ele>24.9</ele>
        <time>2022-08-04T11:37:48Z</time>
      </trkpt>
      <trkpt lat="39.79096000498391" lon="116.48149310169156">
        <ele>24.9</ele>
        <time>2022-08-04T11:37:49Z</time>
      </trkpt>
      <trkpt lat="39.790979647639695" lon="116.48153113301791">
        <ele>24.5</ele>
        <time>2022-08-04T11:37:50Z</time>
      </trkpt>
      <trkpt lat="39.79100206241178" lon="116.48156624744175">
        <ele>24.5</ele>
        <time>2022-08-04T11:37:51Z</time>
      </trkpt>
      <trkpt lat="39.791027459586914" lon="116.48159790858439">
        <ele>24.5</ele>
        <time>2022-08-04T11:37:52Z</time>
      </trkpt>
      <trkpt lat="39.791055206001694" lon="116.48162596756308">
        <ele>24.5</ele>
        <time>2022-08-04T11:37:53Z</time>
      </trkpt>
      <trkpt lat="39.79108490570751" lon="116.48164990033317">
        <ele>24.5</ele>
        <time>2022-08-04T11:37:54Z</time>
      </trkpt>
      <trkpt lat="39.79111657100406" lon="116.48166979313761">
        <ele>24</ele>
        <time>2022-08-04T11:37:55Z</time>
      </trkpt>
      <trkpt lat="39.79114974142502" lon="116.48168578929211">
        <ele>24</ele>
        <time>2022-08-04T11:37:56Z</time>
      </trkpt>
      <trkpt lat="39.791184118552856" lon="116.48169772216642">
        <ele>24</ele>
        <time>2022-08-04T11:37:57Z</time>
      </trkpt>
      <trkpt lat="39.79121927347822" lon="116.48170601446425">
        <ele>24</ele>
        <time>2022-08-04T11:37:58Z</time>
      </trkpt>
      <trkpt lat="39.79125457735355" lon="116.48171104345701">
        <ele>24</ele>
        <time>2022-08-04T11:37:59Z</time>
      </trkpt>
      <trkpt lat="39.79129030188439" lon="116.48171319820186">
        <ele>24.4</ele>
        <time>2022-08-04T11:38:00Z</time>
      </trkpt>
      <trkpt lat="39.79132600740076" lon="116.48171289297247">
        <ele>24.4</ele>
        <time>2022-08-04T11:38:01Z</time>
      </trkpt>
      <trkpt lat="39.79136202012677" lon="116.48171064812708">
        <ele>24.4</ele>
        <time>2022-08-04T11:38:02Z</time>
      </trkpt>
      <trkpt lat="39.79139792956943" lon="116.48170690436508">
        <ele>24.4</ele>
        <time>2022-08-04T11:38:03Z</time>
      </trkpt>
      <trkpt lat="39.79143373750508" lon="116.48170207728813">
        <ele>24.4</ele>
        <time>2022-08-04T11:38:04Z</time>
      </trkpt>
      <trkpt lat="39.7914694578148" lon="116.48169647959416">
        <ele>24.4</ele>
        <time>2022-08-04T11:38:05Z</time>
      </trkpt>
      <trkpt lat="39.79150507804882" lon="116.48169027341233">
        <ele>24.4</ele>
        <time>2022-08-04T11:38:06Z</time>
      </trkpt>
      <trkpt lat="39.79154061514376" lon="116.4816837187773">
        <ele>24.4</ele>
        <time>2022-08-04T11:38:07Z</time>
      </trkpt>
      <trkpt lat="39.7915760949804" lon="116.48167701650544">
        <ele>24.4</ele>
        <time>2022-08-04T11:38:08Z</time>
      </trkpt>
      <trkpt lat="39.79161150850232" lon="116.48167037942022">
        <ele>24.4</ele>
        <time>2022-08-04T11:38:09Z</time>
      </trkpt>
      <trkpt lat="39.7916468842169" lon="116.48166380726595">
        <ele>25.3</ele>
        <time>2022-08-04T11:38:10Z</time>
      </trkpt>
      <trkpt lat="39.79168213284136" lon="116.4816573518789">
        <ele>25.3</ele>
        <time>2022-08-04T11:38:11Z</time>
      </trkpt>
      <trkpt lat="39.791717224232904" lon="116.48165092634805">
        <ele>25.3</ele>
        <time>2022-08-04T11:38:12Z</time>
      </trkpt>
      <trkpt lat="39.791752120717035" lon="116.48164436462297">
        <ele>25.3</ele>
        <time>2022-08-04T11:38:13Z</time>
      </trkpt>
      <trkpt lat="39.79178681938156" lon="116.48163755207553">
        <ele>25.3</ele>
        <time>2022-08-04T11:38:14Z</time>
      </trkpt>
      <trkpt lat="39.791821318963976" lon="116.48163046256163">
        <ele>25.3</ele>
        <time>2022-08-04T11:38:15Z</time>
      </trkpt>
      <trkpt lat="39.7918559654718" lon="116.48162305632988">
        <ele>25.3</ele>
        <time>2022-08-04T11:38:16Z</time>
      </trkpt>
      <trkpt lat="39.79189030584665" lon="116.48161548503312">
        <ele>25.3</ele>
        <time>2022-08-04T11:38:17Z</time>
      </trkpt>
      <trkpt lat="39.7919247605385" lon="116.48160753203184">
        <ele>25.3</ele>
        <time>2022-08-04T11:38:18Z</time>
      </trkpt>
      <trkpt lat="39.79195895388004" lon="116.48159911101123">
        <ele>25.3</ele>
        <time>2022-08-04T11:38:19Z</time>
      </trkpt>
      <trkpt lat="39.791992930936466" lon="116.48158998830141">
        <ele>25.5</ele>
        <time>2022-08-04T11:38:20Z</time>
      </trkpt>
      <trkpt lat="39.7920266564506" lon="116.48157990114643">
        <ele>25.5</ele>
        <time>2022-08-04T11:38:21Z</time>
      </trkpt>
      <trkpt lat="39.79206001185992" lon="116.48156842242915">
        <ele>25.5</ele>
        <time>2022-08-04T11:38:22Z</time>
      </trkpt>
      <trkpt lat="39.79209284224826" lon="116.48155526537886">
        <ele>25.5</ele>
        <time>2022-08-04T11:38:23Z</time>
      </trkpt>
      <trkpt lat="39.79212490868881" lon="116.48154004582258">
        <ele>25.5</ele>
        <time>2022-08-04T11:38:24Z</time>
      </trkpt>
      <trkpt lat="39.79215602826082" lon="116.4815225964769">
        <ele>25.5</ele>
        <time>2022-08-04T11:38:25Z</time>
      </trkpt>
      <trkpt lat="39.792185985219355" lon="116.48150276567206">
        <ele>25.5</ele>
        <time>2022-08-04T11:38:26Z</time>
      </trkpt>
      <trkpt lat="39.79221436001116" lon="116.4814801444033">
        <ele>25.5</ele>
        <time>2022-08-04T11:38:27Z</time>
      </trkpt>
      <trkpt lat="39.79224100105946" lon="116.48145466476535">
        <ele>25.5</ele>
        <time>2022-08-04T11:38:28Z</time>
      </trkpt>
      <trkpt lat="39.79226544674163" lon="116.48142617981654">
        <ele>25.5</ele>
        <time>2022-08-04T11:38:29Z</time>
      </trkpt>
      <trkpt lat="39.79228756821503" lon="116.48139499508153">
        <ele>24.7</ele>
        <time>2022-08-04T11:38:30Z</time>
      </trkpt>
      <trkpt lat="39.79230732355988" lon="116.48136100007552">
        <ele>24.7</ele>
        <time>2022-08-04T11:38:31Z</time>
      </trkpt>
      <trkpt lat="39.792324646386724" lon="116.48132466016956">
        <ele>24.7</ele>
        <time>2022-08-04T11:38:32Z</time>
      </trkpt>
      <trkpt lat="39.79233919324758" lon="116.48128664028188">
        <ele>24.7</ele>
        <time>2022-08-04T11:38:33Z</time>
      </trkpt>
      <trkpt lat="39.79235103582425" lon="116.48124688339688">
        <ele>24.7</ele>
        <time>2022-08-04T11:38:34Z</time>
      </trkpt>
      <trkpt lat="39.79236017548793" lon="116.48120571481304">
        <ele>24.7</ele>
        <time>2022-08-04T11:38:35Z</time>
      </trkpt>
      <trkpt lat="39.79236641679954" lon="116.48116359080343">
        <ele>24.7</ele>
        <time>2022-08-04T11:38:36Z</time>
      </trkpt>
      <trkpt lat="39.79236982262946" lon="116.48112098368298">
        <ele>24.7</ele>
        <time>2022-08-04T11:38:37Z</time>
      </trkpt>
      <trkpt lat="39.79237021306666" lon="116.4810782972599">
        <ele>24.7</ele>
        <time>2022-08-04T11:38:38Z</time>
      </trkpt>
      <trkpt lat="39.79236773497836" lon="116.48103603869333">
        <ele>24.7</ele>
        <time>2022-08-04T11:38:39Z</time>
      </trkpt>
      <trkpt lat="39.792362218491796" lon="116.48099470884712">
        <ele>24.4</ele>
        <time>2022-08-04T11:38:40Z</time>
      </trkpt>
      <trkpt lat="39.79235394320315" lon="116.48095459906916">
        <ele>24.4</ele>
        <time>2022-08-04T11:38:41Z</time>
      </trkpt>
      <trkpt lat="39.79234307043747" lon="116.48091632032269">
        <ele>24.4</ele>
        <time>2022-08-04T11:38:42Z</time>
      </trkpt>
      <trkpt lat="39.792329520680596" lon="116.48087972614358">
        <ele>24.4</ele>
        <time>2022-08-04T11:38:43Z</time>
      </trkpt>
      <trkpt lat="39.79231354139011" lon="116.48084498699022">
        <ele>24.4</ele>
        <time>2022-08-04T11:38:44Z</time>
      </trkpt>
      <trkpt lat="39.792295042876404" lon="116.48081255196695">
        <ele>24.4</ele>
        <time>2022-08-04T11:38:45Z</time>
      </trkpt>
      <trkpt lat="39.79227410398839" lon="116.48078299039436">
        <ele>24.4</ele>
        <time>2022-08-04T11:38:46Z</time>
      </trkpt>
      <trkpt lat="39.792251012127714" lon="116.48075631006243">
        <ele>24.4</ele>
        <time>2022-08-04T11:38:47Z</time>
      </trkpt>
      <trkpt lat="39.79222618439284" lon="116.48073259410309">
        <ele>24.4</ele>
        <time>2022-08-04T11:38:48Z</time>
      </trkpt>
      <trkpt lat="39.792200120918906" lon="116.48071202461296">
        <ele>24.4</ele>
        <time>2022-08-04T11:38:49Z</time>
      </trkpt>
      <trkpt lat="39.792173208360836" lon="116.48069461582088">
        <ele>25</ele>
        <time>2022-08-04T11:38:50Z</time>
      </trkpt>
      <trkpt lat="39.79214841598608" lon="116.48066275953414">
        <ele>25</ele>
        <time>2022-08-04T11:38:51Z</time>
      </trkpt>
      <trkpt lat="39.792116547944126" lon="116.48065161388358">
        <ele>25</ele>
        <time>2022-08-04T11:38:52Z</time>
      </trkpt>
      <trkpt lat="39.79208625893292" lon="116.48064498587732">
        <ele>25</ele>
        <time>2022-08-04T11:38:53Z</time>
      </trkpt>
      <trkpt lat="39.7920575885801" lon="116.48063948337217">
        <ele>25</ele>
        <time>2022-08-04T11:38:54Z</time>
      </trkpt>
    </trkseg>
  </trk>
</gpx>