<?xml version="1.0" encoding="UTF-8"?>
<gpx xmlns="http://www.topografix.com/GPX/1/1" xmlns:gpxtpx="http://www.garmin.com/xmlschemas/TrackPointExtension/v1" xmlns:xsi="http://www.w3.org/2001/XMLSchema-instance" xsi:schemaLocation="http://www.topografix.com/GPX/1/1 http://www.topografix.com/GPX/1/1/gpx.xsd" version="1.1" creator="gpx.py -- https://github.com/tkrajina/gpxpy">
  <trk>
    <name>gpx from codoon</name>
    <type>Run</type>
    <trkseg>
      <trkpt lat="39.79295539810242" lon="116.47008088727769">
        <ele>35</ele>
        <time>2022-08-11T11:18:49Z</time>
      </trkpt>
      <trkpt lat="39.792962722672804" lon="116.47006969052377">
        <ele>35</ele>
        <time>2022-08-11T11:18:50Z</time>
      </trkpt>
      <trkpt lat="39.79297163753236" lon="116.47005348340565">
        <ele>35</ele>
        <time>2022-08-11T11:18:51Z</time>
      </trkpt>
      <trkpt lat="39.79298239895482" lon="116.47003461610109">
        <ele>35</ele>
        <time>2022-08-11T11:18:52Z</time>
      </trkpt>
      <trkpt lat="39.79299440291303" lon="116.47001378102115">
        <ele>35</ele>
        <time>2022-08-11T11:18:53Z</time>
      </trkpt>
      <trkpt lat="39.79301233540932" lon="116.46998007454766">
        <ele>35</ele>
        <time>2022-08-11T11:18:54Z</time>
      </trkpt>
      <trkpt lat="39.79302484685107" lon="116.46995685072855">
        <ele>35</ele>
        <time>2022-08-11T11:18:55Z</time>
      </trkpt>
      <trkpt lat="39.793037758732844" lon="116.4699322889645">
        <ele>35</ele>
        <time>2022-08-11T11:18:56Z</time>
      </trkpt>
      <trkpt lat="39.79305106074839" lon="116.4699065761764">
        <ele>35</ele>
        <time>2022-08-11T11:18:57Z</time>
      </trkpt>
      <trkpt lat="39.79306445502003" lon="116.46988014202468">
        <ele>35</ele>
        <time>2022-08-11T11:18:58Z</time>
      </trkpt>
      <trkpt lat="39.79307783640711" lon="116.4698534489132">
        <ele>34</ele>
        <time>2022-08-11T11:18:59Z</time>
      </trkpt>
      <trkpt lat="39.793090924089604" lon="116.46982665453798">
        <ele>34.3</ele>
        <time>2022-08-11T11:19:00Z</time>
      </trkpt>
      <trkpt lat="39.79310366820976" lon="116.4697999449192">
        <ele>34.3</ele>
        <time>2022-08-11T11:19:01Z</time>
      </trkpt>
      <trkpt lat="39.79311601057962" lon="116.46977340202983">
        <ele>34.3</ele>
        <time>2022-08-11T11:19:02Z</time>
      </trkpt>
      <trkpt lat="39.79312778853538" lon="116.46974735465592">
        <ele>34.3</ele>
        <time>2022-08-11T11:19:03Z</time>
      </trkpt>
      <trkpt lat="39.79313915818487" lon="116.46972119602714">
        <ele>34.3</ele>
        <time>2022-08-11T11:19:04Z</time>
      </trkpt>
      <trkpt lat="39.793149929679146" lon="116.4696952541646">
        <ele>34.3</ele>
        <time>2022-08-11T11:19:05Z</time>
      </trkpt>
      <trkpt lat="39.793160231335136" lon="116.46966952060652">
        <ele>34.3</ele>
        <time>2022-08-11T11:19:06Z</time>
      </trkpt>
      <trkpt lat="39.793170212612026" lon="116.46964348303486">
        <ele>34.3</ele>
        <time>2022-08-11T11:19:07Z</time>
      </trkpt>
      <trkpt lat="39.79317963455083" lon="116.46961762368402">
        <ele>34.3</ele>
        <time>2022-08-11T11:19:08Z</time>
      </trkpt>
      <trkpt lat="39.7931885342495" lon="116.46959190520819">
        <ele>34.7</ele>
        <time>2022-08-11T11:19:09Z</time>
      </trkpt>
      <trkpt lat="39.793196947305866" lon="116.46956576936391">
        <ele>34.7</ele>
        <time>2022-08-11T11:19:10Z</time>
      </trkpt>
      <trkpt lat="39.793204798809924" lon="116.4695397585089">
        <ele>34.7</ele>
        <time>2022-08-11T11:19:11Z</time>
      </trkpt>
      <trkpt lat="39.793212260700436" lon="116.46951350590061">
        <ele>34.7</ele>
        <time>2022-08-11T11:19:12Z</time>
      </trkpt>
      <trkpt lat="39.79321937116432" lon="116.4694871611418">
        <ele>34.7</ele>
        <time>2022-08-11T11:19:13Z</time>
      </trkpt>
      <trkpt lat="39.79322611562193" lon="116.46946087735785">
        <ele>34.7</ele>
        <time>2022-08-11T11:19:14Z</time>
      </trkpt>
      <trkpt lat="39.793232473994166" lon="116.46943531092379">
        <ele>34.7</ele>
        <time>2022-08-11T11:19:15Z</time>
      </trkpt>
      <trkpt lat="39.7932385967605" lon="116.46941020633916">
        <ele>34.7</ele>
        <time>2022-08-11T11:19:16Z</time>
      </trkpt>
      <trkpt lat="39.793244515890095" lon="116.46938584568598">
        <ele>34.7</ele>
        <time>2022-08-11T11:19:17Z</time>
      </trkpt>
      <trkpt lat="39.79325007413161" lon="116.46936280989627">
        <ele>34.7</ele>
        <time>2022-08-11T11:19:18Z</time>
      </trkpt>
      <trkpt lat="39.79325534398599" lon="116.46934113471205">
        <ele>33.6</ele>
        <time>2022-08-11T11:19:19Z</time>
      </trkpt>
      <trkpt lat="39.79326031530155" lon="116.46932097495454">
        <ele>33.6</ele>
        <time>2022-08-11T11:19:20Z</time>
      </trkpt>
      <trkpt lat="39.79326482084734" lon="116.46930286994424">
        <ele>33.6</ele>
        <time>2022-08-11T11:19:21Z</time>
      </trkpt>
      <trkpt lat="39.79326889562629" lon="116.4692867225125">
        <ele>33.6</ele>
        <time>2022-08-11T11:19:22Z</time>
      </trkpt>
      <trkpt lat="39.793272432688205" lon="116.46927303673496">
        <ele>33.6</ele>
        <time>2022-08-11T11:19:23Z</time>
      </trkpt>
      <trkpt lat="39.793275505180354" lon="116.46926155410426">
        <ele>33.6</ele>
        <time>2022-08-11T11:19:24Z</time>
      </trkpt>
      <trkpt lat="39.79327812056148" lon="116.46925218142376">
        <ele>33.6</ele>
        <time>2022-08-11T11:19:25Z</time>
      </trkpt>
      <trkpt lat="39.7932802626199" lon="116.46924471554554">
        <ele>33.6</ele>
        <time>2022-08-11T11:19:26Z</time>
      </trkpt>
      <trkpt lat="39.7932818825639" lon="116.46923927923454">
        <ele>33.6</ele>
        <time>2022-08-11T11:19:27Z</time>
      </trkpt>
      <trkpt lat="39.79328299990219" lon="116.46923551145217">
        <ele>33.6</ele>
        <time>2022-08-11T11:19:28Z</time>
      </trkpt>
      <trkpt lat="39.79328370645078" lon="116.46923317520377">
        <ele>33</ele>
        <time>2022-08-11T11:19:29Z</time>
      </trkpt>
      <trkpt lat="39.79328404346412" lon="116.46923198906076">
        <ele>33</ele>
        <time>2022-08-11T11:19:30Z</time>
      </trkpt>
      <trkpt lat="39.793284116226474" lon="116.46923163913866">
        <ele>33</ele>
        <time>2022-08-11T11:19:31Z</time>
      </trkpt>
      <trkpt lat="39.79328404755809" lon="116.46923186330035">
        <ele>33</ele>
        <time>2022-08-11T11:19:32Z</time>
      </trkpt>
      <trkpt lat="39.79328386907734" lon="116.46923251178939">
        <ele>33</ele>
        <time>2022-08-11T11:19:33Z</time>
      </trkpt>
      <trkpt lat="39.79328366701384" lon="116.46923326445527">
        <ele>33</ele>
        <time>2022-08-11T11:19:34Z</time>
      </trkpt>
      <trkpt lat="39.793283445655575" lon="116.46923409147543">
        <ele>33</ele>
        <time>2022-08-11T11:19:35Z</time>
      </trkpt>
      <trkpt lat="39.793283245611356" lon="116.4692348439297">
        <ele>33</ele>
        <time>2022-08-11T11:19:36Z</time>
      </trkpt>
      <trkpt lat="39.79328307236781" lon="116.46923549896304">
        <ele>33</ele>
        <time>2022-08-11T11:19:37Z</time>
      </trkpt>
      <trkpt lat="39.79328292602263" lon="116.46923605475428">
        <ele>33</ele>
        <time>2022-08-11T11:19:38Z</time>
      </trkpt>
      <trkpt lat="39.79328280535362" lon="116.46923651505158">
        <ele>32.8</ele>
        <time>2022-08-11T11:19:39Z</time>
      </trkpt>
      <trkpt lat="39.793282707257454" lon="116.46923689107523">
        <ele>32.8</ele>
        <time>2022-08-11T11:19:40Z</time>
      </trkpt>
      <trkpt lat="39.793282623059895" lon="116.46923721338821">
        <ele>32.8</ele>
        <time>2022-08-11T11:19:41Z</time>
      </trkpt>
      <trkpt lat="39.79328255114707" lon="116.46923748818604">
        <ele>32.8</ele>
        <time>2022-08-11T11:19:42Z</time>
      </trkpt>
      <trkpt lat="39.79328249285691" lon="116.46923771193184">
        <ele>32.8</ele>
        <time>2022-08-11T11:19:43Z</time>
      </trkpt>
      <trkpt lat="39.793282446045545" lon="116.46923789275617">
        <ele>32.8</ele>
        <time>2022-08-11T11:19:44Z</time>
      </trkpt>
      <trkpt lat="39.79328240657607" lon="116.46923804518035">
        <ele>32.8</ele>
        <time>2022-08-11T11:19:45Z</time>
      </trkpt>
      <trkpt lat="39.7932823744037" lon="116.4692381699036">
        <ele>32.8</ele>
        <time>2022-08-11T11:19:46Z</time>
      </trkpt>
      <trkpt lat="39.79328234871387" lon="116.46923827064158">
        <ele>32.8</ele>
        <time>2022-08-11T11:19:47Z</time>
      </trkpt>
      <trkpt lat="39.79328232788933" lon="116.46923835349224">
        <ele>32.8</ele>
        <time>2022-08-11T11:19:48Z</time>
      </trkpt>
      <trkpt lat="39.793282295370396" lon="116.46923841525428">
        <ele>32.8</ele>
        <time>2022-08-11T11:19:49Z</time>
      </trkpt>
      <trkpt lat="39.79328215758232" lon="116.46923840175889">
        <ele>32.8</ele>
        <time>2022-08-11T11:19:50Z</time>
      </trkpt>
      <trkpt lat="39.793281768832294" lon="116.46923823255025">
        <ele>32.8</ele>
        <time>2022-08-11T11:19:51Z</time>
      </trkpt>
      <trkpt lat="39.79328099783348" lon="116.46923783603283">
        <ele>32.8</ele>
        <time>2022-08-11T11:19:52Z</time>
      </trkpt>
      <trkpt lat="39.79327992891977" lon="116.46923726501888">
        <ele>32.8</ele>
        <time>2022-08-11T11:19:53Z</time>
      </trkpt>
      <trkpt lat="39.79327865625175" lon="116.46923656939244">
        <ele>32.8</ele>
        <time>2022-08-11T11:19:54Z</time>
      </trkpt>
      <trkpt lat="39.79327723379005" lon="116.4692357845869">
        <ele>32.8</ele>
        <time>2022-08-11T11:19:55Z</time>
      </trkpt>
      <trkpt lat="39.79327570729681" lon="116.46923493663799">
        <ele>32.8</ele>
        <time>2022-08-11T11:19:56Z</time>
      </trkpt>
      <trkpt lat="39.79327411282908" lon="116.46923404322465">
        <ele>32.8</ele>
        <time>2022-08-11T11:19:57Z</time>
      </trkpt>
      <trkpt lat="39.79327246761693" lon="116.46923312050782">
        <ele>32.8</ele>
        <time>2022-08-11T11:19:58Z</time>
      </trkpt>
      <trkpt lat="39.79327079137839" lon="116.46923217716011">
        <ele>32</ele>
        <time>2022-08-11T11:19:59Z</time>
      </trkpt>
      <trkpt lat="39.79326910681516" lon="116.4692312249189">
        <ele>32.8</ele>
        <time>2022-08-11T11:20:00Z</time>
      </trkpt>
      <trkpt lat="39.79326754293791" lon="116.46923030311886">
        <ele>32.8</ele>
        <time>2022-08-11T11:20:01Z</time>
      </trkpt>
      <trkpt lat="39.79326628795305" lon="116.46922938086561">
        <ele>32.8</ele>
        <time>2022-08-11T11:20:02Z</time>
      </trkpt>
      <trkpt lat="39.7932654313396" lon="116.46922878759695">
        <ele>32.8</ele>
        <time>2022-08-11T11:20:03Z</time>
      </trkpt>
      <trkpt lat="39.79326500690745" lon="116.46922791760745">
        <ele>32.8</ele>
        <time>2022-08-11T11:20:04Z</time>
      </trkpt>
      <trkpt lat="39.79326356369969" lon="116.46922807351594">
        <ele>32.8</ele>
        <time>2022-08-11T11:20:05Z</time>
      </trkpt>
      <trkpt lat="39.79326369764696" lon="116.4692277183584">
        <ele>32.8</ele>
        <time>2022-08-11T11:20:06Z</time>
      </trkpt>
      <trkpt lat="39.79326429995552" lon="116.469226135577">
        <ele>32.8</ele>
        <time>2022-08-11T11:20:07Z</time>
      </trkpt>
      <trkpt lat="39.79326444664783" lon="116.46922737305123">
        <ele>32.8</ele>
        <time>2022-08-11T11:20:08Z</time>
      </trkpt>
    </trkseg>
  </trk>
</gpx>