<?xml version="1.0" encoding="UTF-8"?>
<gpx xmlns="http://www.topografix.com/GPX/1/1" xmlns:gpxtpx="http://www.garmin.com/xmlschemas/TrackPointExtension/v1" xmlns:xsi="http://www.w3.org/2001/XMLSchema-instance" xsi:schemaLocation="http://www.topografix.com/GPX/1/1 http://www.topografix.com/GPX/1/1/gpx.xsd" version="1.1" creator="gpx.py -- https://github.com/tkrajina/gpxpy">
  <trk>
    <name>gpx from codoon</name>
    <type>Run</type>
    <trkseg>
      <trkpt lat="39.79272" lon="116.47885">
        <ele>40.14343</ele>
        <time>2014-08-12T11:54:34.562000Z</time>
      </trkpt>
      <trkpt lat="39.79289" lon="116.47897">
        <ele>32.12512</ele>
        <time>2014-08-12T11:54:45.151000Z</time>
      </trkpt>
      <trkpt lat="39.79295" lon="116.47905">
        <ele>36.36584</ele>
        <time>2014-08-12T11:54:50.151000Z</time>
      </trkpt>
      <trkpt lat="39.79303" lon="116.47914">
        <ele>37.22467</ele>
        <time>2014-08-12T11:54:55.166000Z</time>
      </trkpt>
      <trkpt lat="39.79311" lon="116.4792">
        <ele>38.49359</ele>
        <time>2014-08-12T11:55:00.160000Z</time>
      </trkpt>
      <trkpt lat="39.79317" lon="116.4793">
        <ele>40.69409</ele>
        <time>2014-08-12T11:55:06.162000Z</time>
      </trkpt>
      <trkpt lat="39.79324" lon="116.47939">
        <ele>36.82849</ele>
        <time>2014-08-12T11:55:11.189000Z</time>
      </trkpt>
      <trkpt lat="39.79329" lon="116.47951">
        <ele>37.98187</ele>
        <time>2014-08-12T11:55:17.140000Z</time>
      </trkpt>
      <trkpt lat="39.79333" lon="116.47962">
        <ele>38.06464</ele>
        <time>2014-08-12T11:55:22.149000Z</time>
      </trkpt>
      <trkpt lat="39.79338" lon="116.47973">
        <ele>41.63159</ele>
        <time>2014-08-12T11:55:28.194000Z</time>
      </trkpt>
      <trkpt lat="39.79343" lon="116.47984">
        <ele>44.20947</ele>
        <time>2014-08-12T11:55:33.131000Z</time>
      </trkpt>
      <trkpt lat="39.79348" lon="116.47995">
        <ele>41.83014</ele>
        <time>2014-08-12T11:55:40.142000Z</time>
      </trkpt>
      <trkpt lat="39.79353" lon="116.48005">
        <ele>41.68274</ele>
        <time>2014-08-12T11:55:46.130000Z</time>
      </trkpt>
      <trkpt lat="39.79358" lon="116.48016">
        <ele>42.14185</ele>
        <time>2014-08-12T11:55:51.173000Z</time>
      </trkpt>
      <trkpt lat="39.79362" lon="116.48027">
        <ele>39.93054</ele>
        <time>2014-08-12T11:55:55.131000Z</time>
      </trkpt>
      <trkpt lat="39.79366" lon="116.4804">
        <ele>39.5224</ele>
        <time>2014-08-12T11:56:00.162000Z</time>
      </trkpt>
      <trkpt lat="39.79371" lon="116.48051">
        <ele>40.34113</ele>
        <time>2014-08-12T11:56:05.203000Z</time>
      </trkpt>
      <trkpt lat="39.79375" lon="116.48061">
        <ele>43.18774</ele>
        <time>2014-08-12T11:56:10.198000Z</time>
      </trkpt>
      <trkpt lat="39.79383" lon="116.48071">
        <ele>44.72772</ele>
        <time>2014-08-12T11:56:15.192000Z</time>
      </trkpt>
      <trkpt lat="39.79389" lon="116.48081">
        <ele>41.84924</ele>
        <time>2014-08-12T11:56:20.149000Z</time>
      </trkpt>
      <trkpt lat="39.79395" lon="116.48092">
        <ele>43.20502</ele>
        <time>2014-08-12T11:56:25.190000Z</time>
      </trkpt>
      <trkpt lat="39.794" lon="116.48103">
        <ele>43.79077</ele>
        <time>2014-08-12T11:56:30.129000Z</time>
      </trkpt>
      <trkpt lat="39.79406" lon="116.48115">
        <ele>43.16479</ele>
        <time>2014-08-12T11:56:36.135000Z</time>
      </trkpt>
      <trkpt lat="39.79413" lon="116.48124">
        <ele>42.0282</ele>
        <time>2014-08-12T11:56:41.128000Z</time>
      </trkpt>
      <trkpt lat="39.79418" lon="116.48135">
        <ele>41.47998</ele>
        <time>2014-08-12T11:56:45.178000Z</time>
      </trkpt>
      <trkpt lat="39.79423" lon="116.48145">
        <ele>39.59888</ele>
        <time>2014-08-12T11:56:49.188000Z</time>
      </trkpt>
      <trkpt lat="39.79429" lon="116.48155">
        <ele>40.6488</ele>
        <time>2014-08-12T11:56:53.153000Z</time>
      </trkpt>
      <trkpt lat="39.79434" lon="116.48167">
        <ele>40.83276</ele>
        <time>2014-08-12T11:56:58.172000Z</time>
      </trkpt>
      <trkpt lat="39.79439" lon="116.48177">
        <ele>42.74036</ele>
        <time>2014-08-12T11:57:03.188000Z</time>
      </trkpt>
      <trkpt lat="39.79444" lon="116.48189">
        <ele>44.64746</ele>
        <time>2014-08-12T11:57:10.219000Z</time>
      </trkpt>
      <trkpt lat="39.7945" lon="116.48201">
        <ele>47.0816</ele>
        <time>2014-08-12T11:57:15.152000Z</time>
      </trkpt>
      <trkpt lat="39.79455" lon="116.48213">
        <ele>45.5827</ele>
        <time>2014-08-12T11:57:20.186000Z</time>
      </trkpt>
      <trkpt lat="39.7946" lon="116.48224">
        <ele>46.0174</ele>
        <time>2014-08-12T11:57:24.140000Z</time>
      </trkpt>
      <trkpt lat="39.79466" lon="116.48235">
        <ele>45.1814</ele>
        <time>2014-08-12T11:57:28.149000Z</time>
      </trkpt>
      <trkpt lat="39.7947" lon="116.48245">
        <ele>42.58704</ele>
        <time>2014-08-12T11:57:32.134000Z</time>
      </trkpt>
      <trkpt lat="39.79476" lon="116.48254">
        <ele>43.12213</ele>
        <time>2014-08-12T11:57:37.138000Z</time>
      </trkpt>
      <trkpt lat="39.79481" lon="116.48266">
        <ele>43.11743</ele>
        <time>2014-08-12T11:57:42.151000Z</time>
      </trkpt>
      <trkpt lat="39.79488" lon="116.48278">
        <ele>40.7171</ele>
        <time>2014-08-12T11:57:47.141000Z</time>
      </trkpt>
      <trkpt lat="39.79492" lon="116.48288">
        <ele>38.81732</ele>
        <time>2014-08-12T11:57:51.210000Z</time>
      </trkpt>
      <trkpt lat="39.79499" lon="116.483">
        <ele>38.24438</ele>
        <time>2014-08-12T11:57:56.147000Z</time>
      </trkpt>
      <trkpt lat="39.79504" lon="116.4831">
        <ele>40.79456</ele>
        <time>2014-08-12T11:58:00.207000Z</time>
      </trkpt>
      <trkpt lat="39.79508" lon="116.48323">
        <ele>39.87286</ele>
        <time>2014-08-12T11:58:05.190000Z</time>
      </trkpt>
      <trkpt lat="39.79507" lon="116.48334">
        <ele>35.56616</ele>
        <time>2014-08-12T11:58:09.185000Z</time>
      </trkpt>
      <trkpt lat="39.79503" lon="116.48347">
        <ele>33.65845</ele>
        <time>2014-08-12T11:58:13.218000Z</time>
      </trkpt>
      <trkpt lat="39.79499" lon="116.48359">
        <ele>33.21033</ele>
        <time>2014-08-12T11:58:17.155000Z</time>
      </trkpt>
      <trkpt lat="39.79498" lon="116.48372">
        <ele>33.61218</ele>
        <time>2014-08-12T11:58:21.205000Z</time>
      </trkpt>
      <trkpt lat="39.79496" lon="116.48384">
        <ele>32.81134</ele>
        <time>2014-08-12T11:58:25.216000Z</time>
      </trkpt>
      <trkpt lat="39.79495" lon="116.48396">
        <ele>33.12494</ele>
        <time>2014-08-12T11:58:29.139000Z</time>
      </trkpt>
      <trkpt lat="39.79492" lon="116.48407">
        <ele>33.79004</ele>
        <time>2014-08-12T11:58:33.143000Z</time>
      </trkpt>
      <trkpt lat="39.79489" lon="116.48419">
        <ele>34.80103</ele>
        <time>2014-08-12T11:58:37.139000Z</time>
      </trkpt>
      <trkpt lat="39.79488" lon="116.48431">
        <ele>33.91559</ele>
        <time>2014-08-12T11:58:41.220000Z</time>
      </trkpt>
      <trkpt lat="39.79486" lon="116.48443">
        <ele>32.8017</ele>
        <time>2014-08-12T11:58:45.214000Z</time>
      </trkpt>
      <trkpt lat="39.79484" lon="116.48455">
        <ele>33.49469</ele>
        <time>2014-08-12T11:58:49.152000Z</time>
      </trkpt>
      <trkpt lat="39.79483" lon="116.48467">
        <ele>33.76489</ele>
        <time>2014-08-12T11:58:53.178000Z</time>
      </trkpt>
      <trkpt lat="39.79482" lon="116.48481">
        <ele>34.31293</ele>
        <time>2014-08-12T11:58:57.226000Z</time>
      </trkpt>
      <trkpt lat="39.79481" lon="116.48495">
        <ele>34.45654</ele>
        <time>2014-08-12T11:59:01.213000Z</time>
      </trkpt>
      <trkpt lat="39.79477" lon="116.48507">
        <ele>33.09949</ele>
        <time>2014-08-12T11:59:05.171000Z</time>
      </trkpt>
      <trkpt lat="39.79474" lon="116.48519">
        <ele>34.00702</ele>
        <time>2014-08-12T11:59:09.191000Z</time>
      </trkpt>
      <trkpt lat="39.79474" lon="116.48532">
        <ele>31.76166</ele>
        <time>2014-08-12T11:59:13.228000Z</time>
      </trkpt>
      <trkpt lat="39.79471" lon="116.48544">
        <ele>31.5127</ele>
        <time>2014-08-12T11:59:17.215000Z</time>
      </trkpt>
      <trkpt lat="39.79467" lon="116.48555">
        <ele>28.99469</ele>
        <time>2014-08-12T11:59:21.150000Z</time>
      </trkpt>
      <trkpt lat="39.79466" lon="116.48568">
        <ele>26.89709</ele>
        <time>2014-08-12T11:59:25.199000Z</time>
      </trkpt>
      <trkpt lat="39.79462" lon="116.48581">
        <ele>28.71637</ele>
        <time>2014-08-12T11:59:29.156000Z</time>
      </trkpt>
      <trkpt lat="39.79459" lon="116.48594">
        <ele>28.92444</ele>
        <time>2014-08-12T11:59:33.140000Z</time>
      </trkpt>
      <trkpt lat="39.79457" lon="116.48606">
        <ele>26.61292</ele>
        <time>2014-08-12T11:59:37.143000Z</time>
      </trkpt>
      <trkpt lat="39.79455" lon="116.4862">
        <ele>27.37024</ele>
        <time>2014-08-12T11:59:41.144000Z</time>
      </trkpt>
      <trkpt lat="39.79453" lon="116.48634">
        <ele>26.07306</ele>
        <time>2014-08-12T11:59:45.151000Z</time>
      </trkpt>
      <trkpt lat="39.79451" lon="116.48646">
        <ele>30.07086</ele>
        <time>2014-08-12T11:59:51.204000Z</time>
      </trkpt>
      <trkpt lat="39.79449" lon="116.48659">
        <ele>32.12006</ele>
        <time>2014-08-12T11:59:59.195000Z</time>
      </trkpt>
      <trkpt lat="39.79448" lon="116.48671">
        <ele>31.32397</ele>
        <time>2014-08-12T12:00:04.167000Z</time>
      </trkpt>
      <trkpt lat="39.79446" lon="116.48686">
        <ele>31.02966</ele>
        <time>2014-08-12T12:00:08.213000Z</time>
      </trkpt>
      <trkpt lat="39.79444" lon="116.487">
        <ele>30.95813</ele>
        <time>2014-08-12T12:00:12.230000Z</time>
      </trkpt>
      <trkpt lat="39.79442" lon="116.48713">
        <ele>33.84259</ele>
        <time>2014-08-12T12:00:16.180000Z</time>
      </trkpt>
      <trkpt lat="39.7944" lon="116.48725">
        <ele>32.69141</ele>
        <time>2014-08-12T12:00:20.139000Z</time>
      </trkpt>
      <trkpt lat="39.79437" lon="116.48738">
        <ele>31.01477</ele>
        <time>2014-08-12T12:00:24.192000Z</time>
      </trkpt>
      <trkpt lat="39.79434" lon="116.4875">
        <ele>32.87061</ele>
        <time>2014-08-12T12:00:28.148000Z</time>
      </trkpt>
      <trkpt lat="39.79431" lon="116.48761">
        <ele>32.90259</ele>
        <time>2014-08-12T12:00:32.137000Z</time>
      </trkpt>
      <trkpt lat="39.79429" lon="116.48774">
        <ele>31.05688</ele>
        <time>2014-08-12T12:00:36.136000Z</time>
      </trkpt>
      <trkpt lat="39.79424" lon="116.48784">
        <ele>33.01257</ele>
        <time>2014-08-12T12:00:40.149000Z</time>
      </trkpt>
      <trkpt lat="39.79423" lon="116.48796">
        <ele>30.78577</ele>
        <time>2014-08-12T12:00:44.206000Z</time>
      </trkpt>
      <trkpt lat="39.79423" lon="116.48809">
        <ele>32.96857</ele>
        <time>2014-08-12T12:00:48.151000Z</time>
      </trkpt>
      <trkpt lat="39.79423" lon="116.48823">
        <ele>33.02234</ele>
        <time>2014-08-12T12:00:52.151000Z</time>
      </trkpt>
      <trkpt lat="39.79423" lon="116.48837">
        <ele>35.29657</ele>
        <time>2014-08-12T12:00:56.171000Z</time>
      </trkpt>
      <trkpt lat="39.7942" lon="116.4885">
        <ele>37.3269</ele>
        <time>2014-08-12T12:01:00.203000Z</time>
      </trkpt>
      <trkpt lat="39.7942" lon="116.48862">
        <ele>38.01935</ele>
        <time>2014-08-12T12:01:04.141000Z</time>
      </trkpt>
      <trkpt lat="39.79416" lon="116.48874">
        <ele>38.69965</ele>
        <time>2014-08-12T12:01:08.144000Z</time>
      </trkpt>
      <trkpt lat="39.79413" lon="116.48887">
        <ele>39.54352</ele>
        <time>2014-08-12T12:01:12.139000Z</time>
      </trkpt>
      <trkpt lat="39.7941" lon="116.48901">
        <ele>40.75488</ele>
        <time>2014-08-12T12:01:16.136000Z</time>
      </trkpt>
      <trkpt lat="39.79405" lon="116.48912">
        <ele>39.26093</ele>
        <time>2014-08-12T12:01:20.138000Z</time>
      </trkpt>
      <trkpt lat="39.79405" lon="116.48925">
        <ele>40.23273</ele>
        <time>2014-08-12T12:01:24.144000Z</time>
      </trkpt>
      <trkpt lat="39.79403" lon="116.48937">
        <ele>35.68646</ele>
        <time>2014-08-12T12:01:28.216000Z</time>
      </trkpt>
      <trkpt lat="39.79401" lon="116.4895">
        <ele>38.05511</ele>
        <time>2014-08-12T12:01:32.140000Z</time>
      </trkpt>
      <trkpt lat="39.79401" lon="116.48964">
        <ele>39.1286</ele>
        <time>2014-08-12T12:01:36.140000Z</time>
      </trkpt>
      <trkpt lat="39.79399" lon="116.48978">
        <ele>41.552</ele>
        <time>2014-08-12T12:01:40.154000Z</time>
      </trkpt>
      <trkpt lat="39.79397" lon="116.48991">
        <ele>41.76562</ele>
        <time>2014-08-12T12:01:44.145000Z</time>
      </trkpt>
      <trkpt lat="39.79398" lon="116.49005">
        <ele>41.11688</ele>
        <time>2014-08-12T12:01:48.142000Z</time>
      </trkpt>
      <trkpt lat="39.79399" lon="116.49018">
        <ele>42.46716</ele>
        <time>2014-08-12T12:01:52.151000Z</time>
      </trkpt>
      <trkpt lat="39.79397" lon="116.49032">
        <ele>40.00635</ele>
        <time>2014-08-12T12:01:59.152000Z</time>
      </trkpt>
      <trkpt lat="39.79394" lon="116.49043">
        <ele>39.51288</ele>
        <time>2014-08-12T12:02:05.152000Z</time>
      </trkpt>
      <trkpt lat="39.79392" lon="116.49055">
        <ele>39.34644</ele>
        <time>2014-08-12T12:02:11.196000Z</time>
      </trkpt>
      <trkpt lat="39.79389" lon="116.49067">
        <ele>39.48962</ele>
        <time>2014-08-12T12:02:16.197000Z</time>
      </trkpt>
      <trkpt lat="39.79389" lon="116.49081">
        <ele>38.13489</ele>
        <time>2014-08-12T12:02:21.145000Z</time>
      </trkpt>
      <trkpt lat="39.79387" lon="116.49095">
        <ele>36.59595</ele>
        <time>2014-08-12T12:02:25.166000Z</time>
      </trkpt>
      <trkpt lat="39.79382" lon="116.49109">
        <ele>33.09186</ele>
        <time>2014-08-12T12:02:29.158000Z</time>
      </trkpt>
      <trkpt lat="39.7938" lon="116.49123">
        <ele>30.00781</ele>
        <time>2014-08-12T12:02:33.149000Z</time>
      </trkpt>
      <trkpt lat="39.79379" lon="116.49136">
        <ele>30.73212</ele>
        <time>2014-08-12T12:02:37.147000Z</time>
      </trkpt>
      <trkpt lat="39.79375" lon="116.4915">
        <ele>31.39642</ele>
        <time>2014-08-12T12:02:41.150000Z</time>
      </trkpt>
      <trkpt lat="39.79372" lon="116.49164">
        <ele>28.88873</ele>
        <time>2014-08-12T12:02:45.142000Z</time>
      </trkpt>
      <trkpt lat="39.79368" lon="116.49175">
        <ele>28.61407</ele>
        <time>2014-08-12T12:02:49.145000Z</time>
      </trkpt>
      <trkpt lat="39.79365" lon="116.49188">
        <ele>27.69336</ele>
        <time>2014-08-12T12:02:53.145000Z</time>
      </trkpt>
      <trkpt lat="39.79361" lon="116.49202">
        <ele>24.93573</ele>
        <time>2014-08-12T12:02:57.151000Z</time>
      </trkpt>
      <trkpt lat="39.79357" lon="116.49214">
        <ele>27.43494</ele>
        <time>2014-08-12T12:03:01.146000Z</time>
      </trkpt>
      <trkpt lat="39.79354" lon="116.49227">
        <ele>26.06885</ele>
        <time>2014-08-12T12:03:05.145000Z</time>
      </trkpt>
      <trkpt lat="39.79353" lon="116.49241">
        <ele>27.36853</ele>
        <time>2014-08-12T12:03:09.146000Z</time>
      </trkpt>
      <trkpt lat="39.79353" lon="116.49257">
        <ele>26.651</ele>
        <time>2014-08-12T12:03:13.151000Z</time>
      </trkpt>
      <trkpt lat="39.79354" lon="116.4927">
        <ele>27.63739</ele>
        <time>2014-08-12T12:03:17.145000Z</time>
      </trkpt>
      <trkpt lat="39.79352" lon="116.49285">
        <ele>27.69452</ele>
        <time>2014-08-12T12:03:21.158000Z</time>
      </trkpt>
      <trkpt lat="39.79351" lon="116.49296">
        <ele>27.07184</ele>
        <time>2014-08-12T12:03:24.161000Z</time>
      </trkpt>
      <trkpt lat="39.79349" lon="116.49308">
        <ele>28.19708</ele>
        <time>2014-08-12T12:03:27.146000Z</time>
      </trkpt>
      <trkpt lat="39.79347" lon="116.49323">
        <ele>28.45392</ele>
        <time>2014-08-12T12:03:31.143000Z</time>
      </trkpt>
      <trkpt lat="39.79344" lon="116.49336">
        <ele>30.20013</ele>
        <time>2014-08-12T12:03:38.146000Z</time>
      </trkpt>
      <trkpt lat="39.79342" lon="116.49348">
        <ele>31.9389</ele>
        <time>2014-08-12T12:03:44.153000Z</time>
      </trkpt>
      <trkpt lat="39.79338" lon="116.49361">
        <ele>32.5246</ele>
        <time>2014-08-12T12:03:50.148000Z</time>
      </trkpt>
      <trkpt lat="39.79337" lon="116.49375">
        <ele>32.8847</ele>
        <time>2014-08-12T12:03:54.144000Z</time>
      </trkpt>
      <trkpt lat="39.79337" lon="116.49387">
        <ele>33.25757</ele>
        <time>2014-08-12T12:04:02.162000Z</time>
      </trkpt>
      <trkpt lat="39.79346" lon="116.49391">
        <ele>32.82037</ele>
        <time>2014-08-12T12:04:15.168000Z</time>
      </trkpt>
      <trkpt lat="39.79352" lon="116.494">
        <ele>32.1601</ele>
        <time>2014-08-12T12:04:21.142000Z</time>
      </trkpt>
      <trkpt lat="39.79351" lon="116.49413">
        <ele>31.61322</ele>
        <time>2014-08-12T12:04:27.166000Z</time>
      </trkpt>
      <trkpt lat="39.79348" lon="116.49425">
        <ele>31.94293</ele>
        <time>2014-08-12T12:04:31.208000Z</time>
      </trkpt>
      <trkpt lat="39.79346" lon="116.49439">
        <ele>31.81989</ele>
        <time>2014-08-12T12:04:35.149000Z</time>
      </trkpt>
      <trkpt lat="39.79344" lon="116.49452">
        <ele>32.48016</ele>
        <time>2014-08-12T12:04:39.147000Z</time>
      </trkpt>
      <trkpt lat="39.79343" lon="116.49464">
        <ele>30.87512</ele>
        <time>2014-08-12T12:04:43.137000Z</time>
      </trkpt>
      <trkpt lat="39.79341" lon="116.49476">
        <ele>30.27338</ele>
        <time>2014-08-12T12:04:47.173000Z</time>
      </trkpt>
      <trkpt lat="39.7934" lon="116.49489">
        <ele>26.65735</ele>
        <time>2014-08-12T12:04:51.148000Z</time>
      </trkpt>
      <trkpt lat="39.79339" lon="116.49501">
        <ele>26.92743</ele>
        <time>2014-08-12T12:04:55.193000Z</time>
      </trkpt>
      <trkpt lat="39.79336" lon="116.49513">
        <ele>26.61407</ele>
        <time>2014-08-12T12:04:59.154000Z</time>
      </trkpt>
      <trkpt lat="39.79334" lon="116.49525">
        <ele>26.36865</ele>
        <time>2014-08-12T12:05:03.165000Z</time>
      </trkpt>
      <trkpt lat="39.79331" lon="116.49538">
        <ele>28.09326</ele>
        <time>2014-08-12T12:05:07.145000Z</time>
      </trkpt>
      <trkpt lat="39.79329" lon="116.49551">
        <ele>27.60907</ele>
        <time>2014-08-12T12:05:11.178000Z</time>
      </trkpt>
      <trkpt lat="39.79334" lon="116.49562">
        <ele>27.58734</ele>
        <time>2014-08-12T12:05:23.149000Z</time>
      </trkpt>
      <trkpt lat="39.79339" lon="116.49573">
        <ele>26.77155</ele>
        <time>2014-08-12T12:05:27.213000Z</time>
      </trkpt>
      <trkpt lat="39.79338" lon="116.49587">
        <ele>28.00989</ele>
        <time>2014-08-12T12:05:31.172000Z</time>
      </trkpt>
      <trkpt lat="39.79341" lon="116.49599">
        <ele>28.34595</ele>
        <time>2014-08-12T12:05:35.162000Z</time>
      </trkpt>
      <trkpt lat="39.79346" lon="116.49609">
        <ele>27.54205</ele>
        <time>2014-08-12T12:05:39.152000Z</time>
      </trkpt>
      <trkpt lat="39.79345" lon="116.49623">
        <ele>27.284</ele>
        <time>2014-08-12T12:05:43.163000Z</time>
      </trkpt>
      <trkpt lat="39.79343" lon="116.49635">
        <ele>29.1189</ele>
        <time>2014-08-12T12:05:46.151000Z</time>
      </trkpt>
      <trkpt lat="39.79341" lon="116.49647">
        <ele>28.19855</ele>
        <time>2014-08-12T12:05:49.150000Z</time>
      </trkpt>
      <trkpt lat="39.7934" lon="116.49662">
        <ele>25.42645</ele>
        <time>2014-08-12T12:05:53.154000Z</time>
      </trkpt>
      <trkpt lat="39.7934" lon="116.49675">
        <ele>22.15857</ele>
        <time>2014-08-12T12:05:57.154000Z</time>
      </trkpt>
      <trkpt lat="39.79338" lon="116.49688">
        <ele>22.55939</ele>
        <time>2014-08-12T12:06:01.148000Z</time>
      </trkpt>
      <trkpt lat="39.79338" lon="116.49702">
        <ele>23.49811</ele>
        <time>2014-08-12T12:06:05.147000Z</time>
      </trkpt>
      <trkpt lat="39.7934" lon="116.49716">
        <ele>23.64331</ele>
        <time>2014-08-12T12:06:09.152000Z</time>
      </trkpt>
      <trkpt lat="39.79345" lon="116.49728">
        <ele>22.61633</ele>
        <time>2014-08-12T12:06:13.196000Z</time>
      </trkpt>
      <trkpt lat="39.7935" lon="116.49739">
        <ele>23.08972</ele>
        <time>2014-08-12T12:06:17.186000Z</time>
      </trkpt>
      <trkpt lat="39.79357" lon="116.49748">
        <ele>22.41974</ele>
        <time>2014-08-12T12:06:21.224000Z</time>
      </trkpt>
      <trkpt lat="39.79365" lon="116.49755">
        <ele>22.12726</ele>
        <time>2014-08-12T12:06:25.161000Z</time>
      </trkpt>
      <trkpt lat="39.79374" lon="116.49761">
        <ele>22.1554</ele>
        <time>2014-08-12T12:06:29.156000Z</time>
      </trkpt>
      <trkpt lat="39.79382" lon="116.4977">
        <ele>22.17627</ele>
        <time>2014-08-12T12:06:34.145000Z</time>
      </trkpt>
      <trkpt lat="39.79389" lon="116.49778">
        <ele>23.90796</ele>
        <time>2014-08-12T12:06:38.135000Z</time>
      </trkpt>
      <trkpt lat="39.79395" lon="116.4979">
        <ele>25.58777</ele>
        <time>2014-08-12T12:06:42.184000Z</time>
      </trkpt>
      <trkpt lat="39.794" lon="116.49801">
        <ele>26.41571</ele>
        <time>2014-08-12T12:06:46.210000Z</time>
      </trkpt>
      <trkpt lat="39.79405" lon="116.49814">
        <ele>25.99249</ele>
        <time>2014-08-12T12:06:50.189000Z</time>
      </trkpt>
      <trkpt lat="39.79411" lon="116.49826">
        <ele>26.41028</ele>
        <time>2014-08-12T12:06:54.154000Z</time>
      </trkpt>
      <trkpt lat="39.7942" lon="116.49836">
        <ele>28.12103</ele>
        <time>2014-08-12T12:06:58.151000Z</time>
      </trkpt>
      <trkpt lat="39.79426" lon="116.49847">
        <ele>25.09888</ele>
        <time>2014-08-12T12:07:02.161000Z</time>
      </trkpt>
      <trkpt lat="39.79431" lon="116.49857">
        <ele>23.65436</ele>
        <time>2014-08-12T12:07:06.152000Z</time>
      </trkpt>
      <trkpt lat="39.79431" lon="116.4987">
        <ele>24.52106</ele>
        <time>2014-08-12T12:07:10.148000Z</time>
      </trkpt>
      <trkpt lat="39.79427" lon="116.49885">
        <ele>28.64227</ele>
        <time>2014-08-12T12:07:14.198000Z</time>
      </trkpt>
      <trkpt lat="39.79424" lon="116.49899">
        <ele>26.95892</ele>
        <time>2014-08-12T12:07:18.167000Z</time>
      </trkpt>
      <trkpt lat="39.79429" lon="116.49912">
        <ele>31.68915</ele>
        <time>2014-08-12T12:07:22.150000Z</time>
      </trkpt>
      <trkpt lat="39.79435" lon="116.49922">
        <ele>28.12775</ele>
        <time>2014-08-12T12:07:26.164000Z</time>
      </trkpt>
      <trkpt lat="39.7944" lon="116.49931">
        <ele>29.52881</ele>
        <time>2014-08-12T12:07:30.148000Z</time>
      </trkpt>
      <trkpt lat="39.79445" lon="116.49942">
        <ele>29.69427</ele>
        <time>2014-08-12T12:07:34.166000Z</time>
      </trkpt>
      <trkpt lat="39.79449" lon="116.49955">
        <ele>29.12909</ele>
        <time>2014-08-12T12:07:39.149000Z</time>
      </trkpt>
      <trkpt lat="39.79451" lon="116.49967">
        <ele>30.37292</ele>
        <time>2014-08-12T12:07:47.164000Z</time>
      </trkpt>
      <trkpt lat="39.79446" lon="116.49977">
        <ele>26.1192</ele>
        <time>2014-08-12T12:07:54.162000Z</time>
      </trkpt>
      <trkpt lat="39.7945" lon="116.49987">
        <ele>27.14484</ele>
        <time>2014-08-12T12:08:01.163000Z</time>
      </trkpt>
      <trkpt lat="39.79453" lon="116.49999">
        <ele>26.89703</ele>
        <time>2014-08-12T12:08:06.190000Z</time>
      </trkpt>
      <trkpt lat="39.79455" lon="116.5001">
        <ele>26.00098</ele>
        <time>2014-08-12T12:08:09.228000Z</time>
      </trkpt>
      <trkpt lat="39.7946" lon="116.50023">
        <ele>25.64471</ele>
        <time>2014-08-12T12:08:13.215000Z</time>
      </trkpt>
      <trkpt lat="39.79468" lon="116.50033">
        <ele>27.13068</ele>
        <time>2014-08-12T12:08:17.161000Z</time>
      </trkpt>
      <trkpt lat="39.79478" lon="116.50028">
        <ele>27.87354</ele>
        <time>2014-08-12T12:08:22.204000Z</time>
      </trkpt>
      <trkpt lat="39.79487" lon="116.50025">
        <ele>30.30774</ele>
        <time>2014-08-12T12:08:25.237000Z</time>
      </trkpt>
      <trkpt lat="39.79497" lon="116.50028">
        <ele>30.49402</ele>
        <time>2014-08-12T12:08:28.201000Z</time>
      </trkpt>
      <trkpt lat="39.79506" lon="116.50031">
        <ele>31.85742</ele>
        <time>2014-08-12T12:08:31.180000Z</time>
      </trkpt>
      <trkpt lat="39.79515" lon="116.50032">
        <ele>30.54297</ele>
        <time>2014-08-12T12:08:34.151000Z</time>
      </trkpt>
      <trkpt lat="39.79526" lon="116.50028">
        <ele>30.37988</ele>
        <time>2014-08-12T12:08:38.155000Z</time>
      </trkpt>
      <trkpt lat="39.79535" lon="116.5002">
        <ele>28.51709</ele>
        <time>2014-08-12T12:08:42.164000Z</time>
      </trkpt>
      <trkpt lat="39.79543" lon="116.50011">
        <ele>27.53979</ele>
        <time>2014-08-12T12:08:46.235000Z</time>
      </trkpt>
      <trkpt lat="39.79551" lon="116.50002">
        <ele>26.65704</ele>
        <time>2014-08-12T12:08:50.155000Z</time>
      </trkpt>
      <trkpt lat="39.79558" lon="116.49992">
        <ele>26.07935</ele>
        <time>2014-08-12T12:08:54.217000Z</time>
      </trkpt>
      <trkpt lat="39.79566" lon="116.49984">
        <ele>27.39941</ele>
        <time>2014-08-12T12:08:58.155000Z</time>
      </trkpt>
      <trkpt lat="39.79575" lon="116.49977">
        <ele>25.14355</ele>
        <time>2014-08-12T12:09:02.208000Z</time>
      </trkpt>
      <trkpt lat="39.79583" lon="116.49971">
        <ele>21.05786</ele>
        <time>2014-08-12T12:09:06.195000Z</time>
      </trkpt>
      <trkpt lat="39.79592" lon="116.49963">
        <ele>17.81818</ele>
        <time>2014-08-12T12:09:10.208000Z</time>
      </trkpt>
      <trkpt lat="39.79602" lon="116.49955">
        <ele>15.67047</ele>
        <time>2014-08-12T12:09:14.153000Z</time>
      </trkpt>
      <trkpt lat="39.7961" lon="116.49949">
        <ele>17.25888</ele>
        <time>2014-08-12T12:09:17.190000Z</time>
      </trkpt>
      <trkpt lat="39.79618" lon="116.49943">
        <ele>18.07092</ele>
        <time>2014-08-12T12:09:20.226000Z</time>
      </trkpt>
      <trkpt lat="39.79626" lon="116.49937">
        <ele>18.20227</ele>
        <time>2014-08-12T12:09:23.150000Z</time>
      </trkpt>
      <trkpt lat="39.79634" lon="116.4993">
        <ele>20.06866</ele>
        <time>2014-08-12T12:09:26.217000Z</time>
      </trkpt>
      <trkpt lat="39.79644" lon="116.49922">
        <ele>22.00836</ele>
        <time>2014-08-12T12:09:30.156000Z</time>
      </trkpt>
      <trkpt lat="39.79654" lon="116.49917">
        <ele>20.24078</ele>
        <time>2014-08-12T12:09:34.149000Z</time>
      </trkpt>
      <trkpt lat="39.79665" lon="116.49914">
        <ele>20.02222</ele>
        <time>2014-08-12T12:09:38.151000Z</time>
      </trkpt>
      <trkpt lat="39.79676" lon="116.49912">
        <ele>20.98297</ele>
        <time>2014-08-12T12:09:42.191000Z</time>
      </trkpt>
      <trkpt lat="39.79687" lon="116.49909">
        <ele>21.06738</ele>
        <time>2014-08-12T12:09:46.183000Z</time>
      </trkpt>
      <trkpt lat="39.79697" lon="116.49902">
        <ele>19.94073</ele>
        <time>2014-08-12T12:09:50.213000Z</time>
      </trkpt>
      <trkpt lat="39.79706" lon="116.49891">
        <ele>19.99097</ele>
        <time>2014-08-12T12:09:54.210000Z</time>
      </trkpt>
      <trkpt lat="39.79715" lon="116.4988">
        <ele>21.94574</ele>
        <time>2014-08-12T12:09:58.196000Z</time>
      </trkpt>
      <trkpt lat="39.79722" lon="116.49873">
        <ele>23.91461</ele>
        <time>2014-08-12T12:10:01.148000Z</time>
      </trkpt>
      <trkpt lat="39.79729" lon="116.49862">
        <ele>24.73883</ele>
        <time>2014-08-12T12:10:05.169000Z</time>
      </trkpt>
      <trkpt lat="39.79735" lon="116.4985">
        <ele>25.62494</ele>
        <time>2014-08-12T12:10:09.164000Z</time>
      </trkpt>
      <trkpt lat="39.79738" lon="116.49837">
        <ele>24.93811</ele>
        <time>2014-08-12T12:10:13.202000Z</time>
      </trkpt>
      <trkpt lat="39.79737" lon="116.49824">
        <ele>24.90533</ele>
        <time>2014-08-12T12:10:17.191000Z</time>
      </trkpt>
      <trkpt lat="39.79732" lon="116.49811">
        <ele>20.08063</ele>
        <time>2014-08-12T12:10:21.186000Z</time>
      </trkpt>
      <trkpt lat="39.79725" lon="116.498">
        <ele>17.92389</ele>
        <time>2014-08-12T12:10:25.170000Z</time>
      </trkpt>
      <trkpt lat="39.79724" lon="116.49786">
        <ele>18.56442</ele>
        <time>2014-08-12T12:10:29.223000Z</time>
      </trkpt>
      <trkpt lat="39.79723" lon="116.49772">
        <ele>20.54999</ele>
        <time>2014-08-12T12:10:33.149000Z</time>
      </trkpt>
      <trkpt lat="39.79718" lon="116.4976">
        <ele>17.39771</ele>
        <time>2014-08-12T12:10:37.151000Z</time>
      </trkpt>
      <trkpt lat="39.79711" lon="116.4975">
        <ele>16.71527</ele>
        <time>2014-08-12T12:10:41.151000Z</time>
      </trkpt>
      <trkpt lat="39.79702" lon="116.49741">
        <ele>18.82919</ele>
        <time>2014-08-12T12:10:45.195000Z</time>
      </trkpt>
      <trkpt lat="39.79696" lon="116.49729">
        <ele>18.68948</ele>
        <time>2014-08-12T12:10:49.199000Z</time>
      </trkpt>
      <trkpt lat="39.79693" lon="116.49716">
        <ele>18.86938</ele>
        <time>2014-08-12T12:10:53.217000Z</time>
      </trkpt>
      <trkpt lat="39.7969" lon="116.49703">
        <ele>21.55334</ele>
        <time>2014-08-12T12:10:57.170000Z</time>
      </trkpt>
      <trkpt lat="39.79685" lon="116.4969">
        <ele>21.61499</ele>
        <time>2014-08-12T12:11:02.208000Z</time>
      </trkpt>
      <trkpt lat="39.79677" lon="116.49681">
        <ele>22.80096</ele>
        <time>2014-08-12T12:11:06.165000Z</time>
      </trkpt>
      <trkpt lat="39.79668" lon="116.4967">
        <ele>18.15576</ele>
        <time>2014-08-12T12:11:10.202000Z</time>
      </trkpt>
      <trkpt lat="39.79661" lon="116.49658">
        <ele>17.37488</ele>
        <time>2014-08-12T12:11:14.228000Z</time>
      </trkpt>
      <trkpt lat="39.79652" lon="116.49647">
        <ele>15.90384</ele>
        <time>2014-08-12T12:11:18.166000Z</time>
      </trkpt>
      <trkpt lat="39.79643" lon="116.4964">
        <ele>17.27991</ele>
        <time>2014-08-12T12:11:22.166000Z</time>
      </trkpt>
      <trkpt lat="39.79633" lon="116.49635">
        <ele>17.13394</ele>
        <time>2014-08-12T12:11:26.221000Z</time>
      </trkpt>
      <trkpt lat="39.79622" lon="116.49634">
        <ele>18.47614</ele>
        <time>2014-08-12T12:11:30.219000Z</time>
      </trkpt>
      <trkpt lat="39.79611" lon="116.4963">
        <ele>19.42291</ele>
        <time>2014-08-12T12:11:34.152000Z</time>
      </trkpt>
      <trkpt lat="39.796" lon="116.49626">
        <ele>19.11444</ele>
        <time>2014-08-12T12:11:38.153000Z</time>
      </trkpt>
      <trkpt lat="39.79593" lon="116.49617">
        <ele>21.4411</ele>
        <time>2014-08-12T12:11:42.161000Z</time>
      </trkpt>
      <trkpt lat="39.79588" lon="116.49605">
        <ele>23.20721</ele>
        <time>2014-08-12T12:11:46.205000Z</time>
      </trkpt>
      <trkpt lat="39.79582" lon="116.49594">
        <ele>23.49463</ele>
        <time>2014-08-12T12:11:50.214000Z</time>
      </trkpt>
      <trkpt lat="39.79575" lon="116.49584">
        <ele>21.28125</ele>
        <time>2014-08-12T12:11:54.170000Z</time>
      </trkpt>
      <trkpt lat="39.7957" lon="116.49572">
        <ele>21.56494</ele>
        <time>2014-08-12T12:11:58.232000Z</time>
      </trkpt>
      <trkpt lat="39.79563" lon="116.4956">
        <ele>22.04462</ele>
        <time>2014-08-12T12:12:02.154000Z</time>
      </trkpt>
      <trkpt lat="39.79556" lon="116.4955">
        <ele>22.20276</ele>
        <time>2014-08-12T12:12:06.147000Z</time>
      </trkpt>
      <trkpt lat="39.79552" lon="116.4954">
        <ele>24.91956</ele>
        <time>2014-08-12T12:12:10.160000Z</time>
      </trkpt>
      <trkpt lat="39.79548" lon="116.49526">
        <ele>26.87909</ele>
        <time>2014-08-12T12:12:15.194000Z</time>
      </trkpt>
      <trkpt lat="39.79542" lon="116.49517">
        <ele>20.22247</ele>
        <time>2014-08-12T12:12:19.155000Z</time>
      </trkpt>
      <trkpt lat="39.79533" lon="116.49511">
        <ele>19.78772</ele>
        <time>2014-08-12T12:12:23.192000Z</time>
      </trkpt>
      <trkpt lat="39.79523" lon="116.49506">
        <ele>20.17737</ele>
        <time>2014-08-12T12:12:27.228000Z</time>
      </trkpt>
      <trkpt lat="39.79514" lon="116.49501">
        <ele>20.63025</ele>
        <time>2014-08-12T12:12:31.154000Z</time>
      </trkpt>
      <trkpt lat="39.79504" lon="116.49498">
        <ele>23.41028</ele>
        <time>2014-08-12T12:12:35.173000Z</time>
      </trkpt>
      <trkpt lat="39.79493" lon="116.49498">
        <ele>25.52545</ele>
        <time>2014-08-12T12:12:38.154000Z</time>
      </trkpt>
      <trkpt lat="39.79484" lon="116.495">
        <ele>25.52338</ele>
        <time>2014-08-12T12:12:41.149000Z</time>
      </trkpt>
      <trkpt lat="39.79476" lon="116.49504">
        <ele>25.97357</ele>
        <time>2014-08-12T12:12:45.208000Z</time>
      </trkpt>
      <trkpt lat="39.79467" lon="116.49512">
        <ele>25.27625</ele>
        <time>2014-08-12T12:12:50.159000Z</time>
      </trkpt>
      <trkpt lat="39.79459" lon="116.49519">
        <ele>26.52985</ele>
        <time>2014-08-12T12:12:54.221000Z</time>
      </trkpt>
      <trkpt lat="39.7945" lon="116.49526">
        <ele>27.56439</ele>
        <time>2014-08-12T12:12:58.205000Z</time>
      </trkpt>
      <trkpt lat="39.79439" lon="116.4953">
        <ele>24.41345</ele>
        <time>2014-08-12T12:13:02.208000Z</time>
      </trkpt>
      <trkpt lat="39.79428" lon="116.4953">
        <ele>22.7146</ele>
        <time>2014-08-12T12:13:06.160000Z</time>
      </trkpt>
      <trkpt lat="39.79417" lon="116.49529">
        <ele>23.06262</ele>
        <time>2014-08-12T12:13:10.224000Z</time>
      </trkpt>
      <trkpt lat="39.79408" lon="116.49528">
        <ele>21.75476</ele>
        <time>2014-08-12T12:13:14.218000Z</time>
      </trkpt>
      <trkpt lat="39.79398" lon="116.49524">
        <ele>23.43842</ele>
        <time>2014-08-12T12:13:18.194000Z</time>
      </trkpt>
      <trkpt lat="39.79388" lon="116.4952">
        <ele>22.66058</ele>
        <time>2014-08-12T12:13:22.155000Z</time>
      </trkpt>
      <trkpt lat="39.79377" lon="116.49519">
        <ele>26.09515</ele>
        <time>2014-08-12T12:13:26.226000Z</time>
      </trkpt>
      <trkpt lat="39.79368" lon="116.49524">
        <ele>24.06256</ele>
        <time>2014-08-12T12:13:30.167000Z</time>
      </trkpt>
      <trkpt lat="39.79361" lon="116.49534">
        <ele>23.48584</ele>
        <time>2014-08-12T12:13:34.156000Z</time>
      </trkpt>
      <trkpt lat="39.79358" lon="116.49547">
        <ele>27.12427</ele>
        <time>2014-08-12T12:13:38.153000Z</time>
      </trkpt>
      <trkpt lat="39.79356" lon="116.4956">
        <ele>25.77301</ele>
        <time>2014-08-12T12:13:42.165000Z</time>
      </trkpt>
      <trkpt lat="39.79354" lon="116.49573">
        <ele>26.93762</ele>
        <time>2014-08-12T12:13:46.162000Z</time>
      </trkpt>
      <trkpt lat="39.79352" lon="116.49587">
        <ele>27.27814</ele>
        <time>2014-08-12T12:13:50.240000Z</time>
      </trkpt>
      <trkpt lat="39.79351" lon="116.496">
        <ele>24.66943</ele>
        <time>2014-08-12T12:13:54.212000Z</time>
      </trkpt>
      <trkpt lat="39.79349" lon="116.49613">
        <ele>24.24725</ele>
        <time>2014-08-12T12:13:58.201000Z</time>
      </trkpt>
      <trkpt lat="39.79347" lon="116.49626">
        <ele>23.08136</ele>
        <time>2014-08-12T12:14:02.164000Z</time>
      </trkpt>
      <trkpt lat="39.79345" lon="116.4964">
        <ele>23.0957</ele>
        <time>2014-08-12T12:14:06.217000Z</time>
      </trkpt>
      <trkpt lat="39.79341" lon="116.49653">
        <ele>23.53613</ele>
        <time>2014-08-12T12:14:10.214000Z</time>
      </trkpt>
      <trkpt lat="39.79339" lon="116.49667">
        <ele>25.67804</ele>
        <time>2014-08-12T12:14:14.195000Z</time>
      </trkpt>
      <trkpt lat="39.79338" lon="116.49682">
        <ele>24.61566</ele>
        <time>2014-08-12T12:14:18.190000Z</time>
      </trkpt>
      <trkpt lat="39.79338" lon="116.49696">
        <ele>24.91772</ele>
        <time>2014-08-12T12:14:22.184000Z</time>
      </trkpt>
      <trkpt lat="39.79339" lon="116.49712">
        <ele>25.69391</ele>
        <time>2014-08-12T12:14:26.226000Z</time>
      </trkpt>
      <trkpt lat="39.79343" lon="116.49726">
        <ele>24.61292</ele>
        <time>2014-08-12T12:14:30.195000Z</time>
      </trkpt>
      <trkpt lat="39.79348" lon="116.4974">
        <ele>25.47247</ele>
        <time>2014-08-12T12:14:34.160000Z</time>
      </trkpt>
      <trkpt lat="39.79355" lon="116.49751">
        <ele>27.54248</ele>
        <time>2014-08-12T12:14:38.155000Z</time>
      </trkpt>
      <trkpt lat="39.79365" lon="116.4976">
        <ele>23.54724</ele>
        <time>2014-08-12T12:14:42.157000Z</time>
      </trkpt>
      <trkpt lat="39.79375" lon="116.49766">
        <ele>25.01752</ele>
        <time>2014-08-12T12:14:46.162000Z</time>
      </trkpt>
      <trkpt lat="39.79382" lon="116.49773">
        <ele>26.08392</ele>
        <time>2014-08-12T12:14:49.236000Z</time>
      </trkpt>
      <trkpt lat="39.7939" lon="116.4978">
        <ele>26.40601</ele>
        <time>2014-08-12T12:14:52.171000Z</time>
      </trkpt>
      <trkpt lat="39.79396" lon="116.49788">
        <ele>27.01831</ele>
        <time>2014-08-12T12:14:55.200000Z</time>
      </trkpt>
      <trkpt lat="39.79397" lon="116.498">
        <ele>27.91467</ele>
        <time>2014-08-12T12:14:58.211000Z</time>
      </trkpt>
      <trkpt lat="39.794" lon="116.49811">
        <ele>28.35815</ele>
        <time>2014-08-12T12:15:01.190000Z</time>
      </trkpt>
      <trkpt lat="39.79405" lon="116.49825">
        <ele>27.56543</ele>
        <time>2014-08-12T12:15:05.188000Z</time>
      </trkpt>
      <trkpt lat="39.79412" lon="116.49837">
        <ele>27.5697</ele>
        <time>2014-08-12T12:15:09.224000Z</time>
      </trkpt>
      <trkpt lat="39.7942" lon="116.49846">
        <ele>27.25116</ele>
        <time>2014-08-12T12:15:13.162000Z</time>
      </trkpt>
      <trkpt lat="39.7943" lon="116.49855">
        <ele>27.17957</ele>
        <time>2014-08-12T12:15:17.173000Z</time>
      </trkpt>
      <trkpt lat="39.79434" lon="116.49868">
        <ele>23.05548</ele>
        <time>2014-08-12T12:15:21.200000Z</time>
      </trkpt>
      <trkpt lat="39.79431" lon="116.49883">
        <ele>22.80151</ele>
        <time>2014-08-12T12:15:25.250000Z</time>
      </trkpt>
      <trkpt lat="39.7943" lon="116.49897">
        <ele>24.48199</ele>
        <time>2014-08-12T12:15:29.170000Z</time>
      </trkpt>
      <trkpt lat="39.79431" lon="116.49911">
        <ele>26.6236</ele>
        <time>2014-08-12T12:15:33.165000Z</time>
      </trkpt>
      <trkpt lat="39.79435" lon="116.49925">
        <ele>27.56006</ele>
        <time>2014-08-12T12:15:37.160000Z</time>
      </trkpt>
      <trkpt lat="39.79439" lon="116.49936">
        <ele>27.99127</ele>
        <time>2014-08-12T12:15:40.169000Z</time>
      </trkpt>
      <trkpt lat="39.79445" lon="116.49946">
        <ele>27.09119</ele>
        <time>2014-08-12T12:15:43.160000Z</time>
      </trkpt>
      <trkpt lat="39.79443" lon="116.49958">
        <ele>25.59558</ele>
        <time>2014-08-12T12:15:51.211000Z</time>
      </trkpt>
      <trkpt lat="39.79444" lon="116.4997">
        <ele>23.64215</ele>
        <time>2014-08-12T12:16:00.158000Z</time>
      </trkpt>
      <trkpt lat="39.79449" lon="116.4998">
        <ele>25.10144</ele>
        <time>2014-08-12T12:16:06.165000Z</time>
      </trkpt>
      <trkpt lat="39.79454" lon="116.49991">
        <ele>26.45514</ele>
        <time>2014-08-12T12:16:13.177000Z</time>
      </trkpt>
      <trkpt lat="39.79457" lon="116.50003">
        <ele>28.14087</ele>
        <time>2014-08-12T12:16:20.167000Z</time>
      </trkpt>
      <trkpt lat="39.7946" lon="116.50014">
        <ele>26.92346</ele>
        <time>2014-08-12T12:16:26.166000Z</time>
      </trkpt>
      <trkpt lat="39.79466" lon="116.50025">
        <ele>27.79486</ele>
        <time>2014-08-12T12:16:30.158000Z</time>
      </trkpt>
      <trkpt lat="39.79475" lon="116.50031">
        <ele>30.41083</ele>
        <time>2014-08-12T12:16:35.157000Z</time>
      </trkpt>
      <trkpt lat="39.79486" lon="116.5003">
        <ele>38.83313</ele>
        <time>2014-08-12T12:16:40.158000Z</time>
      </trkpt>
      <trkpt lat="39.79496" lon="116.50031">
        <ele>33.97266</ele>
        <time>2014-08-12T12:16:44.163000Z</time>
      </trkpt>
      <trkpt lat="39.79505" lon="116.50034">
        <ele>31.14209</ele>
        <time>2014-08-12T12:16:48.202000Z</time>
      </trkpt>
      <trkpt lat="39.79515" lon="116.50034">
        <ele>31.4303</ele>
        <time>2014-08-12T12:16:52.213000Z</time>
      </trkpt>
      <trkpt lat="39.79524" lon="116.50031">
        <ele>31.22058</ele>
        <time>2014-08-12T12:16:56.162000Z</time>
      </trkpt>
      <trkpt lat="39.79533" lon="116.50025">
        <ele>30.40857</ele>
        <time>2014-08-12T12:17:00.182000Z</time>
      </trkpt>
      <trkpt lat="39.79542" lon="116.50017">
        <ele>30.4101</ele>
        <time>2014-08-12T12:17:04.216000Z</time>
      </trkpt>
      <trkpt lat="39.7955" lon="116.50007">
        <ele>30.99274</ele>
        <time>2014-08-12T12:17:08.203000Z</time>
      </trkpt>
      <trkpt lat="39.79555" lon="116.49997">
        <ele>31.35907</ele>
        <time>2014-08-12T12:17:11.200000Z</time>
      </trkpt>
      <trkpt lat="39.79562" lon="116.49988">
        <ele>29.78558</ele>
        <time>2014-08-12T12:17:14.168000Z</time>
      </trkpt>
      <trkpt lat="39.79569" lon="116.49981">
        <ele>29.13159</ele>
        <time>2014-08-12T12:17:17.212000Z</time>
      </trkpt>
      <trkpt lat="39.79577" lon="116.49975">
        <ele>28.90277</ele>
        <time>2014-08-12T12:17:20.205000Z</time>
      </trkpt>
      <trkpt lat="39.79585" lon="116.49968">
        <ele>25.99622</ele>
        <time>2014-08-12T12:17:23.160000Z</time>
      </trkpt>
      <trkpt lat="39.79593" lon="116.49962">
        <ele>26.29297</ele>
        <time>2014-08-12T12:17:26.196000Z</time>
      </trkpt>
      <trkpt lat="39.79603" lon="116.49954">
        <ele>26.2005</ele>
        <time>2014-08-12T12:17:30.165000Z</time>
      </trkpt>
      <trkpt lat="39.79612" lon="116.49946">
        <ele>22.00079</ele>
        <time>2014-08-12T12:17:34.168000Z</time>
      </trkpt>
      <trkpt lat="39.79622" lon="116.49937">
        <ele>20.08704</ele>
        <time>2014-08-12T12:17:38.170000Z</time>
      </trkpt>
      <trkpt lat="39.79632" lon="116.4993">
        <ele>20.86536</ele>
        <time>2014-08-12T12:17:42.161000Z</time>
      </trkpt>
      <trkpt lat="39.79642" lon="116.49922">
        <ele>20.68164</ele>
        <time>2014-08-12T12:17:46.161000Z</time>
      </trkpt>
      <trkpt lat="39.7965" lon="116.49917">
        <ele>20.53333</ele>
        <time>2014-08-12T12:17:49.207000Z</time>
      </trkpt>
      <trkpt lat="39.79661" lon="116.49913">
        <ele>23.23932</ele>
        <time>2014-08-12T12:17:53.167000Z</time>
      </trkpt>
      <trkpt lat="39.79671" lon="116.4991">
        <ele>25.00958</ele>
        <time>2014-08-12T12:17:57.162000Z</time>
      </trkpt>
      <trkpt lat="39.79683" lon="116.49908">
        <ele>21.51324</ele>
        <time>2014-08-12T12:18:01.217000Z</time>
      </trkpt>
      <trkpt lat="39.79692" lon="116.49906">
        <ele>23.39594</ele>
        <time>2014-08-12T12:18:04.177000Z</time>
      </trkpt>
      <trkpt lat="39.79701" lon="116.49898">
        <ele>23.50745</ele>
        <time>2014-08-12T12:18:08.218000Z</time>
      </trkpt>
      <trkpt lat="39.79708" lon="116.49889">
        <ele>23.58667</ele>
        <time>2014-08-12T12:18:11.161000Z</time>
      </trkpt>
      <trkpt lat="39.79714" lon="116.49881">
        <ele>23.74658</ele>
        <time>2014-08-12T12:18:14.197000Z</time>
      </trkpt>
      <trkpt lat="39.79722" lon="116.49869">
        <ele>23.94507</ele>
        <time>2014-08-12T12:18:18.179000Z</time>
      </trkpt>
      <trkpt lat="39.79729" lon="116.49861">
        <ele>21.94946</ele>
        <time>2014-08-12T12:18:21.211000Z</time>
      </trkpt>
      <trkpt lat="39.79734" lon="116.49851">
        <ele>21.05237</ele>
        <time>2014-08-12T12:18:24.213000Z</time>
      </trkpt>
      <trkpt lat="39.79736" lon="116.49839">
        <ele>22.39844</ele>
        <time>2014-08-12T12:18:27.162000Z</time>
      </trkpt>
      <trkpt lat="39.79733" lon="116.49826">
        <ele>21.32239</ele>
        <time>2014-08-12T12:18:31.158000Z</time>
      </trkpt>
      <trkpt lat="39.79731" lon="116.49814">
        <ele>18.86221</ele>
        <time>2014-08-12T12:18:35.159000Z</time>
      </trkpt>
      <trkpt lat="39.79727" lon="116.49801">
        <ele>22.2301</ele>
        <time>2014-08-12T12:18:39.161000Z</time>
      </trkpt>
      <trkpt lat="39.79723" lon="116.49788">
        <ele>22.39288</ele>
        <time>2014-08-12T12:18:43.163000Z</time>
      </trkpt>
      <trkpt lat="39.79722" lon="116.49776">
        <ele>23.18848</ele>
        <time>2014-08-12T12:18:47.215000Z</time>
      </trkpt>
      <trkpt lat="39.7972" lon="116.49765">
        <ele>28.02856</ele>
        <time>2014-08-12T12:18:51.207000Z</time>
      </trkpt>
      <trkpt lat="39.79714" lon="116.49753">
        <ele>25.92584</ele>
        <time>2014-08-12T12:18:55.161000Z</time>
      </trkpt>
      <trkpt lat="39.79706" lon="116.49745">
        <ele>26.61353</ele>
        <time>2014-08-12T12:18:59.175000Z</time>
      </trkpt>
      <trkpt lat="39.79699" lon="116.49736">
        <ele>25.49628</ele>
        <time>2014-08-12T12:19:03.217000Z</time>
      </trkpt>
      <trkpt lat="39.79694" lon="116.49724">
        <ele>25.56879</ele>
        <time>2014-08-12T12:19:07.237000Z</time>
      </trkpt>
      <trkpt lat="39.79692" lon="116.49711">
        <ele>26.23401</ele>
        <time>2014-08-12T12:19:11.204000Z</time>
      </trkpt>
      <trkpt lat="39.7969" lon="116.49699">
        <ele>25.00415</ele>
        <time>2014-08-12T12:19:15.157000Z</time>
      </trkpt>
      <trkpt lat="39.79685" lon="116.49689">
        <ele>24.30798</ele>
        <time>2014-08-12T12:19:19.209000Z</time>
      </trkpt>
      <trkpt lat="39.79678" lon="116.49679">
        <ele>23.91418</ele>
        <time>2014-08-12T12:19:23.223000Z</time>
      </trkpt>
      <trkpt lat="39.79671" lon="116.49672">
        <ele>24.70465</ele>
        <time>2014-08-12T12:19:27.199000Z</time>
      </trkpt>
      <trkpt lat="39.79664" lon="116.49663">
        <ele>24.26013</ele>
        <time>2014-08-12T12:19:31.169000Z</time>
      </trkpt>
      <trkpt lat="39.79656" lon="116.49655">
        <ele>23.85156</ele>
        <time>2014-08-12T12:19:35.164000Z</time>
      </trkpt>
      <trkpt lat="39.79647" lon="116.49648">
        <ele>22.00116</ele>
        <time>2014-08-12T12:19:39.162000Z</time>
      </trkpt>
      <trkpt lat="39.79638" lon="116.49641">
        <ele>20.11017</ele>
        <time>2014-08-12T12:19:43.164000Z</time>
      </trkpt>
      <trkpt lat="39.79628" lon="116.49636">
        <ele>21.71112</ele>
        <time>2014-08-12T12:19:47.166000Z</time>
      </trkpt>
      <trkpt lat="39.79618" lon="116.49637">
        <ele>22.40167</ele>
        <time>2014-08-12T12:19:51.255000Z</time>
      </trkpt>
      <trkpt lat="39.79608" lon="116.49634">
        <ele>21.41895</ele>
        <time>2014-08-12T12:19:55.211000Z</time>
      </trkpt>
      <trkpt lat="39.79599" lon="116.4963">
        <ele>18.77069</ele>
        <time>2014-08-12T12:19:59.219000Z</time>
      </trkpt>
      <trkpt lat="39.79592" lon="116.49621">
        <ele>21.66388</ele>
        <time>2014-08-12T12:20:03.163000Z</time>
      </trkpt>
      <trkpt lat="39.79586" lon="116.49607">
        <ele>23.2309</ele>
        <time>2014-08-12T12:20:07.227000Z</time>
      </trkpt>
      <trkpt lat="39.79582" lon="116.49597">
        <ele>22.55957</ele>
        <time>2014-08-12T12:20:10.161000Z</time>
      </trkpt>
      <trkpt lat="39.79576" lon="116.49585">
        <ele>22.3584</ele>
        <time>2014-08-12T12:20:14.236000Z</time>
      </trkpt>
      <trkpt lat="39.7957" lon="116.49573">
        <ele>22.94159</ele>
        <time>2014-08-12T12:20:18.226000Z</time>
      </trkpt>
      <trkpt lat="39.79564" lon="116.49563">
        <ele>23.65387</ele>
        <time>2014-08-12T12:20:22.224000Z</time>
      </trkpt>
      <trkpt lat="39.79557" lon="116.49552">
        <ele>28.50769</ele>
        <time>2014-08-12T12:20:26.176000Z</time>
      </trkpt>
      <trkpt lat="39.7955" lon="116.49544">
        <ele>26.05402</ele>
        <time>2014-08-12T12:20:30.211000Z</time>
      </trkpt>
      <trkpt lat="39.79544" lon="116.49535">
        <ele>25.05377</ele>
        <time>2014-08-12T12:20:34.157000Z</time>
      </trkpt>
      <trkpt lat="39.79539" lon="116.49523">
        <ele>25.3562</ele>
        <time>2014-08-12T12:20:38.172000Z</time>
      </trkpt>
      <trkpt lat="39.79531" lon="116.49515">
        <ele>27.57623</ele>
        <time>2014-08-12T12:20:42.174000Z</time>
      </trkpt>
      <trkpt lat="39.79523" lon="116.49507">
        <ele>26.16534</ele>
        <time>2014-08-12T12:20:46.232000Z</time>
      </trkpt>
      <trkpt lat="39.79514" lon="116.49503">
        <ele>25.42688</ele>
        <time>2014-08-12T12:20:53.174000Z</time>
      </trkpt>
      <trkpt lat="39.79503" lon="116.495">
        <ele>24.10443</ele>
        <time>2014-08-12T12:20:58.180000Z</time>
      </trkpt>
      <trkpt lat="39.79493" lon="116.49501">
        <ele>23.62073</ele>
        <time>2014-08-12T12:21:02.218000Z</time>
      </trkpt>
      <trkpt lat="39.79483" lon="116.495">
        <ele>22.80127</ele>
        <time>2014-08-12T12:21:06.184000Z</time>
      </trkpt>
      <trkpt lat="39.79474" lon="116.49505">
        <ele>21.13324</ele>
        <time>2014-08-12T12:21:10.163000Z</time>
      </trkpt>
      <trkpt lat="39.79465" lon="116.4951">
        <ele>21.20325</ele>
        <time>2014-08-12T12:21:14.236000Z</time>
      </trkpt>
      <trkpt lat="39.79455" lon="116.49515">
        <ele>24.26093</ele>
        <time>2014-08-12T12:21:18.216000Z</time>
      </trkpt>
      <trkpt lat="39.79445" lon="116.49523">
        <ele>24.04651</ele>
        <time>2014-08-12T12:21:22.175000Z</time>
      </trkpt>
      <trkpt lat="39.79434" lon="116.49528">
        <ele>21.13934</ele>
        <time>2014-08-12T12:21:26.226000Z</time>
      </trkpt>
      <trkpt lat="39.79424" lon="116.49528">
        <ele>22.48584</ele>
        <time>2014-08-12T12:21:30.163000Z</time>
      </trkpt>
      <trkpt lat="39.79413" lon="116.49524">
        <ele>24.4054</ele>
        <time>2014-08-12T12:21:34.164000Z</time>
      </trkpt>
      <trkpt lat="39.79403" lon="116.4952">
        <ele>22.4516</ele>
        <time>2014-08-12T12:21:38.162000Z</time>
      </trkpt>
      <trkpt lat="39.79393" lon="116.4952">
        <ele>22.38861</ele>
        <time>2014-08-12T12:21:42.195000Z</time>
      </trkpt>
      <trkpt lat="39.79382" lon="116.49519">
        <ele>23.63409</ele>
        <time>2014-08-12T12:21:46.171000Z</time>
      </trkpt>
      <trkpt lat="39.79372" lon="116.49524">
        <ele>21.21722</ele>
        <time>2014-08-12T12:21:50.216000Z</time>
      </trkpt>
      <trkpt lat="39.79364" lon="116.49534">
        <ele>24.12756</ele>
        <time>2014-08-12T12:21:54.202000Z</time>
      </trkpt>
      <trkpt lat="39.7936" lon="116.49547">
        <ele>22.80957</ele>
        <time>2014-08-12T12:21:58.169000Z</time>
      </trkpt>
      <trkpt lat="39.79357" lon="116.49562">
        <ele>22.48383</ele>
        <time>2014-08-12T12:22:02.172000Z</time>
      </trkpt>
      <trkpt lat="39.79353" lon="116.49577">
        <ele>22.65424</ele>
        <time>2014-08-12T12:22:06.236000Z</time>
      </trkpt>
      <trkpt lat="39.79351" lon="116.49589">
        <ele>22.47961</ele>
        <time>2014-08-12T12:22:09.170000Z</time>
      </trkpt>
      <trkpt lat="39.79351" lon="116.49601">
        <ele>19.54364</ele>
        <time>2014-08-12T12:22:12.218000Z</time>
      </trkpt>
      <trkpt lat="39.7935" lon="116.49613">
        <ele>20.05414</ele>
        <time>2014-08-12T12:22:15.205000Z</time>
      </trkpt>
      <trkpt lat="39.79346" lon="116.49624">
        <ele>21.34009</ele>
        <time>2014-08-12T12:22:18.167000Z</time>
      </trkpt>
      <trkpt lat="39.79342" lon="116.49634">
        <ele>20.19946</ele>
        <time>2014-08-12T12:22:21.217000Z</time>
      </trkpt>
      <trkpt lat="39.79339" lon="116.49649">
        <ele>21.83771</ele>
        <time>2014-08-12T12:22:25.186000Z</time>
      </trkpt>
      <trkpt lat="39.79336" lon="116.49661">
        <ele>23.75275</ele>
        <time>2014-08-12T12:22:28.242000Z</time>
      </trkpt>
      <trkpt lat="39.79334" lon="116.49675">
        <ele>25.13129</ele>
        <time>2014-08-12T12:22:32.172000Z</time>
      </trkpt>
      <trkpt lat="39.79333" lon="116.4969">
        <ele>23.67279</ele>
        <time>2014-08-12T12:22:36.155000Z</time>
      </trkpt>
      <trkpt lat="39.79335" lon="116.49705">
        <ele>24.51971</ele>
        <time>2014-08-12T12:22:40.173000Z</time>
      </trkpt>
      <trkpt lat="39.79337" lon="116.49719">
        <ele>24.33588</ele>
        <time>2014-08-12T12:22:44.204000Z</time>
      </trkpt>
      <trkpt lat="39.79342" lon="116.49729">
        <ele>24.7301</ele>
        <time>2014-08-12T12:22:47.224000Z</time>
      </trkpt>
      <trkpt lat="39.79348" lon="116.49738">
        <ele>22.55756</ele>
        <time>2014-08-12T12:22:50.172000Z</time>
      </trkpt>
      <trkpt lat="39.79356" lon="116.49748">
        <ele>23.92389</ele>
        <time>2014-08-12T12:22:54.195000Z</time>
      </trkpt>
      <trkpt lat="39.79366" lon="116.49755">
        <ele>22.04266</ele>
        <time>2014-08-12T12:22:58.189000Z</time>
      </trkpt>
      <trkpt lat="39.79374" lon="116.49762">
        <ele>21.11176</ele>
        <time>2014-08-12T12:23:02.226000Z</time>
      </trkpt>
      <trkpt lat="39.79383" lon="116.4977">
        <ele>21.92419</ele>
        <time>2014-08-12T12:23:06.177000Z</time>
      </trkpt>
      <trkpt lat="39.79392" lon="116.49779">
        <ele>23.27216</ele>
        <time>2014-08-12T12:23:10.221000Z</time>
      </trkpt>
      <trkpt lat="39.79397" lon="116.49792">
        <ele>25.4657</ele>
        <time>2014-08-12T12:23:14.206000Z</time>
      </trkpt>
      <trkpt lat="39.79402" lon="116.49804">
        <ele>26.24908</ele>
        <time>2014-08-12T12:23:18.211000Z</time>
      </trkpt>
      <trkpt lat="39.79408" lon="116.49816">
        <ele>27.29706</ele>
        <time>2014-08-12T12:23:22.181000Z</time>
      </trkpt>
      <trkpt lat="39.79413" lon="116.49828">
        <ele>28.48834</ele>
        <time>2014-08-12T12:23:26.211000Z</time>
      </trkpt>
      <trkpt lat="39.79419" lon="116.49839">
        <ele>28.0387</ele>
        <time>2014-08-12T12:23:30.169000Z</time>
      </trkpt>
      <trkpt lat="39.79426" lon="116.49848">
        <ele>28.13977</ele>
        <time>2014-08-12T12:23:34.166000Z</time>
      </trkpt>
      <trkpt lat="39.79431" lon="116.49858">
        <ele>26.23853</ele>
        <time>2014-08-12T12:23:38.166000Z</time>
      </trkpt>
      <trkpt lat="39.79431" lon="116.49873">
        <ele>27.42609</ele>
        <time>2014-08-12T12:23:42.175000Z</time>
      </trkpt>
      <trkpt lat="39.79427" lon="116.49884">
        <ele>26.57013</ele>
        <time>2014-08-12T12:23:46.176000Z</time>
      </trkpt>
      <trkpt lat="39.79426" lon="116.49899">
        <ele>23.79242</ele>
        <time>2014-08-12T12:23:53.176000Z</time>
      </trkpt>
      <trkpt lat="39.79429" lon="116.49911">
        <ele>26.44098</ele>
        <time>2014-08-12T12:23:57.175000Z</time>
      </trkpt>
      <trkpt lat="39.79436" lon="116.49922">
        <ele>30.73407</ele>
        <time>2014-08-12T12:24:01.173000Z</time>
      </trkpt>
      <trkpt lat="39.7944" lon="116.49934">
        <ele>28.78992</ele>
        <time>2014-08-12T12:24:04.171000Z</time>
      </trkpt>
      <trkpt lat="39.79443" lon="116.49945">
        <ele>29.73962</ele>
        <time>2014-08-12T12:24:07.243000Z</time>
      </trkpt>
      <trkpt lat="39.79447" lon="116.49956">
        <ele>28.86591</ele>
        <time>2014-08-12T12:24:10.170000Z</time>
      </trkpt>
      <trkpt lat="39.79442" lon="116.49965">
        <ele>26.39325</ele>
        <time>2014-08-12T12:24:14.193000Z</time>
      </trkpt>
      <trkpt lat="39.79445" lon="116.49978">
        <ele>26.07526</ele>
        <time>2014-08-12T12:24:18.175000Z</time>
      </trkpt>
      <trkpt lat="39.79448" lon="116.49992">
        <ele>25.66534</ele>
        <time>2014-08-12T12:24:22.182000Z</time>
      </trkpt>
      <trkpt lat="39.7945" lon="116.50004">
        <ele>26.73224</ele>
        <time>2014-08-12T12:24:25.170000Z</time>
      </trkpt>
      <trkpt lat="39.79455" lon="116.50017">
        <ele>27.74084</ele>
        <time>2014-08-12T12:24:29.174000Z</time>
      </trkpt>
      <trkpt lat="39.79461" lon="116.50028">
        <ele>26.92126</ele>
        <time>2014-08-12T12:24:33.172000Z</time>
      </trkpt>
      <trkpt lat="39.79468" lon="116.50037">
        <ele>28.33691</ele>
        <time>2014-08-12T12:24:37.169000Z</time>
      </trkpt>
      <trkpt lat="39.79476" lon="116.50032">
        <ele>32.53644</ele>
        <time>2014-08-12T12:24:41.168000Z</time>
      </trkpt>
      <trkpt lat="39.79487" lon="116.50028">
        <ele>32.09265</ele>
        <time>2014-08-12T12:24:46.233000Z</time>
      </trkpt>
      <trkpt lat="39.79497" lon="116.50032">
        <ele>32.4809</ele>
        <time>2014-08-12T12:24:50.219000Z</time>
      </trkpt>
      <trkpt lat="39.79507" lon="116.50035">
        <ele>32.21863</ele>
        <time>2014-08-12T12:24:54.210000Z</time>
      </trkpt>
      <trkpt lat="39.79517" lon="116.50032">
        <ele>32.61322</ele>
        <time>2014-08-12T12:24:58.175000Z</time>
      </trkpt>
      <trkpt lat="39.79527" lon="116.50027">
        <ele>31.42548</ele>
        <time>2014-08-12T12:25:02.183000Z</time>
      </trkpt>
      <trkpt lat="39.79535" lon="116.5002">
        <ele>31.94659</ele>
        <time>2014-08-12T12:25:06.174000Z</time>
      </trkpt>
      <trkpt lat="39.79543" lon="116.50011">
        <ele>34.48981</ele>
        <time>2014-08-12T12:25:10.217000Z</time>
      </trkpt>
      <trkpt lat="39.79551" lon="116.50002">
        <ele>32.28784</ele>
        <time>2014-08-12T12:25:14.183000Z</time>
      </trkpt>
      <trkpt lat="39.79561" lon="116.49995">
        <ele>29.15912</ele>
        <time>2014-08-12T12:25:18.167000Z</time>
      </trkpt>
      <trkpt lat="39.7957" lon="116.49986">
        <ele>27.2113</ele>
        <time>2014-08-12T12:25:22.207000Z</time>
      </trkpt>
      <trkpt lat="39.79577" lon="116.49978">
        <ele>26.21741</ele>
        <time>2014-08-12T12:25:25.226000Z</time>
      </trkpt>
      <trkpt lat="39.79585" lon="116.49972">
        <ele>24.33197</ele>
        <time>2014-08-12T12:25:28.170000Z</time>
      </trkpt>
      <trkpt lat="39.79593" lon="116.49963">
        <ele>23.86145</ele>
        <time>2014-08-12T12:25:32.170000Z</time>
      </trkpt>
      <trkpt lat="39.79603" lon="116.49956">
        <ele>22.39557</ele>
        <time>2014-08-12T12:25:36.163000Z</time>
      </trkpt>
      <trkpt lat="39.79612" lon="116.4995">
        <ele>20.96759</ele>
        <time>2014-08-12T12:25:40.178000Z</time>
      </trkpt>
      <trkpt lat="39.79619" lon="116.49942">
        <ele>18.43079</ele>
        <time>2014-08-12T12:25:44.169000Z</time>
      </trkpt>
      <trkpt lat="39.79628" lon="116.49934">
        <ele>17.96783</ele>
        <time>2014-08-12T12:25:48.223000Z</time>
      </trkpt>
      <trkpt lat="39.79638" lon="116.49928">
        <ele>17.2836</ele>
        <time>2014-08-12T12:25:52.227000Z</time>
      </trkpt>
      <trkpt lat="39.79647" lon="116.4992">
        <ele>19.60394</ele>
        <time>2014-08-12T12:25:56.216000Z</time>
      </trkpt>
      <trkpt lat="39.79656" lon="116.49915">
        <ele>19.98322</ele>
        <time>2014-08-12T12:25:59.204000Z</time>
      </trkpt>
      <trkpt lat="39.79666" lon="116.49911">
        <ele>20.5174</ele>
        <time>2014-08-12T12:26:03.241000Z</time>
      </trkpt>
      <trkpt lat="39.79676" lon="116.49908">
        <ele>20.52441</ele>
        <time>2014-08-12T12:26:07.200000Z</time>
      </trkpt>
      <trkpt lat="39.79686" lon="116.49907">
        <ele>21.24097</ele>
        <time>2014-08-12T12:26:11.175000Z</time>
      </trkpt>
      <trkpt lat="39.79695" lon="116.49902">
        <ele>22.21686</ele>
        <time>2014-08-12T12:26:15.209000Z</time>
      </trkpt>
      <trkpt lat="39.79702" lon="116.49895">
        <ele>20.70728</ele>
        <time>2014-08-12T12:26:19.215000Z</time>
      </trkpt>
      <trkpt lat="39.79709" lon="116.49886">
        <ele>20.81415</ele>
        <time>2014-08-12T12:26:23.207000Z</time>
      </trkpt>
      <trkpt lat="39.79716" lon="116.49875">
        <ele>22.22986</ele>
        <time>2014-08-12T12:26:28.206000Z</time>
      </trkpt>
      <trkpt lat="39.79723" lon="116.49866">
        <ele>23.62555</ele>
        <time>2014-08-12T12:26:32.172000Z</time>
      </trkpt>
      <trkpt lat="39.79728" lon="116.49853">
        <ele>24.81335</ele>
        <time>2014-08-12T12:26:36.177000Z</time>
      </trkpt>
      <trkpt lat="39.79731" lon="116.4984">
        <ele>24.07062</ele>
        <time>2014-08-12T12:26:40.175000Z</time>
      </trkpt>
      <trkpt lat="39.79733" lon="116.49827">
        <ele>25.53503</ele>
        <time>2014-08-12T12:26:45.180000Z</time>
      </trkpt>
      <trkpt lat="39.7973" lon="116.49813">
        <ele>25.03937</ele>
        <time>2014-08-12T12:26:51.168000Z</time>
      </trkpt>
      <trkpt lat="39.79727" lon="116.49801">
        <ele>25.09747</ele>
        <time>2014-08-12T12:26:55.209000Z</time>
      </trkpt>
      <trkpt lat="39.79724" lon="116.4979">
        <ele>24.78186</ele>
        <time>2014-08-12T12:26:59.177000Z</time>
      </trkpt>
      <trkpt lat="39.79721" lon="116.49777">
        <ele>26.16321</ele>
        <time>2014-08-12T12:27:03.248000Z</time>
      </trkpt>
      <trkpt lat="39.79716" lon="116.49767">
        <ele>25.36725</ele>
        <time>2014-08-12T12:27:07.227000Z</time>
      </trkpt>
      <trkpt lat="39.79711" lon="116.49756">
        <ele>25.07367</ele>
        <time>2014-08-12T12:27:12.232000Z</time>
      </trkpt>
      <trkpt lat="39.79704" lon="116.49745">
        <ele>24.11444</ele>
        <time>2014-08-12T12:27:17.242000Z</time>
      </trkpt>
      <trkpt lat="39.79696" lon="116.49736">
        <ele>23.46716</ele>
        <time>2014-08-12T12:27:21.214000Z</time>
      </trkpt>
      <trkpt lat="39.79692" lon="116.49725">
        <ele>23.46509</ele>
        <time>2014-08-12T12:27:25.248000Z</time>
      </trkpt>
      <trkpt lat="39.7969" lon="116.49712">
        <ele>25.17609</ele>
        <time>2014-08-12T12:27:29.190000Z</time>
      </trkpt>
      <trkpt lat="39.79688" lon="116.497">
        <ele>25.40356</ele>
        <time>2014-08-12T12:27:33.173000Z</time>
      </trkpt>
      <trkpt lat="39.79683" lon="116.49689">
        <ele>23.93878</ele>
        <time>2014-08-12T12:27:37.174000Z</time>
      </trkpt>
      <trkpt lat="39.79675" lon="116.4968">
        <ele>23.36133</ele>
        <time>2014-08-12T12:27:41.178000Z</time>
      </trkpt>
      <trkpt lat="39.79667" lon="116.49672">
        <ele>25.73224</ele>
        <time>2014-08-12T12:27:45.173000Z</time>
      </trkpt>
      <trkpt lat="39.79659" lon="116.49665">
        <ele>27.46509</ele>
        <time>2014-08-12T12:27:49.209000Z</time>
      </trkpt>
      <trkpt lat="39.79653" lon="116.49655">
        <ele>27.67456</ele>
        <time>2014-08-12T12:27:53.180000Z</time>
      </trkpt>
      <trkpt lat="39.79646" lon="116.49648">
        <ele>26.78802</ele>
        <time>2014-08-12T12:27:57.218000Z</time>
      </trkpt>
      <trkpt lat="39.79635" lon="116.49643">
        <ele>25.09631</ele>
        <time>2014-08-12T12:28:01.179000Z</time>
      </trkpt>
      <trkpt lat="39.79626" lon="116.49639">
        <ele>24.90472</ele>
        <time>2014-08-12T12:28:05.178000Z</time>
      </trkpt>
      <trkpt lat="39.79616" lon="116.49635">
        <ele>25.09967</ele>
        <time>2014-08-12T12:28:10.179000Z</time>
      </trkpt>
    </trkseg>
  </trk>
</gpx>