<?xml version="1.0" encoding="UTF-8"?>
<gpx xmlns="http://www.topografix.com/GPX/1/1" xmlns:gpxtpx="http://www.garmin.com/xmlschemas/TrackPointExtension/v1" xmlns:xsi="http://www.w3.org/2001/XMLSchema-instance" xsi:schemaLocation="http://www.topografix.com/GPX/1/1 http://www.topografix.com/GPX/1/1/gpx.xsd" version="1.1" creator="gpx.py -- https://github.com/tkrajina/gpxpy">
  <trk>
    <name>gpx from codoon</name>
    <type>Run</type>
    <trkseg>
      <trkpt lat="43.813911908411804" lon="87.58895116336556">
        <ele>822.5997021484375</ele>
        <time>2020-05-04T00:02:03Z</time>
      </trkpt>
      <trkpt lat="43.81391391447954" lon="87.58897117080429">
        <ele>822.5997021484375</ele>
        <time>2020-05-04T00:02:04Z</time>
      </trkpt>
      <trkpt lat="43.813916926239344" lon="87.58901218603451">
        <ele>822.5997021484375</ele>
        <time>2020-05-04T00:02:07Z</time>
      </trkpt>
      <trkpt lat="43.81393794715129" lon="87.58904919876638">
        <ele>822.5132702636719</ele>
        <time>2020-05-04T00:02:11Z</time>
      </trkpt>
      <trkpt lat="43.81397197005198" lon="87.58906420261428">
        <ele>821.9173986816406</ele>
        <time>2020-05-04T00:02:15Z</time>
      </trkpt>
      <trkpt lat="43.814021995473766" lon="87.58905219562861">
        <ele>821.9173986816406</ele>
        <time>2020-05-04T00:02:17Z</time>
      </trkpt>
      <trkpt lat="43.81406301554781" lon="87.58903918871765">
        <ele>821.4354138183594</ele>
        <time>2020-05-04T00:02:19Z</time>
      </trkpt>
      <trkpt lat="43.81409803513817" lon="87.58903818657332">
        <ele>821.4354138183594</ele>
        <time>2020-05-04T00:02:21Z</time>
      </trkpt>
      <trkpt lat="43.81413905837304" lon="87.5890381844976">
        <ele>821.1425622558594</ele>
        <time>2020-05-04T00:02:23Z</time>
      </trkpt>
      <trkpt lat="43.814184080221786" lon="87.58902317662674">
        <ele>821.1425622558594</ele>
        <time>2020-05-04T00:02:27Z</time>
      </trkpt>
      <trkpt lat="43.8142381047146" lon="87.58899816454189">
        <ele>821.0286755371094</ele>
        <time>2020-05-04T00:02:29Z</time>
      </trkpt>
      <trkpt lat="43.814288126175576" lon="87.58897015149302">
        <ele>821.0286755371094</ele>
        <time>2020-05-04T00:02:31Z</time>
      </trkpt>
      <trkpt lat="43.81433814834598" lon="87.58894513953132">
        <ele>820.8151379394532</ele>
        <time>2020-05-04T00:02:33Z</time>
      </trkpt>
      <trkpt lat="43.81438316591479" lon="87.58891312512768">
        <ele>820.8151379394532</ele>
        <time>2020-05-04T00:02:35Z</time>
      </trkpt>
      <trkpt lat="43.81442318010399" lon="87.58887911015215">
        <ele>820.8151379394532</ele>
        <time>2020-05-04T00:02:37Z</time>
      </trkpt>
      <trkpt lat="43.81445919247863" lon="87.58884709607767">
        <ele>820.6819311523437</ele>
        <time>2020-05-04T00:02:39Z</time>
      </trkpt>
      <trkpt lat="43.81449820853409" lon="87.58882308487401">
        <ele>820.6819311523437</ele>
        <time>2020-05-04T00:02:41Z</time>
      </trkpt>
      <trkpt lat="43.81454523011669" lon="87.58880307477713">
        <ele>820.5344885253907</ele>
        <time>2020-05-04T00:02:43Z</time>
      </trkpt>
      <trkpt lat="43.81459825584936" lon="87.58878606551521">
        <ele>820.5344885253907</ele>
        <time>2020-05-04T00:02:45Z</time>
      </trkpt>
      <trkpt lat="43.814651280805116" lon="87.5887660550702">
        <ele>820.5344885253907</ele>
        <time>2020-05-04T00:02:47Z</time>
      </trkpt>
      <trkpt lat="43.81469629992569" lon="87.58874104305612">
        <ele>820.4002648925781</ele>
        <time>2020-05-04T00:02:49Z</time>
      </trkpt>
      <trkpt lat="43.81473531561682" lon="87.58871603130835">
        <ele>820.4002648925781</ele>
        <time>2020-05-04T00:02:51Z</time>
      </trkpt>
      <trkpt lat="43.81477033056434" lon="87.58869702208364">
        <ele>820.5116094970704</ele>
        <time>2020-05-04T00:02:53Z</time>
      </trkpt>
      <trkpt lat="43.81480734818659" lon="87.58868401509866">
        <ele>820.5116094970704</ele>
        <time>2020-05-04T00:02:55Z</time>
      </trkpt>
      <trkpt lat="43.81484636849417" lon="87.58867701036742">
        <ele>820.5116094970704</ele>
        <time>2020-05-04T00:02:57Z</time>
      </trkpt>
      <trkpt lat="43.81488638936803" lon="87.58867000558261">
        <ele>820.513134765625</ele>
        <time>2020-05-04T00:02:59Z</time>
      </trkpt>
      <trkpt lat="43.81492640998082" lon="87.58866200039998">
        <ele>820.513134765625</ele>
        <time>2020-05-04T00:03:01Z</time>
      </trkpt>
      <trkpt lat="43.81496442737222" lon="87.58864599214974">
        <ele>820.4541577148437</ele>
        <time>2020-05-04T00:03:03Z</time>
      </trkpt>
      <trkpt lat="43.81500044073904" lon="87.58861897961667">
        <ele>820.4541577148437</ele>
        <time>2020-05-04T00:03:05Z</time>
      </trkpt>
      <trkpt lat="43.815028446109366" lon="87.58857896225153">
        <ele>820.4541577148437</ele>
        <time>2020-05-04T00:03:07Z</time>
      </trkpt>
      <trkpt lat="43.8150434419062" lon="87.58853094222857">
        <ele>820.3850122070313</ele>
        <time>2020-05-04T00:03:09Z</time>
      </trkpt>
      <trkpt lat="43.81504242744881" lon="87.58847892125462">
        <ele>820.3850122070313</ele>
        <time>2020-05-04T00:03:11Z</time>
      </trkpt>
      <trkpt lat="43.81503040689965" lon="87.58842790108454">
        <ele>820.4139923095703</ele>
        <time>2020-05-04T00:03:13Z</time>
      </trkpt>
      <trkpt lat="43.81501438314598" lon="87.58837387972488">
        <ele>820.4139923095703</ele>
        <time>2020-05-04T00:03:15Z</time>
      </trkpt>
      <trkpt lat="43.81499835898664" lon="87.58831885777496">
        <ele>820.4139923095703</ele>
        <time>2020-05-04T00:03:17Z</time>
      </trkpt>
      <trkpt lat="43.81498133356891" lon="87.58826183485668">
        <ele>820.5446569824219</ele>
        <time>2020-05-04T00:03:19Z</time>
      </trkpt>
      <trkpt lat="43.814961304900734" lon="87.58819980978323">
        <ele>820.5446569824219</ele>
        <time>2020-05-04T00:03:21Z</time>
      </trkpt>
      <trkpt lat="43.81494027520995" lon="87.58813678410357">
        <ele>820.6392236328126</ele>
        <time>2020-05-04T00:03:23Z</time>
      </trkpt>
      <trkpt lat="43.81492224675736" lon="87.58807275760377">
        <ele>820.6392236328126</ele>
        <time>2020-05-04T00:03:25Z</time>
      </trkpt>
      <trkpt lat="43.81491022239323" lon="87.58801173185637">
        <ele>820.6392236328126</ele>
        <time>2020-05-04T00:03:27Z</time>
      </trkpt>
      <trkpt lat="43.81489619614412" lon="87.58794870511184">
        <ele>820.4953399658203</ele>
        <time>2020-05-04T00:03:29Z</time>
      </trkpt>
      <trkpt lat="43.814880168288035" lon="87.58788467778899">
        <ele>820.4953399658203</ele>
        <time>2020-05-04T00:03:31Z</time>
      </trkpt>
      <trkpt lat="43.81486313997916" lon="87.58782165071631">
        <ele>820.5070336914063</ele>
        <time>2020-05-04T00:03:33Z</time>
      </trkpt>
      <trkpt lat="43.814850114362706" lon="87.58776062410088">
        <ele>820.5070336914063</ele>
        <time>2020-05-04T00:03:35Z</time>
      </trkpt>
      <trkpt lat="43.814834086271574" lon="87.58769759650872">
        <ele>820.5070336914063</ele>
        <time>2020-05-04T00:03:37Z</time>
      </trkpt>
      <trkpt lat="43.81481505660717" lon="87.58763556928669">
        <ele>820.2879034423828</ele>
        <time>2020-05-04T00:03:39Z</time>
      </trkpt>
      <trkpt lat="43.81479002244094" lon="87.58757054075696">
        <ele>820.2879034423828</ele>
        <time>2020-05-04T00:03:41Z</time>
      </trkpt>
      <trkpt lat="43.81476098519331" lon="87.5875035112475">
        <ele>820.2879034423828</ele>
        <time>2020-05-04T00:03:43Z</time>
      </trkpt>
      <trkpt lat="43.8147309474929" lon="87.5874374819875">
        <ele>820.1755419921875</ele>
        <time>2020-05-04T00:03:45Z</time>
      </trkpt>
      <trkpt lat="43.81470391161721" lon="87.58737245278627">
        <ele>820.1755419921875</ele>
        <time>2020-05-04T00:03:47Z</time>
      </trkpt>
      <trkpt lat="43.81468588225991" lon="87.58731242525546">
        <ele>820.2370611572265</ele>
        <time>2020-05-04T00:03:49Z</time>
      </trkpt>
      <trkpt lat="43.81467585695528" lon="87.58725139662384">
        <ele>820.2370611572265</ele>
        <time>2020-05-04T00:03:51Z</time>
      </trkpt>
      <trkpt lat="43.81466783131397" lon="87.58718636573424">
        <ele>820.2370611572265</ele>
        <time>2020-05-04T00:03:53Z</time>
      </trkpt>
      <trkpt lat="43.8146558025566" lon="87.58711933381859">
        <ele>820.4505987548828</ele>
        <time>2020-05-04T00:03:55Z</time>
      </trkpt>
      <trkpt lat="43.814640771896734" lon="87.58705230178514">
        <ele>820.4505987548828</ele>
        <time>2020-05-04T00:03:57Z</time>
      </trkpt>
      <trkpt lat="43.81463174477341" lon="87.5869862696735">
        <ele>820.4241607666015</ele>
        <time>2020-05-04T00:03:59Z</time>
      </trkpt>
      <trkpt lat="43.81462371802187" lon="87.58692023724943">
        <ele>820.4241607666015</ele>
        <time>2020-05-04T00:04:01Z</time>
      </trkpt>
      <trkpt lat="43.81461369062277" lon="87.58685620567142">
        <ele>820.4241607666015</ele>
        <time>2020-05-04T00:04:03Z</time>
      </trkpt>
      <trkpt lat="43.81459365840051" lon="87.5867951758746">
        <ele>820.1074133300781</ele>
        <time>2020-05-04T00:04:05Z</time>
      </trkpt>
      <trkpt lat="43.8145716248775" lon="87.58673414595535">
        <ele>820.1074133300781</ele>
        <time>2020-05-04T00:04:07Z</time>
      </trkpt>
      <trkpt lat="43.81454959188611" lon="87.58667511684077">
        <ele>820.135376586914</ele>
        <time>2020-05-04T00:04:09Z</time>
      </trkpt>
      <trkpt lat="43.81453256192567" lon="87.58661708778129">
        <ele>820.135376586914</ele>
        <time>2020-05-04T00:04:11Z</time>
      </trkpt>
      <trkpt lat="43.814515532168706" lon="87.5865600590406">
        <ele>820.135376586914</ele>
        <time>2020-05-04T00:04:13Z</time>
      </trkpt>
      <trkpt lat="43.814493497289696" lon="87.5864970272098">
        <ele>819.9559033203125</ele>
        <time>2020-05-04T00:04:15Z</time>
      </trkpt>
      <trkpt lat="43.81446946073905" lon="87.58643299471295">
        <ele>819.9559033203125</ele>
        <time>2020-05-04T00:04:17Z</time>
      </trkpt>
      <trkpt lat="43.81444742368734" lon="87.58636495973782">
        <ele>819.808969116211</ele>
        <time>2020-05-04T00:04:19Z</time>
      </trkpt>
      <trkpt lat="43.8144233863924" lon="87.58629992619612">
        <ele>819.808969116211</ele>
        <time>2020-05-04T00:04:21Z</time>
      </trkpt>
      <trkpt lat="43.81440235208386" lon="87.58623889441017">
        <ele>819.808969116211</ele>
        <time>2020-05-04T00:04:23Z</time>
      </trkpt>
      <trkpt lat="43.81437931833105" lon="87.58618286522102">
        <ele>819.5430639648438</ele>
        <time>2020-05-04T00:04:25Z</time>
      </trkpt>
      <trkpt lat="43.81436328877969" lon="87.58612783603569">
        <ele>819.5430639648438</ele>
        <time>2020-05-04T00:04:27Z</time>
      </trkpt>
      <trkpt lat="43.81434725871656" lon="87.58607180611794">
        <ele>819.5481481933593</ele>
        <time>2020-05-04T00:04:29Z</time>
      </trkpt>
      <trkpt lat="43.8143312262401" lon="87.58600977268775">
        <ele>819.5481481933593</ele>
        <time>2020-05-04T00:04:31Z</time>
      </trkpt>
      <trkpt lat="43.814315191682105" lon="87.58594273623612">
        <ele>819.5481481933593</ele>
        <time>2020-05-04T00:04:33Z</time>
      </trkpt>
      <trkpt lat="43.81429715540402" lon="87.58587469905335">
        <ele>819.5771282958984</ele>
        <time>2020-05-04T00:04:35Z</time>
      </trkpt>
      <trkpt lat="43.81427411918715" lon="87.58581466637436">
        <ele>819.5771282958984</ele>
        <time>2020-05-04T00:04:37Z</time>
      </trkpt>
      <trkpt lat="43.8142460827064" lon="87.58576163771683">
        <ele>819.5557745361328</ele>
        <time>2020-05-04T00:04:39Z</time>
      </trkpt>
      <trkpt lat="43.814221047407926" lon="87.58570760816592">
        <ele>819.5557745361328</ele>
        <time>2020-05-04T00:04:41Z</time>
      </trkpt>
      <trkpt lat="43.814193010278615" lon="87.58565357859143">
        <ele>819.5557745361328</ele>
        <time>2020-05-04T00:04:43Z</time>
      </trkpt>
      <trkpt lat="43.814149968488906" lon="87.58560955538626">
        <ele>819.3554559326172</ele>
        <time>2020-05-04T00:04:45Z</time>
      </trkpt>
      <trkpt lat="43.81409592954195" lon="87.58558854596562">
        <ele>819.3554559326172</ele>
        <time>2020-05-04T00:04:47Z</time>
      </trkpt>
      <trkpt lat="43.814040899966066" lon="87.58559255106884">
        <ele>819.7311804199219</ele>
        <time>2020-05-04T00:04:49Z</time>
      </trkpt>
      <trkpt lat="43.81399788275129" lon="87.58561056366331">
        <ele>819.7311804199219</ele>
        <time>2020-05-04T00:04:51Z</time>
      </trkpt>
      <trkpt lat="43.81396187186487" lon="87.58563457934503">
        <ele>819.7311804199219</ele>
        <time>2020-05-04T00:04:53Z</time>
      </trkpt>
      <trkpt lat="43.81392586174283" lon="87.58566059614245">
        <ele>819.9162463378906</ele>
        <time>2020-05-04T00:04:55Z</time>
      </trkpt>
      <trkpt lat="43.813887848490644" lon="87.58568161013181">
        <ele>819.9162463378906</ele>
        <time>2020-05-04T00:04:57Z</time>
      </trkpt>
      <trkpt lat="43.81384583216823" lon="87.58570062315185">
        <ele>819.9640380859375</ele>
        <time>2020-05-04T00:04:59Z</time>
      </trkpt>
      <trkpt lat="43.81380081373957" lon="87.58571863573046">
        <ele>819.9640380859375</ele>
        <time>2020-05-04T00:05:01Z</time>
      </trkpt>
      <trkpt lat="43.81375479707775" lon="87.58574265176249">
        <ele>819.9640380859375</ele>
        <time>2020-05-04T00:05:03Z</time>
      </trkpt>
      <trkpt lat="43.81370578336723" lon="87.58577867473252">
        <ele>820.2126568603516</ele>
        <time>2020-05-04T00:05:05Z</time>
      </trkpt>
      <trkpt lat="43.81365377061389" lon="87.585821701736">
        <ele>820.2126568603516</ele>
        <time>2020-05-04T00:05:07Z</time>
      </trkpt>
      <trkpt lat="43.81359875685138" lon="87.58586672990565">
        <ele>820.3845037841797</ele>
        <time>2020-05-04T00:05:09Z</time>
      </trkpt>
      <trkpt lat="43.81354573991353" lon="87.58590075168811">
        <ele>820.3845037841797</ele>
        <time>2020-05-04T00:05:11Z</time>
      </trkpt>
      <trkpt lat="43.81349572194749" lon="87.58592776933706">
        <ele>820.3845037841797</ele>
        <time>2020-05-04T00:05:13Z</time>
      </trkpt>
      <trkpt lat="43.81344970545254" lon="87.58595278562453">
        <ele>820.4617840576173</ele>
        <time>2020-05-04T00:05:15Z</time>
      </trkpt>
      <trkpt lat="43.81340268570139" lon="87.58597079803116">
        <ele>820.4617840576173</ele>
        <time>2020-05-04T00:05:17Z</time>
      </trkpt>
      <trkpt lat="43.81335766592985" lon="87.58598580865053">
        <ele>820.6976922607422</ele>
        <time>2020-05-04T00:05:19Z</time>
      </trkpt>
      <trkpt lat="43.81331464348648" lon="87.58599081360536">
        <ele>820.6976922607422</ele>
        <time>2020-05-04T00:05:21Z</time>
      </trkpt>
      <trkpt lat="43.81327462312112" lon="87.5859968189617">
        <ele>820.6976922607422</ele>
        <time>2020-05-04T00:05:23Z</time>
      </trkpt>
      <trkpt lat="43.813234600858635" lon="87.58599782154239">
        <ele>820.8486938476562</ele>
        <time>2020-05-04T00:05:25Z</time>
      </trkpt>
      <trkpt lat="43.81319257746534" lon="87.5859988242243">
        <ele>820.8486938476562</ele>
        <time>2020-05-04T00:05:27Z</time>
      </trkpt>
      <trkpt lat="43.8131515569147" lon="87.58600583018277">
        <ele>820.9336004638672</ele>
        <time>2020-05-04T00:05:29Z</time>
      </trkpt>
      <trkpt lat="43.81311053939196" lon="87.58602084056788">
        <ele>820.9336004638672</ele>
        <time>2020-05-04T00:05:31Z</time>
      </trkpt>
      <trkpt lat="43.813069526390166" lon="87.58604785756582">
        <ele>820.9336004638672</ele>
        <time>2020-05-04T00:05:33Z</time>
      </trkpt>
      <trkpt lat="43.81302951505058" lon="87.58607787611956">
        <ele>821.1262927246094</ele>
        <time>2020-05-04T00:05:35Z</time>
      </trkpt>
      <trkpt lat="43.81298850273143" lon="87.5861068941215">
        <ele>821.1262927246094</ele>
        <time>2020-05-04T00:05:37Z</time>
      </trkpt>
      <trkpt lat="43.81294849056832" lon="87.58613491147558">
        <ele>821.3037322998047</ele>
        <time>2020-05-04T00:05:39Z</time>
      </trkpt>
      <trkpt lat="43.81290947744847" lon="87.58615892655169">
        <ele>821.3037322998047</ele>
        <time>2020-05-04T00:05:41Z</time>
      </trkpt>
      <trkpt lat="43.81287046430393" lon="87.58618294159314">
        <ele>821.3037322998047</ele>
        <time>2020-05-04T00:05:43Z</time>
      </trkpt>
      <trkpt lat="43.81283045056896" lon="87.58620695665053">
        <ele>821.5015087890625</ele>
        <time>2020-05-04T00:05:45Z</time>
      </trkpt>
      <trkpt lat="43.812791439219446" lon="87.58623597432594">
        <ele>821.5015087890625</ele>
        <time>2020-05-04T00:05:47Z</time>
      </trkpt>
      <trkpt lat="43.81276443682535" lon="87.5862709945746">
        <ele>821.5015087890625</ele>
        <time>2020-05-04T00:05:49Z</time>
      </trkpt>
      <trkpt lat="43.81275544857784" lon="87.58631701973373">
        <ele>821.6464093017578</ele>
        <time>2020-05-04T00:05:51Z</time>
      </trkpt>
      <trkpt lat="43.81276747501751" lon="87.58637104796318">
        <ele>821.6464093017578</ele>
        <time>2020-05-04T00:05:53Z</time>
      </trkpt>
      <trkpt lat="43.81278850785835" lon="87.58642907767756">
        <ele>821.6738641357422</ele>
        <time>2020-05-04T00:05:55Z</time>
      </trkpt>
      <trkpt lat="43.81281654450848" lon="87.58648710683514">
        <ele>821.6738641357422</ele>
        <time>2020-05-04T00:05:57Z</time>
      </trkpt>
      <trkpt lat="43.812844579943324" lon="87.58654213422429">
        <ele>821.6738641357422</ele>
        <time>2020-05-04T00:05:59Z</time>
      </trkpt>
      <trkpt lat="43.81287361580875" lon="87.58659716138091">
        <ele>821.6108197021484</ele>
        <time>2020-05-04T00:06:01Z</time>
      </trkpt>
      <trkpt lat="43.81289464561211" lon="87.58664818669826">
        <ele>821.6108197021484</ele>
        <time>2020-05-04T00:06:03Z</time>
      </trkpt>
      <trkpt lat="43.81291067212214" lon="87.58669821159971">
        <ele>821.6992852783203</ele>
        <time>2020-05-04T00:06:05Z</time>
      </trkpt>
      <trkpt lat="43.8129226969485" lon="87.58675023757273">
        <ele>821.6992852783203</ele>
        <time>2020-05-04T00:06:07Z</time>
      </trkpt>
      <trkpt lat="43.8129377250673" lon="87.5868072657629">
        <ele>821.6992852783203</ele>
        <time>2020-05-04T00:06:09Z</time>
      </trkpt>
      <trkpt lat="43.81295475519369" lon="87.58686729516445">
        <ele>821.7547033691407</ele>
        <time>2020-05-04T00:06:11Z</time>
      </trkpt>
      <trkpt lat="43.812972788425235" lon="87.58693532828875">
        <ele>821.7547033691407</ele>
        <time>2020-05-04T00:06:13Z</time>
      </trkpt>
      <trkpt lat="43.81298781941772" lon="87.58700236079261">
        <ele>821.6397998046875</ele>
        <time>2020-05-04T00:06:15Z</time>
      </trkpt>
      <trkpt lat="43.812999848842836" lon="87.587070393669">
        <ele>821.6397998046875</ele>
        <time>2020-05-04T00:06:17Z</time>
      </trkpt>
      <trkpt lat="43.81301387689328" lon="87.58713142276079">
        <ele>821.6397998046875</ele>
        <time>2020-05-04T00:06:19Z</time>
      </trkpt>
      <trkpt lat="43.8130269035593" lon="87.58719045071344">
        <ele>821.4562591552734</ele>
        <time>2020-05-04T00:06:21Z</time>
      </trkpt>
      <trkpt lat="43.81303993039268" lon="87.58725047893654">
        <ele>821.4562591552734</ele>
        <time>2020-05-04T00:06:23Z</time>
      </trkpt>
      <trkpt lat="43.813047956158" lon="87.58731651005117">
        <ele>821.4003326416016</ele>
        <time>2020-05-04T00:06:25Z</time>
      </trkpt>
      <trkpt lat="43.813052981933744" lon="87.58738854388471">
        <ele>821.4003326416016</ele>
        <time>2020-05-04T00:06:27Z</time>
      </trkpt>
      <trkpt lat="43.81305400489968" lon="87.58745957714245">
        <ele>821.4003326416016</ele>
        <time>2020-05-04T00:06:29Z</time>
      </trkpt>
      <trkpt lat="43.8130570290822" lon="87.58753161045892">
        <ele>821.3316955566406</ele>
        <time>2020-05-04T00:06:31Z</time>
      </trkpt>
      <trkpt lat="43.813066056735266" lon="87.58760464361865">
        <ele>821.3316955566406</ele>
        <time>2020-05-04T00:06:33Z</time>
      </trkpt>
      <trkpt lat="43.813081087240946" lon="87.58767667570069">
        <ele>821.3703356933594</ele>
        <time>2020-05-04T00:06:35Z</time>
      </trkpt>
      <trkpt lat="43.81309811714108" lon="87.5877437051213">
        <ele>821.3703356933594</ele>
        <time>2020-05-04T00:06:37Z</time>
      </trkpt>
      <trkpt lat="43.813114144782965" lon="87.5878057320927">
        <ele>821.3703356933594</ele>
        <time>2020-05-04T00:06:39Z</time>
      </trkpt>
      <trkpt lat="43.81312916991239" lon="87.58786175622794">
        <ele>821.2539068603515</ele>
        <time>2020-05-04T00:06:41Z</time>
      </trkpt>
      <trkpt lat="43.813143193161686" lon="87.58791377846711">
        <ele>821.2539068603515</ele>
        <time>2020-05-04T00:06:43Z</time>
      </trkpt>
      <trkpt lat="43.81315421400958" lon="87.58796379982257">
        <ele>821.2879711914063</ele>
        <time>2020-05-04T00:06:45Z</time>
      </trkpt>
      <trkpt lat="43.81316623588968" lon="87.58801582184479">
        <ele>821.2879711914063</ele>
        <time>2020-05-04T00:06:47Z</time>
      </trkpt>
      <trkpt lat="43.81317725765611" lon="87.58806984461634">
        <ele>821.2879711914063</ele>
        <time>2020-05-04T00:06:49Z</time>
      </trkpt>
      <trkpt lat="43.81319328325837" lon="87.58812786866795">
        <ele>821.2315362548828</ele>
        <time>2020-05-04T00:06:51Z</time>
      </trkpt>
      <trkpt lat="43.81321331153701" lon="87.58818789316204">
        <ele>821.2315362548828</ele>
        <time>2020-05-04T00:06:53Z</time>
      </trkpt>
      <trkpt lat="43.81323233881017" lon="87.58824691707113">
        <ele>821.3454229736328</ele>
        <time>2020-05-04T00:06:55Z</time>
      </trkpt>
      <trkpt lat="43.81325036480967" lon="87.58830393998954">
        <ele>821.3454229736328</ele>
        <time>2020-05-04T00:06:57Z</time>
      </trkpt>
      <trkpt lat="43.81326739037152" lon="87.58836196317672">
        <ele>821.3454229736328</ele>
        <time>2020-05-04T00:06:59Z</time>
      </trkpt>
      <trkpt lat="43.813285417161715" lon="87.58842298733956">
        <ele>821.2361120605469</ele>
        <time>2020-05-04T00:07:01Z</time>
      </trkpt>
      <trkpt lat="43.813303443785706" lon="87.58848401127939">
        <ele>821.2361120605469</ele>
        <time>2020-05-04T00:07:03Z</time>
      </trkpt>
      <trkpt lat="43.813320470208005" lon="87.58854703585054">
        <ele>821.1989971923829</ele>
        <time>2020-05-04T00:07:05Z</time>
      </trkpt>
      <trkpt lat="43.81333949810998" lon="87.58861206087855">
        <ele>821.1989971923829</ele>
        <time>2020-05-04T00:07:07Z</time>
      </trkpt>
      <trkpt lat="43.813360527733664" lon="87.5886800867339">
        <ele>821.1989971923829</ele>
        <time>2020-05-04T00:07:09Z</time>
      </trkpt>
      <trkpt lat="43.81338055684103" lon="87.58874911275262">
        <ele>821.355591430664</ele>
        <time>2020-05-04T00:07:11Z</time>
      </trkpt>
      <trkpt lat="43.813399585422836" lon="87.58881913892236">
        <ele>821.355591430664</ele>
        <time>2020-05-04T00:07:13Z</time>
      </trkpt>
      <trkpt lat="43.81341761296977" lon="87.58888816446795">
        <ele>821.4735455322266</ele>
        <time>2020-05-04T00:07:15Z</time>
      </trkpt>
      <trkpt lat="43.813433638183845" lon="87.5889531883203">
        <ele>821.4735455322266</ele>
        <time>2020-05-04T00:07:17Z</time>
      </trkpt>
      <trkpt lat="43.813450663042765" lon="87.58901521074809">
        <ele>821.4735455322266</ele>
        <time>2020-05-04T00:07:19Z</time>
      </trkpt>
      <trkpt lat="43.81346768869603" lon="87.5890812344255">
        <ele>821.6209881591797</ele>
        <time>2020-05-04T00:07:21Z</time>
      </trkpt>
      <trkpt lat="43.81348471487002" lon="87.58915025893957">
        <ele>821.6209881591797</ele>
        <time>2020-05-04T00:07:23Z</time>
      </trkpt>
      <trkpt lat="43.81350174012579" lon="87.58921628208381">
        <ele>821.5111688232422</ele>
        <time>2020-05-04T00:07:25Z</time>
      </trkpt>
      <trkpt lat="43.81351976412564" lon="87.58927530241084">
        <ele>821.5111688232422</ele>
        <time>2020-05-04T00:07:27Z</time>
      </trkpt>
      <trkpt lat="43.81353978587743" lon="87.58932031745705">
        <ele>821.5111688232422</ele>
        <time>2020-05-04T00:07:29Z</time>
      </trkpt>
      <trkpt lat="43.81356880736397" lon="87.58934232379578">
        <ele>821.404400024414</ele>
        <time>2020-05-04T00:07:31Z</time>
      </trkpt>
      <trkpt lat="43.81360882955644" lon="87.58934032106225">
        <ele>821.404400024414</ele>
        <time>2020-05-04T00:07:33Z</time>
      </trkpt>
      <trkpt lat="43.81365485169459" lon="87.58932331270145">
        <ele>821.3093249511719</ele>
        <time>2020-05-04T00:07:35Z</time>
      </trkpt>
      <trkpt lat="43.813699874642204" lon="87.589312306511">
        <ele>821.3093249511719</ele>
        <time>2020-05-04T00:07:37Z</time>
      </trkpt>
      <trkpt lat="43.813740895551824" lon="87.58930230087245">
        <ele>821.3093249511719</ele>
        <time>2020-05-04T00:07:39Z</time>
      </trkpt>
      <trkpt lat="43.81378091658746" lon="87.58929529634982">
        <ele>821.4577844238281</ele>
        <time>2020-05-04T00:07:41Z</time>
      </trkpt>
      <trkpt lat="43.81381292727318" lon="87.58926328327483">
        <ele>821.4577844238281</ele>
        <time>2020-05-04T00:07:43Z</time>
      </trkpt>
      <trkpt lat="43.813848940414616" lon="87.58923227029686">
        <ele>821.4460906982422</ele>
        <time>2020-05-04T00:07:47Z</time>
      </trkpt>
      <trkpt lat="43.81388895578023" lon="87.58920125705889">
        <ele>821.4460906982422</ele>
        <time>2020-05-04T00:07:49Z</time>
      </trkpt>
      <trkpt lat="43.81393798117872" lon="87.58919125094884">
        <ele>821.0352850341797</ele>
        <time>2020-05-04T00:07:51Z</time>
      </trkpt>
      <trkpt lat="43.81400501250202" lon="87.58916323736287">
        <ele>820.4495819091796</ele>
        <time>2020-05-04T00:07:59Z</time>
      </trkpt>
      <trkpt lat="43.814079045129176" lon="87.5891242193395">
        <ele>820.2462127685546</ele>
        <time>2020-05-04T00:08:01Z</time>
      </trkpt>
      <trkpt lat="43.81415807859527" lon="87.5890771980134">
        <ele>820.2462127685546</ele>
        <time>2020-05-04T00:08:03Z</time>
      </trkpt>
      <trkpt lat="43.81422210492672" lon="87.58903617955058">
        <ele>820.2462127685546</ele>
        <time>2020-05-04T00:08:05Z</time>
      </trkpt>
      <trkpt lat="43.81427712706524" lon="87.58899916294216">
        <ele>820.0763995361328</ele>
        <time>2020-05-04T00:08:07Z</time>
      </trkpt>
      <trkpt lat="43.81432814687744" lon="87.58896214645426">
        <ele>820.0763995361328</ele>
        <time>2020-05-04T00:08:09Z</time>
      </trkpt>
      <trkpt lat="43.814377166985906" lon="87.5889311322595">
        <ele>819.9035357666015</ele>
        <time>2020-05-04T00:08:11Z</time>
      </trkpt>
      <trkpt lat="43.81442818868596" lon="87.58890211866712">
        <ele>819.9035357666015</ele>
        <time>2020-05-04T00:08:13Z</time>
      </trkpt>
      <trkpt lat="43.81447221063641" lon="87.58889011186871">
        <ele>819.9035357666015</ele>
        <time>2020-05-04T00:08:15Z</time>
      </trkpt>
      <trkpt lat="43.81451223381566" lon="87.58889211060593">
        <ele>819.8709967041016</ele>
        <time>2020-05-04T00:08:17Z</time>
      </trkpt>
      <trkpt lat="43.81454925504511" lon="87.58889310911374">
        <ele>819.8709967041016</ele>
        <time>2020-05-04T00:08:19Z</time>
      </trkpt>
      <trkpt lat="43.81459627593991" lon="87.58887009795363">
        <ele>819.914721069336</ele>
        <time>2020-05-04T00:08:21Z</time>
      </trkpt>
      <trkpt lat="43.81464829536078" lon="87.58883007997493">
        <ele>819.914721069336</ele>
        <time>2020-05-04T00:08:23Z</time>
      </trkpt>
      <trkpt lat="43.81469631269798" lon="87.5887910624901">
        <ele>819.914721069336</ele>
        <time>2020-05-04T00:08:25Z</time>
      </trkpt>
      <trkpt lat="43.814741330058816" lon="87.58875904779121">
        <ele>819.764736328125</ele>
        <time>2020-05-04T00:08:27Z</time>
      </trkpt>
      <trkpt lat="43.81478434778333" lon="87.58873303547726">
        <ele>819.764736328125</ele>
        <time>2020-05-04T00:08:29Z</time>
      </trkpt>
      <trkpt lat="43.81482736599511" lon="87.58870902390711">
        <ele>819.5979736328125</ele>
        <time>2020-05-04T00:08:31Z</time>
      </trkpt>
      <trkpt lat="43.81486938439227" lon="87.5886880135334">
        <ele>819.5979736328125</ele>
        <time>2020-05-04T00:08:33Z</time>
      </trkpt>
      <trkpt lat="43.81490740154095" lon="87.58867100491375">
        <ele>819.5979736328125</ele>
        <time>2020-05-04T00:08:35Z</time>
      </trkpt>
      <trkpt lat="43.81494641846359" lon="87.5886509950397">
        <ele>819.7118603515626</ele>
        <time>2020-05-04T00:08:37Z</time>
      </trkpt>
      <trkpt lat="43.814984432447" lon="87.58862198161897">
        <ele>819.7118603515626</ele>
        <time>2020-05-04T00:08:39Z</time>
      </trkpt>
      <trkpt lat="43.81501843990775" lon="87.58857696195797">
        <ele>819.6289874267578</ele>
        <time>2020-05-04T00:08:41Z</time>
      </trkpt>
      <trkpt lat="43.81503943537562" lon="87.58851493597926">
        <ele>819.6289874267578</ele>
        <time>2020-05-04T00:08:43Z</time>
      </trkpt>
      <trkpt lat="43.81504141800389" lon="87.58844590787868">
        <ele>819.6289874267578</ele>
        <time>2020-05-04T00:08:45Z</time>
      </trkpt>
      <trkpt lat="43.81503039358856" lon="87.58837888097484">
        <ele>819.7535510253906</ele>
        <time>2020-05-04T00:08:47Z</time>
      </trkpt>
      <trkpt lat="43.81500936577857" lon="87.5883208580488">
        <ele>819.7535510253906</ele>
        <time>2020-05-04T00:08:49Z</time>
      </trkpt>
      <trkpt lat="43.814990340064554" lon="87.58826683649465">
        <ele>819.6747454833984</ele>
        <time>2020-05-04T00:08:51Z</time>
      </trkpt>
      <trkpt lat="43.81497231450748" lon="87.58821181429317">
        <ele>819.6747454833984</ele>
        <time>2020-05-04T00:08:53Z</time>
      </trkpt>
      <trkpt lat="43.81495628966725" lon="87.58815579138383">
        <ele>819.6747454833984</ele>
        <time>2020-05-04T00:08:55Z</time>
      </trkpt>
      <trkpt lat="43.8149402644016" lon="87.58809876785779">
        <ele>819.6772875976562</ele>
        <time>2020-05-04T00:08:57Z</time>
      </trkpt>
      <trkpt lat="43.814922237856074" lon="87.58804174423814">
        <ele>819.6772875976562</ele>
        <time>2020-05-04T00:08:59Z</time>
      </trkpt>
      <trkpt lat="43.814905211442245" lon="87.58798371993743">
        <ele>819.556791381836</ele>
        <time>2020-05-04T00:09:01Z</time>
      </trkpt>
      <trkpt lat="43.81488718284505" lon="87.5879206932896">
        <ele>819.556791381836</ele>
        <time>2020-05-04T00:09:03Z</time>
      </trkpt>
      <trkpt lat="43.81487115520492" lon="87.58785766630237">
        <ele>819.556791381836</ele>
        <time>2020-05-04T00:09:05Z</time>
      </trkpt>
      <trkpt lat="43.81485312595381" lon="87.58779363873131">
        <ele>819.4668005371094</ele>
        <time>2020-05-04T00:09:07Z</time>
      </trkpt>
      <trkpt lat="43.81483409595223" lon="87.58772961096507">
        <ele>819.4668005371094</ele>
        <time>2020-05-04T00:09:09Z</time>
      </trkpt>
      <trkpt lat="43.81481506546276" lon="87.5876645824983">
        <ele>819.33359375</ele>
        <time>2020-05-04T00:09:11Z</time>
      </trkpt>
      <trkpt lat="43.814794033957455" lon="87.58760055433777">
        <ele>819.33359375</ele>
        <time>2020-05-04T00:09:13Z</time>
      </trkpt>
      <trkpt lat="43.81477100051356" lon="87.58753452510771">
        <ele>819.33359375</ele>
        <time>2020-05-04T00:09:15Z</time>
      </trkpt>
      <trkpt lat="43.814743964292624" lon="87.58746749535216">
        <ele>819.4856121826172</ele>
        <time>2020-05-04T00:09:17Z</time>
      </trkpt>
      <trkpt lat="43.81471592762043" lon="87.58740146584819">
        <ele>819.4856121826172</ele>
        <time>2020-05-04T00:09:19Z</time>
      </trkpt>
      <trkpt lat="43.814690894370955" lon="87.58734143877638">
        <ele>819.4490057373047</ele>
        <time>2020-05-04T00:09:21Z</time>
      </trkpt>
      <trkpt lat="43.81466986419452" lon="87.58728441271862">
        <ele>819.4490057373047</ele>
        <time>2020-05-04T00:09:23Z</time>
      </trkpt>
      <trkpt lat="43.81465283549251" lon="87.58722538530112">
        <ele>819.4490057373047</ele>
        <time>2020-05-04T00:09:25Z</time>
      </trkpt>
      <trkpt lat="43.81464380953574" lon="87.58716135484556">
        <ele>819.5669598388672</ele>
        <time>2020-05-04T00:09:27Z</time>
      </trkpt>
      <trkpt lat="43.814637784436314" lon="87.58709532301437">
        <ele>819.5669598388672</ele>
        <time>2020-05-04T00:09:29Z</time>
      </trkpt>
      <trkpt lat="43.8146327583756" lon="87.58702528889887">
        <ele>819.4790026855469</ele>
        <time>2020-05-04T00:09:31Z</time>
      </trkpt>
      <trkpt lat="43.81462473106677" lon="87.5869572556353">
        <ele>819.4790026855469</ele>
        <time>2020-05-04T00:09:33Z</time>
      </trkpt>
      <trkpt lat="43.814613703546065" lon="87.58689422475125">
        <ele>819.4790026855469</ele>
        <time>2020-05-04T00:09:35Z</time>
      </trkpt>
      <trkpt lat="43.8145966748383" lon="87.58683819746423">
        <ele>819.5105249023437</ele>
        <time>2020-05-04T00:09:37Z</time>
      </trkpt>
      <trkpt lat="43.81457664497732" lon="87.58678417115587">
        <ele>819.5105249023437</ele>
        <time>2020-05-04T00:09:39Z</time>
      </trkpt>
      <trkpt lat="43.81455761347249" lon="87.58672414155558">
        <ele>819.4540899658203</ele>
        <time>2020-05-04T00:09:41Z</time>
      </trkpt>
      <trkpt lat="43.81454058014259" lon="87.58665610751733">
        <ele>819.4540899658203</ele>
        <time>2020-05-04T00:09:43Z</time>
      </trkpt>
      <trkpt lat="43.81452554597405" lon="87.58658307050219">
        <ele>819.4540899658203</ele>
        <time>2020-05-04T00:09:45Z</time>
      </trkpt>
      <trkpt lat="43.81450951171235" lon="87.58651203426518">
        <ele>819.2913946533204</ele>
        <time>2020-05-04T00:09:47Z</time>
      </trkpt>
      <trkpt lat="43.81449247845484" lon="87.58644600041586">
        <ele>819.2913946533204</ele>
        <time>2020-05-04T00:09:49Z</time>
      </trkpt>
      <trkpt lat="43.814476445568985" lon="87.5863799662539">
        <ele>819.2725830078125</ele>
        <time>2020-05-04T00:09:51Z</time>
      </trkpt>
      <trkpt lat="43.814459413016394" lon="87.58631693348775">
        <ele>819.2725830078125</ele>
        <time>2020-05-04T00:09:53Z</time>
      </trkpt>
      <trkpt lat="43.81443837948949" lon="87.58625790284275">
        <ele>819.2725830078125</ele>
        <time>2020-05-04T00:09:55Z</time>
      </trkpt>
      <trkpt lat="43.81441534837478" lon="87.58620887751415">
        <ele>819.0681970214844</ele>
        <time>2020-05-04T00:09:57Z</time>
      </trkpt>
      <trkpt lat="43.81439431903075" lon="87.5861618530299">
        <ele>819.0681970214844</ele>
        <time>2020-05-04T00:09:59Z</time>
      </trkpt>
      <trkpt lat="43.81437729110698" lon="87.58611282711439">
        <ele>819.0681970214844</ele>
        <time>2020-05-04T00:10:01Z</time>
      </trkpt>
      <trkpt lat="43.81436126138274" lon="87.58605779769735">
        <ele>818.8434741210938</ele>
        <time>2020-05-04T00:10:03Z</time>
      </trkpt>
      <trkpt lat="43.81434823246493" lon="87.58600076683709">
        <ele>818.8434741210938</ele>
        <time>2020-05-04T00:10:05Z</time>
      </trkpt>
      <trkpt lat="43.81433320226756" lon="87.58594373588258">
        <ele>818.9700714111328</ele>
        <time>2020-05-04T00:10:07Z</time>
      </trkpt>
      <trkpt lat="43.81431717020404" lon="87.58588370309826">
        <ele>818.9700714111328</ele>
        <time>2020-05-04T00:10:09Z</time>
      </trkpt>
      <trkpt lat="43.814294135172695" lon="87.5858266721475">
        <ele>818.9700714111328</ele>
        <time>2020-05-04T00:10:11Z</time>
      </trkpt>
      <trkpt lat="43.81426910003102" lon="87.58577264280792">
        <ele>818.8078845214844</ele>
        <time>2020-05-04T00:10:13Z</time>
      </trkpt>
      <trkpt lat="43.81424406671819" lon="87.58572361615029">
        <ele>818.8078845214844</ele>
        <time>2020-05-04T00:10:15Z</time>
      </trkpt>
      <trkpt lat="43.81422303359469" lon="87.58566958627324">
        <ele>818.922279663086</ele>
        <time>2020-05-04T00:10:17Z</time>
      </trkpt>
      <trkpt lat="43.81419999960357" lon="87.58561655689975">
        <ele>818.922279663086</ele>
        <time>2020-05-04T00:10:19Z</time>
      </trkpt>
      <trkpt lat="43.81416196575152" lon="87.58558554088395">
        <ele>818.922279663086</ele>
        <time>2020-05-04T00:10:21Z</time>
      </trkpt>
      <trkpt lat="43.81411694024894" lon="87.58558554316325">
        <ele>818.9039764404297</ele>
        <time>2020-05-04T00:10:23Z</time>
      </trkpt>
      <trkpt lat="43.814071922301125" lon="87.58560455644518">
        <ele>818.9039764404297</ele>
        <time>2020-05-04T00:10:25Z</time>
      </trkpt>
      <trkpt lat="43.81403190875651" lon="87.5856275717611">
        <ele>819.097685546875</ele>
        <time>2020-05-04T00:10:27Z</time>
      </trkpt>
      <trkpt lat="43.81399289615098" lon="87.5856515875702">
        <ele>819.097685546875</ele>
        <time>2020-05-04T00:10:29Z</time>
      </trkpt>
      <trkpt lat="43.813952882560194" lon="87.58567460282097">
        <ele>819.097685546875</ele>
        <time>2020-05-04T00:10:31Z</time>
      </trkpt>
      <trkpt lat="43.81391086781377" lon="87.58569761814118">
        <ele>819.2191986083984</ele>
        <time>2020-05-04T00:10:33Z</time>
      </trkpt>
      <trkpt lat="43.81386684877525" lon="87.58571262895667">
        <ele>819.2191986083984</ele>
        <time>2020-05-04T00:10:35Z</time>
      </trkpt>
      <trkpt lat="43.81382182916161" lon="87.58572763980924">
        <ele>819.4434130859376</ele>
        <time>2020-05-04T00:10:37Z</time>
      </trkpt>
      <trkpt lat="43.81377780971492" lon="87.58574165002734">
        <ele>819.4434130859376</ele>
        <time>2020-05-04T00:10:39Z</time>
      </trkpt>
      <trkpt lat="43.813734792388274" lon="87.58575966246019">
        <ele>819.4434130859376</ele>
        <time>2020-05-04T00:10:41Z</time>
      </trkpt>
      <trkpt lat="43.8136927752255" lon="87.58577667425475">
        <ele>819.5989904785156</ele>
        <time>2020-05-04T00:10:43Z</time>
      </trkpt>
      <trkpt lat="43.81364875808404" lon="87.5857966878343">
        <ele>819.5989904785156</ele>
        <time>2020-05-04T00:10:45Z</time>
      </trkpt>
      <trkpt lat="43.81360374113486" lon="87.58581870257177">
        <ele>819.6884729003906</ele>
        <time>2020-05-04T00:10:47Z</time>
      </trkpt>
      <trkpt lat="43.813552723086055" lon="87.58584672096868">
        <ele>819.6884729003906</ele>
        <time>2020-05-04T00:10:49Z</time>
      </trkpt>
      <trkpt lat="43.81349670217283" lon="87.58587473957158">
        <ele>819.6884729003906</ele>
        <time>2020-05-04T00:10:51Z</time>
      </trkpt>
      <trkpt lat="43.81343667934573" lon="87.58590375889038">
        <ele>819.7133856201172</ele>
        <time>2020-05-04T00:10:53Z</time>
      </trkpt>
      <trkpt lat="43.8133796570347" lon="87.58592977633003">
        <ele>819.7133856201172</ele>
        <time>2020-05-04T00:10:55Z</time>
      </trkpt>
      <trkpt lat="43.81332763676353" lon="87.58595379236085">
        <ele>820.1252081298828</ele>
        <time>2020-05-04T00:10:57Z</time>
      </trkpt>
      <trkpt lat="43.81327861702549" lon="87.58597480653661">
        <ele>820.1252081298828</ele>
        <time>2020-05-04T00:10:59Z</time>
      </trkpt>
      <trkpt lat="43.81323059707633" lon="87.5859938195251">
        <ele>820.1252081298828</ele>
        <time>2020-05-04T00:11:01Z</time>
      </trkpt>
      <trkpt lat="43.813182577491474" lon="87.58601383304577">
        <ele>820.2716339111328</ele>
        <time>2020-05-04T00:11:03Z</time>
      </trkpt>
      <trkpt lat="43.813137560343876" lon="87.58603584749562">
        <ele>820.2716339111328</ele>
        <time>2020-05-04T00:11:05Z</time>
      </trkpt>
      <trkpt lat="43.813094546191195" lon="87.58606286457047">
        <ele>820.4470397949219</ele>
        <time>2020-05-04T00:11:07Z</time>
      </trkpt>
      <trkpt lat="43.81305553502132" lon="87.58609188249733">
        <ele>820.4470397949219</ele>
        <time>2020-05-04T00:11:09Z</time>
      </trkpt>
      <trkpt lat="43.81301852569435" lon="87.58612290136703">
        <ele>820.4470397949219</ele>
        <time>2020-05-04T00:11:11Z</time>
      </trkpt>
      <trkpt lat="43.8129795151936" lon="87.58615392028015">
        <ele>820.6499005126954</ele>
        <time>2020-05-04T00:11:13Z</time>
      </trkpt>
      <trkpt lat="43.81293349772031" lon="87.58617693513928">
        <ele>820.6499005126954</ele>
        <time>2020-05-04T00:11:15Z</time>
      </trkpt>
      <trkpt lat="43.81288647743601" lon="87.58619394676">
        <ele>820.9229235839844</ele>
        <time>2020-05-04T00:11:17Z</time>
      </trkpt>
      <trkpt lat="43.81284045585614" lon="87.58620595560181">
        <ele>820.9229235839844</ele>
        <time>2020-05-04T00:11:19Z</time>
      </trkpt>
      <trkpt lat="43.81280144081726" lon="87.58622496787017">
        <ele>820.9229235839844</ele>
        <time>2020-05-04T00:11:21Z</time>
      </trkpt>
      <trkpt lat="43.81276943303692" lon="87.5862529846202">
        <ele>821.0779925537109</ele>
        <time>2020-05-04T00:11:23Z</time>
      </trkpt>
      <trkpt lat="43.812749437506206" lon="87.58629600877576">
        <ele>821.0779925537109</ele>
        <time>2020-05-04T00:11:25Z</time>
      </trkpt>
      <trkpt lat="43.81274745716816" lon="87.58635303938313">
        <ele>821.0134228515625</ele>
        <time>2020-05-04T00:11:27Z</time>
      </trkpt>
      <trkpt lat="43.81276248846549" lon="87.58641607211334">
        <ele>821.0134228515625</ele>
        <time>2020-05-04T00:11:29Z</time>
      </trkpt>
      <trkpt lat="43.812785523752424" lon="87.58647810367377">
        <ele>821.0134228515625</ele>
        <time>2020-05-04T00:11:31Z</time>
      </trkpt>
      <trkpt lat="43.81280955765676" lon="87.58653513234043">
        <ele>821.0998547363281</ele>
        <time>2020-05-04T00:11:33Z</time>
      </trkpt>
      <trkpt lat="43.812831590637025" lon="87.58659316143206">
        <ele>821.0998547363281</ele>
        <time>2020-05-04T00:11:35Z</time>
      </trkpt>
      <trkpt lat="43.81285162303539" lon="87.58665319145368">
        <ele>821.2056066894531</ele>
        <time>2020-05-04T00:11:37Z</time>
      </trkpt>
      <trkpt lat="43.81287065470676" lon="87.58671322130945">
        <ele>821.2056066894531</ele>
        <time>2020-05-04T00:11:39Z</time>
      </trkpt>
      <trkpt lat="43.81289168769304" lon="87.5867742513557">
        <ele>821.2056066894531</ele>
        <time>2020-05-04T00:11:41Z</time>
      </trkpt>
      <trkpt lat="43.812913721762165" lon="87.58683728213646">
        <ele>821.2411962890625</ele>
        <time>2020-05-04T00:11:43Z</time>
      </trkpt>
      <trkpt lat="43.81293675757492" lon="87.58690431462986">
        <ele>821.2411962890625</ele>
        <time>2020-05-04T00:11:45Z</time>
      </trkpt>
      <trkpt lat="43.812957791719256" lon="87.58697034645837">
        <ele>821.2335699462891</ele>
        <time>2020-05-04T00:11:47Z</time>
      </trkpt>
      <trkpt lat="43.81297382117448" lon="87.58703137581546">
        <ele>821.2335699462891</ele>
        <time>2020-05-04T00:11:49Z</time>
      </trkpt>
      <trkpt lat="43.812985846877865" lon="87.5870884031948">
        <ele>821.2335699462891</ele>
        <time>2020-05-04T00:11:51Z</time>
      </trkpt>
      <trkpt lat="43.812995871303954" lon="87.58714543048018">
        <ele>821.1649328613281</ele>
        <time>2020-05-04T00:11:53Z</time>
      </trkpt>
      <trkpt lat="43.813009896545815" lon="87.58719845543759">
        <ele>821.1649328613281</ele>
        <time>2020-05-04T00:11:55Z</time>
      </trkpt>
      <trkpt lat="43.81302292109602" lon="87.58725148027686">
        <ele>821.1700170898438</ele>
        <time>2020-05-04T00:11:57Z</time>
      </trkpt>
      <trkpt lat="43.8130339456717" lon="87.58730850695342">
        <ele>821.1700170898438</ele>
        <time>2020-05-04T00:11:59Z</time>
      </trkpt>
      <trkpt lat="43.81304297183127" lon="87.58737453778747">
        <ele>821.1700170898438</ele>
        <time>2020-05-04T00:12:01Z</time>
      </trkpt>
      <trkpt lat="43.81305299962021" lon="87.58744457018135">
        <ele>821.0479956054687</ele>
        <time>2020-05-04T00:12:03Z</time>
      </trkpt>
      <trkpt lat="43.81306202755784" lon="87.5875176037224">
        <ele>821.0479956054687</ele>
        <time>2020-05-04T00:12:05Z</time>
      </trkpt>
      <trkpt lat="43.81307005438277" lon="87.58758963653494">
        <ele>821.0479956054687</ele>
        <time>2020-05-04T00:12:07Z</time>
      </trkpt>
      <trkpt lat="43.8130800814975" lon="87.58765966802514">
        <ele>821.0251165771484</ele>
        <time>2020-05-04T00:12:09Z</time>
      </trkpt>
      <trkpt lat="43.81309610937246" lon="87.58772169530914">
        <ele>821.0251165771484</ele>
        <time>2020-05-04T00:12:11Z</time>
      </trkpt>
      <trkpt lat="43.81311313644346" lon="87.5877797205211">
        <ele>820.9752911376953</ele>
        <time>2020-05-04T00:12:13Z</time>
      </trkpt>
      <trkpt lat="43.81312916250107" lon="87.58783674513748">
        <ele>820.9752911376953</ele>
        <time>2020-05-04T00:12:15Z</time>
      </trkpt>
      <trkpt lat="43.813144187552915" lon="87.58789276916855">
        <ele>820.9752911376953</ele>
        <time>2020-05-04T00:12:17Z</time>
      </trkpt>
      <trkpt lat="43.81315821102234" lon="87.58794579174887">
        <ele>821.0286755371094</ele>
        <time>2020-05-04T00:12:19Z</time>
      </trkpt>
      <trkpt lat="43.813172234366135" lon="87.58799881416066">
        <ele>821.0286755371094</ele>
        <time>2020-05-04T00:12:21Z</time>
      </trkpt>
      <trkpt lat="43.813185256443475" lon="87.5880498355915">
        <ele>821.0561303710938</ele>
        <time>2020-05-04T00:12:23Z</time>
      </trkpt>
      <trkpt lat="43.81319527699166" lon="87.58810185744673">
        <ele>821.0561303710938</ele>
        <time>2020-05-04T00:12:25Z</time>
      </trkpt>
      <trkpt lat="43.81320429628715" lon="87.58815187833959">
        <ele>821.0561303710938</ele>
        <time>2020-05-04T00:12:27Z</time>
      </trkpt>
      <trkpt lat="43.81321531744465" lon="87.58820490024843">
        <ele>820.9574963378907</ele>
        <time>2020-05-04T00:12:29Z</time>
      </trkpt>
      <trkpt lat="43.81322833933041" lon="87.5882569214684">
        <ele>820.9574963378907</ele>
        <time>2020-05-04T00:12:31Z</time>
      </trkpt>
      <trkpt lat="43.81323835912128" lon="87.58830794226205">
        <ele>820.7831072998047</ele>
        <time>2020-05-04T00:12:33Z</time>
      </trkpt>
      <trkpt lat="43.81323837176668" lon="87.58835396134">
        <ele>820.7831072998047</ele>
        <time>2020-05-04T00:12:35Z</time>
      </trkpt>
      <trkpt lat="43.813235382075604" lon="87.58839797962169">
        <ele>820.7831072998047</ele>
        <time>2020-05-04T00:12:37Z</time>
      </trkpt>
      <trkpt lat="43.81324039655623" lon="87.58844099697417">
        <ele>820.8125958251953</ele>
        <time>2020-05-04T00:12:39Z</time>
      </trkpt>
      <trkpt lat="43.813256418252514" lon="87.58848801528072">
        <ele>820.8125958251953</ele>
        <time>2020-05-04T00:12:41Z</time>
      </trkpt>
      <trkpt lat="43.81328044597253" lon="87.58854103546383">
        <ele>820.9503784179688</ele>
        <time>2020-05-04T00:12:43Z</time>
      </trkpt>
      <trkpt lat="43.81330347352747" lon="87.58859605632712">
        <ele>820.9503784179688</ele>
        <time>2020-05-04T00:12:45Z</time>
      </trkpt>
      <trkpt lat="43.81332650146864" lon="87.58865307780016">
        <ele>820.9503784179688</ele>
        <time>2020-05-04T00:12:47Z</time>
      </trkpt>
      <trkpt lat="43.81334952874895" lon="87.5887080982944">
        <ele>820.7856494140625</ele>
        <time>2020-05-04T00:12:49Z</time>
      </trkpt>
      <trkpt lat="43.813371556350276" lon="87.588767120213">
        <ele>820.7856494140625</ele>
        <time>2020-05-04T00:12:51Z</time>
      </trkpt>
      <trkpt lat="43.813387580399464" lon="87.5888261422269">
        <ele>820.8232727050781</ele>
        <time>2020-05-04T00:12:53Z</time>
      </trkpt>
      <trkpt lat="43.81340360629289" lon="87.5888931670828">
        <ele>820.8232727050781</ele>
        <time>2020-05-04T00:12:55Z</time>
      </trkpt>
      <trkpt lat="43.81341462866141" lon="87.58895819116883">
        <ele>821.0683325195313</ele>
        <time>2020-05-04T00:12:58Z</time>
      </trkpt>
      <trkpt lat="43.813425650353246" lon="87.58902121425525">
        <ele>821.0683325195313</ele>
        <time>2020-05-04T00:13:00Z</time>
      </trkpt>
      <trkpt lat="43.81343166662234" lon="87.58907423365788">
        <ele>821.0683325195313</ele>
        <time>2020-05-04T00:13:02Z</time>
      </trkpt>
      <trkpt lat="43.81343768228727" lon="87.58912525215815">
        <ele>821.1161242675781</ele>
        <time>2020-05-04T00:13:04Z</time>
      </trkpt>
      <trkpt lat="43.81344769915196" lon="87.58917226884328">
        <ele>821.1161242675781</ele>
        <time>2020-05-04T00:13:06Z</time>
      </trkpt>
      <trkpt lat="43.81345971728565" lon="87.58922028565652">
        <ele>821.004779663086</ele>
        <time>2020-05-04T00:13:08Z</time>
      </trkpt>
      <trkpt lat="43.813472735882804" lon="87.5892683022813">
        <ele>821.004779663086</ele>
        <time>2020-05-04T00:13:10Z</time>
      </trkpt>
      <trkpt lat="43.813484753580084" lon="87.5893153184631">
        <ele>821.004779663086</ele>
        <time>2020-05-04T00:13:12Z</time>
      </trkpt>
      <trkpt lat="43.813494769359735" lon="87.58935933355473">
        <ele>821.0835852050782</ele>
        <time>2020-05-04T00:13:14Z</time>
      </trkpt>
      <trkpt lat="43.81351879025327" lon="87.58939134361093">
        <ele>821.0835852050782</ele>
        <time>2020-05-04T00:13:16Z</time>
      </trkpt>
      <trkpt lat="43.81354881019514" lon="87.58940434665362">
        <ele>820.8608959960937</ele>
        <time>2020-05-04T00:13:20Z</time>
      </trkpt>
      <trkpt lat="43.813586830578615" lon="87.58939934297669">
        <ele>820.8608959960937</ele>
        <time>2020-05-04T00:13:22Z</time>
      </trkpt>
      <trkpt lat="43.81361784540494" lon="87.58938733719356">
        <ele>820.7475177001953</ele>
        <time>2020-05-04T00:13:24Z</time>
      </trkpt>
      <trkpt lat="43.81364886068197" lon="87.58937733210611">
        <ele>820.7475177001953</ele>
        <time>2020-05-04T00:13:26Z</time>
      </trkpt>
      <trkpt lat="43.81368087720724" lon="87.58937032801991">
        <ele>820.8934350585938</ele>
        <time>2020-05-04T00:13:28Z</time>
      </trkpt>
      <trkpt lat="43.81371489394843" lon="87.58935932241728">
        <ele>820.8934350585938</ele>
        <time>2020-05-04T00:13:30Z</time>
      </trkpt>
      <trkpt lat="43.81375391030054" lon="87.58933431159463">
        <ele>820.8934350585938</ele>
        <time>2020-05-04T00:13:32Z</time>
      </trkpt>
      <trkpt lat="43.81379292268923" lon="87.58929229467101">
        <ele>821.0652819824219</ele>
        <time>2020-05-04T00:13:34Z</time>
      </trkpt>
      <trkpt lat="43.81383393472955" lon="87.58924427538129">
        <ele>821.0652819824219</ele>
        <time>2020-05-04T00:13:36Z</time>
      </trkpt>
      <trkpt lat="43.81387794836784" lon="87.58919625580185">
        <ele>820.2512969970703</ele>
        <time>2020-05-04T00:13:38Z</time>
      </trkpt>
      <trkpt lat="43.81392696688111" lon="87.58915723912122">
        <ele>820.2512969970703</ele>
        <time>2020-05-04T00:13:40Z</time>
      </trkpt>
      <trkpt lat="43.81398099007761" lon="87.5891262250353">
        <ele>820.2512969970703</ele>
        <time>2020-05-04T00:13:42Z</time>
      </trkpt>
      <trkpt lat="43.814038017338554" lon="87.58910521442678">
        <ele>819.5572998046875</ele>
        <time>2020-05-04T00:13:44Z</time>
      </trkpt>
      <trkpt lat="43.81409504626986" lon="87.58909120637784">
        <ele>819.5572998046875</ele>
        <time>2020-05-04T00:13:46Z</time>
      </trkpt>
      <trkpt lat="43.81415107414496" lon="87.58907519762754">
        <ele>819.1754742431641</ele>
        <time>2020-05-04T00:13:48Z</time>
      </trkpt>
      <trkpt lat="43.81420409958344" lon="87.58905618790013">
        <ele>819.1754742431641</ele>
        <time>2020-05-04T00:13:50Z</time>
      </trkpt>
      <trkpt lat="43.814255123144115" lon="87.58903417713472">
        <ele>819.1754742431641</ele>
        <time>2020-05-04T00:13:52Z</time>
      </trkpt>
      <trkpt lat="43.81430414432863" lon="87.58900716457109">
        <ele>819.2008953857422</ele>
        <time>2020-05-04T00:13:54Z</time>
      </trkpt>
      <trkpt lat="43.81435416580339" lon="87.58897915153727">
        <ele>819.2008953857422</ele>
        <time>2020-05-04T00:13:56Z</time>
      </trkpt>
      <trkpt lat="43.81440618664752" lon="87.58894413571058">
        <ele>818.7107757568359</ele>
        <time>2020-05-04T00:13:58Z</time>
      </trkpt>
      <trkpt lat="43.81446321027379" lon="87.58890911955737">
        <ele>818.7107757568359</ele>
        <time>2020-05-04T00:14:00Z</time>
      </trkpt>
      <trkpt lat="43.8145192332808" lon="87.58887410338141">
        <ele>818.7107757568359</ele>
        <time>2020-05-04T00:14:02Z</time>
      </trkpt>
      <trkpt lat="43.814574256676785" lon="87.58884308871947">
        <ele>819.3966381835937</ele>
        <time>2020-05-04T00:14:04Z</time>
      </trkpt>
      <trkpt lat="43.81462427770335" lon="87.58881407502483">
        <ele>819.3966381835937</ele>
        <time>2020-05-04T00:14:06Z</time>
      </trkpt>
      <trkpt lat="43.814676300846514" lon="87.58878906272822">
        <ele>819.3966381835937</ele>
        <time>2020-05-04T00:14:08Z</time>
      </trkpt>
      <trkpt lat="43.81472632308498" lon="87.58876505088419">
        <ele>819.435786743164</ele>
        <time>2020-05-04T00:14:10Z</time>
      </trkpt>
      <trkpt lat="43.814777345866815" lon="87.58874103895502">
        <ele>819.435786743164</ele>
        <time>2020-05-04T00:14:12Z</time>
      </trkpt>
      <trkpt lat="43.81482636671727" lon="87.58871402591747">
        <ele>819.442904663086</ele>
        <time>2020-05-04T00:14:14Z</time>
      </trkpt>
      <trkpt lat="43.814874388264016" lon="87.58869201485318">
        <ele>819.442904663086</ele>
        <time>2020-05-04T00:14:16Z</time>
      </trkpt>
      <trkpt lat="43.814919408867944" lon="87.5886730050948">
        <ele>819.442904663086</ele>
        <time>2020-05-04T00:14:18Z</time>
      </trkpt>
      <trkpt lat="43.814960426145724" lon="87.58864999393526">
        <ele>819.507982788086</ele>
        <time>2020-05-04T00:14:20Z</time>
      </trkpt>
      <trkpt lat="43.815000439428395" lon="87.58861397762847">
        <ele>819.507982788086</ele>
        <time>2020-05-04T00:14:22Z</time>
      </trkpt>
      <trkpt lat="43.8150274405216" lon="87.58855995469355">
        <ele>819.1449688720703</ele>
        <time>2020-05-04T00:14:24Z</time>
      </trkpt>
      <trkpt lat="43.8150384302684" lon="87.58849792915801">
        <ele>819.1449688720703</ele>
        <time>2020-05-04T00:14:26Z</time>
      </trkpt>
      <trkpt lat="43.81502940606167" lon="87.58842690072622">
        <ele>819.1449688720703</ele>
        <time>2020-05-04T00:14:28Z</time>
      </trkpt>
      <trkpt lat="43.8150113776178" lon="87.5883598741005">
        <ele>819.3818939208984</ele>
        <time>2020-05-04T00:14:30Z</time>
      </trkpt>
      <trkpt lat="43.814991349221046" lon="87.58829784939135">
        <ele>819.3818939208984</ele>
        <time>2020-05-04T00:14:32Z</time>
      </trkpt>
      <trkpt lat="43.81497432486518" lon="87.58824482808141">
        <ele>819.3193579101562</ele>
        <time>2020-05-04T00:14:34Z</time>
      </trkpt>
      <trkpt lat="43.81496030320999" lon="87.58819580814297">
        <ele>819.3193579101562</ele>
        <time>2020-05-04T00:14:36Z</time>
      </trkpt>
      <trkpt lat="43.81494327917914" lon="87.58814478736079">
        <ele>819.3193579101562</ele>
        <time>2020-05-04T00:14:38Z</time>
      </trkpt>
      <trkpt lat="43.81492425332636" lon="87.58809176566585">
        <ele>819.1703900146484</ele>
        <time>2020-05-04T00:14:40Z</time>
      </trkpt>
      <trkpt lat="43.81490522619589" lon="87.58803474207289">
        <ele>819.1703900146484</ele>
        <time>2020-05-04T00:14:42Z</time>
      </trkpt>
      <trkpt lat="43.81488919974983" lon="87.58797471682514">
        <ele>818.7651770019531</ele>
        <time>2020-05-04T00:14:44Z</time>
      </trkpt>
      <trkpt lat="43.81487717453113" lon="87.58791168983949">
        <ele>818.7651770019531</ele>
        <time>2020-05-04T00:14:46Z</time>
      </trkpt>
      <trkpt lat="43.81486614881248" lon="87.58784566123381">
        <ele>818.7651770019531</ele>
        <time>2020-05-04T00:14:48Z</time>
      </trkpt>
      <trkpt lat="43.81485312116508" lon="87.58777763157228">
        <ele>818.7748370361328</ele>
        <time>2020-05-04T00:14:50Z</time>
      </trkpt>
      <trkpt lat="43.81484109327248" lon="87.58770760067846">
        <ele>818.7748370361328</ele>
        <time>2020-05-04T00:14:52Z</time>
      </trkpt>
      <trkpt lat="43.81482906577224" lon="87.58763957040306">
        <ele>818.6680682373047</ele>
        <time>2020-05-04T00:14:54Z</time>
      </trkpt>
      <trkpt lat="43.81481703930012" lon="87.58757554169073">
        <ele>818.6680682373047</ele>
        <time>2020-05-04T00:14:56Z</time>
      </trkpt>
      <trkpt lat="43.814803013690025" lon="87.58751851607948">
        <ele>818.6680682373047</ele>
        <time>2020-05-04T00:14:58Z</time>
      </trkpt>
      <trkpt lat="43.81478298547244" lon="87.58746449197739">
        <ele>818.7046746826172</ele>
        <time>2020-05-04T00:15:00Z</time>
      </trkpt>
      <trkpt lat="43.814758954855705" lon="87.58741046790276">
        <ele>818.7046746826172</ele>
        <time>2020-05-04T00:15:02Z</time>
      </trkpt>
      <trkpt lat="43.81473292329285" lon="87.58735744422742">
        <ele>818.9456671142578</ele>
        <time>2020-05-04T00:15:04Z</time>
      </trkpt>
      <trkpt lat="43.81470789152997" lon="87.58730241938">
        <ele>818.9456671142578</ele>
        <time>2020-05-04T00:15:06Z</time>
      </trkpt>
      <trkpt lat="43.81468786311436" lon="87.58724939505704">
        <ele>818.9456671142578</ele>
        <time>2020-05-04T00:15:08Z</time>
      </trkpt>
      <trkpt lat="43.814669831795854" lon="87.58718436466602">
        <ele>818.9599029541016</ele>
        <time>2020-05-04T00:15:10Z</time>
      </trkpt>
      <trkpt lat="43.814654797377095" lon="87.58710532703924">
        <ele>818.967529296875</ele>
        <time>2020-05-04T00:15:16Z</time>
      </trkpt>
      <trkpt lat="43.814636757308165" lon="87.58701528376245">
        <ele>818.967529296875</ele>
        <time>2020-05-04T00:15:18Z</time>
      </trkpt>
      <trkpt lat="43.8146187202524" lon="87.58693524498682">
        <ele>819.019896850586</ele>
        <time>2020-05-04T00:15:20Z</time>
      </trkpt>
      <trkpt lat="43.814602687792046" lon="87.58686621125791">
        <ele>819.019896850586</ele>
        <time>2020-05-04T00:15:22Z</time>
      </trkpt>
      <trkpt lat="43.81458865831315" lon="87.58680318018118">
        <ele>819.008203125</ele>
        <time>2020-05-04T00:15:24Z</time>
      </trkpt>
      <trkpt lat="43.814579632529835" lon="87.58674315014298">
        <ele>819.008203125</ele>
        <time>2020-05-04T00:15:26Z</time>
      </trkpt>
      <trkpt lat="43.814568606496856" lon="87.58668612153029">
        <ele>819.008203125</ele>
        <time>2020-05-04T00:15:28Z</time>
      </trkpt>
      <trkpt lat="43.81455557883294" lon="87.5866280923066">
        <ele>819.0234558105469</ele>
        <time>2020-05-04T00:15:30Z</time>
      </trkpt>
      <trkpt lat="43.814541549743524" lon="87.58656806189025">
        <ele>819.0234558105469</ele>
        <time>2020-05-04T00:15:32Z</time>
      </trkpt>
      <trkpt lat="43.81452451736506" lon="87.58650402931217">
        <ele>818.8958416748047</ele>
        <time>2020-05-04T00:15:34Z</time>
      </trkpt>
      <trkpt lat="43.81450448130335" lon="87.58643499399761">
        <ele>818.8958416748047</ele>
        <time>2020-05-04T00:15:36Z</time>
      </trkpt>
      <trkpt lat="43.81448344337226" lon="87.58636295684893">
        <ele>818.8958416748047</ele>
        <time>2020-05-04T00:15:38Z</time>
      </trkpt>
      <trkpt lat="43.8144584018418" lon="87.586287917979">
        <ele>818.8739794921875</ele>
        <time>2020-05-04T00:15:40Z</time>
      </trkpt>
      <trkpt lat="43.814434363213685" lon="87.58621988251195">
        <ele>818.8739794921875</ele>
        <time>2020-05-04T00:15:42Z</time>
      </trkpt>
      <trkpt lat="43.814411327924184" lon="87.5861598510788">
        <ele>818.4530053710938</ele>
        <time>2020-05-04T00:15:44Z</time>
      </trkpt>
      <trkpt lat="43.814395299439376" lon="87.58610782346231">
        <ele>818.4530053710938</ele>
        <time>2020-05-04T00:15:46Z</time>
      </trkpt>
      <trkpt lat="43.814381271967136" lon="87.5860557955818">
        <ele>818.4530053710938</ele>
        <time>2020-05-04T00:15:48Z</time>
      </trkpt>
      <trkpt lat="43.8143652417227" lon="87.58599976542138">
        <ele>818.4926623535156</ele>
        <time>2020-05-04T00:15:50Z</time>
      </trkpt>
      <trkpt lat="43.81434820847863" lon="87.58593773177314">
        <ele>818.4926623535156</ele>
        <time>2020-05-04T00:15:52Z</time>
      </trkpt>
      <trkpt lat="43.81432717163962" lon="87.58587269640924">
        <ele>818.4367358398438</ele>
        <time>2020-05-04T00:15:54Z</time>
      </trkpt>
      <trkpt lat="43.81430313523773" lon="87.58581366433964">
        <ele>818.4367358398438</ele>
        <time>2020-05-04T00:15:56Z</time>
      </trkpt>
      <trkpt lat="43.81427809967417" lon="87.58575863438857">
        <ele>818.4367358398438</ele>
        <time>2020-05-04T00:15:58Z</time>
      </trkpt>
      <trkpt lat="43.81425406532722" lon="87.58570560534973">
        <ele>818.1687969970703</ele>
        <time>2020-05-04T00:16:00Z</time>
      </trkpt>
      <trkpt lat="43.81423002966943" lon="87.58564957441462">
        <ele>818.1687969970703</ele>
        <time>2020-05-04T00:16:02Z</time>
      </trkpt>
      <trkpt lat="43.81420099302476" lon="87.58559854643907">
        <ele>818.1672717285156</ele>
        <time>2020-05-04T00:16:04Z</time>
      </trkpt>
      <trkpt lat="43.81416295954635" lon="87.58556853097039">
        <ele>818.1672717285156</ele>
        <time>2020-05-04T00:16:06Z</time>
      </trkpt>
      <trkpt lat="43.81412093654123" lon="87.58557053425899">
        <ele>818.1672717285156</ele>
        <time>2020-05-04T00:16:08Z</time>
      </trkpt>
      <trkpt lat="43.814081924789555" lon="87.58559655130863">
        <ele>818.6157006835938</ele>
        <time>2020-05-04T00:16:10Z</time>
      </trkpt>
      <trkpt lat="43.81404591629348" lon="87.58562657047484">
        <ele>818.6157006835938</ele>
        <time>2020-05-04T00:16:12Z</time>
      </trkpt>
      <trkpt lat="43.814010906745104" lon="87.58565258723415">
        <ele>818.6157006835938</ele>
        <time>2020-05-04T00:16:14Z</time>
      </trkpt>
      <trkpt lat="43.813977898300486" lon="87.58567860385145">
        <ele>818.7123010253906</ele>
        <time>2020-05-04T00:16:16Z</time>
      </trkpt>
      <trkpt lat="43.81394589039291" lon="87.58570462037738">
        <ele>818.7123010253906</ele>
        <time>2020-05-04T00:16:18Z</time>
      </trkpt>
      <trkpt lat="43.813910879581535" lon="87.58572763530148">
        <ele>818.7844970703125</ele>
        <time>2020-05-04T00:16:20Z</time>
      </trkpt>
      <trkpt lat="43.81386986261323" lon="87.58574364650808">
        <ele>818.7844970703125</ele>
        <time>2020-05-04T00:16:22Z</time>
      </trkpt>
      <trkpt lat="43.81382584354508" lon="87.58575865728199">
        <ele>818.7844970703125</ele>
        <time>2020-05-04T00:16:24Z</time>
      </trkpt>
      <trkpt lat="43.81378082429135" lon="87.58577466866129">
        <ele>818.6451892089843</ele>
        <time>2020-05-04T00:16:26Z</time>
      </trkpt>
      <trkpt lat="43.81373480523867" lon="87.5857926812103">
        <ele>818.6451892089843</ele>
        <time>2020-05-04T00:16:28Z</time>
      </trkpt>
      <trkpt lat="43.8136907873058" lon="87.58581069363849">
        <ele>819.0051525878906</ele>
        <time>2020-05-04T00:16:30Z</time>
      </trkpt>
      <trkpt lat="43.81364776915203" lon="87.58582670486635">
        <ele>819.0051525878906</ele>
        <time>2020-05-04T00:16:32Z</time>
      </trkpt>
      <trkpt lat="43.8136037500354" lon="87.58584171556522">
        <ele>819.0051525878906</ele>
        <time>2020-05-04T00:16:34Z</time>
      </trkpt>
      <trkpt lat="43.81355672805374" lon="87.58585372471218">
        <ele>819.4057897949219</ele>
        <time>2020-05-04T00:16:36Z</time>
      </trkpt>
      <trkpt lat="43.813509706067286" lon="87.58586573385045">
        <ele>819.4057897949219</ele>
        <time>2020-05-04T00:16:38Z</time>
      </trkpt>
      <trkpt lat="43.81346468636281" lon="87.5858807445647">
        <ele>819.3452874755859</ele>
        <time>2020-05-04T00:16:40Z</time>
      </trkpt>
      <trkpt lat="43.81341966780169" lon="87.58589875694808">
        <ele>819.3452874755859</ele>
        <time>2020-05-04T00:16:42Z</time>
      </trkpt>
      <trkpt lat="43.813375650176766" lon="87.58591776982098">
        <ele>819.3452874755859</ele>
        <time>2020-05-04T00:16:44Z</time>
      </trkpt>
      <trkpt lat="43.81333463385323" lon="87.58593578196167">
        <ele>819.5064575195313</ele>
        <time>2020-05-04T00:16:46Z</time>
      </trkpt>
      <trkpt lat="43.813293615608686" lon="87.58594879129457">
        <ele>819.5064575195313</ele>
        <time>2020-05-04T00:16:48Z</time>
      </trkpt>
      <trkpt lat="43.81325459543992" lon="87.58595379605798">
        <ele>819.5557745361328</ele>
        <time>2020-05-04T00:16:50Z</time>
      </trkpt>
      <trkpt lat="43.81321457317999" lon="87.58595479864125">
        <ele>819.5557745361328</ele>
        <time>2020-05-04T00:16:52Z</time>
      </trkpt>
      <trkpt lat="43.81317255169541" lon="87.58596080411188">
        <ele>819.5557745361328</ele>
        <time>2020-05-04T00:16:54Z</time>
      </trkpt>
      <trkpt lat="43.813130535157796" lon="87.5859798168125">
        <ele>819.7108435058594</ele>
        <time>2020-05-04T00:16:56Z</time>
      </trkpt>
      <trkpt lat="43.81308852239718" lon="87.58600883503621">
        <ele>819.7108435058594</ele>
        <time>2020-05-04T00:16:58Z</time>
      </trkpt>
      <trkpt lat="43.81305051412887" lon="87.58604385632023">
        <ele>819.8242218017579</ele>
        <time>2020-05-04T00:17:00Z</time>
      </trkpt>
      <trkpt lat="43.813012505806626" lon="87.5860788775305">
        <ele>819.8242218017579</ele>
        <time>2020-05-04T00:17:02Z</time>
      </trkpt>
      <trkpt lat="43.81297249330341" lon="87.58610589438348">
        <ele>819.8242218017579</ele>
        <time>2020-05-04T00:17:04Z</time>
      </trkpt>
      <trkpt lat="43.81293147908251" lon="87.58612990960278">
        <ele>820.0174224853515</ele>
        <time>2020-05-04T00:17:06Z</time>
      </trkpt>
      <trkpt lat="43.81289146540278" lon="87.58615392473675">
        <ele>820.0174224853515</ele>
        <time>2020-05-04T00:17:08Z</time>
      </trkpt>
      <trkpt lat="43.81285245226417" lon="87.5861779397854">
        <ele>820.0616552734375</ele>
        <time>2020-05-04T00:17:10Z</time>
      </trkpt>
      <trkpt lat="43.81281743988215" lon="87.58619795242605">
        <ele>820.0616552734375</ele>
        <time>2020-05-04T00:17:12Z</time>
      </trkpt>
      <trkpt lat="43.812785431027514" lon="87.58622296759796">
        <ele>820.0616552734375</ele>
        <time>2020-05-04T00:17:14Z</time>
      </trkpt>
      <trkpt lat="43.81276143108645" lon="87.58625998880034">
        <ele>820.171474609375</ele>
        <time>2020-05-04T00:17:16Z</time>
      </trkpt>
      <trkpt lat="43.81274644019888" lon="87.58630801536626">
        <ele>820.171474609375</ele>
        <time>2020-05-04T00:17:18Z</time>
      </trkpt>
      <trkpt lat="43.81274846209276" lon="87.5863650457299">
        <ele>820.166898803711</ele>
        <time>2020-05-04T00:17:20Z</time>
      </trkpt>
      <trkpt lat="43.81276149114417" lon="87.58642507692876">
        <ele>820.166898803711</ele>
        <time>2020-05-04T00:17:22Z</time>
      </trkpt>
      <trkpt lat="43.812781525423894" lon="87.58648910965825">
        <ele>820.166898803711</ele>
        <time>2020-05-04T00:17:24Z</time>
      </trkpt>
      <trkpt lat="43.81280855922232" lon="87.58654113552518">
        <ele>820.1989294433594</ele>
        <time>2020-05-04T00:17:26Z</time>
      </trkpt>
      <trkpt lat="43.81283859036099" lon="87.58658115484474">
        <ele>820.1989294433594</ele>
        <time>2020-05-04T00:17:28Z</time>
      </trkpt>
      <trkpt lat="43.81287162031248" lon="87.58661316977535">
        <ele>820.1968957519531</ele>
        <time>2020-05-04T00:17:30Z</time>
      </trkpt>
      <trkpt lat="43.81289564652813" lon="87.58664918716333">
        <ele>820.1968957519531</ele>
        <time>2020-05-04T00:17:32Z</time>
      </trkpt>
      <trkpt lat="43.81291867560416" lon="87.58669520965614">
        <ele>820.1968957519531</ele>
        <time>2020-05-04T00:17:34Z</time>
      </trkpt>
      <trkpt lat="43.81294270861021" lon="87.58675123706954">
        <ele>820.2512969970703</ele>
        <time>2020-05-04T00:17:36Z</time>
      </trkpt>
      <trkpt lat="43.81296574296819" lon="87.586813267381">
        <ele>820.2512969970703</ele>
        <time>2020-05-04T00:17:38Z</time>
      </trkpt>
      <trkpt lat="43.81298777692833" lon="87.5868762980141">
        <ele>820.2268927001953</ele>
        <time>2020-05-04T00:17:40Z</time>
      </trkpt>
      <trkpt lat="43.81300280674978" lon="87.58693932876308">
        <ele>820.2268927001953</ele>
        <time>2020-05-04T00:17:42Z</time>
      </trkpt>
      <trkpt lat="43.8130138337955" lon="87.58700135898157">
        <ele>820.2268927001953</ele>
        <time>2020-05-04T00:17:44Z</time>
      </trkpt>
      <trkpt lat="43.813021858639615" lon="87.58706238863012">
        <ele>820.2345190429687</ele>
        <time>2020-05-04T00:17:46Z</time>
      </trkpt>
      <trkpt lat="43.813029881013044" lon="87.58711641464329">
        <ele>820.2345190429687</ele>
        <time>2020-05-04T00:17:48Z</time>
      </trkpt>
      <trkpt lat="43.81304090462653" lon="87.58716943984497">
        <ele>820.1592724609375</ele>
        <time>2020-05-04T00:17:50Z</time>
      </trkpt>
      <trkpt lat="43.81305593167549" lon="87.58722646659977">
        <ele>820.1592724609375</ele>
        <time>2020-05-04T00:17:52Z</time>
      </trkpt>
      <trkpt lat="43.81306895905553" lon="87.58728849564778">
        <ele>820.1592724609375</ele>
        <time>2020-05-04T00:17:54Z</time>
      </trkpt>
      <trkpt lat="43.81307898520313" lon="87.58735252556376">
        <ele>820.1628314208984</ele>
        <time>2020-05-04T00:17:56Z</time>
      </trkpt>
      <trkpt lat="43.81308600883768" lon="87.58741455444634">
        <ele>820.1628314208984</ele>
        <time>2020-05-04T00:17:58Z</time>
      </trkpt>
      <trkpt lat="43.813092032986276" lon="87.58748058501214">
        <ele>820.2512969970703</ele>
        <time>2020-05-04T00:18:00Z</time>
      </trkpt>
      <trkpt lat="43.813098058489146" lon="87.58755161762448">
        <ele>820.2512969970703</ele>
        <time>2020-05-04T00:18:02Z</time>
      </trkpt>
      <trkpt lat="43.81310408437927" lon="87.58762465084845">
        <ele>820.2512969970703</ele>
        <time>2020-05-04T00:18:04Z</time>
      </trkpt>
      <trkpt lat="43.81311410986707" lon="87.58768967992636">
        <ele>820.2894287109375</ele>
        <time>2020-05-04T00:18:06Z</time>
      </trkpt>
      <trkpt lat="43.813126132384895" lon="87.58774170280356">
        <ele>820.2894287109375</ele>
        <time>2020-05-04T00:18:08Z</time>
      </trkpt>
      <trkpt lat="43.81313715122411" lon="87.58778372109661">
        <ele>820.2777349853516</ele>
        <time>2020-05-04T00:18:10Z</time>
      </trkpt>
      <trkpt lat="43.813148169389315" lon="87.58782373839361">
        <ele>820.2777349853516</ele>
        <time>2020-05-04T00:18:12Z</time>
      </trkpt>
      <trkpt lat="43.81315818780419" lon="87.58786675697321">
        <ele>820.2777349853516</ele>
        <time>2020-05-04T00:18:14Z</time>
      </trkpt>
      <trkpt lat="43.81316720674498" lon="87.58791377725196">
        <ele>820.2696002197266</ele>
        <time>2020-05-04T00:18:16Z</time>
      </trkpt>
      <trkpt lat="43.81317622587835" lon="87.58796179783506">
        <ele>820.2696002197266</ele>
        <time>2020-05-04T00:18:18Z</time>
      </trkpt>
      <trkpt lat="43.813186246053064" lon="87.58801181909718">
        <ele>820.2696002197266</ele>
        <time>2020-05-04T00:18:20Z</time>
      </trkpt>
      <trkpt lat="43.81319726639497" lon="87.58806083972779">
        <ele>820.2970550537109</ele>
        <time>2020-05-04T00:18:22Z</time>
      </trkpt>
      <trkpt lat="43.81321028861567" lon="87.58811286139682">
        <ele>820.2970550537109</ele>
        <time>2020-05-04T00:18:24Z</time>
      </trkpt>
      <trkpt lat="43.813225312694314" lon="87.58816788407623">
        <ele>820.3417962646485</ele>
        <time>2020-05-04T00:18:26Z</time>
      </trkpt>
      <trkpt lat="43.813241338042765" lon="87.58822590778696">
        <ele>820.3417962646485</ele>
        <time>2020-05-04T00:18:28Z</time>
      </trkpt>
      <trkpt lat="43.813254360434364" lon="87.5882799297772">
        <ele>820.3417962646485</ele>
        <time>2020-05-04T00:18:30Z</time>
      </trkpt>
      <trkpt lat="43.81326638020509" lon="87.58832694873983">
        <ele>820.008779296875</ele>
        <time>2020-05-04T00:18:32Z</time>
      </trkpt>
      <trkpt lat="43.813290405577675" lon="87.58836996531338">
        <ele>820.008779296875</ele>
        <time>2020-05-04T00:18:34Z</time>
      </trkpt>
      <trkpt lat="43.8133254311171" lon="87.58839097218856">
        <ele>820.1511376953125</ele>
        <time>2020-05-04T00:18:38Z</time>
      </trkpt>
      <trkpt lat="43.81336945684269" lon="87.58839397119404">
        <ele>820.1511376953125</ele>
        <time>2020-05-04T00:18:40Z</time>
      </trkpt>
      <trkpt lat="43.813420479173665" lon="87.58836995873159">
        <ele>820.1404608154297</ele>
        <time>2020-05-04T00:18:42Z</time>
      </trkpt>
      <trkpt lat="43.813473501516015" lon="87.58834194447748">
        <ele>820.1404608154297</ele>
        <time>2020-05-04T00:18:44Z</time>
      </trkpt>
      <trkpt lat="43.81352451827664" lon="87.58829792361779">
        <ele>820.0428436279296</ele>
        <time>2020-05-04T00:18:46Z</time>
      </trkpt>
      <trkpt lat="43.81356953238972" lon="87.58825690420358">
        <ele>820.0428436279296</ele>
        <time>2020-05-04T00:18:48Z</time>
      </trkpt>
      <trkpt lat="43.813613548101756" lon="87.58822388811033">
        <ele>820.0428436279296</ele>
        <time>2020-05-04T00:18:50Z</time>
      </trkpt>
      <trkpt lat="43.81365557188788" lon="87.58822388598384">
        <ele>819.9223474121094</ele>
        <time>2020-05-04T00:18:52Z</time>
      </trkpt>
      <trkpt lat="43.81368960118404" lon="87.58825989938516">
        <ele>819.9223474121094</ele>
        <time>2020-05-04T00:18:54Z</time>
      </trkpt>
      <trkpt lat="43.81371563223876" lon="87.58831892268529">
        <ele>820.1526629638672</ele>
        <time>2020-05-04T00:18:56Z</time>
      </trkpt>
      <trkpt lat="43.81373566301009" lon="87.58838995101927">
        <ele>820.1526629638672</ele>
        <time>2020-05-04T00:18:58Z</time>
      </trkpt>
      <trkpt lat="43.81375268997226" lon="87.58845397635288">
        <ele>820.1526629638672</ele>
        <time>2020-05-04T00:19:00Z</time>
      </trkpt>
      <trkpt lat="43.813765713419194" lon="87.5885140000289">
        <ele>819.9620043945313</ele>
        <time>2020-05-04T00:19:02Z</time>
      </trkpt>
      <trkpt lat="43.81377673504421" lon="87.58857202278999">
        <ele>819.9620043945313</ele>
        <time>2020-05-04T00:19:04Z</time>
      </trkpt>
      <trkpt lat="43.813788757085334" lon="87.58863004529888">
        <ele>819.9442095947265</ele>
        <time>2020-05-04T00:19:06Z</time>
      </trkpt>
      <trkpt lat="43.81380378119333" lon="87.58869006824092">
        <ele>819.9442095947265</ele>
        <time>2020-05-04T00:19:08Z</time>
      </trkpt>
      <trkpt lat="43.81381680477589" lon="87.58875309223721">
        <ele>819.9442095947265</ele>
        <time>2020-05-04T00:19:10Z</time>
      </trkpt>
      <trkpt lat="43.81383282988061" lon="87.5888161158439">
        <ele>819.8959094238281</ele>
        <time>2020-05-04T00:19:12Z</time>
      </trkpt>
      <trkpt lat="43.81385385764066" lon="87.58887913895975">
        <ele>819.8959094238281</ele>
        <time>2020-05-04T00:19:14Z</time>
      </trkpt>
      <trkpt lat="43.81387988756102" lon="87.58894016082844">
        <ele>819.8343902587891</ele>
        <time>2020-05-04T00:19:16Z</time>
      </trkpt>
      <trkpt lat="43.81390791844873" lon="87.58900118237312">
        <ele>819.8343902587891</ele>
        <time>2020-05-04T00:19:18Z</time>
      </trkpt>
      <trkpt lat="43.81394195160096" lon="87.58905820190701">
        <ele>819.8343902587891</ele>
        <time>2020-05-04T00:19:20Z</time>
      </trkpt>
      <trkpt lat="43.81398298352837" lon="87.58909421315548">
        <ele>819.6386474609375</ele>
        <time>2020-05-04T00:19:22Z</time>
      </trkpt>
      <trkpt lat="43.81402701062484" lon="87.58910321424679">
        <ele>819.6386474609375</ele>
        <time>2020-05-04T00:19:24Z</time>
      </trkpt>
      <trkpt lat="43.814067030162" lon="87.58909020742615">
        <ele>818.9609197998047</ele>
        <time>2020-05-04T00:19:26Z</time>
      </trkpt>
      <trkpt lat="43.81410304597594" lon="87.58907119857648">
        <ele>818.9609197998047</ele>
        <time>2020-05-04T00:19:28Z</time>
      </trkpt>
      <trkpt lat="43.81413806072261" lon="87.5890501890126">
        <ele>818.9609197998047</ele>
        <time>2020-05-04T00:19:30Z</time>
      </trkpt>
      <trkpt lat="43.81417307471922" lon="87.58902617830323">
        <ele>818.6629840087891</ele>
        <time>2020-05-04T00:19:32Z</time>
      </trkpt>
      <trkpt lat="43.81420808893593" lon="87.58900316793391">
        <ele>818.6629840087891</ele>
        <time>2020-05-04T00:19:34Z</time>
      </trkpt>
      <trkpt lat="43.8142441046799" lon="87.58898415898526">
        <ele>818.5018139648438</ele>
        <time>2020-05-04T00:19:36Z</time>
      </trkpt>
      <trkpt lat="43.81427811952161" lon="87.58896615049296">
        <ele>818.5018139648438</ele>
        <time>2020-05-04T00:19:38Z</time>
      </trkpt>
      <trkpt lat="43.81431213336012" lon="87.58894414046968">
        <ele>818.5018139648438</ele>
        <time>2020-05-04T00:19:40Z</time>
      </trkpt>
      <trkpt lat="43.814345145119354" lon="87.58891612819093">
        <ele>818.2918353271484</ele>
        <time>2020-05-04T00:19:42Z</time>
      </trkpt>
      <trkpt lat="43.81438215836182" lon="87.58888511451832">
        <ele>818.2918353271484</ele>
        <time>2020-05-04T00:19:44Z</time>
      </trkpt>
      <trkpt lat="43.814421172947746" lon="87.5888551010703">
        <ele>818.1952349853516</ele>
        <time>2020-05-04T00:19:46Z</time>
      </trkpt>
      <trkpt lat="43.81446519083497" lon="87.58882708808537">
        <ele>818.1952349853516</ele>
        <time>2020-05-04T00:19:48Z</time>
      </trkpt>
      <trkpt lat="43.814509209957926" lon="87.58880407698624">
        <ele>818.1952349853516</ele>
        <time>2020-05-04T00:19:50Z</time>
      </trkpt>
      <trkpt lat="43.81455122894339" lon="87.58878506750732">
        <ele>818.1204968261719</ele>
        <time>2020-05-04T00:19:52Z</time>
      </trkpt>
      <trkpt lat="43.81458924539033" lon="87.58876505782057">
        <ele>818.1204968261719</ele>
        <time>2020-05-04T00:19:54Z</time>
      </trkpt>
      <trkpt lat="43.81462225847219" lon="87.58874304758301">
        <ele>818.0676208496094</ele>
        <time>2020-05-04T00:19:56Z</time>
      </trkpt>
      <trkpt lat="43.814655272305416" lon="87.5887240384903">
        <ele>818.0676208496094</ele>
        <time>2020-05-04T00:19:58Z</time>
      </trkpt>
      <trkpt lat="43.81468628782625" lon="87.58871603378927">
        <ele>818.0676208496094</ele>
        <time>2020-05-04T00:20:00Z</time>
      </trkpt>
      <trkpt lat="43.814717304634584" lon="87.58871303104442">
        <ele>818.1118536376953</ele>
        <time>2020-05-04T00:20:02Z</time>
      </trkpt>
      <trkpt lat="43.81475032257761" lon="87.58871002819777">
        <ele>818.1118536376953</ele>
        <time>2020-05-04T00:20:04Z</time>
      </trkpt>
      <trkpt lat="43.8147833387134" lon="87.58870002260362">
        <ele>817.882046508789</ele>
        <time>2020-05-04T00:20:06Z</time>
      </trkpt>
      <trkpt lat="43.81481835546222" lon="87.5886880161156">
        <ele>817.882046508789</ele>
        <time>2020-05-04T00:20:08Z</time>
      </trkpt>
      <trkpt lat="43.814853371946064" lon="87.58867500922486">
        <ele>817.882046508789</ele>
        <time>2020-05-04T00:20:10Z</time>
      </trkpt>
      <trkpt lat="43.81489239017216" lon="87.5886600013315">
        <ele>818.0945672607422</ele>
        <time>2020-05-04T00:20:12Z</time>
      </trkpt>
      <trkpt lat="43.81493040625609" lon="87.58863899109866">
        <ele>818.0945672607422</ele>
        <time>2020-05-04T00:20:14Z</time>
      </trkpt>
      <trkpt lat="43.814965416946116" lon="87.58860397541973">
        <ele>817.9989837646484</ele>
        <time>2020-05-04T00:20:16Z</time>
      </trkpt>
      <trkpt lat="43.814985414573" lon="87.58855195361001">
        <ele>817.9989837646484</ele>
        <time>2020-05-04T00:20:18Z</time>
      </trkpt>
      <trkpt lat="43.814985398591716" lon="87.58849192941203">
        <ele>817.9989837646484</ele>
        <time>2020-05-04T00:20:20Z</time>
      </trkpt>
      <trkpt lat="43.8149773784512" lon="87.58843390622063">
        <ele>817.942548828125</ele>
        <time>2020-05-04T00:20:22Z</time>
      </trkpt>
      <trkpt lat="43.81496635809473" lon="87.58838188545072">
        <ele>817.942548828125</ele>
        <time>2020-05-04T00:20:24Z</time>
      </trkpt>
      <trkpt lat="43.8149503358801" lon="87.58833386643065">
        <ele>817.942548828125</ele>
        <time>2020-05-04T00:20:26Z</time>
      </trkpt>
      <trkpt lat="43.81492830544469" lon="87.588268840471">
        <ele>818.1164294433594</ele>
        <time>2020-05-04T00:20:30Z</time>
      </trkpt>
      <trkpt lat="43.81490227283193" lon="87.58820481488291">
        <ele>818.2287908935547</ele>
        <time>2020-05-04T00:20:32Z</time>
      </trkpt>
      <trkpt lat="43.81488424485803" lon="87.58814178907025">
        <ele>818.2287908935547</ele>
        <time>2020-05-04T00:20:34Z</time>
      </trkpt>
      <trkpt lat="43.81487522695614" lon="87.58809677029159">
        <ele>818.2287908935547</ele>
        <time>2020-05-04T00:20:36Z</time>
      </trkpt>
      <trkpt lat="43.81487021152013" lon="87.5880527516204">
        <ele>817.9684783935547</ele>
        <time>2020-05-04T00:20:38Z</time>
      </trkpt>
      <trkpt lat="43.81486419398309" lon="87.58800373071266">
        <ele>817.9684783935547</ele>
        <time>2020-05-04T00:20:40Z</time>
      </trkpt>
      <trkpt lat="43.81485317233499" lon="87.58795070816437">
        <ele>817.9120434570312</ele>
        <time>2020-05-04T00:20:42Z</time>
      </trkpt>
      <trkpt lat="43.814845152262976" lon="87.58789768529566">
        <ele>817.9120434570312</ele>
        <time>2020-05-04T00:20:44Z</time>
      </trkpt>
      <trkpt lat="43.81484013317359" lon="87.58784266121856">
        <ele>817.9120434570312</ele>
        <time>2020-05-04T00:20:46Z</time>
      </trkpt>
      <trkpt lat="43.814833113113444" lon="87.5877886375085">
        <ele>817.991357421875</ele>
        <time>2020-05-04T00:20:48Z</time>
      </trkpt>
      <trkpt lat="43.814815089696644" lon="87.58774461868244">
        <ele>817.991357421875</ele>
        <time>2020-05-04T00:20:50Z</time>
      </trkpt>
      <trkpt lat="43.81478406517485" lon="87.58772160988859">
        <ele>818.3096301269532</ele>
        <time>2020-05-04T00:20:52Z</time>
      </trkpt>
      <trkpt lat="43.814736040063615" lon="87.58772861547664">
        <ele>818.3096301269532</ele>
        <time>2020-05-04T00:20:54Z</time>
      </trkpt>
      <trkpt lat="43.81468201847258" lon="87.58775863170979">
        <ele>818.3096301269532</ele>
        <time>2020-05-04T00:20:56Z</time>
      </trkpt>
      <trkpt lat="43.814627000460234" lon="87.58780265419529">
        <ele>818.5953637695312</ele>
        <time>2020-05-04T00:20:58Z</time>
      </trkpt>
      <trkpt lat="43.814575985224714" lon="87.58784867724943">
        <ele>818.5953637695312</ele>
        <time>2020-05-04T00:21:00Z</time>
      </trkpt>
      <trkpt lat="43.814527970419455" lon="87.5878906982606">
        <ele>818.6934893798829</ele>
        <time>2020-05-04T00:21:02Z</time>
      </trkpt>
      <trkpt lat="43.81448695628329" lon="87.58792171398301">
        <ele>818.6934893798829</ele>
        <time>2020-05-04T00:21:04Z</time>
      </trkpt>
      <trkpt lat="43.814449942329375" lon="87.58794572638185">
        <ele>818.6934893798829</ele>
        <time>2020-05-04T00:21:06Z</time>
      </trkpt>
      <trkpt lat="43.81440992519409" lon="87.58796473671526">
        <ele>818.7758538818359</ele>
        <time>2020-05-04T00:21:08Z</time>
      </trkpt>
      <trkpt lat="43.81436190321826" lon="87.5879827469965">
        <ele>818.8185614013672</ele>
        <time>2020-05-04T00:21:12Z</time>
      </trkpt>
      <trkpt lat="43.81431488034764" lon="87.58799575503423">
        <ele>818.8185614013672</ele>
        <time>2020-05-04T00:21:16Z</time>
      </trkpt>
      <trkpt lat="43.8142728594371" lon="87.58800576150621">
        <ele>818.7112841796875</ele>
        <time>2020-05-04T00:21:18Z</time>
      </trkpt>
      <trkpt lat="43.8142348399234" lon="87.58801276646845">
        <ele>818.7112841796875</ele>
        <time>2020-05-04T00:21:20Z</time>
      </trkpt>
      <trkpt lat="43.81418881702943" lon="87.58802377356592">
        <ele>818.8927911376953</ele>
        <time>2020-05-04T00:21:22Z</time>
      </trkpt>
      <trkpt lat="43.814145799286365" lon="87.58804678568985">
        <ele>818.8927911376953</ele>
        <time>2020-05-04T00:21:24Z</time>
      </trkpt>
      <trkpt lat="43.814108788356926" lon="87.58808180263864">
        <ele>818.8927911376953</ele>
        <time>2020-05-04T00:21:26Z</time>
      </trkpt>
      <trkpt lat="43.814078783614775" lon="87.5881248225782">
        <ele>818.8922827148438</ele>
        <time>2020-05-04T00:21:28Z</time>
      </trkpt>
      <trkpt lat="43.814048779354856" lon="87.58816984325574">
        <ele>818.8922827148438</ele>
        <time>2020-05-04T00:21:30Z</time>
      </trkpt>
      <trkpt lat="43.81401777415825" lon="87.58821386344073">
        <ele>818.8607604980468</ele>
        <time>2020-05-04T00:21:32Z</time>
      </trkpt>
      <trkpt lat="43.81398576691775" lon="87.5882528814639">
        <ele>818.8607604980468</ele>
        <time>2020-05-04T00:21:34Z</time>
      </trkpt>
      <trkpt lat="43.813949754574985" lon="87.58828189542456">
        <ele>818.8607604980468</ele>
        <time>2020-05-04T00:21:36Z</time>
      </trkpt>
      <trkpt lat="43.813906735745796" lon="87.58830190594331">
        <ele>819.0005767822265</ele>
        <time>2020-05-04T00:21:38Z</time>
      </trkpt>
      <trkpt lat="43.81385871186372" lon="87.58831391336705">
        <ele>819.0005767822265</ele>
        <time>2020-05-04T00:21:40Z</time>
      </trkpt>
      <trkpt lat="43.813806684610235" lon="87.58832191932402">
        <ele>819.1810668945312</ele>
        <time>2020-05-04T00:21:42Z</time>
      </trkpt>
      <trkpt lat="43.81375565599667" lon="87.58832292232144">
        <ele>819.1810668945312</ele>
        <time>2020-05-04T00:21:44Z</time>
      </trkpt>
      <trkpt lat="43.81370662686575" lon="87.58831792272547">
        <ele>819.1810668945312</ele>
        <time>2020-05-04T00:21:46Z</time>
      </trkpt>
      <trkpt lat="43.813667602295936" lon="87.58830892095794">
        <ele>819.0514190673828</ele>
        <time>2020-05-04T00:21:48Z</time>
      </trkpt>
      <trkpt lat="43.813634580845346" lon="87.58829891846514">
        <ele>819.0514190673828</ele>
        <time>2020-05-04T00:21:50Z</time>
      </trkpt>
      <trkpt lat="43.81360456247339" lon="87.5882939179">
        <ele>819.1215814208985</ele>
        <time>2020-05-04T00:21:52Z</time>
      </trkpt>
      <trkpt lat="43.81356554425514" lon="87.58830792570613">
        <ele>819.1215814208985</ele>
        <time>2020-05-04T00:21:54Z</time>
      </trkpt>
      <trkpt lat="43.813519524541434" lon="87.58833093759">
        <ele>819.1215814208985</ele>
        <time>2020-05-04T00:21:56Z</time>
      </trkpt>
      <trkpt lat="43.81346950473037" lon="87.5883619529496">
        <ele>819.2868188476563</ele>
        <time>2020-05-04T00:21:58Z</time>
      </trkpt>
      <trkpt lat="43.81342948863401" lon="87.58838596486667">
        <ele>819.2868188476563</ele>
        <time>2020-05-04T00:22:00Z</time>
      </trkpt>
      <trkpt lat="43.81342048707636" lon="87.58839897066602">
        <ele>819.3554559326172</ele>
        <time>2020-05-04T00:22:02Z</time>
      </trkpt>
      <trkpt lat="43.81344349628813" lon="87.58838496374639">
        <ele>819.2786840820313</ele>
        <time>2020-05-04T00:22:08Z</time>
      </trkpt>
      <trkpt lat="43.81351051448979" lon="87.58831293057064">
        <ele>819.2786840820313</ele>
        <time>2020-05-04T00:22:10Z</time>
      </trkpt>
      <trkpt lat="43.813573531313125" lon="87.58824489896661">
        <ele>819.2507208251953</ele>
        <time>2020-05-04T00:22:14Z</time>
      </trkpt>
      <trkpt lat="43.81363255297867" lon="87.58820287829084">
        <ele>819.2507208251953</ele>
        <time>2020-05-04T00:22:16Z</time>
      </trkpt>
      <trkpt lat="43.81366457810347" lon="87.58822788721231">
        <ele>819.4088403320312</ele>
        <time>2020-05-04T00:22:18Z</time>
      </trkpt>
    </trkseg>
  </trk>
</gpx>