<?xml version="1.0" encoding="UTF-8"?>
<gpx xmlns="http://www.topografix.com/GPX/1/1" xmlns:gpxtpx="http://www.garmin.com/xmlschemas/TrackPointExtension/v1" xmlns:xsi="http://www.w3.org/2001/XMLSchema-instance" xsi:schemaLocation="http://www.topografix.com/GPX/1/1 http://www.topografix.com/GPX/1/1/gpx.xsd" version="1.1" creator="gpx.py -- https://github.com/tkrajina/gpxpy">
  <trk>
    <name>gpx from codoon</name>
    <type>Run</type>
    <trkseg>
      <trkpt lat="39.15168218876487" lon="118.95282798747887">
        <ele>20.52644920349121</ele>
        <time>2018-05-19T06:25:10Z</time>
      </trkpt>
      <trkpt lat="39.1516752378467" lon="118.95280904815718">
        <ele>8.667911529541016</ele>
        <time>2018-05-19T06:25:12Z</time>
      </trkpt>
      <trkpt lat="39.15168134996371" lon="118.9527602016359">
        <ele>-7.958674430847168</ele>
        <time>2018-05-19T06:25:13Z</time>
      </trkpt>
      <trkpt lat="39.15165667392528" lon="118.95262961650214">
        <ele>37.132713317871094</ele>
        <time>2018-05-19T06:25:22Z</time>
      </trkpt>
      <trkpt lat="39.15165301769987" lon="118.95248507200812">
        <ele>34.82288360595703</ele>
        <time>2018-05-19T06:25:27Z</time>
      </trkpt>
      <trkpt lat="39.151566539608616" lon="118.95228570886408">
        <ele>24.917665481567383</ele>
        <time>2018-05-19T06:25:29Z</time>
      </trkpt>
      <trkpt lat="39.151483861237274" lon="118.95217008147749">
        <ele>29.703081130981445</ele>
        <time>2018-05-19T06:25:33Z</time>
      </trkpt>
      <trkpt lat="39.151394029891534" lon="118.95212124542608">
        <ele>17.96455955505371</ele>
        <time>2018-05-19T06:25:35Z</time>
      </trkpt>
      <trkpt lat="39.151420920064886" lon="118.95216111727795">
        <ele>29.52486228942871</ele>
        <time>2018-05-19T06:25:45Z</time>
      </trkpt>
      <trkpt lat="39.15146385214097" lon="118.95217905581917">
        <ele>6.048881530761719</ele>
        <time>2018-05-19T06:25:51Z</time>
      </trkpt>
      <trkpt lat="39.151472874854605" lon="118.952167092189">
        <ele>15.974087715148926</ele>
        <time>2018-05-19T06:25:53Z</time>
      </trkpt>
      <trkpt lat="39.151382090906786" lon="118.95209831865101">
        <ele>20.376644134521484</ele>
        <time>2018-05-19T06:25:58Z</time>
      </trkpt>
      <trkpt lat="39.15127827953357" lon="118.95204449975405">
        <ele>-23.41210174560547</ele>
        <time>2018-05-19T06:26:03Z</time>
      </trkpt>
      <trkpt lat="39.15126131310084" lon="118.95203453300246">
        <ele>-16.578033447265625</ele>
        <time>2018-05-19T06:26:07Z</time>
      </trkpt>
      <trkpt lat="39.15132407651932" lon="118.95211926022297">
        <ele>-9.614978790283203</ele>
        <time>2018-05-19T06:26:13Z</time>
      </trkpt>
      <trkpt lat="39.15141779301448" lon="118.95221594587308">
        <ele>-2.820002317428589</ele>
        <time>2018-05-19T06:26:16Z</time>
      </trkpt>
      <trkpt lat="39.15156041648624" lon="118.95233954067702">
        <ele>1.9747754335403442</ele>
        <time>2018-05-19T06:26:18Z</time>
      </trkpt>
      <trkpt lat="39.151693097195036" lon="118.95244120502512">
        <ele>34.0836181640625</ele>
        <time>2018-05-19T06:26:29Z</time>
      </trkpt>
      <trkpt lat="39.15184871201199" lon="118.95256479710699">
        <ele>39.408992767333984</ele>
        <time>2018-05-19T06:26:39Z</time>
      </trkpt>
      <trkpt lat="39.15190955770245" lon="118.95261463268118">
        <ele>33.742000579833984</ele>
        <time>2018-05-19T06:26:47Z</time>
      </trkpt>
      <trkpt lat="39.15197338029837" lon="118.95267343950493">
        <ele>27.6967830657959</ele>
        <time>2018-05-19T06:26:49Z</time>
      </trkpt>
      <trkpt lat="39.15199537890964" lon="118.95266845252841">
        <ele>33.36912155151367</ele>
        <time>2018-05-19T06:26:51Z</time>
      </trkpt>
      <trkpt lat="39.15201735394207" lon="118.9526734341255">
        <ele>21.354646682739258</ele>
        <time>2018-05-19T06:26:55Z</time>
      </trkpt>
      <trkpt lat="39.15205630228338" lon="118.95268539164155">
        <ele>24.893455505371094</ele>
        <time>2018-05-19T06:26:57Z</time>
      </trkpt>
      <trkpt lat="39.1521231300353" lon="118.95274120736656">
        <ele>26.51791000366211</ele>
        <time>2018-05-19T06:26:59Z</time>
      </trkpt>
      <trkpt lat="39.15218490162946" lon="118.95282194487166">
        <ele>18.82637596130371</ele>
        <time>2018-05-19T06:27:01Z</time>
      </trkpt>
      <trkpt lat="39.152216731191196" lon="118.95288573935954">
        <ele>11.481712341308594</ele>
        <time>2018-05-19T06:27:04Z</time>
      </trkpt>
      <trkpt lat="39.15223956601596" lon="118.95294953478421">
        <ele>8.533212661743164</ele>
        <time>2018-05-19T06:27:06Z</time>
      </trkpt>
      <trkpt lat="39.15227537871546" lon="118.9530193095168">
        <ele>12.023907661437988</ele>
        <time>2018-05-19T06:27:10Z</time>
      </trkpt>
      <trkpt lat="39.1523221799334" lon="118.95309107639011">
        <ele>21.874576568603516</ele>
        <time>2018-05-19T06:27:12Z</time>
      </trkpt>
      <trkpt lat="39.15236802193122" lon="118.95314589693338">
        <ele>24.651226043701172</ele>
        <time>2018-05-19T06:27:15Z</time>
      </trkpt>
      <trkpt lat="39.1524049095868" lon="118.95318377223666">
        <ele>24.443052291870117</ele>
        <time>2018-05-19T06:27:17Z</time>
      </trkpt>
      <trkpt lat="39.152440705144855" lon="118.95326052415169">
        <ele>30.33707618713379</ele>
        <time>2018-05-19T06:27:19Z</time>
      </trkpt>
      <trkpt lat="39.15249747367204" lon="118.95334325424692">
        <ele>34.958274841308594</ele>
        <time>2018-05-19T06:27:26Z</time>
      </trkpt>
      <trkpt lat="39.15253325456265" lon="118.95342598663737">
        <ele>36.24881362915039</ele>
        <time>2018-05-19T06:27:30Z</time>
      </trkpt>
      <trkpt lat="39.15258106142857" lon="118.95349476174917">
        <ele>38.47365951538086</ele>
        <time>2018-05-19T06:27:32Z</time>
      </trkpt>
      <trkpt lat="39.1525809422126" lon="118.95354460292319">
        <ele>26.342239379882812</ele>
        <time>2018-05-19T06:27:35Z</time>
      </trkpt>
      <trkpt lat="39.152603806761" lon="118.95359543800615">
        <ele>27.993764877319336</ele>
        <time>2018-05-19T06:27:39Z</time>
      </trkpt>
      <trkpt lat="39.15263771001386" lon="118.95362733208306">
        <ele>27.641538619995117</ele>
        <time>2018-05-19T06:27:41Z</time>
      </trkpt>
    </trkseg>
  </trk>
</gpx>