<?xml version="1.0" encoding="UTF-8"?>
<gpx xmlns="http://www.topografix.com/GPX/1/1" xmlns:gpxtpx="http://www.garmin.com/xmlschemas/TrackPointExtension/v1" xmlns:xsi="http://www.w3.org/2001/XMLSchema-instance" xsi:schemaLocation="http://www.topografix.com/GPX/1/1 http://www.topografix.com/GPX/1/1/gpx.xsd" version="1.1" creator="gpx.py -- https://github.com/tkrajina/gpxpy">
  <trk>
    <name>gpx from codoon</name>
    <type>Run</type>
    <trkseg>
      <trkpt lat="39.91819464435345" lon="116.64994383356668">
        <ele>48.30413055419922</ele>
        <time>2018-05-29T12:44:57Z</time>
      </trkpt>
      <trkpt lat="39.918163629292636" lon="116.6499528131395">
        <ele>53.16838455200195</ele>
        <time>2018-05-29T12:44:58Z</time>
      </trkpt>
      <trkpt lat="39.91813764493347" lon="116.64994483786376">
        <ele>49.728797912597656</ele>
        <time>2018-05-29T12:44:59Z</time>
      </trkpt>
      <trkpt lat="39.918113669580286" lon="116.6499318758005">
        <ele>52.23280334472656</ele>
        <time>2018-05-29T12:45:01Z</time>
      </trkpt>
      <trkpt lat="39.91806064999228" lon="116.649943849997">
        <ele>53.42074203491211</ele>
        <time>2018-05-29T12:45:03Z</time>
      </trkpt>
      <trkpt lat="39.91799060384047" lon="116.64997078589111">
        <ele>44.81389617919922</ele>
        <time>2018-05-29T12:45:06Z</time>
      </trkpt>
      <trkpt lat="39.91791253618848" lon="116.6500096904373">
        <ele>46.30154037475586</ele>
        <time>2018-05-29T12:45:08Z</time>
      </trkpt>
      <trkpt lat="39.91783643749885" lon="116.65006554891437">
        <ele>46.14032745361328</ele>
        <time>2018-05-29T12:45:14Z</time>
      </trkpt>
      <trkpt lat="39.9177663366975" lon="116.65012240390551">
        <ele>35.84981155395508</ele>
        <time>2018-05-29T12:45:16Z</time>
      </trkpt>
      <trkpt lat="39.91770631191604" lon="116.65013737083422">
        <ele>36.34318542480469</ele>
        <time>2018-05-29T12:45:18Z</time>
      </trkpt>
      <trkpt lat="39.91766037757189" lon="116.65010247080156">
        <ele>47.35372543334961</ele>
        <time>2018-05-29T12:45:20Z</time>
      </trkpt>
      <trkpt lat="39.917610452480396" lon="116.65006258470801">
        <ele>50.31235122680664</ele>
        <time>2018-05-29T12:45:22Z</time>
      </trkpt>
      <trkpt lat="39.917174511911796" lon="116.65058721857048">
        <ele>79.59112548828125</ele>
        <time>2018-05-29T12:46:38Z</time>
      </trkpt>
      <trkpt lat="39.91716661084926" lon="116.6505333654982">
        <ele>74.95205688476562</ele>
        <time>2018-05-29T12:46:42Z</time>
      </trkpt>
      <trkpt lat="39.91713068903307" lon="116.65049148339232">
        <ele>57.338417053222656</ele>
        <time>2018-05-29T12:46:46Z</time>
      </trkpt>
      <trkpt lat="39.91706277037115" lon="116.65044860788078">
        <ele>53.794281005859375</ele>
        <time>2018-05-29T12:46:48Z</time>
      </trkpt>
      <trkpt lat="39.91699875482732" lon="116.65045858872038">
        <ele>56.126590728759766</ele>
        <time>2018-05-29T12:46:50Z</time>
      </trkpt>
      <trkpt lat="39.916932761264064" lon="116.65045660221574">
        <ele>55.664031982421875</ele>
        <time>2018-05-29T12:46:54Z</time>
      </trkpt>
      <trkpt lat="39.91684776850405" lon="116.65045461804095">
        <ele>56.67751693725586</ele>
        <time>2018-05-29T12:46:56Z</time>
      </trkpt>
      <trkpt lat="39.916768790087886" lon="116.65044465473642">
        <ele>56.1951904296875</ele>
        <time>2018-05-29T12:47:00Z</time>
      </trkpt>
      <trkpt lat="39.91667072671469" lon="116.65048156681628">
        <ele>56.16884994506836</ele>
        <time>2018-05-29T12:47:02Z</time>
      </trkpt>
      <trkpt lat="39.916601638368505" lon="116.65053144018944">
        <ele>56.163665771484375</ele>
        <time>2018-05-29T12:47:09Z</time>
      </trkpt>
      <trkpt lat="39.916539505864854" lon="116.65060524778323">
        <ele>55.99725341796875</ele>
        <time>2018-05-29T12:47:12Z</time>
      </trkpt>
      <trkpt lat="39.91650046002208" lon="116.65063118227012">
        <ele>52.84028244018555</ele>
        <time>2018-05-29T12:47:14Z</time>
      </trkpt>
      <trkpt lat="39.916465410347946" lon="116.65065911084625">
        <ele>51.15077590942383</ele>
        <time>2018-05-29T12:47:16Z</time>
      </trkpt>
      <trkpt lat="39.9164033581519" lon="116.65068903731046">
        <ele>49.908016204833984</ele>
        <time>2018-05-29T12:47:18Z</time>
      </trkpt>
      <trkpt lat="39.91634330586092" lon="116.65071896351418">
        <ele>46.36347579956055</ele>
        <time>2018-05-29T12:47:24Z</time>
      </trkpt>
      <trkpt lat="39.916206384763576" lon="116.65067908851749">
        <ele>46.110862731933594</ele>
        <time>2018-05-29T12:47:26Z</time>
      </trkpt>
      <trkpt lat="39.916097460636784" lon="116.65064020735525">
        <ele>49.97865295410156</ele>
        <time>2018-05-29T12:47:33Z</time>
      </trkpt>
      <trkpt lat="39.916004502937966" lon="116.65061927554103">
        <ele>46.17376708984375</ele>
        <time>2018-05-29T12:47:36Z</time>
      </trkpt>
      <trkpt lat="39.915977469373566" lon="116.65063822747906">
        <ele>40.9992790222168</ele>
        <time>2018-05-29T12:47:38Z</time>
      </trkpt>
      <trkpt lat="39.91593948559814" lon="116.6506302537705">
        <ele>41.004886627197266</ele>
        <time>2018-05-29T12:47:40Z</time>
      </trkpt>
      <trkpt lat="39.91588550980678" lon="116.65061829283768">
        <ele>39.05731964111328</ele>
        <time>2018-05-29T12:47:43Z</time>
      </trkpt>
      <trkpt lat="39.91582950122028" lon="116.65062428348267">
        <ele>37.70109939575195</ele>
        <time>2018-05-29T12:47:45Z</time>
      </trkpt>
      <trkpt lat="39.915767481927325" lon="116.65063625863938">
        <ele>37.40999221801758</ele>
        <time>2018-05-29T12:47:47Z</time>
      </trkpt>
      <trkpt lat="39.91570945880956" lon="116.65065022789479">
        <ele>31.97113037109375</ele>
        <time>2018-05-29T12:47:53Z</time>
      </trkpt>
      <trkpt lat="39.915652320511455" lon="116.65072702661094">
        <ele>29.90383529663086</ele>
        <time>2018-05-29T12:47:55Z</time>
      </trkpt>
      <trkpt lat="39.91559716925564" lon="116.65081080603318">
        <ele>17.492168426513672</ele>
        <time>2018-05-29T12:48:00Z</time>
      </trkpt>
      <trkpt lat="39.915536036469476" lon="116.65088461315483">
        <ele>18.250537872314453</ele>
        <time>2018-05-29T12:48:02Z</time>
      </trkpt>
      <trkpt lat="39.9154760207166" lon="116.65089459343051">
        <ele>18.790143966674805</ele>
        <time>2018-05-29T12:48:04Z</time>
      </trkpt>
      <trkpt lat="39.915418034157526" lon="116.6508886167933">
        <ele>18.817153930664062</ele>
        <time>2018-05-29T12:48:06Z</time>
      </trkpt>
      <trkpt lat="39.91536306576847" lon="116.65087266686807">
        <ele>19.321746826171875</ele>
        <time>2018-05-29T12:48:08Z</time>
      </trkpt>
      <trkpt lat="39.91531409346305" lon="116.6508587107872">
        <ele>17.73551368713379</ele>
        <time>2018-05-29T12:48:10Z</time>
      </trkpt>
      <trkpt lat="39.915271097118385" lon="116.6508577187683">
        <ele>18.023836135864258</ele>
        <time>2018-05-29T12:48:12Z</time>
      </trkpt>
      <trkpt lat="39.91522908792481" lon="116.65086370767241">
        <ele>16.630895614624023</ele>
        <time>2018-05-29T12:48:14Z</time>
      </trkpt>
      <trkpt lat="39.915187065923284" lon="116.65087667762013">
        <ele>17.426332473754883</ele>
        <time>2018-05-29T12:48:16Z</time>
      </trkpt>
      <trkpt lat="39.91514504940958" lon="116.65088665568972">
        <ele>16.908649444580078</ele>
        <time>2018-05-29T12:48:18Z</time>
      </trkpt>
      <trkpt lat="39.91510900701941" lon="116.65091059510306">
        <ele>16.584869384765625</ele>
        <time>2018-05-29T12:48:20Z</time>
      </trkpt>
      <trkpt lat="39.91507096287717" lon="116.65093553204304">
        <ele>15.952573776245117</ele>
        <time>2018-05-29T12:48:22Z</time>
      </trkpt>
      <trkpt lat="39.91503191144728" lon="116.65096445825733">
        <ele>15.965616226196289</ele>
        <time>2018-05-29T12:48:24Z</time>
      </trkpt>
      <trkpt lat="39.91498086601099" lon="116.65099039405916">
        <ele>15.765313148498535</ele>
        <time>2018-05-29T12:48:26Z</time>
      </trkpt>
      <trkpt lat="39.914930818693215" lon="116.65101732701676">
        <ele>15.7717866897583</ele>
        <time>2018-05-29T12:48:30Z</time>
      </trkpt>
      <trkpt lat="39.914880775030596" lon="116.65104226538392">
        <ele>15.728675842285156</ele>
        <time>2018-05-29T12:48:32Z</time>
      </trkpt>
      <trkpt lat="39.91482573157363" lon="116.65106720435392">
        <ele>15.652976989746094</ele>
        <time>2018-05-29T12:48:34Z</time>
      </trkpt>
      <trkpt lat="39.91477369531114" lon="116.65108815379209">
        <ele>15.67462158203125</ele>
        <time>2018-05-29T12:48:36Z</time>
      </trkpt>
      <trkpt lat="39.914718642678814" lon="116.65111807918301">
        <ele>15.66080093383789</ele>
        <time>2018-05-29T12:48:38Z</time>
      </trkpt>
      <trkpt lat="39.91467560602165" lon="116.65113902749972">
        <ele>15.52819538116455</ele>
        <time>2018-05-29T12:48:42Z</time>
      </trkpt>
      <trkpt lat="39.91462757140544" lon="116.65115897913516">
        <ele>15.40311050415039</ele>
        <time>2018-05-29T12:48:44Z</time>
      </trkpt>
      <trkpt lat="39.914579558783444" lon="116.65116696331967">
        <ele>15.256346702575684</ele>
        <time>2018-05-29T12:48:46Z</time>
      </trkpt>
      <trkpt lat="39.91452355750079" lon="116.65116896476201">
        <ele>15.09776496887207</ele>
        <time>2018-05-29T12:48:48Z</time>
      </trkpt>
      <trkpt lat="39.91446355822204" lon="116.65116996940776">
        <ele>14.96704387664795</ele>
        <time>2018-05-29T12:48:50Z</time>
      </trkpt>
      <trkpt lat="39.91439756286565" lon="116.65116898021519">
        <ele>14.815692901611328</ele>
        <time>2018-05-29T12:48:52Z</time>
      </trkpt>
      <trkpt lat="39.91433657096318" lon="116.65116599583509">
        <ele>14.71139144897461</ele>
        <time>2018-05-29T12:48:54Z</time>
      </trkpt>
      <trkpt lat="39.91427958255689" lon="116.65116101638975">
        <ele>14.582745552062988</ele>
        <time>2018-05-29T12:48:56Z</time>
      </trkpt>
      <trkpt lat="39.914228593895096" lon="116.65115603620812">
        <ele>14.421874046325684</ele>
        <time>2018-05-29T12:48:58Z</time>
      </trkpt>
      <trkpt lat="39.914171610987914" lon="116.65114806489957">
        <ele>14.289410591125488</ele>
        <time>2018-05-29T12:49:00Z</time>
      </trkpt>
      <trkpt lat="39.91411862790994" lon="116.65114009309936">
        <ele>14.132574081420898</ele>
        <time>2018-05-29T12:49:02Z</time>
      </trkpt>
      <trkpt lat="39.91407064645119" lon="116.65113112339708">
        <ele>14.010465621948242</ele>
        <time>2018-05-29T12:49:04Z</time>
      </trkpt>
      <trkpt lat="39.91402166869967" lon="116.65112015924022">
        <ele>13.863102912902832</ele>
        <time>2018-05-29T12:49:06Z</time>
      </trkpt>
      <trkpt lat="39.91397568898666" lon="116.6511101920015">
        <ele>13.691527366638184</ele>
        <time>2018-05-29T12:49:08Z</time>
      </trkpt>
      <trkpt lat="39.91392770752573" lon="116.65110122229459">
        <ele>13.40182876586914</ele>
        <time>2018-05-29T12:49:12Z</time>
      </trkpt>
      <trkpt lat="39.91388872201568" lon="116.65109424605932">
        <ele>13.307197570800781</ele>
        <time>2018-05-29T12:49:14Z</time>
      </trkpt>
      <trkpt lat="39.91383774984245" lon="116.65108029027502">
        <ele>13.238762855529785</ele>
        <time>2018-05-29T12:49:16Z</time>
      </trkpt>
      <trkpt lat="39.913811765608486" lon="116.65107231515421">
        <ele>13.184447288513184</ele>
        <time>2018-05-29T12:49:18Z</time>
      </trkpt>
      <trkpt lat="39.91376580054621" lon="116.65105436959547">
        <ele>13.113015174865723</ele>
        <time>2018-05-29T12:49:20Z</time>
      </trkpt>
      <trkpt lat="39.913722835352374" lon="116.65103642366334">
        <ele>13.040610313415527</ele>
        <time>2018-05-29T12:49:22Z</time>
      </trkpt>
      <trkpt lat="39.913652884127195" lon="116.6510115000089">
        <ele>13.04786491394043</ele>
        <time>2018-05-29T12:49:24Z</time>
      </trkpt>
      <trkpt lat="39.91360390270075" lon="116.65100253040939">
        <ele>13.084990501403809</ele>
        <time>2018-05-29T12:49:26Z</time>
      </trkpt>
      <trkpt lat="39.91355590291935" lon="116.65100353358567">
        <ele>13.136996269226074</ele>
        <time>2018-05-29T12:49:28Z</time>
      </trkpt>
      <trkpt lat="39.913514893682944" lon="116.65100952235272">
        <ele>13.200525283813477</ele>
        <time>2018-05-29T12:49:30Z</time>
      </trkpt>
      <trkpt lat="39.913474889897685" lon="116.65101251912736">
        <ele>13.250207901000977</ele>
        <time>2018-05-29T12:49:32Z</time>
      </trkpt>
      <trkpt lat="39.913436889689805" lon="116.65101352107715">
        <ele>13.281805992126465</ele>
        <time>2018-05-29T12:49:34Z</time>
      </trkpt>
      <trkpt lat="39.91339089165532" lon="116.65101352671823">
        <ele>13.264583587646484</ele>
        <time>2018-05-29T12:49:36Z</time>
      </trkpt>
      <trkpt lat="39.91334088646665" lon="116.65101752200867">
        <ele>13.189876556396484</ele>
        <time>2018-05-29T12:49:38Z</time>
      </trkpt>
      <trkpt lat="39.9132828706313" lon="116.65102750201729">
        <ele>13.119770050048828</ele>
        <time>2018-05-29T12:49:40Z</time>
      </trkpt>
      <trkpt lat="39.91322884912933" lon="116.65104047340168">
        <ele>13.007741928100586</ele>
        <time>2018-05-29T12:49:42Z</time>
      </trkpt>
      <trkpt lat="39.91318082370559" lon="116.65105543862563">
        <ele>12.844147682189941</ele>
        <time>2018-05-29T12:49:44Z</time>
      </trkpt>
      <trkpt lat="39.913141792398534" lon="116.6510733946085">
        <ele>12.716460227966309</ele>
        <time>2018-05-29T12:49:46Z</time>
      </trkpt>
      <trkpt lat="39.91310176113068" lon="116.65109135070865">
        <ele>12.574795722961426</ele>
        <time>2018-05-29T12:49:48Z</time>
      </trkpt>
      <trkpt lat="39.91306372427626" lon="116.65111229842258">
        <ele>12.326752662658691</ele>
        <time>2018-05-29T12:49:50Z</time>
      </trkpt>
      <trkpt lat="39.91302268571251" lon="116.6511342437849">
        <ele>12.0986328125</ele>
        <time>2018-05-29T12:49:52Z</time>
      </trkpt>
      <trkpt lat="39.91297063661578" lon="116.65116217421219">
        <ele>11.920385360717773</ele>
        <time>2018-05-29T12:49:54Z</time>
      </trkpt>
      <trkpt lat="39.91290858793834" lon="116.65119010585296">
        <ele>11.776680946350098</ele>
        <time>2018-05-29T12:49:56Z</time>
      </trkpt>
      <trkpt lat="39.912847546544384" lon="116.65121404821268">
        <ele>11.58816146850586</ele>
        <time>2018-05-29T12:49:58Z</time>
      </trkpt>
      <trkpt lat="39.9127955120947" lon="116.65123400031501">
        <ele>11.307930946350098</ele>
        <time>2018-05-29T12:50:00Z</time>
      </trkpt>
      <trkpt lat="39.91275047917513" lon="116.65125295426657">
        <ele>11.021177291870117</ele>
        <time>2018-05-29T12:50:02Z</time>
      </trkpt>
      <trkpt lat="39.9127064480432" lon="116.6512709108041">
        <ele>10.830018997192383</ele>
        <time>2018-05-29T12:50:04Z</time>
      </trkpt>
      <trkpt lat="39.912655408034766" lon="116.6512938546206">
        <ele>10.633708000183105</ele>
        <time>2018-05-29T12:50:06Z</time>
      </trkpt>
      <trkpt lat="39.912606355090475" lon="116.65132377917597">
        <ele>10.4713716506958</ele>
        <time>2018-05-29T12:50:08Z</time>
      </trkpt>
      <trkpt lat="39.9125603020076" lon="116.65135370334873">
        <ele>10.241446495056152</ele>
        <time>2018-05-29T12:50:10Z</time>
      </trkpt>
      <trkpt lat="39.912527263042364" lon="116.65137564764285">
        <ele>9.949681282043457</ele>
        <time>2018-05-29T12:50:12Z</time>
      </trkpt>
      <trkpt lat="39.91249424426495" lon="116.65138662181056">
        <ele>9.689348220825195</ele>
        <time>2018-05-29T12:50:14Z</time>
      </trkpt>
      <trkpt lat="39.91245221669294" lon="116.65140258349699">
        <ele>9.385406494140625</ele>
        <time>2018-05-29T12:50:16Z</time>
      </trkpt>
      <trkpt lat="39.912399173064976" lon="116.65142752207535">
        <ele>9.003632545471191</ele>
        <time>2018-05-29T12:50:18Z</time>
      </trkpt>
      <trkpt lat="39.91233611516727" lon="116.65146044012975">
        <ele>8.601213455200195</ele>
        <time>2018-05-29T12:50:20Z</time>
      </trkpt>
      <trkpt lat="39.91227105734352" lon="116.65149335841187">
        <ele>8.124367713928223</ele>
        <time>2018-05-29T12:50:22Z</time>
      </trkpt>
      <trkpt lat="39.912217024756885" lon="116.65151231338717">
        <ele>7.61939001083374</ele>
        <time>2018-05-29T12:50:24Z</time>
      </trkpt>
      <trkpt lat="39.91217700258964" lon="116.65152528295188">
        <ele>6.347680568695068</ele>
        <time>2018-05-29T12:50:28Z</time>
      </trkpt>
      <trkpt lat="39.912144974565074" lon="116.651541243376">
        <ele>5.599545001983643</ele>
        <time>2018-05-29T12:50:30Z</time>
      </trkpt>
      <trkpt lat="39.912102932265526" lon="116.65156518326864">
        <ele>4.730692386627197</ele>
        <time>2018-05-29T12:50:32Z</time>
      </trkpt>
      <trkpt lat="39.91204588325159" lon="116.6515931141129">
        <ele>3.903423547744751</ele>
        <time>2018-05-29T12:50:34Z</time>
      </trkpt>
      <trkpt lat="39.91199384320622" lon="116.65161605793215">
        <ele>3.0243330001831055</ele>
        <time>2018-05-29T12:50:36Z</time>
      </trkpt>
      <trkpt lat="39.911946817648705" lon="116.65163102289308">
        <ele>2.100429058074951</ele>
        <time>2018-05-29T12:50:38Z</time>
      </trkpt>
      <trkpt lat="39.911917824409564" lon="116.65162803461094">
        <ele>1.154944658279419</ele>
        <time>2018-05-29T12:50:40Z</time>
      </trkpt>
      <trkpt lat="39.911887827536574" lon="116.65162704101071">
        <ele>0.04292323440313339</ele>
        <time>2018-05-29T12:50:42Z</time>
      </trkpt>
      <trkpt lat="39.91186681005382" lon="116.65163701638264">
        <ele>-3.499189853668213</ele>
        <time>2018-05-29T12:50:48Z</time>
      </trkpt>
      <trkpt lat="39.91186273483605" lon="116.65167790532121">
        <ele>-6.2937493324279785</ele>
        <time>2018-05-29T12:50:54Z</time>
      </trkpt>
      <trkpt lat="39.911870651725934" lon="116.65172278187377">
        <ele>-7.3821539878845215</ele>
        <time>2018-05-29T12:50:58Z</time>
      </trkpt>
      <trkpt lat="39.911891558834505" lon="116.65177264318643">
        <ele>-7.880791187286377</ele>
        <time>2018-05-29T12:51:02Z</time>
      </trkpt>
      <trkpt lat="39.91194935386864" lon="116.65188233648637">
        <ele>-8.072074890136719</ele>
        <time>2018-05-29T12:51:04Z</time>
      </trkpt>
      <trkpt lat="39.91202415540915" lon="116.65198803841312">
        <ele>-5.788634777069092</ele>
        <time>2018-05-29T12:51:23Z</time>
      </trkpt>
      <trkpt lat="39.91217180616902" lon="116.65217351293933">
        <ele>-4.991838455200195</ele>
        <time>2018-05-29T12:51:25Z</time>
      </trkpt>
      <trkpt lat="39.91232647841343" lon="116.65234701884769">
        <ele>-0.9618983864784241</ele>
        <time>2018-05-29T12:51:36Z</time>
      </trkpt>
      <trkpt lat="39.91244109105417" lon="116.65255343895453">
        <ele>9.348820686340332</ele>
        <time>2018-05-29T12:51:43Z</time>
      </trkpt>
      <trkpt lat="39.912485813570235" lon="116.65270202577483">
        <ele>11.128530502319336</ele>
        <time>2018-05-29T12:51:45Z</time>
      </trkpt>
      <trkpt lat="39.91249065605613" lon="116.65278679245488">
        <ele>14.291183471679688</ele>
        <time>2018-05-29T12:51:49Z</time>
      </trkpt>
      <trkpt lat="39.91261153979022" lon="116.65284661327951">
        <ele>15.390534400939941</ele>
        <time>2018-05-29T12:51:51Z</time>
      </trkpt>
      <trkpt lat="39.912749480176565" lon="116.65287551690156">
        <ele>19.49211311340332</ele>
        <time>2018-05-29T12:52:00Z</time>
      </trkpt>
      <trkpt lat="39.91287939496702" lon="116.65291838312912">
        <ele>20.21800422668457</ele>
        <time>2018-05-29T12:52:02Z</time>
      </trkpt>
      <trkpt lat="39.91292031725534" lon="116.65295926573185">
        <ele>20.884979248046875</ele>
        <time>2018-05-29T12:52:06Z</time>
      </trkpt>
      <trkpt lat="39.912944251373446" lon="116.65299416684476">
        <ele>21.40715980529785</ele>
        <time>2018-05-29T12:52:12Z</time>
      </trkpt>
      <trkpt lat="39.91398722559946" lon="116.65405710801222">
        <ele>8.102270126342773</ele>
        <time>2018-05-29T12:52:50Z</time>
      </trkpt>
      <trkpt lat="39.914047178311286" lon="116.65408103448395">
        <ele>11.321403503417969</ele>
        <time>2018-05-29T12:52:54Z</time>
      </trkpt>
      <trkpt lat="39.91406711408233" lon="116.65411493828489">
        <ele>11.788439750671387</ele>
        <time>2018-05-29T12:52:56Z</time>
      </trkpt>
      <trkpt lat="39.91406203039861" lon="116.65415981480187">
        <ele>12.23902702331543</ele>
        <time>2018-05-29T12:52:58Z</time>
      </trkpt>
      <trkpt lat="39.91408790247685" lon="116.65422762403388">
        <ele>18.27385711669922</ele>
        <time>2018-05-29T12:53:04Z</time>
      </trkpt>
      <trkpt lat="39.914139784599" lon="116.6542894465703">
        <ele>18.663894653320312</ele>
        <time>2018-05-29T12:53:06Z</time>
      </trkpt>
      <trkpt lat="39.9142106976032" lon="116.65433431365047">
        <ele>19.1422176361084</ele>
        <time>2018-05-29T12:53:08Z</time>
      </trkpt>
      <trkpt lat="39.91427562764433" lon="116.65437020628816">
        <ele>20.020889282226562</ele>
        <time>2018-05-29T12:53:11Z</time>
      </trkpt>
      <trkpt lat="39.9143375708698" lon="116.65439911860574">
        <ele>21.15870475769043</ele>
        <time>2018-05-29T12:53:15Z</time>
      </trkpt>
      <trkpt lat="39.91438751086507" lon="116.65443002686202">
        <ele>21.74203109741211</ele>
        <time>2018-05-29T12:53:17Z</time>
      </trkpt>
      <trkpt lat="39.91443743404534" lon="116.6544699102463">
        <ele>22.45499610900879</ele>
        <time>2018-05-29T12:53:19Z</time>
      </trkpt>
      <trkpt lat="39.914486366592946" lon="116.65450480754546">
        <ele>23.456212997436523</ele>
        <time>2018-05-29T12:53:21Z</time>
      </trkpt>
      <trkpt lat="39.91453329547879" lon="116.65454169954766">
        <ele>24.447887420654297</ele>
        <time>2018-05-29T12:53:23Z</time>
      </trkpt>
      <trkpt lat="39.91458022435261" lon="116.65457859153172">
        <ele>25.4671630859375</ele>
        <time>2018-05-29T12:53:25Z</time>
      </trkpt>
      <trkpt lat="39.91462715321446" lon="116.65461548349766">
        <ele>26.666460037231445</ele>
        <time>2018-05-29T12:53:27Z</time>
      </trkpt>
      <trkpt lat="39.914669093491476" lon="116.65464639264688">
        <ele>27.777603149414062</ele>
        <time>2018-05-29T12:53:29Z</time>
      </trkpt>
      <trkpt lat="39.91470404153514" lon="116.65467331370256">
        <ele>28.880287170410156</ele>
        <time>2018-05-29T12:53:31Z</time>
      </trkpt>
      <trkpt lat="39.914738995181" lon="116.65469724304428">
        <ele>29.902658462524414</ele>
        <time>2018-05-29T12:53:33Z</time>
      </trkpt>
      <trkpt lat="39.914768932206904" lon="116.65473014810243">
        <ele>30.865814208984375</ele>
        <time>2018-05-29T12:53:35Z</time>
      </trkpt>
      <trkpt lat="39.91479487313355" lon="116.65476105916963">
        <ele>32.38212203979492</ele>
        <time>2018-05-29T12:53:39Z</time>
      </trkpt>
      <trkpt lat="39.91483080614513" lon="116.65479595793063">
        <ele>33.26298522949219</ele>
        <time>2018-05-29T12:53:41Z</time>
      </trkpt>
      <trkpt lat="39.914875764951965" lon="116.65481689430618">
        <ele>34.00104522705078</ele>
        <time>2018-05-29T12:53:43Z</time>
      </trkpt>
      <trkpt lat="39.914929714018804" lon="116.65484281573556">
        <ele>34.662330627441406</ele>
        <time>2018-05-29T12:53:45Z</time>
      </trkpt>
      <trkpt lat="39.91498165193894" lon="116.65487472079705">
        <ele>35.27995300292969</ele>
        <time>2018-05-29T12:53:47Z</time>
      </trkpt>
      <trkpt lat="39.91503258240758" lon="116.65491061489642">
        <ele>35.78252029418945</ele>
        <time>2018-05-29T12:53:49Z</time>
      </trkpt>
      <trkpt lat="39.91508350537846" lon="116.65495049790535">
        <ele>36.24504470825195</ele>
        <time>2018-05-29T12:53:51Z</time>
      </trkpt>
      <trkpt lat="39.915133430250364" lon="116.6549893837855">
        <ele>36.63085174560547</ele>
        <time>2018-05-29T12:53:53Z</time>
      </trkpt>
      <trkpt lat="39.91519033983266" lon="116.65503624663052">
        <ele>36.971641540527344</ele>
        <time>2018-05-29T12:53:55Z</time>
      </trkpt>
      <trkpt lat="39.915232255651986" lon="116.65508011959993">
        <ele>37.186798095703125</ele>
        <time>2018-05-29T12:53:57Z</time>
      </trkpt>
      <trkpt lat="39.91527216779342" lon="116.6551259872491">
        <ele>37.30045700073242</ele>
        <time>2018-05-29T12:53:59Z</time>
      </trkpt>
      <trkpt lat="39.915308091328434" lon="116.65516587199019">
        <ele>37.245540618896484</ele>
        <time>2018-05-29T12:54:01Z</time>
      </trkpt>
      <trkpt lat="39.91534602600846" lon="116.65519977309548">
        <ele>37.17472839355469</ele>
        <time>2018-05-29T12:54:03Z</time>
      </trkpt>
      <trkpt lat="39.91538892860474" lon="116.65525062644562">
        <ele>37.055118560791016</ele>
        <time>2018-05-29T12:54:06Z</time>
      </trkpt>
      <trkpt lat="39.91543283676101" lon="116.65529848795909">
        <ele>36.4959831237793</ele>
        <time>2018-05-29T12:54:11Z</time>
      </trkpt>
      <trkpt lat="39.915484716431116" lon="116.65536130685825">
        <ele>36.28179931640625</ele>
        <time>2018-05-29T12:54:13Z</time>
      </trkpt>
      <trkpt lat="39.9155286264189" lon="116.65540817107983">
        <ele>35.947566986083984</ele>
        <time>2018-05-29T12:54:18Z</time>
      </trkpt>
      <trkpt lat="39.91557152329867" lon="116.6554620159732">
        <ele>35.79598617553711</ele>
        <time>2018-05-29T12:54:20Z</time>
      </trkpt>
      <trkpt lat="39.91559044369025" lon="116.65550389708419">
        <ele>35.63981628417969</ele>
        <time>2018-05-29T12:54:22Z</time>
      </trkpt>
      <trkpt lat="39.91558938743635" lon="116.6555338139401">
        <ele>35.25015640258789</ele>
        <time>2018-05-29T12:54:28Z</time>
      </trkpt>
      <trkpt lat="39.91555731935157" lon="116.65557071515983">
        <ele>35.23487854003906</ele>
        <time>2018-05-29T12:54:30Z</time>
      </trkpt>
      <trkpt lat="39.91552330202401" lon="116.6555806915736">
        <ele>34.745872497558594</ele>
        <time>2018-05-29T12:54:35Z</time>
      </trkpt>
      <trkpt lat="39.91548826596647" lon="116.6556006403441">
        <ele>34.567161560058594</ele>
        <time>2018-05-29T12:54:39Z</time>
      </trkpt>
      <trkpt lat="39.915450228155755" lon="116.65562158670153">
        <ele>34.37146759033203</ele>
        <time>2018-05-29T12:54:43Z</time>
      </trkpt>
      <trkpt lat="39.915407128589976" lon="116.6556754420186">
        <ele>34.296600341796875</ele>
        <time>2018-05-29T12:54:45Z</time>
      </trkpt>
      <trkpt lat="39.91535905362982" lon="116.65571633402931">
        <ele>34.27293395996094</ele>
        <time>2018-05-29T12:54:47Z</time>
      </trkpt>
      <trkpt lat="39.91529798484383" lon="116.65575423595223">
        <ele>34.24400329589844</ele>
        <time>2018-05-29T12:54:49Z</time>
      </trkpt>
      <trkpt lat="39.91522990882888" lon="116.65579612760258">
        <ele>34.39140319824219</ele>
        <time>2018-05-29T12:54:51Z</time>
      </trkpt>
      <trkpt lat="39.915149793846496" lon="116.65585896233681">
        <ele>34.61630630493164</ele>
        <time>2018-05-29T12:54:53Z</time>
      </trkpt>
      <trkpt lat="39.91503461452258" lon="116.65595670400438">
        <ele>34.82906723022461</ele>
        <time>2018-05-29T12:54:55Z</time>
      </trkpt>
      <trkpt lat="39.914918429524626" lon="116.65605743733768">
        <ele>35.27798080444336</ele>
        <time>2018-05-29T12:54:59Z</time>
      </trkpt>
      <trkpt lat="39.91480524808457" lon="116.65615617575133">
        <ele>35.62681579589844</ele>
        <time>2018-05-29T12:55:01Z</time>
      </trkpt>
      <trkpt lat="39.914740132290206" lon="116.65621900838028">
        <ele>35.85279083251953</ele>
        <time>2018-05-29T12:55:03Z</time>
      </trkpt>
      <trkpt lat="39.91468402549597" lon="116.65627685378091">
        <ele>35.803592681884766</ele>
        <time>2018-05-29T12:55:05Z</time>
      </trkpt>
      <trkpt lat="39.91462587921648" lon="116.65635564089953">
        <ele>35.756492614746094</ele>
        <time>2018-05-29T12:55:07Z</time>
      </trkpt>
      <trkpt lat="39.91454669422308" lon="116.65645537201496">
        <ele>35.815391540527344</ele>
        <time>2018-05-29T12:55:09Z</time>
      </trkpt>
      <trkpt lat="39.9144645036292" lon="116.65655809502508">
        <ele>35.50875473022461</ele>
        <time>2018-05-29T12:55:11Z</time>
      </trkpt>
      <trkpt lat="39.91440137247942" lon="116.65662890481794">
        <ele>34.968231201171875</ele>
        <time>2018-05-29T12:55:13Z</time>
      </trkpt>
      <trkpt lat="39.91435628766778" lon="116.65667478206969">
        <ele>34.40966033935547</ele>
        <time>2018-05-29T12:55:15Z</time>
      </trkpt>
      <trkpt lat="39.91431623280142" lon="116.65670470331293">
        <ele>33.75214767456055</ele>
        <time>2018-05-29T12:55:17Z</time>
      </trkpt>
      <trkpt lat="39.91426617458275" lon="116.65673662019607">
        <ele>33.0051155090332</ele>
        <time>2018-05-29T12:55:19Z</time>
      </trkpt>
      <trkpt lat="39.91421811815801" lon="116.65676753961235">
        <ele>32.214508056640625</ele>
        <time>2018-05-29T12:55:21Z</time>
      </trkpt>
      <trkpt lat="39.91417405401021" lon="116.65680244736578">
        <ele>30.87167739868164</ele>
        <time>2018-05-29T12:55:25Z</time>
      </trkpt>
      <trkpt lat="39.9140979006457" lon="116.65688522507446">
        <ele>30.40851402282715</ele>
        <time>2018-05-29T12:55:27Z</time>
      </trkpt>
      <trkpt lat="39.91402676400836" lon="116.65695902722331">
        <ele>29.065141677856445</ele>
        <time>2018-05-29T12:55:34Z</time>
      </trkpt>
      <trkpt lat="39.913931583039" lon="116.65705676523467">
        <ele>28.673349380493164</ele>
        <time>2018-05-29T12:55:36Z</time>
      </trkpt>
      <trkpt lat="39.9138754966694" lon="116.65710364083407">
        <ele>27.917320251464844</ele>
        <time>2018-05-29T12:55:40Z</time>
      </trkpt>
      <trkpt lat="39.91381540856651" lon="116.65715151410804">
        <ele>27.664594650268555</ele>
        <time>2018-05-29T12:55:42Z</time>
      </trkpt>
      <trkpt lat="39.913771349993354" lon="116.6571834301023">
        <ele>27.32206153869629</ele>
        <time>2018-05-29T12:55:45Z</time>
      </trkpt>
      <trkpt lat="39.913768308557295" lon="116.65720536899346">
        <ele>26.819528579711914</ele>
        <time>2018-05-29T12:55:48Z</time>
      </trkpt>
      <trkpt lat="39.91374929425318" lon="116.65721334897167">
        <ele>26.290023803710938</ele>
        <time>2018-05-29T12:55:50Z</time>
      </trkpt>
      <trkpt lat="39.913757312805465" lon="116.65720337593432">
        <ele>25.894987106323242</ele>
        <time>2018-05-29T12:55:52Z</time>
      </trkpt>
      <trkpt lat="39.91371337136062" lon="116.6571734651725">
        <ele>24.820728302001953</ele>
        <time>2018-05-29T12:55:58Z</time>
      </trkpt>
      <trkpt lat="39.91368544244904" lon="116.657136571992">
        <ele>23.91942596435547</ele>
        <time>2018-05-29T12:56:02Z</time>
      </trkpt>
      <trkpt lat="39.91363753893337" lon="116.65708671756852">
        <ele>23.553369522094727</ele>
        <time>2018-05-29T12:56:04Z</time>
      </trkpt>
      <trkpt lat="39.913599623644316" lon="116.65704284513289">
        <ele>22.99131965637207</ele>
        <time>2018-05-29T12:56:08Z</time>
      </trkpt>
      <trkpt lat="39.91356870237913" lon="116.65700196343933">
        <ele>22.73697280883789</ele>
        <time>2018-05-29T12:56:10Z</time>
      </trkpt>
      <trkpt lat="39.91352184784854" lon="116.65692618140585">
        <ele>22.453458786010742</ele>
        <time>2018-05-29T12:56:12Z</time>
      </trkpt>
      <trkpt lat="39.913477985601475" lon="116.65685438777851">
        <ele>22.058910369873047</ele>
        <time>2018-05-29T12:56:16Z</time>
      </trkpt>
      <trkpt lat="39.91342813111915" lon="116.65677860599236">
        <ele>21.91912078857422</ele>
        <time>2018-05-29T12:56:18Z</time>
      </trkpt>
      <trkpt lat="39.91339220810459" lon="116.65673872200637">
        <ele>21.74980926513672</ele>
        <time>2018-05-29T12:56:20Z</time>
      </trkpt>
      <trkpt lat="39.91334730620593" lon="116.6566878697882">
        <ele>21.645357131958008</ele>
        <time>2018-05-29T12:56:22Z</time>
      </trkpt>
      <trkpt lat="39.913304394776496" lon="116.65664200335338">
        <ele>21.56976890563965</ele>
        <time>2018-05-29T12:56:24Z</time>
      </trkpt>
      <trkpt lat="39.91328248620397" lon="116.65659413989097">
        <ele>21.446882247924805</ele>
        <time>2018-05-29T12:56:26Z</time>
      </trkpt>
      <trkpt lat="39.913182837187954" lon="116.65641066497244">
        <ele>21.328227996826172</ele>
        <time>2018-05-29T12:56:28Z</time>
      </trkpt>
      <trkpt lat="39.91307320904968" lon="116.65621622152219">
        <ele>20.625581741333008</ele>
        <time>2018-05-29T12:56:36Z</time>
      </trkpt>
      <trkpt lat="39.91294658322886" lon="116.65602078250548">
        <ele>20.387073516845703</ele>
        <time>2018-05-29T12:56:38Z</time>
      </trkpt>
      <trkpt lat="39.912910667507965" lon="116.65597690929913">
        <ele>20.200170516967773</ele>
        <time>2018-05-29T12:56:40Z</time>
      </trkpt>
      <trkpt lat="39.9129066940018" lon="116.65596294872212">
        <ele>20.07916259765625</ele>
        <time>2018-05-29T12:56:42Z</time>
      </trkpt>
      <trkpt lat="39.91289274724166" lon="116.65593502829823">
        <ele>20.127012252807617</ele>
        <time>2018-05-29T12:56:46Z</time>
      </trkpt>
      <trkpt lat="39.91287181769189" lon="116.65589813374532">
        <ele>20.451078414916992</ele>
        <time>2018-05-29T12:56:50Z</time>
      </trkpt>
      <trkpt lat="39.91282293255244" lon="116.65583830654204">
        <ele>20.712352752685547</ele>
        <time>2018-05-29T12:56:52Z</time>
      </trkpt>
      <trkpt lat="39.91274309004072" lon="116.65575654422915">
        <ele>20.988435745239258</ele>
        <time>2018-05-29T12:56:54Z</time>
      </trkpt>
      <trkpt lat="39.912663238086616" lon="116.65567976794898">
        <ele>21.61431121826172</ele>
        <time>2018-05-29T12:56:58Z</time>
      </trkpt>
      <trkpt lat="39.912607366284206" lon="116.6556129608845">
        <ele>21.849472045898438</ele>
        <time>2018-05-29T12:57:00Z</time>
      </trkpt>
      <trkpt lat="39.91259443441924" lon="116.65557706243003">
        <ele>21.86341667175293</ele>
        <time>2018-05-29T12:57:02Z</time>
      </trkpt>
      <trkpt lat="39.912569516194786" lon="116.6555341848633">
        <ele>21.5748233795166</ele>
        <time>2018-05-29T12:57:04Z</time>
      </trkpt>
      <trkpt lat="39.91251763851315" lon="116.65547036886431">
        <ele>21.30638313293457</ele>
        <time>2018-05-29T12:57:06Z</time>
      </trkpt>
      <trkpt lat="39.91244977273742" lon="116.65540057142418">
        <ele>19.726839065551758</ele>
        <time>2018-05-29T12:57:14Z</time>
      </trkpt>
      <trkpt lat="39.912384910542826" lon="116.65532877910137">
        <ele>19.105676651000977</ele>
        <time>2018-05-29T12:57:18Z</time>
      </trkpt>
      <trkpt lat="39.912335023294766" lon="116.65526994883254">
        <ele>18.722196578979492</ele>
        <time>2018-05-29T12:57:23Z</time>
      </trkpt>
      <trkpt lat="39.91229612617597" lon="116.65521610331123">
        <ele>18.290172576904297</ele>
        <time>2018-05-29T12:57:29Z</time>
      </trkpt>
      <trkpt lat="39.912253255433036" lon="116.65514829703763">
        <ele>18.15213966369629</ele>
        <time>2018-05-29T12:57:31Z</time>
      </trkpt>
      <trkpt lat="39.91219740206395" lon="116.65507151723155">
        <ele>18.000465393066406</ele>
        <time>2018-05-29T12:57:35Z</time>
      </trkpt>
      <trkpt lat="39.912149538940454" lon="116.6549997225235">
        <ele>17.991838455200195</ele>
        <time>2018-05-29T12:57:37Z</time>
      </trkpt>
      <trkpt lat="39.91211265284147" lon="116.65493989318138">
        <ele>18.156993865966797</ele>
        <time>2018-05-29T12:57:39Z</time>
      </trkpt>
      <trkpt lat="39.91207974969942" lon="116.65488903839473">
        <ele>18.564090728759766</ele>
        <time>2018-05-29T12:57:45Z</time>
      </trkpt>
      <trkpt lat="39.91203485453287" lon="116.65483419611553">
        <ele>18.74481773376465</ele>
        <time>2018-05-29T12:57:47Z</time>
      </trkpt>
      <trkpt lat="39.91198494646306" lon="116.65478633504797">
        <ele>18.904720306396484</ele>
        <time>2018-05-29T12:57:49Z</time>
      </trkpt>
      <trkpt lat="39.91192904237069" lon="116.65473648021835">
        <ele>18.985288619995117</ele>
        <time>2018-05-29T12:57:51Z</time>
      </trkpt>
      <trkpt lat="39.91188412656763" lon="116.65469260741584">
        <ele>19.06043243408203</ele>
        <time>2018-05-29T12:57:53Z</time>
      </trkpt>
      <trkpt lat="39.91183423712832" lon="116.65463477390257">
        <ele>19.18834686279297</ele>
        <time>2018-05-29T12:57:57Z</time>
      </trkpt>
      <trkpt lat="39.911792343578725" lon="116.65457893383604">
        <ele>19.31053924560547</ele>
        <time>2018-05-29T12:57:59Z</time>
      </trkpt>
      <trkpt lat="39.91174347458427" lon="116.6545101305025">
        <ele>19.410085678100586</ele>
        <time>2018-05-29T12:58:01Z</time>
      </trkpt>
      <trkpt lat="39.91170557333102" lon="116.65445827880498">
        <ele>19.68524742126465</ele>
        <time>2018-05-29T12:58:03Z</time>
      </trkpt>
      <trkpt lat="39.91159777772648" lon="116.65435158751188">
        <ele>20.005643844604492</ele>
        <time>2018-05-29T12:58:05Z</time>
      </trkpt>
      <trkpt lat="39.911499948010515" lon="116.65426284517248">
        <ele>20.753154754638672</ele>
        <time>2018-05-29T12:58:09Z</time>
      </trkpt>
      <trkpt lat="39.9113851469241" lon="116.65415914618264">
        <ele>21.100358963012695</ele>
        <time>2018-05-29T12:58:11Z</time>
      </trkpt>
      <trkpt lat="39.91132625013666" lon="116.65410530233098">
        <ele>21.86113929748535</ele>
        <time>2018-05-29T12:58:15Z</time>
      </trkpt>
      <trkpt lat="39.91123936943616" lon="116.6540434839272">
        <ele>22.218412399291992</ele>
        <time>2018-05-29T12:58:17Z</time>
      </trkpt>
      <trkpt lat="39.91119441609478" lon="116.65401955559808">
        <ele>23.280887603759766</ele>
        <time>2018-05-29T12:58:27Z</time>
      </trkpt>
      <trkpt lat="39.911153466302075" lon="116.6539936322813">
        <ele>23.49652099609375</ele>
        <time>2018-05-29T12:58:31Z</time>
      </trkpt>
      <trkpt lat="39.91108459035029" lon="116.6539288198366">
        <ele>23.871965408325195</ele>
        <time>2018-05-29T12:58:35Z</time>
      </trkpt>
      <trkpt lat="39.91099474318974" lon="116.65384905121661">
        <ele>24.05722427368164</ele>
        <time>2018-05-29T12:58:39Z</time>
      </trkpt>
      <trkpt lat="39.91084995416223" lon="116.65373937182635">
        <ele>24.018510818481445</ele>
        <time>2018-05-29T12:58:41Z</time>
      </trkpt>
      <trkpt lat="39.91076107519775" lon="116.65367655610248">
        <ele>23.62395668029785</ele>
        <time>2018-05-29T12:58:45Z</time>
      </trkpt>
      <trkpt lat="39.910693178555405" lon="116.6536227129919">
        <ele>23.198686599731445</ele>
        <time>2018-05-29T12:58:51Z</time>
      </trkpt>
      <trkpt lat="39.91069220462994" lon="116.65360875161934">
        <ele>23.043529510498047</ele>
        <time>2018-05-29T12:58:55Z</time>
      </trkpt>
      <trkpt lat="39.91068624579138" lon="116.65358681285751">
        <ele>22.745981216430664</ele>
        <time>2018-05-29T12:59:01Z</time>
      </trkpt>
      <trkpt lat="39.91066131565002" lon="116.6535499176632">
        <ele>22.67413902282715</ele>
        <time>2018-05-29T12:59:03Z</time>
      </trkpt>
      <trkpt lat="39.91064935705767" lon="116.6535279796193">
        <ele>22.405475616455078</ele>
        <time>2018-05-29T12:59:07Z</time>
      </trkpt>
      <trkpt lat="39.91063040805406" lon="116.65350105617128">
        <ele>22.057825088500977</ele>
        <time>2018-05-29T12:59:09Z</time>
      </trkpt>
      <trkpt lat="39.91061046837635" lon="116.65346914657702">
        <ele>21.329790115356445</ele>
        <time>2018-05-29T12:59:13Z</time>
      </trkpt>
      <trkpt lat="39.91052465040517" lon="116.65337342089691">
        <ele>20.293821334838867</ele>
        <time>2018-05-29T12:59:19Z</time>
      </trkpt>
      <trkpt lat="39.91043783609893" lon="116.65327570069769">
        <ele>19.330547332763672</ele>
        <time>2018-05-29T12:59:25Z</time>
      </trkpt>
      <trkpt lat="39.9103500124657" lon="116.6531829667615">
        <ele>19.155019760131836</ele>
        <time>2018-05-29T12:59:27Z</time>
      </trkpt>
      <trkpt lat="39.91026315903569" lon="116.6531061886903">
        <ele>18.81795310974121</ele>
        <time>2018-05-29T12:59:29Z</time>
      </trkpt>
      <trkpt lat="39.91018829946756" lon="116.65303240083395">
        <ele>18.064077377319336</ele>
        <time>2018-05-29T12:59:33Z</time>
      </trkpt>
      <trkpt lat="39.91013442596688" lon="116.6529655911341">
        <ele>17.21044158935547</ele>
        <time>2018-05-29T12:59:37Z</time>
      </trkpt>
      <trkpt lat="39.91012476345149" lon="116.65278409096271">
        <ele>16.750232696533203</ele>
        <time>2018-05-29T12:59:39Z</time>
      </trkpt>
      <trkpt lat="39.9101420883303" lon="116.6526085705712">
        <ele>15.196586608886719</ele>
        <time>2018-05-29T12:59:48Z</time>
      </trkpt>
      <trkpt lat="39.91017036437465" lon="116.65245897730202">
        <ele>14.839664459228516</ele>
        <time>2018-05-29T12:59:53Z</time>
      </trkpt>
      <trkpt lat="39.910231300763016" lon="116.65249187961166">
        <ele>14.741157531738281</ele>
        <time>2018-05-29T12:59:57Z</time>
      </trkpt>
      <trkpt lat="39.91028219505942" lon="116.6525477202382">
        <ele>14.720382690429688</ele>
        <time>2018-05-29T12:59:59Z</time>
      </trkpt>
      <trkpt lat="39.91033008760356" lon="116.65260455844947">
        <ele>14.76388931274414</ele>
        <time>2018-05-29T13:00:01Z</time>
      </trkpt>
      <trkpt lat="39.9103709896646" lon="116.65265641115191">
        <ele>14.904805183410645</ele>
        <time>2018-05-29T13:00:04Z</time>
      </trkpt>
      <trkpt lat="39.91047368173243" lon="116.65281994955859">
        <ele>14.934285163879395</ele>
        <time>2018-05-29T13:00:06Z</time>
      </trkpt>
      <trkpt lat="39.910572360724316" lon="116.65299046886535">
        <ele>13.642882347106934</ele>
        <time>2018-05-29T13:00:19Z</time>
      </trkpt>
      <trkpt lat="39.91066503040318" lon="116.65316597475733">
        <ele>13.7087984085083</ele>
        <time>2018-05-29T13:00:21Z</time>
      </trkpt>
      <trkpt lat="39.91069884896228" lon="116.65326270436042">
        <ele>14.159039497375488</ele>
        <time>2018-05-29T13:00:25Z</time>
      </trkpt>
      <trkpt lat="39.9107197032666" lon="116.65334048760708">
        <ele>15.266393661499023</ele>
        <time>2018-05-29T13:00:30Z</time>
      </trkpt>
      <trkpt lat="39.9107415667544" lon="116.653413284381">
        <ele>16.825071334838867</ele>
        <time>2018-05-29T13:00:34Z</time>
      </trkpt>
      <trkpt lat="39.91074047391554" lon="116.65346314711293">
        <ele>17.64800262451172</ele>
        <time>2018-05-29T13:00:36Z</time>
      </trkpt>
      <trkpt lat="39.9107573858508" lon="116.65351001584688">
        <ele>20.284860610961914</ele>
        <time>2018-05-29T13:00:41Z</time>
      </trkpt>
      <trkpt lat="39.91078824325109" lon="116.65358580308964">
        <ele>22.38468360900879</ele>
        <time>2018-05-29T13:00:46Z</time>
      </trkpt>
      <trkpt lat="39.91087606093908" lon="116.65368152823262">
        <ele>23.14430809020996</ele>
        <time>2018-05-29T13:00:50Z</time>
      </trkpt>
      <trkpt lat="39.91096889321086" lon="116.65376927465253">
        <ele>22.86553382873535</ele>
        <time>2018-05-29T13:00:54Z</time>
      </trkpt>
      <trkpt lat="39.91115867096148" lon="116.65388393470262">
        <ele>22.514970779418945</ele>
        <time>2018-05-29T13:00:56Z</time>
      </trkpt>
      <trkpt lat="39.91132244971068" lon="116.65399859775943">
        <ele>21.621501922607422</ele>
        <time>2018-05-29T13:01:12Z</time>
      </trkpt>
      <trkpt lat="39.91146020149446" lon="116.65412822246444">
        <ele>23.92937469482422</ele>
        <time>2018-05-29T13:01:20Z</time>
      </trkpt>
      <trkpt lat="39.91156197146054" lon="116.65424887619047">
        <ele>24.418350219726562</ele>
        <time>2018-05-29T13:01:22Z</time>
      </trkpt>
      <trkpt lat="39.9116867309715" lon="116.6543745130914">
        <ele>25.829866409301758</ele>
        <time>2018-05-29T13:01:29Z</time>
      </trkpt>
      <trkpt lat="39.91184450012799" lon="116.654494162303">
        <ele>26.7948055267334</ele>
        <time>2018-05-29T13:01:34Z</time>
      </trkpt>
      <trkpt lat="39.911937397134594" lon="116.65454700446006">
        <ele>27.49717903137207</ele>
        <time>2018-05-29T13:01:36Z</time>
      </trkpt>
      <trkpt lat="39.91245048858475" lon="116.65501963018158">
        <ele>34.64347457885742</ele>
        <time>2018-05-29T13:02:05Z</time>
      </trkpt>
      <trkpt lat="39.912439247456014" lon="116.6551482741974">
        <ele>34.81216049194336</ele>
        <time>2018-05-29T13:02:12Z</time>
      </trkpt>
      <trkpt lat="39.91244602603278" lon="116.65526594629087">
        <ele>34.46954345703125</ele>
        <time>2018-05-29T13:02:17Z</time>
      </trkpt>
      <trkpt lat="39.91247687659801" lon="116.65534472343218">
        <ele>34.323612213134766</ele>
        <time>2018-05-29T13:02:19Z</time>
      </trkpt>
      <trkpt lat="39.91261355371753" lon="116.65551323774487">
        <ele>34.49435043334961</ele>
        <time>2018-05-29T13:02:21Z</time>
      </trkpt>
      <trkpt lat="39.912768242978395" lon="116.65567476893956">
        <ele>37.327781677246094</ele>
        <time>2018-05-29T13:02:34Z</time>
      </trkpt>
      <trkpt lat="39.913076632200045" lon="116.65599184719339">
        <ele>37.44791030883789</ele>
        <time>2018-05-29T13:02:36Z</time>
      </trkpt>
      <trkpt lat="39.91329130511323" lon="116.65616035061112">
        <ele>28.053909301757812</ele>
        <time>2018-05-29T13:02:56Z</time>
      </trkpt>
      <trkpt lat="39.91346597387206" lon="116.65633185025682">
        <ele>28.08559799194336</ele>
        <time>2018-05-29T13:02:58Z</time>
      </trkpt>
      <trkpt lat="39.91348890133009" lon="116.65636974159203">
        <ele>28.835580825805664</ele>
        <time>2018-05-29T13:03:02Z</time>
      </trkpt>
      <trkpt lat="39.91388035289898" lon="116.6571794278845">
        <ele>41.059288024902344</ele>
        <time>2018-05-29T13:03:37Z</time>
      </trkpt>
      <trkpt lat="39.913893201188394" lon="116.65725920271113">
        <ele>40.84313201904297</ele>
        <time>2018-05-29T13:03:40Z</time>
      </trkpt>
      <trkpt lat="39.91388905772014" lon="116.65733499074436">
        <ele>40.44099426269531</ele>
        <time>2018-05-29T13:03:43Z</time>
      </trkpt>
      <trkpt lat="39.91388599546633" lon="116.6573678988429">
        <ele>40.17878341674805</ele>
        <time>2018-05-29T13:03:45Z</time>
      </trkpt>
      <trkpt lat="39.91391485998883" lon="116.65743869672039">
        <ele>39.4591064453125</ele>
        <time>2018-05-29T13:03:49Z</time>
      </trkpt>
      <trkpt lat="39.91397781191694" lon="116.65746262184759">
        <ele>37.485713958740234</ele>
        <time>2018-05-29T13:03:53Z</time>
      </trkpt>
      <trkpt lat="39.914292076452504" lon="116.6573159943371">
        <ele>36.74437713623047</ele>
        <time>2018-05-29T13:03:55Z</time>
      </trkpt>
      <trkpt lat="39.914548360325064" lon="116.6571603988828">
        <ele>20.854480743408203</ele>
        <time>2018-05-29T13:04:11Z</time>
      </trkpt>
      <trkpt lat="39.91479462180733" lon="116.6570167708955">
        <ele>21.670738220214844</ele>
        <time>2018-05-29T13:04:13Z</time>
      </trkpt>
      <trkpt lat="39.914833601267965" lon="116.65702673817627">
        <ele>22.440481185913086</ele>
        <time>2018-05-29T13:04:15Z</time>
      </trkpt>
      <trkpt lat="39.91490869813841" lon="116.65697387695862">
        <ele>23.412429809570312</ele>
        <time>2018-05-29T13:04:19Z</time>
      </trkpt>
      <trkpt lat="39.91498378932763" lon="116.65692400733657">
        <ele>23.706336975097656</ele>
        <time>2018-05-29T13:04:21Z</time>
      </trkpt>
      <trkpt lat="39.91503886436632" lon="116.65688311502551">
        <ele>24.008752822875977</ele>
        <time>2018-05-29T13:04:23Z</time>
      </trkpt>
      <trkpt lat="39.91509797129776" lon="116.65682526964618">
        <ele>24.154048919677734</ele>
        <time>2018-05-29T13:04:25Z</time>
      </trkpt>
      <trkpt lat="39.91516508163806" lon="116.65676542882761">
        <ele>24.320661544799805</ele>
        <time>2018-05-29T13:04:27Z</time>
      </trkpt>
      <trkpt lat="39.9152171605304" lon="116.65672254239435">
        <ele>24.349802017211914</ele>
        <time>2018-05-29T13:04:29Z</time>
      </trkpt>
      <trkpt lat="39.915251198689035" lon="116.65670159679259">
        <ele>24.045263290405273</ele>
        <time>2018-05-29T13:04:33Z</time>
      </trkpt>
      <trkpt lat="39.91530626235071" lon="116.65666668765054">
        <ele>23.916296005249023</ele>
        <time>2018-05-29T13:04:35Z</time>
      </trkpt>
      <trkpt lat="39.91538536834379" lon="116.65660883967792">
        <ele>23.597898483276367</ele>
        <time>2018-05-29T13:04:40Z</time>
      </trkpt>
      <trkpt lat="39.91549451261584" lon="116.656530046519">
        <ele>23.33832359313965</ele>
        <time>2018-05-29T13:04:42Z</time>
      </trkpt>
      <trkpt lat="39.915588632988005" lon="116.65646421890953">
        <ele>23.02220344543457</ele>
        <time>2018-05-29T13:04:44Z</time>
      </trkpt>
      <trkpt lat="39.915660716590146" lon="116.65641833823526">
        <ele>22.32307243347168</ele>
        <time>2018-05-29T13:04:50Z</time>
      </trkpt>
      <trkpt lat="39.91570573540151" lon="116.65640736335261">
        <ele>22.265304565429688</ele>
        <time>2018-05-29T13:04:52Z</time>
      </trkpt>
      <trkpt lat="39.91572172530507" lon="116.65641234745671">
        <ele>22.29490089416504</ele>
        <time>2018-05-29T13:04:56Z</time>
      </trkpt>
      <trkpt lat="39.91573465693893" lon="116.65644824555498">
        <ele>22.314735412597656</ele>
        <time>2018-05-29T13:04:58Z</time>
      </trkpt>
      <trkpt lat="39.91573354016621" lon="116.65651007289735">
        <ele>22.381248474121094</ele>
        <time>2018-05-29T13:05:02Z</time>
      </trkpt>
      <trkpt lat="39.91573740995897" lon="116.65657888006763">
        <ele>22.43051528930664</ele>
        <time>2018-05-29T13:05:04Z</time>
      </trkpt>
      <trkpt lat="39.91573230272199" lon="116.65663572175421">
        <ele>22.491973876953125</ele>
        <time>2018-05-29T13:05:06Z</time>
      </trkpt>
      <trkpt lat="39.915736212050476" lon="116.65668358740108">
        <ele>22.620378494262695</ele>
        <time>2018-05-29T13:05:08Z</time>
      </trkpt>
      <trkpt lat="39.915750111508075" lon="116.6567364378459">
        <ele>22.80144500732422</ele>
        <time>2018-05-29T13:05:10Z</time>
      </trkpt>
      <trkpt lat="39.9157719841957" lon="116.65680324821311">
        <ele>22.978668212890625</ele>
        <time>2018-05-29T13:05:12Z</time>
      </trkpt>
      <trkpt lat="39.915804869593366" lon="116.65686307671716">
        <ele>23.269855499267578</ele>
        <time>2018-05-29T13:05:16Z</time>
      </trkpt>
      <trkpt lat="39.915838760585004" lon="116.65691991343431">
        <ele>23.401260375976562</ele>
        <time>2018-05-29T13:05:18Z</time>
      </trkpt>
      <trkpt lat="39.91586768008101" lon="116.65696179261317">
        <ele>23.51036834716797</ele>
        <time>2018-05-29T13:05:20Z</time>
      </trkpt>
      <trkpt lat="39.91589160355237" lon="116.65700167797262">
        <ele>23.5367374420166</ele>
        <time>2018-05-29T13:05:22Z</time>
      </trkpt>
      <trkpt lat="39.91591752503952" lon="116.65704256027628">
        <ele>23.55921173095703</ele>
        <time>2018-05-29T13:05:24Z</time>
      </trkpt>
      <trkpt lat="39.915953417762836" lon="116.6570983994315">
        <ele>23.53120231628418</ele>
        <time>2018-05-29T13:05:26Z</time>
      </trkpt>
      <trkpt lat="39.91599329329363" lon="116.65716321291457">
        <ele>23.492061614990234</ele>
        <time>2018-05-29T13:05:28Z</time>
      </trkpt>
      <trkpt lat="39.91603515548382" lon="116.65723500654305">
        <ele>23.47393226623535</ele>
        <time>2018-05-29T13:05:30Z</time>
      </trkpt>
      <trkpt lat="39.91607103679289" lon="116.6572968288114">
        <ele>23.489994049072266</ele>
        <time>2018-05-29T13:05:32Z</time>
      </trkpt>
      <trkpt lat="39.91609694118379" lon="116.65734668582309">
        <ele>23.55950927734375</ele>
        <time>2018-05-29T13:05:34Z</time>
      </trkpt>
      <trkpt lat="39.91611985702872" lon="116.65739055995732">
        <ele>23.583473205566406</ele>
        <time>2018-05-29T13:05:36Z</time>
      </trkpt>
      <trkpt lat="39.91614676890937" lon="116.65743642798599">
        <ele>23.638261795043945</ele>
        <time>2018-05-29T13:05:38Z</time>
      </trkpt>
      <trkpt lat="39.91618167287212" lon="116.65748628381962">
        <ele>23.673259735107422</ele>
        <time>2018-05-29T13:05:40Z</time>
      </trkpt>
      <trkpt lat="39.91621955588324" lon="116.65754710847993">
        <ele>23.6822509765625</ele>
        <time>2018-05-29T13:05:42Z</time>
      </trkpt>
      <trkpt lat="39.91625743886984" lon="116.65760793310262">
        <ele>23.67207908630371</ele>
        <time>2018-05-29T13:05:44Z</time>
      </trkpt>
      <trkpt lat="39.916293323809235" lon="116.65766776073316">
        <ele>23.623321533203125</ele>
        <time>2018-05-29T13:05:46Z</time>
      </trkpt>
      <trkpt lat="39.9163272220598" lon="116.65772060817314">
        <ele>23.56285285949707</ele>
        <time>2018-05-29T13:05:48Z</time>
      </trkpt>
      <trkpt lat="39.91636411259258" lon="116.65777744401467">
        <ele>23.475990295410156</ele>
        <time>2018-05-29T13:05:50Z</time>
      </trkpt>
      <trkpt lat="39.91640400297764" lon="116.65783427945533">
        <ele>23.393104553222656</ele>
        <time>2018-05-29T13:05:52Z</time>
      </trkpt>
      <trkpt lat="39.91644090104462" lon="116.6578871264391">
        <ele>23.26810073852539</ele>
        <time>2018-05-29T13:05:54Z</time>
      </trkpt>
      <trkpt lat="39.9164717993477" lon="116.65793997413307">
        <ele>23.057857513427734</ele>
        <time>2018-05-29T13:05:56Z</time>
      </trkpt>
      <trkpt lat="39.91649571119103" lon="116.65798584227805">
        <ele>22.776260375976562</ele>
        <time>2018-05-29T13:05:58Z</time>
      </trkpt>
      <trkpt lat="39.916519619231494" lon="116.65803370479671">
        <ele>22.480234146118164</ele>
        <time>2018-05-29T13:06:00Z</time>
      </trkpt>
      <trkpt lat="39.91655051180037" lon="116.65808954400507">
        <ele>22.084983825683594</ele>
        <time>2018-05-29T13:06:02Z</time>
      </trkpt>
      <trkpt lat="39.9165903831182" lon="116.65815635123217">
        <ele>21.61257553100586</ele>
        <time>2018-05-29T13:06:04Z</time>
      </trkpt>
      <trkpt lat="39.91663523334081" lon="116.6582341269491">
        <ele>21.162004470825195</ele>
        <time>2018-05-29T13:06:06Z</time>
      </trkpt>
      <trkpt lat="39.916676096971344" lon="116.65830492273953">
        <ele>20.828857421875</ele>
        <time>2018-05-29T13:06:08Z</time>
      </trkpt>
      <trkpt lat="39.916715945438305" lon="116.65838369615619">
        <ele>20.537641525268555</ele>
        <time>2018-05-29T13:06:10Z</time>
      </trkpt>
      <trkpt lat="39.91676179740945" lon="116.65846047439138">
        <ele>20.301904678344727</ele>
        <time>2018-05-29T13:06:12Z</time>
      </trkpt>
      <trkpt lat="39.916809662546314" lon="116.6585302719797">
        <ele>19.747480392456055</ele>
        <time>2018-05-29T13:06:16Z</time>
      </trkpt>
      <trkpt lat="39.91685355629689" lon="116.65858511213771">
        <ele>19.426069259643555</ele>
        <time>2018-05-29T13:06:18Z</time>
      </trkpt>
      <trkpt lat="39.91688445627474" lon="116.65863696229266">
        <ele>19.11139488220215</ele>
        <time>2018-05-29T13:06:20Z</time>
      </trkpt>
      <trkpt lat="39.916914337291374" lon="116.65869878445555">
        <ele>18.896459579467773</ele>
        <time>2018-05-29T13:06:22Z</time>
      </trkpt>
      <trkpt lat="39.916946206806465" lon="116.6587665894801">
        <ele>18.736478805541992</ele>
        <time>2018-05-29T13:06:24Z</time>
      </trkpt>
      <trkpt lat="39.91698108186749" lon="116.65883140252573">
        <ele>18.613162994384766</ele>
        <time>2018-05-29T13:06:26Z</time>
      </trkpt>
      <trkpt lat="39.917015989203136" lon="116.65887926331759">
        <ele>18.515209197998047</ele>
        <time>2018-05-29T13:06:28Z</time>
      </trkpt>
      <trkpt lat="39.917045913837995" lon="116.65891815000397">
        <ele>18.399967193603516</ele>
        <time>2018-05-29T13:06:32Z</time>
      </trkpt>
      <trkpt lat="39.917074830905584" lon="116.65896102555446">
        <ele>18.33098030090332</ele>
        <time>2018-05-29T13:06:34Z</time>
      </trkpt>
      <trkpt lat="39.917106725029534" lon="116.65901586697791">
        <ele>18.254074096679688</ele>
        <time>2018-05-29T13:06:36Z</time>
      </trkpt>
      <trkpt lat="39.9171416209113" lon="116.65906971081877">
        <ele>18.180635452270508</ele>
        <time>2018-05-29T13:06:38Z</time>
      </trkpt>
      <trkpt lat="39.91717353781681" lon="116.65911258594409">
        <ele>18.137041091918945</ele>
        <time>2018-05-29T13:06:40Z</time>
      </trkpt>
      <trkpt lat="39.917201464388036" lon="116.65915047561094">
        <ele>18.112197875976562</ele>
        <time>2018-05-29T13:06:42Z</time>
      </trkpt>
      <trkpt lat="39.917235367879506" lon="116.6592003307667">
        <ele>18.107526779174805</ele>
        <time>2018-05-29T13:06:44Z</time>
      </trkpt>
      <trkpt lat="39.91728223086878" lon="116.6592711252092">
        <ele>18.106231689453125</ele>
        <time>2018-05-29T13:06:46Z</time>
      </trkpt>
      <trkpt lat="39.917337064958296" lon="116.65935687640514">
        <ele>18.205503463745117</ele>
        <time>2018-05-29T13:06:48Z</time>
      </trkpt>
      <trkpt lat="39.9173908895374" lon="116.65944761358566">
        <ele>18.440385818481445</ele>
        <time>2018-05-29T13:06:51Z</time>
      </trkpt>
      <trkpt lat="39.91744372743997" lon="116.65953137053519">
        <ele>18.726234436035156</ele>
        <time>2018-05-29T13:06:53Z</time>
      </trkpt>
      <trkpt lat="39.91751254559465" lon="116.65962509729064">
        <ele>19.06048583984375</ele>
        <time>2018-05-29T13:06:55Z</time>
      </trkpt>
      <trkpt lat="39.91757637724635" lon="116.65971184431422">
        <ele>19.423425674438477</ele>
        <time>2018-05-29T13:06:57Z</time>
      </trkpt>
      <trkpt lat="39.917634218637424" lon="116.65979360610763">
        <ele>19.78175926208496</ele>
        <time>2018-05-29T13:06:59Z</time>
      </trkpt>
      <trkpt lat="39.91767606829061" lon="116.65987138109247">
        <ele>20.13975715637207</ele>
        <time>2018-05-29T13:07:01Z</time>
      </trkpt>
      <trkpt lat="39.91772191965163" lon="116.65994815835778">
        <ele>21.800588607788086</ele>
        <time>2018-05-29T13:07:08Z</time>
      </trkpt>
      <trkpt lat="39.917776644816115" lon="116.66009074833164">
        <ele>22.288860321044922</ele>
        <time>2018-05-29T13:07:10Z</time>
      </trkpt>
      <trkpt lat="39.91780842042808" lon="116.66020741434147">
        <ele>24.347885131835938</ele>
        <time>2018-05-29T13:07:19Z</time>
      </trkpt>
      <trkpt lat="39.91780721453203" lon="116.66031510971122">
        <ele>25.145763397216797</ele>
        <time>2018-05-29T13:07:23Z</time>
      </trkpt>
      <trkpt lat="39.91776513047848" lon="116.6603599878737">
        <ele>25.95448112487793</ele>
        <time>2018-05-29T13:07:27Z</time>
      </trkpt>
      <trkpt lat="39.91771503530838" lon="116.66041085006916">
        <ele>26.44654655456543</ele>
        <time>2018-05-29T13:07:29Z</time>
      </trkpt>
      <trkpt lat="39.91767493398262" lon="116.66046470254614">
        <ele>26.929061889648438</ele>
        <time>2018-05-29T13:07:31Z</time>
      </trkpt>
      <trkpt lat="39.917630815641125" lon="116.66052753008208">
        <ele>27.438209533691406</ele>
        <time>2018-05-29T13:07:33Z</time>
      </trkpt>
      <trkpt lat="39.91757668243811" lon="116.66059833622785">
        <ele>28.01129722595215</ele>
        <time>2018-05-29T13:07:35Z</time>
      </trkpt>
      <trkpt lat="39.917521541621866" lon="116.66067313116348">
        <ele>28.587417602539062</ele>
        <time>2018-05-29T13:07:37Z</time>
      </trkpt>
      <trkpt lat="39.917473427212066" lon="116.66073396475163">
        <ele>29.16985321044922</ele>
        <time>2018-05-29T13:07:39Z</time>
      </trkpt>
      <trkpt lat="39.917437342826645" lon="116.6607788420454">
        <ele>29.67685317993164</ele>
        <time>2018-05-29T13:07:41Z</time>
      </trkpt>
      <trkpt lat="39.91739124167155" lon="116.66083269512472">
        <ele>30.17486572265625</ele>
        <time>2018-05-29T13:07:43Z</time>
      </trkpt>
      <trkpt lat="39.91734114640219" lon="116.66088355715537">
        <ele>30.565542221069336</ele>
        <time>2018-05-29T13:07:45Z</time>
      </trkpt>
      <trkpt lat="39.91728904738773" lon="116.66093641376226">
        <ele>30.875205993652344</ele>
        <time>2018-05-29T13:07:47Z</time>
      </trkpt>
      <trkpt lat="39.91724495948429" lon="116.66098328632702">
        <ele>31.073266983032227</ele>
        <time>2018-05-29T13:07:49Z</time>
      </trkpt>
      <trkpt lat="39.91720386953575" lon="116.66103115568127">
        <ele>31.17566680908203</ele>
        <time>2018-05-29T13:07:51Z</time>
      </trkpt>
      <trkpt lat="39.91715877783707" lon="116.66108002268572">
        <ele>31.27008819580078</ele>
        <time>2018-05-29T13:07:53Z</time>
      </trkpt>
      <trkpt lat="39.91711868782879" lon="116.66112789188725">
        <ele>31.37184715270996</ele>
        <time>2018-05-29T13:07:55Z</time>
      </trkpt>
      <trkpt lat="39.91707960159096" lon="116.66117376660713">
        <ele>31.52271270751953</ele>
        <time>2018-05-29T13:07:57Z</time>
      </trkpt>
      <trkpt lat="39.917040500058924" lon="116.6612276186875">
        <ele>31.6809024810791</ele>
        <time>2018-05-29T13:07:59Z</time>
      </trkpt>
      <trkpt lat="39.91695118083655" lon="116.66139615156908">
        <ele>31.805877685546875</ele>
        <time>2018-05-29T13:08:01Z</time>
      </trkpt>
      <trkpt lat="39.91686392834714" lon="116.66152978309077">
        <ele>32.59214782714844</ele>
        <time>2018-05-29T13:08:12Z</time>
      </trkpt>
      <trkpt lat="39.91677366827335" lon="116.66166740355203">
        <ele>32.81561279296875</ele>
        <time>2018-05-29T13:08:14Z</time>
      </trkpt>
      <trkpt lat="39.91672267999081" lon="116.6616624239846">
        <ele>33.02284240722656</ele>
        <time>2018-05-29T13:08:16Z</time>
      </trkpt>
      <trkpt lat="39.91666764215532" lon="116.66168337130402">
        <ele>33.38154602050781</ele>
        <time>2018-05-29T13:08:20Z</time>
      </trkpt>
      <trkpt lat="39.916611657910046" lon="116.66167639801454">
        <ele>33.638919830322266</ele>
        <time>2018-05-29T13:08:24Z</time>
      </trkpt>
      <trkpt lat="39.91655661816189" lon="116.66169834250124">
        <ele>33.95698165893555</ele>
        <time>2018-05-29T13:08:28Z</time>
      </trkpt>
      <trkpt lat="39.91649857662686" lon="116.66172128452327">
        <ele>34.47353744506836</ele>
        <time>2018-05-29T13:08:32Z</time>
      </trkpt>
      <trkpt lat="39.91644447754044" lon="116.66177414110567">
        <ele>34.67181396484375</ele>
        <time>2018-05-29T13:08:34Z</time>
      </trkpt>
      <trkpt lat="39.9163963820171" lon="116.66182500259738">
        <ele>34.768409729003906</ele>
        <time>2018-05-29T13:08:36Z</time>
      </trkpt>
      <trkpt lat="39.91634527322095" lon="116.66188284461882">
        <ele>34.822532653808594</ele>
        <time>2018-05-29T13:08:38Z</time>
      </trkpt>
      <trkpt lat="39.916240885371394" lon="116.66208727671076">
        <ele>34.865150451660156</ele>
        <time>2018-05-29T13:08:40Z</time>
      </trkpt>
      <trkpt lat="39.916165511481836" lon="116.66228372768285">
        <ele>35.62492752075195</ele>
        <time>2018-05-29T13:08:56Z</time>
      </trkpt>
      <trkpt lat="39.916120138125045" lon="116.66247917759686">
        <ele>35.612361907958984</ele>
        <time>2018-05-29T13:08:58Z</time>
      </trkpt>
      <trkpt lat="39.91614905646964" lon="116.66252105493827">
        <ele>35.314571380615234</ele>
        <time>2018-05-29T13:09:01Z</time>
      </trkpt>
      <trkpt lat="39.91614897029227" lon="116.66256592733438">
        <ele>35.24821090698242</ele>
        <time>2018-05-29T13:09:04Z</time>
      </trkpt>
      <trkpt lat="39.916134854058306" lon="116.66262675606833">
        <ele>35.182945251464844</ele>
        <time>2018-05-29T13:09:07Z</time>
      </trkpt>
      <trkpt lat="39.916120720575606" lon="116.66269655925714">
        <ele>35.29124450683594</ele>
        <time>2018-05-29T13:09:09Z</time>
      </trkpt>
      <trkpt lat="39.91610757937546" lon="116.66277035095275">
        <ele>35.457027435302734</ele>
        <time>2018-05-29T13:09:11Z</time>
      </trkpt>
      <trkpt lat="39.916077421639095" lon="116.66285311918244">
        <ele>35.787906646728516</ele>
        <time>2018-05-29T13:09:13Z</time>
      </trkpt>
      <trkpt lat="39.9160323200859" lon="116.66290697151314">
        <ele>36.37006759643555</ele>
        <time>2018-05-29T13:09:15Z</time>
      </trkpt>
      <trkpt lat="39.91600121601671" lon="116.6629618192692">
        <ele>37.050113677978516</ele>
        <time>2018-05-29T13:09:17Z</time>
      </trkpt>
      <trkpt lat="39.915963186968696" lon="116.66297777854653">
        <ele>37.97289276123047</ele>
        <time>2018-05-29T13:09:19Z</time>
      </trkpt>
      <trkpt lat="39.91592817312256" lon="116.66298576015515">
        <ele>38.821720123291016</ele>
        <time>2018-05-29T13:09:21Z</time>
      </trkpt>
      <trkpt lat="39.91588316353264" lon="116.66299174867042">
        <ele>39.830955505371094</ele>
        <time>2018-05-29T13:09:23Z</time>
      </trkpt>
      <trkpt lat="39.915852136103624" lon="116.66300670992149">
        <ele>40.78543472290039</ele>
        <time>2018-05-29T13:09:25Z</time>
      </trkpt>
      <trkpt lat="39.915800080820446" lon="116.66303663118929">
        <ele>41.82082748413086</ele>
        <time>2018-05-29T13:09:27Z</time>
      </trkpt>
      <trkpt lat="39.91571899610336" lon="116.66308251061508">
        <ele>43.14653396606445</ele>
        <time>2018-05-29T13:09:29Z</time>
      </trkpt>
      <trkpt lat="39.91563590571773" lon="116.66313138176328">
        <ele>44.61681365966797</ele>
        <time>2018-05-29T13:09:31Z</time>
      </trkpt>
      <trkpt lat="39.915567782108646" lon="116.66319720279836">
        <ele>45.97431182861328</ele>
        <time>2018-05-29T13:09:33Z</time>
      </trkpt>
      <trkpt lat="39.91552169014224" lon="116.66324606936642">
        <ele>46.9354362487793</ele>
        <time>2018-05-29T13:09:35Z</time>
      </trkpt>
      <trkpt lat="39.91546353733991" lon="116.6633268465518">
        <ele>48.18962860107422</ele>
        <time>2018-05-29T13:09:37Z</time>
      </trkpt>
      <trkpt lat="39.91538231648449" lon="116.66344352431965">
        <ele>49.288475036621094</ele>
        <time>2018-05-29T13:09:39Z</time>
      </trkpt>
      <trkpt lat="39.915313110432386" lon="116.66355222327626">
        <ele>50.34479522705078</ele>
        <time>2018-05-29T13:09:42Z</time>
      </trkpt>
      <trkpt lat="39.91524592344915" lon="116.66365095034557">
        <ele>50.80582809448242</ele>
        <time>2018-05-29T13:09:44Z</time>
      </trkpt>
      <trkpt lat="39.91520282556049" lon="116.66370280793514">
        <ele>51.30398178100586</ele>
        <time>2018-05-29T13:09:46Z</time>
      </trkpt>
      <trkpt lat="39.91515371066252" lon="116.66376364068655">
        <ele>51.71239471435547</ele>
        <time>2018-05-29T13:09:48Z</time>
      </trkpt>
      <trkpt lat="39.91510360539023" lon="116.66381948775302">
        <ele>52.05596160888672</ele>
        <time>2018-05-29T13:09:50Z</time>
      </trkpt>
      <trkpt lat="39.91505449431669" lon="116.66387832616155">
        <ele>52.45130157470703</ele>
        <time>2018-05-29T13:09:52Z</time>
      </trkpt>
      <trkpt lat="39.9149993681485" lon="116.66394514256541">
        <ele>52.76097106933594</ele>
        <time>2018-05-29T13:09:54Z</time>
      </trkpt>
      <trkpt lat="39.91495224930613" lon="116.66400796933534">
        <ele>52.9219856262207</ele>
        <time>2018-05-29T13:09:56Z</time>
      </trkpt>
      <trkpt lat="39.9149051342945" lon="116.6640688017758">
        <ele>52.81741714477539</ele>
        <time>2018-05-29T13:09:58Z</time>
      </trkpt>
      <trkpt lat="39.914860026865924" lon="116.66412564532605">
        <ele>52.71682357788086</ele>
        <time>2018-05-29T13:10:00Z</time>
      </trkpt>
      <trkpt lat="39.91481895187551" lon="116.66416553669109">
        <ele>52.560279846191406</ele>
        <time>2018-05-29T13:10:02Z</time>
      </trkpt>
      <trkpt lat="39.91477788839368" lon="116.66419944510504">
        <ele>52.37187957763672</ele>
        <time>2018-05-29T13:10:04Z</time>
      </trkpt>
      <trkpt lat="39.91473982861981" lon="116.66423135883065">
        <ele>52.201419830322266</ele>
        <time>2018-05-29T13:10:06Z</time>
      </trkpt>
      <trkpt lat="39.91470175925217" lon="116.6642682583405">
        <ele>52.01245880126953</ele>
        <time>2018-05-29T13:10:08Z</time>
      </trkpt>
      <trkpt lat="39.914658674747095" lon="116.6643131357209">
        <ele>51.80600357055664</ele>
        <time>2018-05-29T13:10:10Z</time>
      </trkpt>
      <trkpt lat="39.91461759782909" lon="116.66435402422">
        <ele>51.61919403076172</ele>
        <time>2018-05-29T13:10:12Z</time>
      </trkpt>
      <trkpt lat="39.91457452099435" lon="116.66439491296055">
        <ele>51.37234878540039</ele>
        <time>2018-05-29T13:10:14Z</time>
      </trkpt>
      <trkpt lat="39.91452543290084" lon="116.66444178537711">
        <ele>51.07988357543945</ele>
        <time>2018-05-29T13:10:16Z</time>
      </trkpt>
      <trkpt lat="39.9144753486852" lon="116.6644866635969">
        <ele>50.72745132446289</ele>
        <time>2018-05-29T13:10:18Z</time>
      </trkpt>
      <trkpt lat="39.914424262591346" lon="116.66453253909089">
        <ele>50.38825607299805</ele>
        <time>2018-05-29T13:10:20Z</time>
      </trkpt>
      <trkpt lat="39.9143781973903" lon="116.66456744524066">
        <ele>50.062034606933594</ele>
        <time>2018-05-29T13:10:22Z</time>
      </trkpt>
      <trkpt lat="39.91433714348873" lon="116.66459636783206">
        <ele>49.72492599487305</ele>
        <time>2018-05-29T13:10:24Z</time>
      </trkpt>
      <trkpt lat="39.91428407858409" lon="116.66463127483824">
        <ele>49.38409423828125</ele>
        <time>2018-05-29T13:10:26Z</time>
      </trkpt>
      <trkpt lat="39.914223006343555" lon="116.66467017145212">
        <ele>48.7104377746582</ele>
        <time>2018-05-29T13:10:31Z</time>
      </trkpt>
      <trkpt lat="39.914143888812326" lon="116.66473300202809">
        <ele>48.44921112060547</ele>
        <time>2018-05-29T13:10:35Z</time>
      </trkpt>
      <trkpt lat="39.91407680147219" lon="116.66477987661928">
        <ele>48.281307220458984</ele>
        <time>2018-05-29T13:10:39Z</time>
      </trkpt>
      <trkpt lat="39.91400266453132" lon="116.66485267812018">
        <ele>48.13773727416992</ele>
        <time>2018-05-29T13:10:42Z</time>
      </trkpt>
      <trkpt lat="39.91393956358247" lon="116.66490653229464">
        <ele>47.8697624206543</ele>
        <time>2018-05-29T13:10:46Z</time>
      </trkpt>
      <trkpt lat="39.91390051342732" lon="116.66493346030337">
        <ele>47.47507858276367</ele>
        <time>2018-05-29T13:10:50Z</time>
      </trkpt>
      <trkpt lat="39.91390555927526" lon="116.66490952795115">
        <ele>46.48673629760742</ele>
        <time>2018-05-29T13:10:55Z</time>
      </trkpt>
      <trkpt lat="39.91391158588814" lon="116.66489556703179">
        <ele>46.131221771240234</ele>
        <time>2018-05-29T13:10:57Z</time>
      </trkpt>
      <trkpt lat="39.91393961923911" lon="116.66487761477806">
        <ele>45.26962661743164</ele>
        <time>2018-05-29T13:11:00Z</time>
      </trkpt>
      <trkpt lat="39.91396966018128" lon="116.66485567365383">
        <ele>43.44554138183594</ele>
        <time>2018-05-29T13:11:06Z</time>
      </trkpt>
      <trkpt lat="39.91403876662952" lon="116.66479882726541">
        <ele>42.720191955566406</ele>
        <time>2018-05-29T13:11:08Z</time>
      </trkpt>
      <trkpt lat="39.914146911713" lon="116.66472103578452">
        <ele>42.020957946777344</ele>
        <time>2018-05-29T13:11:10Z</time>
      </trkpt>
      <trkpt lat="39.91427307521488" lon="116.66463327050634">
        <ele>39.87519073486328</ele>
        <time>2018-05-29T13:11:15Z</time>
      </trkpt>
      <trkpt lat="39.9144002559381" lon="116.66453653067452">
        <ele>38.31913375854492</ele>
        <time>2018-05-29T13:11:18Z</time>
      </trkpt>
      <trkpt lat="39.914494388170574" lon="116.66446572096226">
        <ele>36.89295959472656</ele>
        <time>2018-05-29T13:11:21Z</time>
      </trkpt>
      <trkpt lat="39.91466562840293" lon="116.66433706663358">
        <ele>35.58351516723633</ele>
        <time>2018-05-29T13:11:24Z</time>
      </trkpt>
      <trkpt lat="39.91486491346972" lon="116.66418447702173">
        <ele>33.39972686767578</ele>
        <time>2018-05-29T13:11:30Z</time>
      </trkpt>
      <trkpt lat="39.91504519356247" lon="116.66403488115215">
        <ele>31.233642578125</ele>
        <time>2018-05-29T13:11:36Z</time>
      </trkpt>
      <trkpt lat="39.915115349792316" lon="116.66395210838577">
        <ele>30.64649200439453</ele>
        <time>2018-05-29T13:11:38Z</time>
      </trkpt>
      <trkpt lat="39.91514541564887" lon="116.66391720414083">
        <ele>30.100723266601562</ele>
        <time>2018-05-29T13:11:40Z</time>
      </trkpt>
      <trkpt lat="39.91517848137616" lon="116.66388229952217">
        <ele>29.518198013305664</ele>
        <time>2018-05-29T13:11:42Z</time>
      </trkpt>
      <trkpt lat="39.91524354766031" lon="116.66384639379868">
        <ele>28.984832763671875</ele>
        <time>2018-05-29T13:11:44Z</time>
      </trkpt>
      <trkpt lat="39.915320686309705" lon="116.66377259454845">
        <ele>28.342348098754883</ele>
        <time>2018-05-29T13:11:47Z</time>
      </trkpt>
      <trkpt lat="39.91540483999441" lon="116.66369081714122">
        <ele>27.26171112060547</ele>
        <time>2018-05-29T13:11:52Z</time>
      </trkpt>
      <trkpt lat="39.91546906162739" lon="116.66357414158001">
        <ele>26.8743953704834</ele>
        <time>2018-05-29T13:11:54Z</time>
      </trkpt>
      <trkpt lat="39.9155653106351" lon="116.66344250462033">
        <ele>26.041183471679688</ele>
        <time>2018-05-29T13:11:59Z</time>
      </trkpt>
      <trkpt lat="39.915654571407856" lon="116.66330488548888">
        <ele>24.848587036132812</ele>
        <time>2018-05-29T13:12:07Z</time>
      </trkpt>
      <trkpt lat="39.915772792580334" lon="116.66318720593776">
        <ele>24.56649398803711</ele>
        <time>2018-05-29T13:12:10Z</time>
      </trkpt>
      <trkpt lat="39.91593311925708" lon="116.66301368008183">
        <ele>24.370502471923828</ele>
        <time>2018-05-29T13:12:16Z</time>
      </trkpt>
      <trkpt lat="39.916066598352735" lon="116.6627613815318">
        <ele>24.253023147583008</ele>
        <time>2018-05-29T13:12:34Z</time>
      </trkpt>
      <trkpt lat="39.91621917222995" lon="116.66245922211289">
        <ele>24.480913162231445</ele>
        <time>2018-05-29T13:12:44Z</time>
      </trkpt>
      <trkpt lat="39.91690927435559" lon="116.66134829254031">
        <ele>18.378576278686523</ele>
        <time>2018-05-29T13:13:27Z</time>
      </trkpt>
      <trkpt lat="39.917091553317704" lon="116.66119869442893">
        <ele>19.64453125</ele>
        <time>2018-05-29T13:13:38Z</time>
      </trkpt>
      <trkpt lat="39.91720875280329" lon="116.6610919826031">
        <ele>19.844131469726562</ele>
        <time>2018-05-29T13:13:41Z</time>
      </trkpt>
      <trkpt lat="39.91727200227119" lon="116.6609603480178">
        <ele>20.28861427307129</ele>
        <time>2018-05-29T13:13:48Z</time>
      </trkpt>
      <trkpt lat="39.917415385752875" lon="116.66075690690998">
        <ele>21.194730758666992</ele>
        <time>2018-05-29T13:13:58Z</time>
      </trkpt>
      <trkpt lat="39.917565818381085" lon="116.6605275380804">
        <ele>22.4539852142334</ele>
        <time>2018-05-29T13:14:10Z</time>
      </trkpt>
      <trkpt lat="39.91776126414549" lon="116.66029018592342">
        <ele>22.478546142578125</ele>
        <time>2018-05-29T13:14:12Z</time>
      </trkpt>
      <trkpt lat="39.91783954875994" lon="116.66013960236536">
        <ele>24.0913143157959</ele>
        <time>2018-05-29T13:14:25Z</time>
      </trkpt>
      <trkpt lat="39.91788777736444" lon="116.66001893773421">
        <ele>24.950977325439453</ele>
        <time>2018-05-29T13:14:27Z</time>
      </trkpt>
      <trkpt lat="39.91785988525667" lon="116.65996309908716">
        <ele>25.65155601501465</ele>
        <time>2018-05-29T13:14:29Z</time>
      </trkpt>
      <trkpt lat="39.91781602048034" lon="116.65989330185202">
        <ele>26.164045333862305</ele>
        <time>2018-05-29T13:14:33Z</time>
      </trkpt>
      <trkpt lat="39.91776716732008" lon="116.65981752210514">
        <ele>26.267242431640625</ele>
        <time>2018-05-29T13:14:35Z</time>
      </trkpt>
      <trkpt lat="39.91770532991488" lon="116.65973376645529">
        <ele>26.493947982788086</ele>
        <time>2018-05-29T13:14:37Z</time>
      </trkpt>
      <trkpt lat="39.917637473688835" lon="116.6596599833162">
        <ele>26.99882698059082</ele>
        <time>2018-05-29T13:14:39Z</time>
      </trkpt>
      <trkpt lat="39.91756162348424" lon="116.65958320956746">
        <ele>27.31072425842285</ele>
        <time>2018-05-29T13:14:41Z</time>
      </trkpt>
      <trkpt lat="39.917513772069924" lon="116.65950643232682">
        <ele>27.46966552734375</ele>
        <time>2018-05-29T13:14:43Z</time>
      </trkpt>
      <trkpt lat="39.91747986294866" lon="116.65945956885153">
        <ele>27.78395652770996</ele>
        <time>2018-05-29T13:14:45Z</time>
      </trkpt>
      <trkpt lat="39.91745495724211" lon="116.65941070988167">
        <ele>27.88640022277832</ele>
        <time>2018-05-29T13:14:47Z</time>
      </trkpt>
      <trkpt lat="39.91742907439455" lon="116.65934988479228">
        <ele>27.980104446411133</ele>
        <time>2018-05-29T13:14:49Z</time>
      </trkpt>
      <trkpt lat="39.91739920691283" lon="116.6592810826776">
        <ele>28.14187240600586</ele>
        <time>2018-05-29T13:14:51Z</time>
      </trkpt>
      <trkpt lat="39.917372310753954" lon="116.65922723794998">
        <ele>28.215980529785156</ele>
        <time>2018-05-29T13:14:53Z</time>
      </trkpt>
      <trkpt lat="39.91734035203944" lon="116.65920630097146">
        <ele>28.17426109313965</ele>
        <time>2018-05-29T13:14:57Z</time>
      </trkpt>
      <trkpt lat="39.91730041267524" lon="116.65917539310611">
        <ele>28.469701766967773</ele>
        <time>2018-05-29T13:14:59Z</time>
      </trkpt>
      <trkpt lat="39.9172605018251" lon="116.65912952742651">
        <ele>29.014680862426758</ele>
        <time>2018-05-29T13:15:01Z</time>
      </trkpt>
      <trkpt lat="39.917210595187726" lon="116.65908166858377">
        <ele>29.44118309020996</ele>
        <time>2018-05-29T13:15:03Z</time>
      </trkpt>
      <trkpt lat="39.917180691495396" lon="116.65903181288563">
        <ele>29.575035095214844</ele>
        <time>2018-05-29T13:15:05Z</time>
      </trkpt>
      <trkpt lat="39.91715476671573" lon="116.65899292574595">
        <ele>29.906829833984375</ele>
        <time>2018-05-29T13:15:07Z</time>
      </trkpt>
      <trkpt lat="39.91713683398898" lon="116.65895802636379">
        <ele>30.25528907775879</ele>
        <time>2018-05-29T13:15:09Z</time>
      </trkpt>
      <trkpt lat="39.917107894119454" lon="116.65892711707939">
        <ele>30.775569915771484</ele>
        <time>2018-05-29T13:15:11Z</time>
      </trkpt>
      <trkpt lat="39.91707098878055" lon="116.65887825936449">
        <ele>31.23963165283203</ele>
        <time>2018-05-29T13:15:13Z</time>
      </trkpt>
      <trkpt lat="39.91700714345248" lon="116.65879849206317">
        <ele>31.621232986450195</ele>
        <time>2018-05-29T13:15:15Z</time>
      </trkpt>
      <trkpt lat="39.91693932864" lon="116.65870277014474">
        <ele>31.980819702148438</ele>
        <time>2018-05-29T13:15:17Z</time>
      </trkpt>
      <trkpt lat="39.916878488801316" lon="116.65862001077473">
        <ele>32.30439376831055</ele>
        <time>2018-05-29T13:15:19Z</time>
      </trkpt>
      <trkpt lat="39.916838611975" lon="116.65855619541315">
        <ele>32.558998107910156</ele>
        <time>2018-05-29T13:15:21Z</time>
      </trkpt>
      <trkpt lat="39.91679573714936" lon="116.65849138319058">
        <ele>32.708656311035156</ele>
        <time>2018-05-29T13:15:23Z</time>
      </trkpt>
      <trkpt lat="39.91675686402723" lon="116.65842557324419">
        <ele>32.75444412231445</ele>
        <time>2018-05-29T13:15:25Z</time>
      </trkpt>
      <trkpt lat="39.9167199775169" lon="116.65836674336936">
        <ele>32.6822624206543</ele>
        <time>2018-05-29T13:15:29Z</time>
      </trkpt>
      <trkpt lat="39.91668509848737" lon="116.65830392443847">
        <ele>32.585105895996094</ele>
        <time>2018-05-29T13:15:31Z</time>
      </trkpt>
      <trkpt lat="39.91663425044746" lon="116.6582251523154">
        <ele>32.45365905761719</ele>
        <time>2018-05-29T13:15:37Z</time>
      </trkpt>
      <trkpt lat="39.91657240852151" lon="116.65814338989802">
        <ele>32.49501037597656</ele>
        <time>2018-05-29T13:15:39Z</time>
      </trkpt>
      <trkpt lat="39.91651155135209" lon="116.65806960486769">
        <ele>32.668968200683594</ele>
        <time>2018-05-29T13:15:43Z</time>
      </trkpt>
      <trkpt lat="39.916455674991354" lon="116.65800579114378">
        <ele>32.680084228515625</ele>
        <time>2018-05-29T13:15:45Z</time>
      </trkpt>
      <trkpt lat="39.91637989415599" lon="116.65789211993025">
        <ele>32.46674728393555</ele>
        <time>2018-05-29T13:15:47Z</time>
      </trkpt>
      <trkpt lat="39.91630216065121" lon="116.65775351884436">
        <ele>32.03769302368164</ele>
        <time>2018-05-29T13:15:55Z</time>
      </trkpt>
      <trkpt lat="39.916236415161194" lon="116.6576208992991">
        <ele>31.182231903076172</ele>
        <time>2018-05-29T13:16:01Z</time>
      </trkpt>
      <trkpt lat="39.91620456408496" lon="116.65754312151626">
        <ele>30.8364315032959</ele>
        <time>2018-05-29T13:16:03Z</time>
      </trkpt>
      <trkpt lat="39.9161916781225" lon="116.65748329098304">
        <ele>30.5036563873291</ele>
        <time>2018-05-29T13:16:05Z</time>
      </trkpt>
      <trkpt lat="39.91617579604469" lon="116.65742146637587">
        <ele>30.139739990234375</ele>
        <time>2018-05-29T13:16:09Z</time>
      </trkpt>
      <trkpt lat="39.91615691217761" lon="116.65736063930194">
        <ele>29.98871421813965</ele>
        <time>2018-05-29T13:16:11Z</time>
      </trkpt>
      <trkpt lat="39.916124996704745" lon="116.6573167662604">
        <ele>29.795480728149414</ele>
        <time>2018-05-29T13:16:13Z</time>
      </trkpt>
      <trkpt lat="39.916092079371325" lon="116.65727389052635">
        <ele>29.477941513061523</ele>
        <time>2018-05-29T13:16:15Z</time>
      </trkpt>
      <trkpt lat="39.91602920297487" lon="116.65721007715105">
        <ele>29.063217163085938</ele>
        <time>2018-05-29T13:16:18Z</time>
      </trkpt>
      <trkpt lat="39.915906400868025" lon="116.65710837727198">
        <ele>28.854854583740234</ele>
        <time>2018-05-29T13:16:21Z</time>
      </trkpt>
      <trkpt lat="39.9158058261495" lon="116.65688601239836">
        <ele>28.145978927612305</ele>
        <time>2018-05-29T13:16:27Z</time>
      </trkpt>
      <trkpt lat="39.915747247409755" lon="116.65666463903932">
        <ele>18.73780059814453</ele>
        <time>2018-05-29T13:16:45Z</time>
      </trkpt>
      <trkpt lat="39.91573258543078" lon="116.65648613990808">
        <ele>20.530467987060547</ele>
        <time>2018-05-29T13:16:48Z</time>
      </trkpt>
      <trkpt lat="39.91570180149161" lon="116.65637246134635">
        <ele>20.918258666992188</ele>
        <time>2018-05-29T13:16:50Z</time>
      </trkpt>
      <trkpt lat="39.91567900017265" lon="116.65626775659604">
        <ele>22.375335693359375</ele>
        <time>2018-05-29T13:16:54Z</time>
      </trkpt>
      <trkpt lat="39.91571219074939" lon="116.65616603649052">
        <ele>23.45775032043457</ele>
        <time>2018-05-29T13:16:56Z</time>
      </trkpt>
      <trkpt lat="39.915753454257136" lon="116.65602542377448">
        <ele>24.757848739624023</ele>
        <time>2018-05-29T13:16:59Z</time>
      </trkpt>
      <trkpt lat="39.91580868318318" lon="116.65590275906698">
        <ele>30.37002944946289</ele>
        <time>2018-05-29T13:17:10Z</time>
      </trkpt>
      <trkpt lat="39.915850959504965" lon="116.65575516524358">
        <ele>31.221881866455078</ele>
        <time>2018-05-29T13:17:13Z</time>
      </trkpt>
      <trkpt lat="39.91592213867001" lon="116.65565842597299">
        <ele>31.407005310058594</ele>
        <time>2018-05-29T13:17:15Z</time>
      </trkpt>
      <trkpt lat="39.916013408870114" lon="116.65551282014789">
        <ele>29.986204147338867</ele>
        <time>2018-05-29T13:17:21Z</time>
      </trkpt>
      <trkpt lat="39.916104613255605" lon="116.65540211697702">
        <ele>26.770448684692383</ele>
        <time>2018-05-29T13:17:30Z</time>
      </trkpt>
      <trkpt lat="39.916208771995265" lon="116.65531534550857">
        <ele>25.789945602416992</ele>
        <time>2018-05-29T13:17:34Z</time>
      </trkpt>
      <trkpt lat="39.91629781509639" lon="116.6552904039007">
        <ele>24.685911178588867</ele>
        <time>2018-05-29T13:17:38Z</time>
      </trkpt>
      <trkpt lat="39.9163898805589" lon="116.65525349518568">
        <ele>22.99981689453125</ele>
        <time>2018-05-29T13:17:43Z</time>
      </trkpt>
      <trkpt lat="39.91646690916357" lon="116.6552365328562">
        <ele>22.41358757019043</ele>
        <time>2018-05-29T13:17:45Z</time>
      </trkpt>
      <trkpt lat="39.916522936780694" lon="116.65522057033056">
        <ele>21.865190505981445</ele>
        <time>2018-05-29T13:17:47Z</time>
      </trkpt>
      <trkpt lat="39.91657495706952" lon="116.65520859720607">
        <ele>21.417827606201172</ele>
        <time>2018-05-29T13:17:49Z</time>
      </trkpt>
      <trkpt lat="39.91661195363103" lon="116.65520958988985">
        <ele>21.159509658813477</ele>
        <time>2018-05-29T13:17:51Z</time>
      </trkpt>
      <trkpt lat="39.916665983203956" lon="116.65519263037619">
        <ele>20.90566635131836</ele>
        <time>2018-05-29T13:17:53Z</time>
      </trkpt>
      <trkpt lat="39.916776070360925" lon="116.65514375265866">
        <ele>20.536020278930664</ele>
        <time>2018-05-29T13:17:56Z</time>
      </trkpt>
      <trkpt lat="39.91690816593441" lon="116.65508988606112">
        <ele>19.154653549194336</ele>
        <time>2018-05-29T13:18:03Z</time>
      </trkpt>
      <trkpt lat="39.917182178712274" lon="116.65507688842158">
        <ele>17.837383270263672</ele>
        <time>2018-05-29T13:18:10Z</time>
      </trkpt>
      <trkpt lat="39.91740308135599" lon="116.65512373106671">
        <ele>12.27865219116211</ele>
        <time>2018-05-29T13:18:29Z</time>
      </trkpt>
      <trkpt lat="39.91763008302434" lon="116.6551177198101">
        <ele>11.71585750579834</ele>
        <time>2018-05-29T13:18:31Z</time>
      </trkpt>
      <trkpt lat="39.91771014520868" lon="116.65508280695063">
        <ele>10.749680519104004</ele>
        <time>2018-05-29T13:18:35Z</time>
      </trkpt>
      <trkpt lat="39.917825224634264" lon="116.6550379174747">
        <ele>10.582245826721191</ele>
        <time>2018-05-29T13:18:37Z</time>
      </trkpt>
      <trkpt lat="39.91791221535267" lon="116.65504089848005">
        <ele>10.116660118103027</ele>
        <time>2018-05-29T13:18:41Z</time>
      </trkpt>
      <trkpt lat="39.91800718513678" lon="116.6550548480344">
        <ele>8.547093391418457</ele>
        <time>2018-05-29T13:18:43Z</time>
      </trkpt>
      <trkpt lat="39.918069176909015" lon="116.65505783210953">
        <ele>8.508298873901367</ele>
        <time>2018-05-29T13:18:45Z</time>
      </trkpt>
      <trkpt lat="39.91813013875975" lon="116.65507677198586">
        <ele>8.579116821289062</ele>
        <time>2018-05-29T13:18:47Z</time>
      </trkpt>
      <trkpt lat="39.918176114349656" lon="116.65508873309268">
        <ele>8.510425567626953</ele>
        <time>2018-05-29T13:18:51Z</time>
      </trkpt>
      <trkpt lat="39.91821908257265" lon="116.65510468348398">
        <ele>8.541864395141602</ele>
        <time>2018-05-29T13:18:53Z</time>
      </trkpt>
      <trkpt lat="39.91828811525664" lon="116.65508572764715">
        <ele>8.54897689819336</ele>
        <time>2018-05-29T13:18:55Z</time>
      </trkpt>
      <trkpt lat="39.91835409937035" lon="116.65509270014809">
        <ele>8.570446014404297</ele>
        <time>2018-05-29T13:18:57Z</time>
      </trkpt>
      <trkpt lat="39.91842809438578" lon="116.65509368828846">
        <ele>8.57780647277832</ele>
        <time>2018-05-29T13:18:59Z</time>
      </trkpt>
      <trkpt lat="39.9184790304292" lon="116.65512659059353">
        <ele>8.810249328613281</ele>
        <time>2018-05-29T13:19:01Z</time>
      </trkpt>
      <trkpt lat="39.91854602386646" lon="116.65512857682228">
        <ele>8.80218505859375</ele>
        <time>2018-05-29T13:19:03Z</time>
      </trkpt>
      <trkpt lat="39.918728918756" lon="116.6551804102422">
        <ele>8.645940780639648</ele>
        <time>2018-05-29T13:19:05Z</time>
      </trkpt>
      <trkpt lat="39.919712229631294" lon="116.65499281032716">
        <ele>16.86781883239746</ele>
        <time>2018-05-29T13:19:41Z</time>
      </trkpt>
      <trkpt lat="39.919746246927886" lon="116.65498283384228">
        <ele>17.5369930267334</ele>
        <time>2018-05-29T13:19:43Z</time>
      </trkpt>
      <trkpt lat="39.920530442453554" lon="116.65486107527809">
        <ele>22.00979995727539</ele>
        <time>2018-05-29T13:20:10Z</time>
      </trkpt>
      <trkpt lat="39.9207334844866" lon="116.65483412506308">
        <ele>21.291139602661133</ele>
        <time>2018-05-29T13:20:15Z</time>
      </trkpt>
      <trkpt lat="39.9208896388224" lon="116.65474834383487">
        <ele>20.08380699157715</ele>
        <time>2018-05-29T13:20:24Z</time>
      </trkpt>
      <trkpt lat="39.92102984983493" lon="116.65463264742138">
        <ele>23.373615264892578</ele>
        <time>2018-05-29T13:20:28Z</time>
      </trkpt>
      <trkpt lat="39.92111699942701" lon="116.6545508633902">
        <ele>24.532833099365234</ele>
        <time>2018-05-29T13:20:31Z</time>
      </trkpt>
      <trkpt lat="39.92114930435327" lon="116.65438731250359">
        <ele>25.61038589477539</ele>
        <time>2018-05-29T13:20:35Z</time>
      </trkpt>
      <trkpt lat="39.92114260693031" lon="116.65422576053089">
        <ele>32.37716293334961</ele>
        <time>2018-05-29T13:20:46Z</time>
      </trkpt>
      <trkpt lat="39.92115294769109" lon="116.65404326401162">
        <ele>33.54317855834961</ele>
        <time>2018-05-29T13:20:48Z</time>
      </trkpt>
      <trkpt lat="39.921194085717524" lon="116.65396846569321">
        <ele>35.20185089111328</ele>
        <time>2018-05-29T13:20:52Z</time>
      </trkpt>
      <trkpt lat="39.92121021914715" lon="116.65389666210359">
        <ele>36.15774917602539</ele>
        <time>2018-05-29T13:20:55Z</time>
      </trkpt>
      <trkpt lat="39.92120631613102" lon="116.65384480582122">
        <ele>37.062232971191406</ele>
        <time>2018-05-29T13:20:58Z</time>
      </trkpt>
      <trkpt lat="39.92120541482508" lon="116.65379195188629">
        <ele>37.603302001953125</ele>
        <time>2018-05-29T13:21:00Z</time>
      </trkpt>
      <trkpt lat="39.921190577330904" lon="116.65370519320895">
        <ele>37.9938850402832</ele>
        <time>2018-05-29T13:21:04Z</time>
      </trkpt>
      <trkpt lat="39.9211787507949" lon="116.65361245056197">
        <ele>38.420597076416016</ele>
        <time>2018-05-29T13:21:07Z</time>
      </trkpt>
      <trkpt lat="39.921163905714714" lon="116.65352968066644">
        <ele>38.73639678955078</ele>
        <time>2018-05-29T13:21:09Z</time>
      </trkpt>
      <trkpt lat="39.92117300197126" lon="116.65347782251978">
        <ele>39.14805221557617</ele>
        <time>2018-05-29T13:21:11Z</time>
      </trkpt>
      <trkpt lat="39.921188088663186" lon="116.65343094985741">
        <ele>39.45530319213867</ele>
        <time>2018-05-29T13:21:13Z</time>
      </trkpt>
      <trkpt lat="39.921200246021876" lon="116.65334618192614">
        <ele>39.614990234375</ele>
        <time>2018-05-29T13:21:15Z</time>
      </trkpt>
      <trkpt lat="39.921208390484026" lon="116.6532683951619">
        <ele>39.325721740722656</ele>
        <time>2018-05-29T13:21:23Z</time>
      </trkpt>
      <trkpt lat="39.92120953146682" lon="116.65319260367981">
        <ele>39.256195068359375</ele>
        <time>2018-05-29T13:21:25Z</time>
      </trkpt>
      <trkpt lat="39.921199808197066" lon="116.65304401370925">
        <ele>39.31977081298828</ele>
        <time>2018-05-29T13:21:27Z</time>
      </trkpt>
      <trkpt lat="39.921189088447335" lon="116.65289342901646">
        <ele>39.903602600097656</ele>
        <time>2018-05-29T13:21:38Z</time>
      </trkpt>
      <trkpt lat="39.92115374495867" lon="116.65254040257284">
        <ele>39.90254592895508</ele>
        <time>2018-05-29T13:21:40Z</time>
      </trkpt>
      <trkpt lat="39.921141360445475" lon="116.6522083140793">
        <ele>38.13923263549805</ele>
        <time>2018-05-29T13:21:54Z</time>
      </trkpt>
      <trkpt lat="39.92111998615373" lon="116.65187024131731">
        <ele>36.26116180419922</ele>
        <time>2018-05-29T13:22:07Z</time>
      </trkpt>
      <trkpt lat="39.92113232975796" lon="116.65168374906354">
        <ele>35.99116134643555</ele>
        <time>2018-05-29T13:22:09Z</time>
      </trkpt>
      <trkpt lat="39.9211267067835" lon="116.65147930738921">
        <ele>30.042797088623047</ele>
        <time>2018-05-29T13:22:16Z</time>
      </trkpt>
      <trkpt lat="39.92113310667581" lon="116.65126189885234">
        <ele>28.44498634338379</ele>
        <time>2018-05-29T13:22:22Z</time>
      </trkpt>
      <trkpt lat="39.92112746805008" lon="116.6510654340679">
        <ele>28.054973602294922</ele>
        <time>2018-05-29T13:22:24Z</time>
      </trkpt>
      <trkpt lat="39.921122653227414" lon="116.65096470845332">
        <ele>28.198562622070312</ele>
        <time>2018-05-29T13:22:26Z</time>
      </trkpt>
      <trkpt lat="39.92111182572726" lon="116.6508709644467">
        <ele>28.346202850341797</ele>
        <time>2018-05-29T13:22:28Z</time>
      </trkpt>
    </trkseg>
  </trk>
</gpx>