<?xml version="1.0" encoding="UTF-8"?>
<gpx xmlns="http://www.topografix.com/GPX/1/1" xmlns:gpxtpx="http://www.garmin.com/xmlschemas/TrackPointExtension/v1" xmlns:xsi="http://www.w3.org/2001/XMLSchema-instance" xsi:schemaLocation="http://www.topografix.com/GPX/1/1 http://www.topografix.com/GPX/1/1/gpx.xsd" version="1.1" creator="gpx.py -- https://github.com/tkrajina/gpxpy">
  <trk>
    <name>gpx from codoon</name>
    <type>Run</type>
    <trkseg>
      <trkpt lat="39.800917705741796" lon="116.48487495608653">
        <ele>74.81056213378906</ele>
        <time>2018-11-18T01:25:07Z</time>
      </trkpt>
      <trkpt lat="39.80092070254111" lon="116.48487395194205">
        <ele>68.25000762939453</ele>
        <time>2018-11-18T01:25:08Z</time>
      </trkpt>
      <trkpt lat="39.80101835424795" lon="116.48475850602988">
        <ele>34.68864822387695</ele>
        <time>2018-11-18T01:25:09Z</time>
      </trkpt>
      <trkpt lat="39.801128984309045" lon="116.48463603221997">
        <ele>37.338199615478516</ele>
        <time>2018-11-18T01:25:18Z</time>
      </trkpt>
      <trkpt lat="39.8012485989831" lon="116.48450853856993">
        <ele>36.810546875</ele>
        <time>2018-11-18T01:25:20Z</time>
      </trkpt>
      <trkpt lat="39.80127853447106" lon="116.48448745569509">
        <ele>36.32035446166992</ele>
        <time>2018-11-18T01:25:22Z</time>
      </trkpt>
      <trkpt lat="39.801305440623565" lon="116.48445633550817">
        <ele>36.2891960144043</ele>
        <time>2018-11-18T01:25:24Z</time>
      </trkpt>
      <trkpt lat="39.801337322725445" lon="116.48441718456104">
        <ele>37.313087463378906</ele>
        <time>2018-11-18T01:25:26Z</time>
      </trkpt>
      <trkpt lat="39.80137019884589" lon="116.48437602596653">
        <ele>38.158992767333984</ele>
        <time>2018-11-18T01:25:28Z</time>
      </trkpt>
      <trkpt lat="39.80140208688735" lon="116.48433888258153">
        <ele>39.215972900390625</ele>
        <time>2018-11-18T01:25:30Z</time>
      </trkpt>
      <trkpt lat="39.80142999004176" lon="116.48430675854209">
        <ele>39.9676399230957</ele>
        <time>2018-11-18T01:25:32Z</time>
      </trkpt>
      <trkpt lat="39.80145889903791" lon="116.4842766419218">
        <ele>40.146034240722656</ele>
        <time>2018-11-18T01:25:34Z</time>
      </trkpt>
      <trkpt lat="39.801495786712216" lon="116.48423949794773">
        <ele>40.17090606689453</ele>
        <time>2018-11-18T01:25:36Z</time>
      </trkpt>
      <trkpt lat="39.801539656106755" lon="116.48419633051732">
        <ele>40.16499710083008</ele>
        <time>2018-11-18T01:25:38Z</time>
      </trkpt>
      <trkpt lat="39.80158951026317" lon="116.48414814352759">
        <ele>40.1338996887207</ele>
        <time>2018-11-18T01:25:40Z</time>
      </trkpt>
      <trkpt lat="39.80163538248757" lon="116.48410597964886">
        <ele>40.1105842590332</ele>
        <time>2018-11-18T01:25:42Z</time>
      </trkpt>
      <trkpt lat="39.801679257841116" lon="116.48406481979927">
        <ele>40.112648010253906</ele>
        <time>2018-11-18T01:25:44Z</time>
      </trkpt>
      <trkpt lat="39.80172413312999" lon="116.48402365984045">
        <ele>40.11428451538086</ele>
        <time>2018-11-18T01:25:46Z</time>
      </trkpt>
      <trkpt lat="39.801775990153835" lon="116.48397647643993">
        <ele>40.087921142578125</ele>
        <time>2018-11-18T01:25:48Z</time>
      </trkpt>
      <trkpt lat="39.801833823092736" lon="116.48392126220133">
        <ele>40.036048889160156</ele>
        <time>2018-11-18T01:25:50Z</time>
      </trkpt>
      <trkpt lat="39.80189265597916" lon="116.48386604786582">
        <ele>39.95707702636719</ele>
        <time>2018-11-18T01:25:52Z</time>
      </trkpt>
      <trkpt lat="39.801946507005006" lon="116.48381685675714">
        <ele>39.865535736083984</ele>
        <time>2018-11-18T01:25:54Z</time>
      </trkpt>
      <trkpt lat="39.80199737895611" lon="116.4837746923818">
        <ele>39.785037994384766</ele>
        <time>2018-11-18T01:25:56Z</time>
      </trkpt>
      <trkpt lat="39.80204425419258" lon="116.48373353228158">
        <ele>39.699459075927734</ele>
        <time>2018-11-18T01:25:58Z</time>
      </trkpt>
      <trkpt lat="39.8020901324753" lon="116.48369337608297">
        <ele>39.5999870300293</ele>
        <time>2018-11-18T01:26:00Z</time>
      </trkpt>
      <trkpt lat="39.80213401388247" lon="116.48365422390908">
        <ele>39.493133544921875</ele>
        <time>2018-11-18T01:26:02Z</time>
      </trkpt>
      <trkpt lat="39.8021769012847" lon="116.48361707939603">
        <ele>39.38581085205078</ele>
        <time>2018-11-18T01:26:04Z</time>
      </trkpt>
      <trkpt lat="39.802218791729445" lon="116.48358093878085">
        <ele>39.290313720703125</ele>
        <time>2018-11-18T01:26:06Z</time>
      </trkpt>
      <trkpt lat="39.80225868529494" lon="116.48354580218673">
        <ele>39.211090087890625</ele>
        <time>2018-11-18T01:26:08Z</time>
      </trkpt>
      <trkpt lat="39.8022965731302" lon="116.48350865833189">
        <ele>39.154937744140625</ele>
        <time>2018-11-18T01:26:10Z</time>
      </trkpt>
      <trkpt lat="39.802332461136395" lon="116.4834715147383">
        <ele>39.114891052246094</ele>
        <time>2018-11-18T01:26:12Z</time>
      </trkpt>
      <trkpt lat="39.802365358240664" lon="116.48343738280897">
        <ele>39.079566955566406</ele>
        <time>2018-11-18T01:26:14Z</time>
      </trkpt>
      <trkpt lat="39.80239925527644" lon="116.48340325076649">
        <ele>39.04749298095703</ele>
        <time>2018-11-18T01:26:16Z</time>
      </trkpt>
      <trkpt lat="39.80243415519258" lon="116.48337012236982">
        <ele>39.01953125</ele>
        <time>2018-11-18T01:26:18Z</time>
      </trkpt>
      <trkpt lat="39.80247304890557" lon="116.48333498596965">
        <ele>39.00287628173828</ele>
        <time>2018-11-18T01:26:20Z</time>
      </trkpt>
      <trkpt lat="39.802513948368315" lon="116.48330185684945">
        <ele>38.98289108276367</ele>
        <time>2018-11-18T01:26:22Z</time>
      </trkpt>
      <trkpt lat="39.80255485078943" lon="116.48326973149773">
        <ele>38.96487045288086</ele>
        <time>2018-11-18T01:26:24Z</time>
      </trkpt>
      <trkpt lat="39.80259475035189" lon="116.48323660252242">
        <ele>38.95100402832031</ele>
        <time>2018-11-18T01:26:26Z</time>
      </trkpt>
      <trkpt lat="39.80263365295117" lon="116.48320447743923">
        <ele>38.92439270019531</ele>
        <time>2018-11-18T01:26:28Z</time>
      </trkpt>
      <trkpt lat="39.8026745436143" lon="116.4831683370896">
        <ele>38.89693069458008</ele>
        <time>2018-11-18T01:26:30Z</time>
      </trkpt>
      <trkpt lat="39.80271643126423" lon="116.48313119287182">
        <ele>38.8702507019043</ele>
        <time>2018-11-18T01:26:32Z</time>
      </trkpt>
      <trkpt lat="39.802760318769444" lon="116.48309404841915">
        <ele>38.84809875488281</ele>
        <time>2018-11-18T01:26:34Z</time>
      </trkpt>
      <trkpt lat="39.80280521504708" lon="116.48305991512348">
        <ele>38.83383560180664</ele>
        <time>2018-11-18T01:26:36Z</time>
      </trkpt>
      <trkpt lat="39.802849111415085" lon="116.48302578196342">
        <ele>38.822235107421875</ele>
        <time>2018-11-18T01:26:38Z</time>
      </trkpt>
      <trkpt lat="39.80289400477025" lon="116.48299064493541">
        <ele>38.814144134521484</ele>
        <time>2018-11-18T01:26:40Z</time>
      </trkpt>
      <trkpt lat="39.80294089208972" lon="116.48295350016147">
        <ele>38.81101608276367</ele>
        <time>2018-11-18T01:26:42Z</time>
      </trkpt>
      <trkpt lat="39.80298877934395" lon="116.48291635527703">
        <ele>38.81301498413086</ele>
        <time>2018-11-18T01:26:44Z</time>
      </trkpt>
      <trkpt lat="39.80303566963508" lon="116.48288021428465">
        <ele>38.82183837890625</ele>
        <time>2018-11-18T01:26:46Z</time>
      </trkpt>
      <trkpt lat="39.80308156296207" lon="116.48284507718328">
        <ele>38.83573913574219</ele>
        <time>2018-11-18T01:26:48Z</time>
      </trkpt>
      <trkpt lat="39.803126459323934" lon="116.48281094397193">
        <ele>38.852054595947266</ele>
        <time>2018-11-18T01:26:50Z</time>
      </trkpt>
      <trkpt lat="39.803173370257376" lon="116.48278182928932">
        <ele>38.85932540893555</ele>
        <time>2018-11-18T01:26:52Z</time>
      </trkpt>
      <trkpt lat="39.80322029002943" lon="116.48275572587377">
        <ele>38.86478042602539</ele>
        <time>2018-11-18T01:26:54Z</time>
      </trkpt>
      <trkpt lat="39.80326222786058" lon="116.48273564560184">
        <ele>38.870079040527344</ele>
        <time>2018-11-18T01:26:56Z</time>
      </trkpt>
      <trkpt lat="39.80330213936813" lon="116.48270653181083">
        <ele>38.874046325683594</ele>
        <time>2018-11-18T01:26:58Z</time>
      </trkpt>
      <trkpt lat="39.80333906877563" lon="116.48268344091358">
        <ele>38.925960540771484</ele>
        <time>2018-11-18T01:27:06Z</time>
      </trkpt>
      <trkpt lat="39.80337599524639" lon="116.48265934626988">
        <ele>38.94313049316406</ele>
        <time>2018-11-18T01:27:08Z</time>
      </trkpt>
      <trkpt lat="39.80343193199817" lon="116.48263926427845">
        <ele>38.97934341430664</ele>
        <time>2018-11-18T01:27:12Z</time>
      </trkpt>
      <trkpt lat="39.80350185294538" lon="116.48261416179488">
        <ele>39.02018737792969</ele>
        <time>2018-11-18T01:27:16Z</time>
      </trkpt>
      <trkpt lat="39.803572767939" lon="116.48258705169118">
        <ele>39.02400588989258</ele>
        <time>2018-11-18T01:27:18Z</time>
      </trkpt>
      <trkpt lat="39.80361969070911" lon="116.482561952078">
        <ele>39.018470764160156</ele>
        <time>2018-11-18T01:27:20Z</time>
      </trkpt>
      <trkpt lat="39.8036665781924" lon="116.48252480746496">
        <ele>39.01517868041992</ele>
        <time>2018-11-18T01:27:22Z</time>
      </trkpt>
      <trkpt lat="39.803722426754675" lon="116.48247461299806">
        <ele>39.01458740234375</ele>
        <time>2018-11-18T01:27:24Z</time>
      </trkpt>
      <trkpt lat="39.80378026636504" lon="116.48242140706084">
        <ele>39.01240921020508</ele>
        <time>2018-11-18T01:27:26Z</time>
      </trkpt>
      <trkpt lat="39.803806149668624" lon="116.48238225761327">
        <ele>39.0119743347168</ele>
        <time>2018-11-18T01:27:28Z</time>
      </trkpt>
    </trkseg>
  </trk>
</gpx>