<?xml version="1.0" encoding="UTF-8"?>
<gpx xmlns="http://www.topografix.com/GPX/1/1" xmlns:gpxtpx="http://www.garmin.com/xmlschemas/TrackPointExtension/v1" xmlns:xsi="http://www.w3.org/2001/XMLSchema-instance" xsi:schemaLocation="http://www.topografix.com/GPX/1/1 http://www.topografix.com/GPX/1/1/gpx.xsd" version="1.1" creator="gpx.py -- https://github.com/tkrajina/gpxpy">
  <trk>
    <name>gpx from codoon</name>
    <type>Run</type>
    <trkseg>
      <trkpt lat="39.80454703862639" lon="116.48744258657526">
        <ele>27.7</ele>
        <time>2019-12-04T10:43:42Z</time>
      </trkpt>
      <trkpt lat="39.804522622726296" lon="116.48739375655514">
        <ele>27.7</ele>
        <time>2019-12-04T10:43:43Z</time>
      </trkpt>
      <trkpt lat="39.80451448530358" lon="116.48741003322348">
        <ele>27.7</ele>
        <time>2019-12-04T10:43:44Z</time>
      </trkpt>
      <trkpt lat="39.804510416287435" lon="116.48741003321909">
        <ele>27.7</ele>
        <time>2019-12-04T10:43:45Z</time>
      </trkpt>
      <trkpt lat="39.80449820864019" lon="116.48739375653439">
        <ele>27.4</ele>
        <time>2019-12-04T10:43:46Z</time>
      </trkpt>
      <trkpt lat="39.80449783822804" lon="116.48738043924233">
        <ele>27.4</ele>
        <time>2019-12-04T10:43:47Z</time>
      </trkpt>
      <trkpt lat="39.80449117956685" lon="116.4873730407514">
        <ele>27.4</ele>
        <time>2019-12-04T10:43:48Z</time>
      </trkpt>
      <trkpt lat="39.80448600076665" lon="116.48737156105092">
        <ele>27.4</ele>
        <time>2019-12-04T10:43:49Z</time>
      </trkpt>
      <trkpt lat="39.80448045205652" lon="116.48737008135184">
        <ele>27.4</ele>
        <time>2019-12-04T10:43:50Z</time>
      </trkpt>
      <trkpt lat="39.804473793615536" lon="116.48736860165208">
        <ele>27.5</ele>
        <time>2019-12-04T10:43:51Z</time>
      </trkpt>
      <trkpt lat="39.8044675051393" lon="116.48736860164989">
        <ele>27.5</ele>
        <time>2019-12-04T10:43:52Z</time>
      </trkpt>
      <trkpt lat="39.80445825737947" lon="116.487368601644">
        <ele>27.5</ele>
        <time>2019-12-04T10:43:53Z</time>
      </trkpt>
      <trkpt lat="39.80444716012348" lon="116.48737008133503">
        <ele>27.5</ele>
        <time>2019-12-04T10:43:54Z</time>
      </trkpt>
      <trkpt lat="39.804434213371785" lon="116.48737304072303">
        <ele>27.5</ele>
        <time>2019-12-04T10:43:55Z</time>
      </trkpt>
      <trkpt lat="39.80441904737716" lon="116.48738191891432">
        <ele>27.5</ele>
        <time>2019-12-04T10:43:56Z</time>
      </trkpt>
      <trkpt lat="39.804403881437054" lon="116.48739227680704">
        <ele>27.5</ele>
        <time>2019-12-04T10:43:57Z</time>
      </trkpt>
      <trkpt lat="39.80438760576372" lon="116.48740263470074">
        <ele>27.5</ele>
        <time>2019-12-04T10:43:58Z</time>
      </trkpt>
      <trkpt lat="39.804370590323806" lon="116.48741447229553">
        <ele>27.5</ele>
        <time>2019-12-04T10:43:59Z</time>
      </trkpt>
      <trkpt lat="39.804353944793775" lon="116.48742630989297">
        <ele>27.5</ele>
        <time>2019-12-04T10:44:00Z</time>
      </trkpt>
      <trkpt lat="39.804338039030185" lon="116.48743666779195">
        <ele>27.2</ele>
        <time>2019-12-04T10:44:01Z</time>
      </trkpt>
      <trkpt lat="39.804323612908604" lon="116.4874470256926">
        <ele>27.2</ele>
        <time>2019-12-04T10:44:02Z</time>
      </trkpt>
      <trkpt lat="39.80430918684184" lon="116.48745886329544">
        <ele>27.2</ele>
        <time>2019-12-04T10:44:03Z</time>
      </trkpt>
      <trkpt lat="39.80429772011509" lon="116.48747218060144">
        <ele>27.2</ele>
        <time>2019-12-04T10:44:04Z</time>
      </trkpt>
      <trkpt lat="39.80428773302986" lon="116.48748549790946">
        <ele>27.2</ele>
        <time>2019-12-04T10:44:05Z</time>
      </trkpt>
      <trkpt lat="39.804279225639036" lon="116.48750029492149">
        <ele>27.7</ele>
        <time>2019-12-04T10:44:06Z</time>
      </trkpt>
      <trkpt lat="39.80427182775729" lon="116.48750917312655">
        <ele>27.7</ele>
        <time>2019-12-04T10:44:07Z</time>
      </trkpt>
      <trkpt lat="39.80426405996471" lon="116.48751805133226">
        <ele>27.7</ele>
        <time>2019-12-04T10:44:08Z</time>
      </trkpt>
      <trkpt lat="39.80425666202764" lon="116.487525449837">
        <ele>27.7</ele>
        <time>2019-12-04T10:44:09Z</time>
      </trkpt>
      <trkpt lat="39.804250003963524" lon="116.48753432804502">
        <ele>27.7</ele>
        <time>2019-12-04T10:44:10Z</time>
      </trkpt>
      <trkpt lat="39.80424445568073" lon="116.48754468595597">
        <ele>27.2</ele>
        <time>2019-12-04T10:44:11Z</time>
      </trkpt>
      <trkpt lat="39.8042400172344" lon="116.48755800327048">
        <ele>27.2</ele>
        <time>2019-12-04T10:44:12Z</time>
      </trkpt>
      <trkpt lat="39.80423520892965" lon="116.48757280028649">
        <ele>27.2</ele>
        <time>2019-12-04T10:44:13Z</time>
      </trkpt>
      <trkpt lat="39.80423077048066" lon="116.4875861176009">
        <ele>27.2</ele>
        <time>2019-12-04T10:44:14Z</time>
      </trkpt>
      <trkpt lat="39.80422633208629" lon="116.48760091461692">
        <ele>27.2</ele>
        <time>2019-12-04T10:44:15Z</time>
      </trkpt>
      <trkpt lat="39.804221893746906" lon="116.48761719133492">
        <ele>27.5</ele>
        <time>2019-12-04T10:44:16Z</time>
      </trkpt>
      <trkpt lat="39.80421745535653" lon="116.48763198835229">
        <ele>27.5</ele>
        <time>2019-12-04T10:44:17Z</time>
      </trkpt>
      <trkpt lat="39.804213386927984" lon="116.48764826507175">
        <ele>27.5</ele>
        <time>2019-12-04T10:44:18Z</time>
      </trkpt>
      <trkpt lat="39.804210428175814" lon="116.48766306208901">
        <ele>27.5</ele>
        <time>2019-12-04T10:44:19Z</time>
      </trkpt>
      <trkpt lat="39.80420709951662" lon="116.48767785910749">
        <ele>27.5</ele>
        <time>2019-12-04T10:44:20Z</time>
      </trkpt>
      <trkpt lat="39.804203770802616" lon="116.48769117642262">
        <ele>27.2</ele>
        <time>2019-12-04T10:44:21Z</time>
      </trkpt>
      <trkpt lat="39.804199332249844" lon="116.48770153433091">
        <ele>27.2</ele>
        <time>2019-12-04T10:44:22Z</time>
      </trkpt>
      <trkpt lat="39.804193413949676" lon="116.48770893283499">
        <ele>27.2</ele>
        <time>2019-12-04T10:44:23Z</time>
      </trkpt>
      <trkpt lat="39.80418712573854" lon="116.48771633133845">
        <ele>27.2</ele>
        <time>2019-12-04T10:44:24Z</time>
      </trkpt>
      <trkpt lat="39.80418083763388" lon="116.48772668924548">
        <ele>27.2</ele>
        <time>2019-12-04T10:44:25Z</time>
      </trkpt>
      <trkpt lat="39.80417528944941" lon="116.48774000655632">
        <ele>27.7</ele>
        <time>2019-12-04T10:44:26Z</time>
      </trkpt>
      <trkpt lat="39.80417011122423" lon="116.48775480356983">
        <ele>27.7</ele>
        <time>2019-12-04T10:44:27Z</time>
      </trkpt>
      <trkpt lat="39.80416493305051" lon="116.48777108028543">
        <ele>27.7</ele>
        <time>2019-12-04T10:44:28Z</time>
      </trkpt>
      <trkpt lat="39.804159754878164" lon="116.4877873570023">
        <ele>27.7</ele>
        <time>2019-12-04T10:44:29Z</time>
      </trkpt>
      <trkpt lat="39.80415383693833" lon="116.48780511341988">
        <ele>27.7</ele>
        <time>2019-12-04T10:44:30Z</time>
      </trkpt>
      <trkpt lat="39.804147549139586" lon="116.48782434953743">
        <ele>27.2</ele>
        <time>2019-12-04T10:44:31Z</time>
      </trkpt>
      <trkpt lat="39.804140521469314" lon="116.4878421059514">
        <ele>27.2</ele>
        <time>2019-12-04T10:44:32Z</time>
      </trkpt>
      <trkpt lat="39.80413275403227" lon="116.48786134206672">
        <ele>27.2</ele>
        <time>2019-12-04T10:44:33Z</time>
      </trkpt>
      <trkpt lat="39.8041249865971" lon="116.4878805781818">
        <ele>27.2</ele>
        <time>2019-12-04T10:44:34Z</time>
      </trkpt>
      <trkpt lat="39.80411721916072" lon="116.48789981429866">
        <ele>27.2</ele>
        <time>2019-12-04T10:44:35Z</time>
      </trkpt>
      <trkpt lat="39.80410945161716" lon="116.4879160910132">
        <ele>27.6</ele>
        <time>2019-12-04T10:44:36Z</time>
      </trkpt>
      <trkpt lat="39.80410057423498" lon="116.48792940831999">
        <ele>27.6</ele>
        <time>2019-12-04T10:44:37Z</time>
      </trkpt>
      <trkpt lat="39.804091326887765" lon="116.48794124592447">
        <ele>27.6</ele>
        <time>2019-12-04T10:44:38Z</time>
      </trkpt>
      <trkpt lat="39.804082079489596" lon="116.4879516038253">
        <ele>27.6</ele>
        <time>2019-12-04T10:44:39Z</time>
      </trkpt>
      <trkpt lat="39.804072462129" lon="116.48796048202338">
        <ele>27.6</ele>
        <time>2019-12-04T10:44:40Z</time>
      </trkpt>
      <trkpt lat="39.80406321467699" lon="116.48796936022477">
        <ele>27.1</ele>
        <time>2019-12-04T10:44:41Z</time>
      </trkpt>
      <trkpt lat="39.80405433708479" lon="116.48797675872498">
        <ele>27.1</ele>
        <time>2019-12-04T10:44:42Z</time>
      </trkpt>
      <trkpt lat="39.804046939232435" lon="116.48798711663417">
        <ele>27.1</ele>
        <time>2019-12-04T10:44:43Z</time>
      </trkpt>
      <trkpt lat="39.80404361059074" lon="116.48800339335429">
        <ele>27.1</ele>
        <time>2019-12-04T10:44:44Z</time>
      </trkpt>
      <trkpt lat="39.80404250155572" lon="116.48802410917935">
        <ele>27.1</ele>
        <time>2019-12-04T10:44:45Z</time>
      </trkpt>
      <trkpt lat="39.8040421323422" lon="116.48804482500421">
        <ele>27.4</ele>
        <time>2019-12-04T10:44:46Z</time>
      </trkpt>
      <trkpt lat="39.80404139326892" lon="116.48806702052508">
        <ele>27.4</ele>
        <time>2019-12-04T10:44:47Z</time>
      </trkpt>
      <trkpt lat="39.804041024106176" lon="116.48808921604714">
        <ele>27.4</ele>
        <time>2019-12-04T10:44:48Z</time>
      </trkpt>
      <trkpt lat="39.80404065489612" lon="116.48810993187018">
        <ele>27.4</ele>
        <time>2019-12-04T10:44:49Z</time>
      </trkpt>
      <trkpt lat="39.804040285734885" lon="116.48813212739665">
        <ele>27.4</ele>
        <time>2019-12-04T10:44:50Z</time>
      </trkpt>
      <trkpt lat="39.80404028648731" lon="116.48815432292837">
        <ele>27.2</ele>
        <time>2019-12-04T10:44:51Z</time>
      </trkpt>
      <trkpt lat="39.80404028719191" lon="116.48817503876055">
        <ele>27.2</ele>
        <time>2019-12-04T10:44:52Z</time>
      </trkpt>
      <trkpt lat="39.804040657857044" lon="116.48819723429958">
        <ele>27.2</ele>
        <time>2019-12-04T10:44:53Z</time>
      </trkpt>
      <trkpt lat="39.80403954878168" lon="116.488216470433">
        <ele>27.2</ele>
        <time>2019-12-04T10:44:54Z</time>
      </trkpt>
      <trkpt lat="39.804035110307616" lon="116.48822978775307">
        <ele>27.2</ele>
        <time>2019-12-04T10:44:55Z</time>
      </trkpt>
      <trkpt lat="39.8040280823131" lon="116.48823866596689">
        <ele>27.2</ele>
        <time>2019-12-04T10:44:56Z</time>
      </trkpt>
      <trkpt lat="39.80402031444892" lon="116.488246064481">
        <ele>27.2</ele>
        <time>2019-12-04T10:44:57Z</time>
      </trkpt>
      <trkpt lat="39.80401254658505" lon="116.48825346299942">
        <ele>27.2</ele>
        <time>2019-12-04T10:44:58Z</time>
      </trkpt>
      <trkpt lat="39.80400514858193" lon="116.48825938181461">
        <ele>27.2</ele>
        <time>2019-12-04T10:44:59Z</time>
      </trkpt>
      <trkpt lat="39.80399775057588" lon="116.48826530062996">
        <ele>27.2</ele>
        <time>2019-12-04T10:45:00Z</time>
      </trkpt>
      <trkpt lat="39.80399035251919" lon="116.4882697397471">
        <ele>27.4</ele>
        <time>2019-12-04T10:45:01Z</time>
      </trkpt>
      <trkpt lat="39.80398332442163" lon="116.48827565856567">
        <ele>27.4</ele>
        <time>2019-12-04T10:45:02Z</time>
      </trkpt>
      <trkpt lat="39.80397592646081" lon="116.48828305707985">
        <ele>27.4</ele>
        <time>2019-12-04T10:45:03Z</time>
      </trkpt>
      <trkpt lat="39.80396852854505" lon="116.48829193529278">
        <ele>27.4</ele>
        <time>2019-12-04T10:45:04Z</time>
      </trkpt>
      <trkpt lat="39.8039615006337" lon="116.48830377290612">
        <ele>27.4</ele>
        <time>2019-12-04T10:45:05Z</time>
      </trkpt>
      <trkpt lat="39.80395484262803" lon="116.48831561051489">
        <ele>27</ele>
        <time>2019-12-04T10:45:06Z</time>
      </trkpt>
      <trkpt lat="39.803948184619934" lon="116.48832744812428">
        <ele>27</ele>
        <time>2019-12-04T10:45:07Z</time>
      </trkpt>
      <trkpt lat="39.80394152666072" lon="116.48834076543308">
        <ele>27</ele>
        <time>2019-12-04T10:45:08Z</time>
      </trkpt>
      <trkpt lat="39.8039341288799" lon="116.48835408274485">
        <ele>27</ele>
        <time>2019-12-04T10:45:09Z</time>
      </trkpt>
      <trkpt lat="39.803925991277495" lon="116.48836740005962">
        <ele>27</ele>
        <time>2019-12-04T10:45:10Z</time>
      </trkpt>
      <trkpt lat="39.80391748381632" lon="116.48838219707123">
        <ele>27.3</ele>
        <time>2019-12-04T10:45:11Z</time>
      </trkpt>
      <trkpt lat="39.803908236539954" lon="116.48839699407786">
        <ele>27.3</ele>
        <time>2019-12-04T10:45:12Z</time>
      </trkpt>
      <trkpt lat="39.8038986193016" lon="116.48841031138319">
        <ele>27.3</ele>
        <time>2019-12-04T10:45:13Z</time>
      </trkpt>
      <trkpt lat="39.80388937196913" lon="116.48842362869226">
        <ele>27.3</ele>
        <time>2019-12-04T10:45:14Z</time>
      </trkpt>
      <trkpt lat="39.80387975462854" lon="116.48843398660028">
        <ele>27.3</ele>
        <time>2019-12-04T10:45:15Z</time>
      </trkpt>
      <trkpt lat="39.803869027463236" lon="116.48844138510094">
        <ele>26.8</ele>
        <time>2019-12-04T10:45:16Z</time>
      </trkpt>
      <trkpt lat="39.80385682065961" lon="116.48844878360624">
        <ele>26.8</ele>
        <time>2019-12-04T10:45:17Z</time>
      </trkpt>
      <trkpt lat="39.80384424395133" lon="116.48845618210879">
        <ele>26.8</ele>
        <time>2019-12-04T10:45:18Z</time>
      </trkpt>
      <trkpt lat="39.80383092737501" lon="116.48846210090605">
        <ele>26.8</ele>
        <time>2019-12-04T10:45:19Z</time>
      </trkpt>
      <trkpt lat="39.80381798065793" lon="116.48846653999868">
        <ele>26.8</ele>
        <time>2019-12-04T10:45:20Z</time>
      </trkpt>
      <trkpt lat="39.80380503399324" lon="116.48847245879105">
        <ele>27.3</ele>
        <time>2019-12-04T10:45:21Z</time>
      </trkpt>
      <trkpt lat="39.80379245718776" lon="116.48847689788683">
        <ele>27.3</ele>
        <time>2019-12-04T10:45:22Z</time>
      </trkpt>
      <trkpt lat="39.80378062019864" lon="116.4884813369886">
        <ele>27.3</ele>
        <time>2019-12-04T10:45:23Z</time>
      </trkpt>
      <trkpt lat="39.80376878325576" lon="116.48848725579018">
        <ele>27.3</ele>
        <time>2019-12-04T10:45:24Z</time>
      </trkpt>
      <trkpt lat="39.803756576355774" lon="116.48849169488919">
        <ele>27.3</ele>
        <time>2019-12-04T10:45:25Z</time>
      </trkpt>
      <trkpt lat="39.80374473936713" lon="116.48849613398309">
        <ele>27.1</ele>
        <time>2019-12-04T10:45:26Z</time>
      </trkpt>
      <trkpt lat="39.80373327228362" lon="116.48850057308003">
        <ele>27.1</ele>
        <time>2019-12-04T10:45:27Z</time>
      </trkpt>
      <trkpt lat="39.803721805154034" lon="116.48850353246911">
        <ele>27.1</ele>
        <time>2019-12-04T10:45:28Z</time>
      </trkpt>
      <trkpt lat="39.803710707975775" lon="116.48850797156915">
        <ele>27.1</ele>
        <time>2019-12-04T10:45:29Z</time>
      </trkpt>
      <trkpt lat="39.80369961079767" lon="116.48851241066927">
        <ele>27.1</ele>
        <time>2019-12-04T10:45:30Z</time>
      </trkpt>
      <trkpt lat="39.803688513666046" lon="116.48851832947751">
        <ele>26.7</ele>
        <time>2019-12-04T10:45:31Z</time>
      </trkpt>
      <trkpt lat="39.80367741648207" lon="116.48852276858594">
        <ele>26.7</ele>
        <time>2019-12-04T10:45:32Z</time>
      </trkpt>
      <trkpt lat="39.80366557952227" lon="116.48852868739662">
        <ele>26.7</ele>
        <time>2019-12-04T10:45:33Z</time>
      </trkpt>
      <trkpt lat="39.80365337269796" lon="116.48853608591264">
        <ele>26.7</ele>
        <time>2019-12-04T10:45:34Z</time>
      </trkpt>
      <trkpt lat="39.803640795916316" lon="116.48854200472584">
        <ele>26.7</ele>
        <time>2019-12-04T10:45:35Z</time>
      </trkpt>
      <trkpt lat="39.80362821918145" lon="116.48854940324742">
        <ele>27.4</ele>
        <time>2019-12-04T10:45:36Z</time>
      </trkpt>
      <trkpt lat="39.80361490267117" lon="116.48855828147971">
        <ele>27.4</ele>
        <time>2019-12-04T10:45:37Z</time>
      </trkpt>
      <trkpt lat="39.803601216296826" lon="116.48856863941766">
        <ele>27.4</ele>
        <time>2019-12-04T10:45:38Z</time>
      </trkpt>
      <trkpt lat="39.803587159965176" lon="116.48857751765281">
        <ele>27.4</ele>
        <time>2019-12-04T10:45:39Z</time>
      </trkpt>
      <trkpt lat="39.80357236377112" lon="116.48858491618202">
        <ele>27.4</ele>
        <time>2019-12-04T10:45:40Z</time>
      </trkpt>
      <trkpt lat="39.80355756757118" lon="116.48859231471145">
        <ele>26.8</ele>
        <time>2019-12-04T10:45:41Z</time>
      </trkpt>
      <trkpt lat="39.80354277132473" lon="116.48859823353254">
        <ele>26.8</ele>
        <time>2019-12-04T10:45:42Z</time>
      </trkpt>
      <trkpt lat="39.80352797512544" lon="116.48860563206235">
        <ele>26.8</ele>
        <time>2019-12-04T10:45:43Z</time>
      </trkpt>
      <trkpt lat="39.803514288613016" lon="116.48861155088453">
        <ele>26.8</ele>
        <time>2019-12-04T10:45:44Z</time>
      </trkpt>
      <trkpt lat="39.803501341923116" lon="116.48861746970464">
        <ele>26.8</ele>
        <time>2019-12-04T10:45:45Z</time>
      </trkpt>
      <trkpt lat="39.80348913505575" lon="116.48862338852265">
        <ele>26.9</ele>
        <time>2019-12-04T10:45:46Z</time>
      </trkpt>
      <trkpt lat="39.80347729809976" lon="116.4886293073438">
        <ele>26.9</ele>
        <time>2019-12-04T10:45:47Z</time>
      </trkpt>
      <trkpt lat="39.803465461144" lon="116.48863522616509">
        <ele>26.9</ele>
        <time>2019-12-04T10:45:48Z</time>
      </trkpt>
      <trkpt lat="39.80345436396361" lon="116.48863966528364">
        <ele>26.9</ele>
        <time>2019-12-04T10:45:49Z</time>
      </trkpt>
      <trkpt lat="39.80344400669376" lon="116.4886470638177">
        <ele>26.9</ele>
        <time>2019-12-04T10:45:50Z</time>
      </trkpt>
      <trkpt lat="39.80343475915139" lon="116.48865446235276">
        <ele>27</ele>
        <time>2019-12-04T10:45:51Z</time>
      </trkpt>
      <trkpt lat="39.80342625147265" lon="116.48866334060287">
        <ele>27</ele>
        <time>2019-12-04T10:45:52Z</time>
      </trkpt>
      <trkpt lat="39.80341811370544" lon="116.48867221885624">
        <ele>27</ele>
        <time>2019-12-04T10:45:53Z</time>
      </trkpt>
      <trkpt lat="39.803410345843524" lon="116.4886810971129">
        <ele>27</ele>
        <time>2019-12-04T10:45:54Z</time>
      </trkpt>
      <trkpt lat="39.80340220807086" lon="116.48868997537504">
        <ele>27</ele>
        <time>2019-12-04T10:45:55Z</time>
      </trkpt>
      <trkpt lat="39.80339370033995" lon="116.48869737393355">
        <ele>26.8</ele>
        <time>2019-12-04T10:45:56Z</time>
      </trkpt>
      <trkpt lat="39.803384822698206" lon="116.48870477249741">
        <ele>26.8</ele>
        <time>2019-12-04T10:45:57Z</time>
      </trkpt>
      <trkpt lat="39.803375945009144" lon="116.48871069135231">
        <ele>26.8</ele>
        <time>2019-12-04T10:45:58Z</time>
      </trkpt>
      <trkpt lat="39.80336706727264" lon="116.48871513049811">
        <ele>26.8</ele>
        <time>2019-12-04T10:45:59Z</time>
      </trkpt>
      <trkpt lat="39.8033578195837" lon="116.48871808993178">
        <ele>26.8</ele>
        <time>2019-12-04T10:46:00Z</time>
      </trkpt>
      <trkpt lat="39.803348571847195" lon="116.48871956965624">
        <ele>27</ele>
        <time>2019-12-04T10:46:01Z</time>
      </trkpt>
      <trkpt lat="39.80333895419961" lon="116.48872104937773">
        <ele>27</ele>
        <time>2019-12-04T10:46:02Z</time>
      </trkpt>
      <trkpt lat="39.8033289665995" lon="116.48872104938702">
        <ele>27</ele>
        <time>2019-12-04T10:46:03Z</time>
      </trkpt>
      <trkpt lat="39.803319348910556" lon="116.48872104939117">
        <ele>27</ele>
        <time>2019-12-04T10:46:04Z</time>
      </trkpt>
      <trkpt lat="39.80331047100243" lon="116.48871956968387">
        <ele>27</ele>
        <time>2019-12-04T10:46:05Z</time>
      </trkpt>
      <trkpt lat="39.803301962964035" lon="116.48871661026216">
        <ele>26.8</ele>
        <time>2019-12-04T10:46:06Z</time>
      </trkpt>
      <trkpt lat="39.80329382487823" lon="116.48871513055266">
        <ele>26.8</ele>
        <time>2019-12-04T10:46:07Z</time>
      </trkpt>
      <trkpt lat="39.80328568683387" lon="116.48871513055241">
        <ele>26.8</ele>
        <time>2019-12-04T10:46:08Z</time>
      </trkpt>
      <trkpt lat="39.80327717891982" lon="116.4887166102584">
        <ele>26.8</ele>
        <time>2019-12-04T10:46:09Z</time>
      </trkpt>
      <trkpt lat="39.80326867100582" lon="116.48871808996437">
        <ele>26.8</ele>
        <time>2019-12-04T10:46:10Z</time>
      </trkpt>
      <trkpt lat="39.80326053308586" lon="116.4887225290918">
        <ele>26.8</ele>
        <time>2019-12-04T10:46:11Z</time>
      </trkpt>
      <trkpt lat="39.80325239520751" lon="116.4887284479286">
        <ele>26.8</ele>
        <time>2019-12-04T10:46:12Z</time>
      </trkpt>
      <trkpt lat="39.80324499719309" lon="116.48873584648076">
        <ele>26.8</ele>
        <time>2019-12-04T10:46:13Z</time>
      </trkpt>
      <trkpt lat="39.803237599220516" lon="116.48874472474253">
        <ele>26.8</ele>
        <time>2019-12-04T10:46:14Z</time>
      </trkpt>
      <trkpt lat="39.80322946142613" lon="116.4887536030068">
        <ele>26.8</ele>
        <time>2019-12-04T10:46:15Z</time>
      </trkpt>
      <trkpt lat="39.80321947407664" lon="116.48876248127277">
        <ele>26.8</ele>
        <time>2019-12-04T10:46:16Z</time>
      </trkpt>
      <trkpt lat="39.80320837707785" lon="116.4887743189655">
        <ele>26.8</ele>
        <time>2019-12-04T10:46:17Z</time>
      </trkpt>
      <trkpt lat="39.80319654021566" lon="116.4887846769432">
        <ele>26.8</ele>
        <time>2019-12-04T10:46:18Z</time>
      </trkpt>
      <trkpt lat="39.803184333442914" lon="116.48879503491833">
        <ele>26.8</ele>
        <time>2019-12-04T10:46:19Z</time>
      </trkpt>
      <trkpt lat="39.803172126628716" lon="116.48880391318413">
        <ele>26.8</ele>
        <time>2019-12-04T10:46:20Z</time>
      </trkpt>
      <trkpt lat="39.80315954994591" lon="116.48881427116518">
        <ele>27.1</ele>
        <time>2019-12-04T10:46:21Z</time>
      </trkpt>
      <trkpt lat="39.803146603310445" lon="116.48882314943383">
        <ele>27.1</ele>
        <time>2019-12-04T10:46:22Z</time>
      </trkpt>
      <trkpt lat="39.80313328672218" lon="116.48883054798992">
        <ele>27.1</ele>
        <time>2019-12-04T10:46:23Z</time>
      </trkpt>
      <trkpt lat="39.8031188603588" lon="116.48883646682741">
        <ele>27.1</ele>
        <time>2019-12-04T10:46:24Z</time>
      </trkpt>
      <trkpt lat="39.80310443395346" lon="116.48884090595507">
        <ele>27.1</ele>
        <time>2019-12-04T10:46:25Z</time>
      </trkpt>
      <trkpt lat="39.8030903774594" lon="116.48884534508578">
        <ele>26.6</ele>
        <time>2019-12-04T10:46:26Z</time>
      </trkpt>
      <trkpt lat="39.803077060787636" lon="116.48884978421438">
        <ele>26.6</ele>
        <time>2019-12-04T10:46:27Z</time>
      </trkpt>
      <trkpt lat="39.803063744073754" lon="116.48885274362492">
        <ele>26.6</ele>
        <time>2019-12-04T10:46:28Z</time>
      </trkpt>
      <trkpt lat="39.80305042735999" lon="116.48885570303548">
        <ele>26.6</ele>
        <time>2019-12-04T10:46:29Z</time>
      </trkpt>
      <trkpt lat="39.80303674069298" lon="116.48885718273306">
        <ele>26.6</ele>
        <time>2019-12-04T10:46:30Z</time>
      </trkpt>
      <trkpt lat="39.803023423937134" lon="116.48885866243366">
        <ele>26.9</ele>
        <time>2019-12-04T10:46:31Z</time>
      </trkpt>
      <trkpt lat="39.80301047709244" lon="116.4888601421372">
        <ele>26.9</ele>
        <time>2019-12-04T10:46:32Z</time>
      </trkpt>
      <trkpt lat="39.80299790020128" lon="116.48886310156192">
        <ele>26.9</ele>
        <time>2019-12-04T10:46:33Z</time>
      </trkpt>
      <trkpt lat="39.80298606317474" lon="116.48886754071079">
        <ele>26.9</ele>
        <time>2019-12-04T10:46:34Z</time>
      </trkpt>
      <trkpt lat="39.80297496601291" lon="116.4888734595839">
        <ele>26.9</ele>
        <time>2019-12-04T10:46:35Z</time>
      </trkpt>
      <trkpt lat="39.802964238804805" lon="116.48888085817839">
        <ele>26.4</ele>
        <time>2019-12-04T10:46:36Z</time>
      </trkpt>
      <trkpt lat="39.802953511597" lon="116.48888825677308">
        <ele>26.4</ele>
        <time>2019-12-04T10:46:37Z</time>
      </trkpt>
      <trkpt lat="39.80294278438948" lon="116.48889565536794">
        <ele>26.4</ele>
        <time>2019-12-04T10:46:38Z</time>
      </trkpt>
      <trkpt lat="39.80293279704694" lon="116.48890453367926">
        <ele>26.4</ele>
        <time>2019-12-04T10:46:39Z</time>
      </trkpt>
      <trkpt lat="39.80292317961581" lon="116.48891341198566">
        <ele>26.4</ele>
        <time>2019-12-04T10:46:40Z</time>
      </trkpt>
      <trkpt lat="39.80291393213884" lon="116.48892377001387">
        <ele>27.1</ele>
        <time>2019-12-04T10:46:41Z</time>
      </trkpt>
      <trkpt lat="39.80290468466236" lon="116.48893412803433">
        <ele>27.1</ele>
        <time>2019-12-04T10:46:42Z</time>
      </trkpt>
      <trkpt lat="39.8028958070545" lon="116.48894300633141">
        <ele>27.1</ele>
        <time>2019-12-04T10:46:43Z</time>
      </trkpt>
      <trkpt lat="39.802886929447006" lon="116.48895188462873">
        <ele>27.1</ele>
        <time>2019-12-04T10:46:44Z</time>
      </trkpt>
      <trkpt lat="39.80287805179689" lon="116.48895928319955">
        <ele>27.1</ele>
        <time>2019-12-04T10:46:45Z</time>
      </trkpt>
      <trkpt lat="39.80286917414705" lon="116.48896668177053">
        <ele>26.5</ele>
        <time>2019-12-04T10:46:46Z</time>
      </trkpt>
      <trkpt lat="39.80286029645439" lon="116.48897260061482">
        <ele>26.5</ele>
        <time>2019-12-04T10:46:47Z</time>
      </trkpt>
      <trkpt lat="39.80285104893705" lon="116.48898147888573">
        <ele>26.5</ele>
        <time>2019-12-04T10:46:48Z</time>
      </trkpt>
      <trkpt lat="39.80284180146324" lon="116.48899183687583">
        <ele>26.5</ele>
        <time>2019-12-04T10:46:49Z</time>
      </trkpt>
      <trkpt lat="39.802831814167874" lon="116.48900219486846">
        <ele>26.5</ele>
        <time>2019-12-04T10:46:50Z</time>
      </trkpt>
      <trkpt lat="39.80282145696197" lon="116.4890125528585">
        <ele>26.8</ele>
        <time>2019-12-04T10:46:51Z</time>
      </trkpt>
      <trkpt lat="39.80281072984555" lon="116.48902291084595">
        <ele>26.8</ele>
        <time>2019-12-04T10:46:52Z</time>
      </trkpt>
      <trkpt lat="39.802799262951005" lon="116.48903474855506">
        <ele>26.8</ele>
        <time>2019-12-04T10:46:53Z</time>
      </trkpt>
      <trkpt lat="39.80278742623315" lon="116.4890495457163">
        <ele>26.8</ele>
        <time>2019-12-04T10:46:54Z</time>
      </trkpt>
      <trkpt lat="39.80277484969422" lon="116.4890643428724">
        <ele>26.8</ele>
        <time>2019-12-04T10:46:55Z</time>
      </trkpt>
      <trkpt lat="39.80276190324524" lon="116.48907914002625">
        <ele>26.6</ele>
        <time>2019-12-04T10:46:56Z</time>
      </trkpt>
      <trkpt lat="39.80274858688622" lon="116.48909393717788">
        <ele>26.6</ele>
        <time>2019-12-04T10:46:57Z</time>
      </trkpt>
      <trkpt lat="39.802734530750044" lon="116.48911021405196">
        <ele>26.6</ele>
        <time>2019-12-04T10:46:58Z</time>
      </trkpt>
      <trkpt lat="39.80272084443812" lon="116.48912353149079">
        <ele>26.6</ele>
        <time>2019-12-04T10:46:59Z</time>
      </trkpt>
      <trkpt lat="39.80270678821599" lon="116.48913684892723">
        <ele>26.6</ele>
        <time>2019-12-04T10:47:00Z</time>
      </trkpt>
      <trkpt lat="39.80269273199468" lon="116.4891501663643">
        <ele>26.8</ele>
        <time>2019-12-04T10:47:01Z</time>
      </trkpt>
      <trkpt lat="39.802678675774175" lon="116.48916348380196">
        <ele>26.8</ele>
        <time>2019-12-04T10:47:02Z</time>
      </trkpt>
      <trkpt lat="39.80266498946548" lon="116.4891768012432">
        <ele>26.8</ele>
        <time>2019-12-04T10:47:03Z</time>
      </trkpt>
      <trkpt lat="39.802652042979574" lon="116.489190118691">
        <ele>26.8</ele>
        <time>2019-12-04T10:47:04Z</time>
      </trkpt>
      <trkpt lat="39.80264057609394" lon="116.48920195640696">
        <ele>26.8</ele>
        <time>2019-12-04T10:47:05Z</time>
      </trkpt>
      <trkpt lat="39.8026305888529" lon="116.48921379413528">
        <ele>26.5</ele>
        <time>2019-12-04T10:47:06Z</time>
      </trkpt>
      <trkpt lat="39.80262208133312" lon="116.48922859131623">
        <ele>26.5</ele>
        <time>2019-12-04T10:47:07Z</time>
      </trkpt>
      <trkpt lat="39.802613943725234" lon="116.4892433885009">
        <ele>26.5</ele>
        <time>2019-12-04T10:47:08Z</time>
      </trkpt>
      <trkpt lat="39.80260654589544" lon="116.4892567059639">
        <ele>26.5</ele>
        <time>2019-12-04T10:47:09Z</time>
      </trkpt>
      <trkpt lat="39.802598778200235" lon="116.48927150315293">
        <ele>26.5</ele>
        <time>2019-12-04T10:47:10Z</time>
      </trkpt>
      <trkpt lat="39.80259175028295" lon="116.48928482062013">
        <ele>27.4</ele>
        <time>2019-12-04T10:47:11Z</time>
      </trkpt>
      <trkpt lat="39.80258509227737" lon="116.4892981380909">
        <ele>27.4</ele>
        <time>2019-12-04T10:47:12Z</time>
      </trkpt>
      <trkpt lat="39.80257880418348" lon="116.48931145556526">
        <ele>27.4</ele>
        <time>2019-12-04T10:47:13Z</time>
      </trkpt>
      <trkpt lat="39.80257288600127" lon="116.48932477304318">
        <ele>27.4</ele>
        <time>2019-12-04T10:47:14Z</time>
      </trkpt>
      <trkpt lat="39.80256696781977" lon="116.48933809052167">
        <ele>27.4</ele>
        <time>2019-12-04T10:47:15Z</time>
      </trkpt>
      <trkpt lat="39.80255993990608" lon="116.48935140800806">
        <ele>26.7</ele>
        <time>2019-12-04T10:47:16Z</time>
      </trkpt>
      <trkpt lat="39.80255217212576" lon="116.48936324576015">
        <ele>26.7</ele>
        <time>2019-12-04T10:47:17Z</time>
      </trkpt>
      <trkpt lat="39.802543294580126" lon="116.48937360379105">
        <ele>26.7</ele>
        <time>2019-12-04T10:47:18Z</time>
      </trkpt>
      <trkpt lat="39.80253441703495" lon="116.48938396182226">
        <ele>26.7</ele>
        <time>2019-12-04T10:47:19Z</time>
      </trkpt>
      <trkpt lat="39.80252553953578" lon="116.48939579958288">
        <ele>26.7</ele>
        <time>2019-12-04T10:47:20Z</time>
      </trkpt>
      <trkpt lat="39.80251703194814" lon="116.48940763734696">
        <ele>27.3</ele>
        <time>2019-12-04T10:47:21Z</time>
      </trkpt>
      <trkpt lat="39.80250815445011" lon="116.48941947510848">
        <ele>27.3</ele>
        <time>2019-12-04T10:47:22Z</time>
      </trkpt>
      <trkpt lat="39.802499646863616" lon="116.48943131287342">
        <ele>27.3</ele>
        <time>2019-12-04T10:47:23Z</time>
      </trkpt>
      <trkpt lat="39.80249150918865" lon="116.4894431506418">
        <ele>27.3</ele>
        <time>2019-12-04T10:47:24Z</time>
      </trkpt>
      <trkpt lat="39.80248337146836" lon="116.48945350868128">
        <ele>27.3</ele>
        <time>2019-12-04T10:47:25Z</time>
      </trkpt>
      <trkpt lat="39.80247486379161" lon="116.48946238698873">
        <ele>26.5</ele>
        <time>2019-12-04T10:47:26Z</time>
      </trkpt>
      <trkpt lat="39.80246635606921" lon="116.489469785567">
        <ele>26.5</ele>
        <time>2019-12-04T10:47:27Z</time>
      </trkpt>
      <trkpt lat="39.80245784834705" lon="116.48947718414544">
        <ele>26.5</ele>
        <time>2019-12-04T10:47:28Z</time>
      </trkpt>
      <trkpt lat="39.80244971049005" lon="116.48948310299755">
        <ele>26.5</ele>
        <time>2019-12-04T10:47:30Z</time>
      </trkpt>
      <trkpt lat="39.8024419424981" lon="116.4894875421233">
        <ele>27.2</ele>
        <time>2019-12-04T10:47:31Z</time>
      </trkpt>
      <trkpt lat="39.80243417446015" lon="116.48949050151954">
        <ele>27.2</ele>
        <time>2019-12-04T10:47:32Z</time>
      </trkpt>
      <trkpt lat="39.80242640642227" lon="116.48949346091582">
        <ele>27.2</ele>
        <time>2019-12-04T10:47:33Z</time>
      </trkpt>
      <trkpt lat="39.802418638384445" lon="116.48949642031215">
        <ele>27.2</ele>
        <time>2019-12-04T10:47:34Z</time>
      </trkpt>
      <trkpt lat="39.80241087030056" lon="116.48949789997897">
        <ele>27.2</ele>
        <time>2019-12-04T10:47:35Z</time>
      </trkpt>
      <trkpt lat="39.80240236244096" lon="116.48950085936933">
        <ele>26.8</ele>
        <time>2019-12-04T10:47:36Z</time>
      </trkpt>
      <trkpt lat="39.80239385458142" lon="116.48950381875973">
        <ele>26.8</ele>
        <time>2019-12-04T10:47:37Z</time>
      </trkpt>
      <trkpt lat="39.80238608657757" lon="116.48950825788573">
        <ele>26.8</ele>
        <time>2019-12-04T10:47:38Z</time>
      </trkpt>
      <trkpt lat="39.80237794866289" lon="116.4895126970088">
        <ele>26.8</ele>
        <time>2019-12-04T10:47:39Z</time>
      </trkpt>
      <trkpt lat="39.8023694408836" lon="116.48951861585854">
        <ele>26.8</ele>
        <time>2019-12-04T10:47:40Z</time>
      </trkpt>
      <trkpt lat="39.80236056327365" lon="116.48952749416476">
        <ele>26.3</ele>
        <time>2019-12-04T10:47:41Z</time>
      </trkpt>
      <trkpt lat="39.80235131578698" lon="116.4895378521979">
        <ele>26.3</ele>
        <time>2019-12-04T10:47:42Z</time>
      </trkpt>
      <trkpt lat="39.802342438211696" lon="116.48954821023439">
        <ele>26.3</ele>
        <time>2019-12-04T10:47:43Z</time>
      </trkpt>
      <trkpt lat="39.802333560590384" lon="116.48955708854136">
        <ele>26.3</ele>
        <time>2019-12-04T10:47:44Z</time>
      </trkpt>
      <trkpt lat="39.802325052880335" lon="116.48956596685157">
        <ele>26.3</ele>
        <time>2019-12-04T10:47:45Z</time>
      </trkpt>
      <trkpt lat="39.80231654517062" lon="116.48957484516202">
        <ele>26.9</ele>
        <time>2019-12-04T10:47:46Z</time>
      </trkpt>
      <trkpt lat="39.8023076675503" lon="116.4895837234697">
        <ele>26.9</ele>
        <time>2019-12-04T10:47:47Z</time>
      </trkpt>
      <trkpt lat="39.8022987899303" lon="116.48959260177764">
        <ele>26.9</ele>
        <time>2019-12-04T10:47:48Z</time>
      </trkpt>
      <trkpt lat="39.80228917250121" lon="116.48960148007978">
        <ele>26.9</ele>
        <time>2019-12-04T10:47:49Z</time>
      </trkpt>
      <trkpt lat="39.802279924983395" lon="116.48961035838519">
        <ele>26.9</ele>
        <time>2019-12-04T10:47:50Z</time>
      </trkpt>
      <trkpt lat="39.80227067741912" lon="116.48961775696074">
        <ele>26.5</ele>
        <time>2019-12-04T10:47:51Z</time>
      </trkpt>
      <trkpt lat="39.80226179968484" lon="116.48962219607922">
        <ele>26.5</ele>
        <time>2019-12-04T10:47:52Z</time>
      </trkpt>
      <trkpt lat="39.80225255200538" lon="116.48962515546467">
        <ele>26.5</ele>
        <time>2019-12-04T10:47:53Z</time>
      </trkpt>
      <trkpt lat="39.80224293441507" lon="116.48962811484715">
        <ele>26.5</ele>
        <time>2019-12-04T10:47:54Z</time>
      </trkpt>
      <trkpt lat="39.80223331682485" lon="116.48963107422965">
        <ele>26.5</ele>
        <time>2019-12-04T10:47:55Z</time>
      </trkpt>
      <trkpt lat="39.80222369928156" lon="116.48963551334232">
        <ele>27</ele>
        <time>2019-12-04T10:47:56Z</time>
      </trkpt>
      <trkpt lat="39.80221371182748" lon="116.48963995245204">
        <ele>27</ele>
        <time>2019-12-04T10:47:57Z</time>
      </trkpt>
      <trkpt lat="39.80220446414843" lon="116.48964291183762">
        <ele>27</ele>
        <time>2019-12-04T10:47:58Z</time>
      </trkpt>
      <trkpt lat="39.802194476694574" lon="116.48964735094742">
        <ele>27</ele>
        <time>2019-12-04T10:47:59Z</time>
      </trkpt>
      <trkpt lat="39.802184119329915" lon="116.48965179005431">
        <ele>27</ele>
        <time>2019-12-04T10:48:00Z</time>
      </trkpt>
      <trkpt lat="39.80217339205448" lon="116.48965622915827">
        <ele>26.5</ele>
        <time>2019-12-04T10:48:01Z</time>
      </trkpt>
      <trkpt lat="39.80216266482618" lon="116.48966214799253">
        <ele>26.5</ele>
        <time>2019-12-04T10:48:02Z</time>
      </trkpt>
      <trkpt lat="39.802151937598076" lon="116.48966806682688">
        <ele>26.5</ele>
        <time>2019-12-04T10:48:03Z</time>
      </trkpt>
      <trkpt lat="39.80214121041723" lon="116.48967546539166">
        <ele>26.5</ele>
        <time>2019-12-04T10:48:04Z</time>
      </trkpt>
      <trkpt lat="39.80213011332574" lon="116.48968286395358">
        <ele>26.5</ele>
        <time>2019-12-04T10:48:05Z</time>
      </trkpt>
      <trkpt lat="39.80211864637077" lon="116.48969174224304">
        <ele>27</ele>
        <time>2019-12-04T10:48:06Z</time>
      </trkpt>
      <trkpt lat="39.80210717941616" lon="116.48970062053274">
        <ele>27</ele>
        <time>2019-12-04T10:48:07Z</time>
      </trkpt>
      <trkpt lat="39.80209534259831" lon="116.4897109785664">
        <ele>27</ele>
        <time>2019-12-04T10:48:08Z</time>
      </trkpt>
      <trkpt lat="39.80208313591735" lon="116.48972281632787">
        <ele>27</ele>
        <time>2019-12-04T10:48:09Z</time>
      </trkpt>
      <trkpt lat="39.80207166901135" lon="116.48973317436517">
        <ele>27</ele>
        <time>2019-12-04T10:48:10Z</time>
      </trkpt>
      <trkpt lat="39.80206057201668" lon="116.48974353240574">
        <ele>25.9</ele>
        <time>2019-12-04T10:48:11Z</time>
      </trkpt>
      <trkpt lat="39.80204947506995" lon="116.48975537017728">
        <ele>25.9</ele>
        <time>2019-12-04T10:48:12Z</time>
      </trkpt>
      <trkpt lat="39.802038748034654" lon="116.48976720795218">
        <ele>25.9</ele>
        <time>2019-12-04T10:48:13Z</time>
      </trkpt>
      <trkpt lat="39.8020280209999" lon="116.48977904572747">
        <ele>25.9</ele>
        <time>2019-12-04T10:48:14Z</time>
      </trkpt>
      <trkpt lat="39.802018033787455" lon="116.48979088350914">
        <ele>25.9</ele>
        <time>2019-12-04T10:48:15Z</time>
      </trkpt>
      <trkpt lat="39.8020087863973" lon="116.48980272129718">
        <ele>26.8</ele>
        <time>2019-12-04T10:48:16Z</time>
      </trkpt>
      <trkpt lat="39.80199990887075" lon="116.48981307935772">
        <ele>26.8</ele>
        <time>2019-12-04T10:48:17Z</time>
      </trkpt>
      <trkpt lat="39.80199103129675" lon="116.48982195768758">
        <ele>26.8</ele>
        <time>2019-12-04T10:48:18Z</time>
      </trkpt>
      <trkpt lat="39.80198252358601" lon="116.48982935627345">
        <ele>26.8</ele>
        <time>2019-12-04T10:48:19Z</time>
      </trkpt>
      <trkpt lat="39.801975125560176" lon="116.48983527513742">
        <ele>26.8</ele>
        <time>2019-12-04T10:48:20Z</time>
      </trkpt>
      <trkpt lat="39.80196846735624" lon="116.48984119400751">
        <ele>26.3</ele>
        <time>2019-12-04T10:48:21Z</time>
      </trkpt>
      <trkpt lat="39.80196217901534" lon="116.48984563314966">
        <ele>26.3</ele>
        <time>2019-12-04T10:48:22Z</time>
      </trkpt>
      <trkpt lat="39.801956630496264" lon="116.48985007229784">
        <ele>26.3</ele>
        <time>2019-12-04T10:48:23Z</time>
      </trkpt>
      <trkpt lat="39.80195108197727" lon="116.48985451144607">
        <ele>26.3</ele>
        <time>2019-12-04T10:48:24Z</time>
      </trkpt>
      <trkpt lat="39.80194442372581" lon="116.48985895060163">
        <ele>26.3</ele>
        <time>2019-12-04T10:48:25Z</time>
      </trkpt>
      <trkpt lat="39.80193702565272" lon="116.48986338975126">
        <ele>26.5</ele>
        <time>2019-12-04T10:48:26Z</time>
      </trkpt>
      <trkpt lat="39.80192888780608" lon="116.48986930862607">
        <ele>26.5</ele>
        <time>2019-12-04T10:48:27Z</time>
      </trkpt>
      <trkpt lat="39.80192001013793" lon="116.48987522751123">
        <ele>26.5</ele>
        <time>2019-12-04T10:48:28Z</time>
      </trkpt>
      <trkpt lat="39.80191113251807" lon="116.48988262612765">
        <ele>26.5</ele>
        <time>2019-12-04T10:48:29Z</time>
      </trkpt>
      <trkpt lat="39.80190225489845" lon="116.48989002474424">
        <ele>26.5</ele>
        <time>2019-12-04T10:48:30Z</time>
      </trkpt>
      <trkpt lat="39.80189226754649" lon="116.48989742335198">
        <ele>26.9</ele>
        <time>2019-12-04T10:48:31Z</time>
      </trkpt>
      <trkpt lat="39.801881540421334" lon="116.48990630168511">
        <ele>26.9</ele>
        <time>2019-12-04T10:48:32Z</time>
      </trkpt>
      <trkpt lat="39.80187081329649" lon="116.48991518001844">
        <ele>26.9</ele>
        <time>2019-12-04T10:48:33Z</time>
      </trkpt>
      <trkpt lat="39.80185934635033" lon="116.48992405836225">
        <ele>26.9</ele>
        <time>2019-12-04T10:48:34Z</time>
      </trkpt>
      <trkpt lat="39.8018475094937" lon="116.48993293671954">
        <ele>26.9</ele>
        <time>2019-12-04T10:48:35Z</time>
      </trkpt>
      <trkpt lat="39.8018356726374" lon="116.48994181507703">
        <ele>26.2</ele>
        <time>2019-12-04T10:48:36Z</time>
      </trkpt>
      <trkpt lat="39.80182383573296" lon="116.48994921370327">
        <ele>26.2</ele>
        <time>2019-12-04T10:48:37Z</time>
      </trkpt>
      <trkpt lat="39.801811628917974" lon="116.48995661234294">
        <ele>26.2</ele>
        <time>2019-12-04T10:48:38Z</time>
      </trkpt>
      <trkpt lat="39.80179942215182" lon="116.48996549071421">
        <ele>26.2</ele>
        <time>2019-12-04T10:48:39Z</time>
      </trkpt>
      <trkpt lat="39.801787215385986" lon="116.4899743690857">
        <ele>26.2</ele>
        <time>2019-12-04T10:48:40Z</time>
      </trkpt>
      <trkpt lat="39.80177463878215" lon="116.48998620693379">
        <ele>26.8</ele>
        <time>2019-12-04T10:48:41Z</time>
      </trkpt>
      <trkpt lat="39.801763171935164" lon="116.48999952452286">
        <ele>26.8</ele>
        <time>2019-12-04T10:48:42Z</time>
      </trkpt>
      <trkpt lat="39.801751705112736" lon="116.49001432184406">
        <ele>26.8</ele>
        <time>2019-12-04T10:48:43Z</time>
      </trkpt>
      <trkpt lat="39.80174060820193" lon="116.4900291191688">
        <ele>26.8</ele>
        <time>2019-12-04T10:48:44Z</time>
      </trkpt>
      <trkpt lat="39.80172988115373" lon="116.49004243674901">
        <ele>26.8</ele>
        <time>2019-12-04T10:48:45Z</time>
      </trkpt>
      <trkpt lat="39.80171952399205" lon="116.49005575431643">
        <ele>26.1</ele>
        <time>2019-12-04T10:48:46Z</time>
      </trkpt>
      <trkpt lat="39.80170990665258" lon="116.490069071874">
        <ele>26.1</ele>
        <time>2019-12-04T10:48:47Z</time>
      </trkpt>
      <trkpt lat="39.80170102913539" lon="116.490082389438">
        <ele>26.1</ele>
        <time>2019-12-04T10:48:48Z</time>
      </trkpt>
      <trkpt lat="39.8016932613263" lon="116.49009570699518">
        <ele>26.1</ele>
        <time>2019-12-04T10:48:49Z</time>
      </trkpt>
      <trkpt lat="39.80168660322533" lon="116.49010902454553">
        <ele>26.1</ele>
        <time>2019-12-04T10:48:50Z</time>
      </trkpt>
      <trkpt lat="39.80167957516486" lon="116.49012086237752">
        <ele>26.8</ele>
        <time>2019-12-04T10:48:51Z</time>
      </trkpt>
      <trkpt lat="39.80167106746161" lon="116.49013270019783">
        <ele>26.8</ele>
        <time>2019-12-04T10:48:52Z</time>
      </trkpt>
      <trkpt lat="39.801660710204835" lon="116.49014453801973">
        <ele>26.8</ele>
        <time>2019-12-04T10:48:53Z</time>
      </trkpt>
      <trkpt lat="39.8016492431667" lon="116.49015489611703">
        <ele>26.8</ele>
        <time>2019-12-04T10:48:54Z</time>
      </trkpt>
      <trkpt lat="39.801636666396604" lon="116.49016525422184">
        <ele>26.8</ele>
        <time>2019-12-04T10:48:55Z</time>
      </trkpt>
      <trkpt lat="39.801623719740846" lon="116.49017709207244">
        <ele>26.3</ele>
        <time>2019-12-04T10:48:56Z</time>
      </trkpt>
      <trkpt lat="39.80161040315013" lon="116.49018745020429">
        <ele>26.3</ele>
        <time>2019-12-04T10:48:57Z</time>
      </trkpt>
      <trkpt lat="39.8015967166491" lon="116.49019780834966">
        <ele>26.3</ele>
        <time>2019-12-04T10:48:58Z</time>
      </trkpt>
      <trkpt lat="39.8015826602377" lon="116.4902081664923">
        <ele>26.3</ele>
        <time>2019-12-04T10:48:59Z</time>
      </trkpt>
      <trkpt lat="39.801568233891075" lon="116.49021704489974">
        <ele>26.3</ele>
        <time>2019-12-04T10:49:00Z</time>
      </trkpt>
      <trkpt lat="39.8015534376091" lon="116.49022444357188">
        <ele>26.7</ele>
        <time>2019-12-04T10:49:01Z</time>
      </trkpt>
      <trkpt lat="39.801539381148935" lon="116.49023184223387">
        <ele>26.7</ele>
        <time>2019-12-04T10:49:02Z</time>
      </trkpt>
      <trkpt lat="39.80152754410389" lon="116.49023776118153">
        <ele>26.7</ele>
        <time>2019-12-04T10:49:03Z</time>
      </trkpt>
      <trkpt lat="39.801516816766345" lon="116.49024220038952">
        <ele>26.7</ele>
        <time>2019-12-04T10:49:04Z</time>
      </trkpt>
      <trkpt lat="39.801507199161264" lon="116.49024663960657">
        <ele>26.7</ele>
        <time>2019-12-04T10:49:05Z</time>
      </trkpt>
      <trkpt lat="39.80149795146707" lon="116.49025107882663">
        <ele>26.2</ele>
        <time>2019-12-04T10:49:06Z</time>
      </trkpt>
      <trkpt lat="39.801489073658665" lon="116.49025403830093">
        <ele>26.2</ele>
        <time>2019-12-04T10:49:07Z</time>
      </trkpt>
      <trkpt lat="39.801480195875385" lon="116.49025847750784">
        <ele>26.2</ele>
        <time>2019-12-04T10:49:08Z</time>
      </trkpt>
      <trkpt lat="39.80147131809221" lon="116.49026291671476">
        <ele>26.2</ele>
        <time>2019-12-04T10:49:09Z</time>
      </trkpt>
      <trkpt lat="39.80146207042351" lon="116.49026883566756">
        <ele>26.2</ele>
        <time>2019-12-04T10:49:10Z</time>
      </trkpt>
      <trkpt lat="39.80145245284424" lon="116.49027475463372">
        <ele>26.5</ele>
        <time>2019-12-04T10:49:11Z</time>
      </trkpt>
      <trkpt lat="39.801442465354405" lon="116.4902806736132">
        <ele>26.5</ele>
        <time>2019-12-04T10:49:12Z</time>
      </trkpt>
      <trkpt lat="39.80143247788992" lon="116.49028807232543">
        <ele>26.5</ele>
        <time>2019-12-04T10:49:13Z</time>
      </trkpt>
      <trkpt lat="39.80142212051488" lon="116.49029547103477">
        <ele>26.5</ele>
        <time>2019-12-04T10:49:14Z</time>
      </trkpt>
      <trkpt lat="39.801410653433095" lon="116.49030434948415">
        <ele>26.5</ele>
        <time>2019-12-04T10:49:15Z</time>
      </trkpt>
      <trkpt lat="39.80139844653009" lon="116.49031322792771">
        <ele>26.2</ele>
        <time>2019-12-04T10:49:16Z</time>
      </trkpt>
      <trkpt lat="39.80138623965275" lon="116.4903235861042">
        <ele>26.2</ele>
        <time>2019-12-04T10:49:17Z</time>
      </trkpt>
      <trkpt lat="39.8013736628651" lon="116.49033394429418">
        <ele>26.2</ele>
        <time>2019-12-04T10:49:18Z</time>
      </trkpt>
      <trkpt lat="39.80136108605242" lon="116.49034282275156">
        <ele>26.2</ele>
        <time>2019-12-04T10:49:19Z</time>
      </trkpt>
      <trkpt lat="39.801348879176295" lon="116.49035318094496">
        <ele>26.2</ele>
        <time>2019-12-04T10:49:20Z</time>
      </trkpt>
      <trkpt lat="39.80133667227503" lon="116.4903620594057">
        <ele>26.5</ele>
        <time>2019-12-04T10:49:21Z</time>
      </trkpt>
      <trkpt lat="39.80132483528478" lon="116.49037093785336">
        <ele>26.5</ele>
        <time>2019-12-04T10:49:22Z</time>
      </trkpt>
      <trkpt lat="39.801312998320455" lon="116.49038129603412">
        <ele>26.5</ele>
        <time>2019-12-04T10:49:23Z</time>
      </trkpt>
      <trkpt lat="39.80130005159868" lon="116.49039017448936">
        <ele>26.5</ele>
        <time>2019-12-04T10:49:24Z</time>
      </trkpt>
      <trkpt lat="39.801287104877225" lon="116.49039905294475">
        <ele>26.5</ele>
        <time>2019-12-04T10:49:25Z</time>
      </trkpt>
      <trkpt lat="39.80127526786253" lon="116.49040645166004">
        <ele>25.8</ele>
        <time>2019-12-04T10:49:26Z</time>
      </trkpt>
      <trkpt lat="39.80126417066949" lon="116.49041385036519">
        <ele>25.8</ele>
        <time>2019-12-04T10:49:27Z</time>
      </trkpt>
      <trkpt lat="39.80125344336158" lon="116.49041976932409">
        <ele>25.8</ele>
        <time>2019-12-04T10:49:28Z</time>
      </trkpt>
      <trkpt lat="39.80124271605384" lon="116.49042568828308">
        <ele>25.8</ele>
        <time>2019-12-04T10:49:29Z</time>
      </trkpt>
      <trkpt lat="39.80123235868277" lon="116.49043308696196">
        <ele>25.8</ele>
        <time>2019-12-04T10:49:30Z</time>
      </trkpt>
      <trkpt lat="39.80122126149051" lon="116.49044048565123">
        <ele>26.8</ele>
        <time>2019-12-04T10:49:31Z</time>
      </trkpt>
      <trkpt lat="39.80121016432438" lon="116.49044936407375">
        <ele>26.8</ele>
        <time>2019-12-04T10:49:32Z</time>
      </trkpt>
      <trkpt lat="39.80119869724787" lon="116.49045824250969">
        <ele>26.8</ele>
        <time>2019-12-04T10:49:33Z</time>
      </trkpt>
      <trkpt lat="39.80118723017166" lon="116.49046712094582">
        <ele>26.8</ele>
        <time>2019-12-04T10:49:34Z</time>
      </trkpt>
      <trkpt lat="39.80117650291714" lon="116.49047599937181">
        <ele>26.8</ele>
        <time>2019-12-04T10:49:35Z</time>
      </trkpt>
      <trkpt lat="39.80116577563684" lon="116.4904833980647">
        <ele>25.9</ele>
        <time>2019-12-04T10:49:36Z</time>
      </trkpt>
      <trkpt lat="39.8011546784461" lon="116.49049079677096">
        <ele>25.9</ele>
        <time>2019-12-04T10:49:37Z</time>
      </trkpt>
      <trkpt lat="39.80114284140803" lon="116.49049671573798">
        <ele>25.9</ele>
        <time>2019-12-04T10:49:38Z</time>
      </trkpt>
      <trkpt lat="39.80113137430703" lon="116.49050411445768">
        <ele>25.9</ele>
        <time>2019-12-04T10:49:39Z</time>
      </trkpt>
      <trkpt lat="39.80112027711693" lon="116.49051151316421">
        <ele>25.9</ele>
        <time>2019-12-04T10:49:40Z</time>
      </trkpt>
      <trkpt lat="39.801109549837804" lon="116.49051891189015">
        <ele>26.8</ele>
        <time>2019-12-04T10:49:41Z</time>
      </trkpt>
      <trkpt lat="39.80109956235396" lon="116.49052483085627">
        <ele>26.8</ele>
        <time>2019-12-04T10:49:42Z</time>
      </trkpt>
      <trkpt lat="39.801089944780934" lon="116.49053074980922">
        <ele>26.8</ele>
        <time>2019-12-04T10:49:43Z</time>
      </trkpt>
      <trkpt lat="39.8010806971187" lon="116.49053666874894">
        <ele>26.8</ele>
        <time>2019-12-04T10:49:44Z</time>
      </trkpt>
      <trkpt lat="39.801071819367266" lon="116.49054258767549">
        <ele>26.8</ele>
        <time>2019-12-04T10:49:45Z</time>
      </trkpt>
      <trkpt lat="39.80106294164231" lon="116.4905499863356">
        <ele>25.8</ele>
        <time>2019-12-04T10:49:46Z</time>
      </trkpt>
      <trkpt lat="39.8010544338282" lon="116.49055738498251">
        <ele>25.8</ele>
        <time>2019-12-04T10:49:47Z</time>
      </trkpt>
      <trkpt lat="39.801045926040686" lon="116.49056626336305">
        <ele>25.8</ele>
        <time>2019-12-04T10:49:48Z</time>
      </trkpt>
      <trkpt lat="39.80103778816418" lon="116.49057514176303">
        <ele>25.8</ele>
        <time>2019-12-04T10:49:49Z</time>
      </trkpt>
      <trkpt lat="39.8010285405559" lon="116.49058402017037">
        <ele>25.8</ele>
        <time>2019-12-04T10:49:50Z</time>
      </trkpt>
      <trkpt lat="39.80101855315313" lon="116.49059437833799">
        <ele>26.5</ele>
        <time>2019-12-04T10:49:51Z</time>
      </trkpt>
      <trkpt lat="39.80100782592933" lon="116.49060473649976">
        <ele>26.5</ele>
        <time>2019-12-04T10:49:52Z</time>
      </trkpt>
      <trkpt lat="39.8009970987059" lon="116.49061509466172">
        <ele>26.5</ele>
        <time>2019-12-04T10:49:53Z</time>
      </trkpt>
      <trkpt lat="39.80098600154553" lon="116.49062397310348">
        <ele>26.5</ele>
        <time>2019-12-04T10:49:54Z</time>
      </trkpt>
      <trkpt lat="39.80097453447482" lon="116.49063285155862">
        <ele>26.5</ele>
        <time>2019-12-04T10:49:55Z</time>
      </trkpt>
      <trkpt lat="39.800963067377666" lon="116.49064025028018">
        <ele>25.8</ele>
        <time>2019-12-04T10:49:56Z</time>
      </trkpt>
      <trkpt lat="39.80095123034336" lon="116.49064616928135">
        <ele>25.8</ele>
        <time>2019-12-04T10:49:57Z</time>
      </trkpt>
      <trkpt lat="39.800939393335995" lon="116.49065356801634">
        <ele>25.8</ele>
        <time>2019-12-04T10:49:58Z</time>
      </trkpt>
      <trkpt lat="39.800927186391334" lon="116.49065948699837">
        <ele>25.8</ele>
        <time>2019-12-04T10:49:59Z</time>
      </trkpt>
      <trkpt lat="39.80091497947366" lon="116.49066688571423">
        <ele>25.8</ele>
        <time>2019-12-04T10:50:00Z</time>
      </trkpt>
      <trkpt lat="39.80090314243999" lon="116.49067280468313">
        <ele>26.4</ele>
        <time>2019-12-04T10:50:01Z</time>
      </trkpt>
      <trkpt lat="39.8008916753171" lon="116.49067872363884">
        <ele>26.4</ele>
        <time>2019-12-04T10:50:02Z</time>
      </trkpt>
      <trkpt lat="39.80088020819437" lon="116.49068464259462">
        <ele>26.4</ele>
        <time>2019-12-04T10:50:03Z</time>
      </trkpt>
      <trkpt lat="39.80086800125048" lon="116.49069056154441">
        <ele>26.4</ele>
        <time>2019-12-04T10:50:04Z</time>
      </trkpt>
      <trkpt lat="39.80085616424443" lon="116.49069796024742">
        <ele>26.4</ele>
        <time>2019-12-04T10:50:05Z</time>
      </trkpt>
      <trkpt lat="39.80084432726558" lon="116.49070683868443">
        <ele>25.8</ele>
        <time>2019-12-04T10:50:06Z</time>
      </trkpt>
      <trkpt lat="39.800832490287014" lon="116.49071571712156">
        <ele>25.8</ele>
        <time>2019-12-04T10:50:07Z</time>
      </trkpt>
      <trkpt lat="39.80082176309488" lon="116.49072755505203">
        <ele>25.8</ele>
        <time>2019-12-04T10:50:08Z</time>
      </trkpt>
      <trkpt lat="39.80081103590327" lon="116.49073939301528">
        <ele>25.8</ele>
        <time>2019-12-04T10:50:09Z</time>
      </trkpt>
      <trkpt lat="39.80080067862281" lon="116.49075123099806">
        <ele>25.8</ele>
        <time>2019-12-04T10:50:10Z</time>
      </trkpt>
      <trkpt lat="39.800790691226155" lon="116.4907615892338">
        <ele>26.2</ele>
        <time>2019-12-04T10:50:11Z</time>
      </trkpt>
      <trkpt lat="39.8007807038571" lon="116.49077342720379">
        <ele>26.2</ele>
        <time>2019-12-04T10:50:12Z</time>
      </trkpt>
      <trkpt lat="39.800770716461166" lon="116.4907837854399">
        <ele>26.2</ele>
        <time>2019-12-04T10:50:13Z</time>
      </trkpt>
      <trkpt lat="39.80076109897625" lon="116.49079414369548">
        <ele>26.2</ele>
        <time>2019-12-04T10:50:14Z</time>
      </trkpt>
      <trkpt lat="39.80075185140237" lon="116.49080450197053">
        <ele>26.2</ele>
        <time>2019-12-04T10:50:15Z</time>
      </trkpt>
      <trkpt lat="39.80074223391813" lon="116.49081486022646">
        <ele>25.8</ele>
        <time>2019-12-04T10:50:16Z</time>
      </trkpt>
      <trkpt lat="39.80073298634489" lon="116.49082521850185">
        <ele>25.8</ele>
        <time>2019-12-04T10:50:17Z</time>
      </trkpt>
      <trkpt lat="39.80072336886139" lon="116.49083557679067">
        <ele>25.8</ele>
        <time>2019-12-04T10:50:18Z</time>
      </trkpt>
      <trkpt lat="39.800712271680545" lon="116.49084297556657">
        <ele>25.8</ele>
        <time>2019-12-04T10:50:19Z</time>
      </trkpt>
      <trkpt lat="39.80070080456166" lon="116.490848894589">
        <ele>25.8</ele>
        <time>2019-12-04T10:50:20Z</time>
      </trkpt>
      <trkpt lat="39.800688967559935" lon="116.49085629335899">
        <ele>26</ele>
        <time>2019-12-04T10:50:21Z</time>
      </trkpt>
      <trkpt lat="39.80067639073717" lon="116.49086369212304">
        <ele>26</ele>
        <time>2019-12-04T10:50:22Z</time>
      </trkpt>
      <trkpt lat="39.80066307406576" lon="116.4908696111468">
        <ele>26</ele>
        <time>2019-12-04T10:50:23Z</time>
      </trkpt>
      <trkpt lat="39.8006501273051" lon="116.4908755301574">
        <ele>26</ele>
        <time>2019-12-04T10:50:24Z</time>
      </trkpt>
      <trkpt lat="39.80063718051684" lon="116.49087996940113">
        <ele>26</ele>
        <time>2019-12-04T10:50:25Z</time>
      </trkpt>
      <trkpt lat="39.80062423372872" lon="116.49088440864496">
        <ele>25.7</ele>
        <time>2019-12-04T10:50:26Z</time>
      </trkpt>
      <trkpt lat="39.80061165682361" lon="116.49088736814114">
        <ele>25.7</ele>
        <time>2019-12-04T10:50:27Z</time>
      </trkpt>
      <trkpt lat="39.80059834009737" lon="116.49089032763133">
        <ele>25.7</ele>
        <time>2019-12-04T10:50:28Z</time>
      </trkpt>
      <trkpt lat="39.80058428357777" lon="116.49089476684985">
        <ele>25.7</ele>
        <time>2019-12-04T10:50:29Z</time>
      </trkpt>
      <trkpt lat="39.80056985714775" lon="116.49089920608164">
        <ele>25.7</ele>
        <time>2019-12-04T10:50:30Z</time>
      </trkpt>
      <trkpt lat="39.80055469092445" lon="116.4909051250418">
        <ele>25.8</ele>
        <time>2019-12-04T10:50:31Z</time>
      </trkpt>
      <trkpt lat="39.8005398946119" lon="116.49091104398876">
        <ele>25.8</ele>
        <time>2019-12-04T10:50:32Z</time>
      </trkpt>
      <trkpt lat="39.80052583812075" lon="116.49091696294181">
        <ele>25.8</ele>
        <time>2019-12-04T10:50:33Z</time>
      </trkpt>
      <trkpt lat="39.80051326132794" lon="116.49092584140838">
        <ele>25.8</ele>
        <time>2019-12-04T10:50:34Z</time>
      </trkpt>
      <trkpt lat="39.80050031465274" lon="116.49093619962278">
        <ele>25.8</ele>
        <time>2019-12-04T10:50:35Z</time>
      </trkpt>
      <trkpt lat="39.80048773791646" lon="116.49094803759112">
        <ele>25.7</ele>
        <time>2019-12-04T10:50:36Z</time>
      </trkpt>
      <trkpt lat="39.80047516118061" lon="116.49095987555965">
        <ele>25.7</ele>
        <time>2019-12-04T10:50:37Z</time>
      </trkpt>
      <trkpt lat="39.800462584473316" lon="116.49097319329546">
        <ele>25.7</ele>
        <time>2019-12-04T10:50:38Z</time>
      </trkpt>
      <trkpt lat="39.8004507475877" lon="116.49098651103759">
        <ele>25.7</ele>
        <time>2019-12-04T10:50:39Z</time>
      </trkpt>
      <trkpt lat="39.800440020434394" lon="116.49099982880533">
        <ele>25.7</ele>
        <time>2019-12-04T10:50:40Z</time>
      </trkpt>
      <trkpt lat="39.80043040304154" lon="116.49101462633327">
        <ele>26.1</ele>
        <time>2019-12-04T10:50:41Z</time>
      </trkpt>
      <trkpt lat="39.80042152547043" lon="116.49102942386757">
        <ele>26.1</ele>
        <time>2019-12-04T10:50:42Z</time>
      </trkpt>
      <trkpt lat="39.80041227798937" lon="116.49104422141545">
        <ele>26.1</ele>
        <time>2019-12-04T10:50:43Z</time>
      </trkpt>
      <trkpt lat="39.8004026606267" lon="116.49106049871163">
        <ele>26.1</ele>
        <time>2019-12-04T10:50:44Z</time>
      </trkpt>
      <trkpt lat="39.80039267329722" lon="116.49107381648682">
        <ele>26.1</ele>
        <time>2019-12-04T10:50:45Z</time>
      </trkpt>
      <trkpt lat="39.80038268596822" lon="116.49108713426224">
        <ele>25.4</ele>
        <time>2019-12-04T10:50:46Z</time>
      </trkpt>
      <trkpt lat="39.800372328700604" lon="116.49109897228378">
        <ele>25.4</ele>
        <time>2019-12-04T10:50:47Z</time>
      </trkpt>
      <trkpt lat="39.80036197146191" lon="116.49111229004038">
        <ele>25.4</ele>
        <time>2019-12-04T10:50:48Z</time>
      </trkpt>
      <trkpt lat="39.800351244284506" lon="116.49112412804307">
        <ele>25.4</ele>
        <time>2019-12-04T10:50:49Z</time>
      </trkpt>
      <trkpt lat="39.80034014719689" lon="116.4911359660266">
        <ele>25.4</ele>
        <time>2019-12-04T10:50:50Z</time>
      </trkpt>
      <trkpt lat="39.800329050080926" lon="116.49114632424289">
        <ele>26.1</ele>
        <time>2019-12-04T10:50:51Z</time>
      </trkpt>
      <trkpt lat="39.80031795296527" lon="116.49115668245932">
        <ele>26.1</ele>
        <time>2019-12-04T10:50:52Z</time>
      </trkpt>
      <trkpt lat="39.800306855849946" lon="116.49116704067589">
        <ele>26.1</ele>
        <time>2019-12-04T10:50:53Z</time>
      </trkpt>
      <trkpt lat="39.80029575867734" lon="116.4911744393901">
        <ele>26.1</ele>
        <time>2019-12-04T10:50:54Z</time>
      </trkpt>
      <trkpt lat="39.80028429156557" lon="116.4911803583501">
        <ele>26.1</ele>
        <time>2019-12-04T10:50:55Z</time>
      </trkpt>
      <trkpt lat="39.80027245457223" lon="116.49118775705837">
        <ele>25.1</ele>
        <time>2019-12-04T10:50:56Z</time>
      </trkpt>
      <trkpt lat="39.80026024766859" lon="116.49119515577995">
        <ele>25.1</ele>
        <time>2019-12-04T10:50:57Z</time>
      </trkpt>
      <trkpt lat="39.80024693103357" lon="116.49120255450877">
        <ele>25.1</ele>
        <time>2019-12-04T10:50:58Z</time>
      </trkpt>
      <trkpt lat="39.8002336143699" lon="116.49120847350262">
        <ele>25.1</ele>
        <time>2019-12-04T10:50:59Z</time>
      </trkpt>
      <trkpt lat="39.80022103749852" lon="116.491212912735">
        <ele>25.1</ele>
        <time>2019-12-04T10:51:00Z</time>
      </trkpt>
      <trkpt lat="39.80020883047999" lon="116.49121439248407">
        <ele>25.8</ele>
        <time>2019-12-04T10:51:01Z</time>
      </trkpt>
      <trkpt lat="39.800196623432655" lon="116.4912143924981">
        <ele>25.8</ele>
        <time>2019-12-04T10:51:02Z</time>
      </trkpt>
      <trkpt lat="39.80018478623804" lon="116.49121143299627">
        <ele>25.8</ele>
        <time>2019-12-04T10:51:03Z</time>
      </trkpt>
      <trkpt lat="39.80017368880678" lon="116.49120551399788">
        <ele>25.8</ele>
        <time>2019-12-04T10:51:04Z</time>
      </trkpt>
      <trkpt lat="39.8001640710466" lon="116.49120107474668">
        <ele>25.8</ele>
        <time>2019-12-04T10:51:05Z</time>
      </trkpt>
      <trkpt lat="39.80015593289971" lon="116.49119515574007">
        <ele>25.8</ele>
        <time>2019-12-04T10:51:06Z</time>
      </trkpt>
      <trkpt lat="39.80014853454521" lon="116.49118775700461">
        <ele>25.8</ele>
        <time>2019-12-04T10:51:07Z</time>
      </trkpt>
      <trkpt lat="39.80014261580409" lon="116.4911788785138">
        <ele>25.8</ele>
        <time>2019-12-04T10:51:08Z</time>
      </trkpt>
      <trkpt lat="39.80013854664457" lon="116.49117147978944">
        <ele>25.8</ele>
        <time>2019-12-04T10:51:09Z</time>
      </trkpt>
      <trkpt lat="39.800135217306234" lon="116.49116408107122">
        <ele>25.8</ele>
        <time>2019-12-04T10:51:10Z</time>
      </trkpt>
      <trkpt lat="39.80013188796802" lon="116.49115668235308">
        <ele>25.8</ele>
        <time>2019-12-04T10:51:11Z</time>
      </trkpt>
      <trkpt lat="39.800128928540424" lon="116.49114928362177">
        <ele>25.8</ele>
        <time>2019-12-04T10:51:12Z</time>
      </trkpt>
      <trkpt lat="39.80012596914159" lon="116.49114336462543">
        <ele>25.8</ele>
        <time>2019-12-04T10:51:13Z</time>
      </trkpt>
      <trkpt lat="39.80012337965331" lon="116.4911374456159">
        <ele>25.8</ele>
        <time>2019-12-04T10:51:14Z</time>
      </trkpt>
      <trkpt lat="39.800121160104275" lon="116.4911330063606">
        <ele>25.8</ele>
        <time>2019-12-04T10:51:15Z</time>
      </trkpt>
      <trkpt lat="39.80011894052662" lon="116.49112708733793">
        <ele>25.7</ele>
        <time>2019-12-04T10:51:16Z</time>
      </trkpt>
      <trkpt lat="39.800116720977705" lon="116.4911226480827">
        <ele>25.7</ele>
        <time>2019-12-04T10:51:17Z</time>
      </trkpt>
      <trkpt lat="39.800115241221235" lon="116.49111672906616">
        <ele>25.7</ele>
        <time>2019-12-04T10:51:18Z</time>
      </trkpt>
      <trkpt lat="39.80011413134681" lon="116.49110933030161">
        <ele>25.7</ele>
        <time>2019-12-04T10:51:19Z</time>
      </trkpt>
      <trkpt lat="39.80010784278232" lon="116.49110489099691">
        <ele>25.7</ele>
        <time>2019-12-04T10:51:20Z</time>
      </trkpt>
      <trkpt lat="39.8001078424681" lon="116.49108861355629">
        <ele>0</ele>
        <time>2019-12-04T10:51:21Z</time>
      </trkpt>
      <trkpt lat="39.8001078424681" lon="116.49108861355629">
        <ele>0</ele>
        <time>2019-12-04T10:51:22Z</time>
      </trkpt>
      <trkpt lat="39.80011191117075" lon="116.49107233632823">
        <ele>0</ele>
        <time>2019-12-04T10:51:23Z</time>
      </trkpt>
    </trkseg>
  </trk>
</gpx>