<?xml version="1.0" encoding="UTF-8"?>
<gpx xmlns="http://www.topografix.com/GPX/1/1" xmlns:gpxtpx="http://www.garmin.com/xmlschemas/TrackPointExtension/v1" xmlns:xsi="http://www.w3.org/2001/XMLSchema-instance" xsi:schemaLocation="http://www.topografix.com/GPX/1/1 http://www.topografix.com/GPX/1/1/gpx.xsd" version="1.1" creator="gpx.py -- https://github.com/tkrajina/gpxpy">
  <trk>
    <name>gpx from codoon</name>
    <type>Run</type>
    <trkseg>
      <trkpt lat="39.917667651338505" lon="116.644919214019">
        <ele>43.235538482666016</ele>
        <time>2018-05-14T12:40:46Z</time>
      </trkpt>
      <trkpt lat="39.91764054075318" lon="116.64498305154316">
        <ele>49.999324798583984</ele>
        <time>2018-05-14T12:40:47Z</time>
      </trkpt>
      <trkpt lat="39.917714387401446" lon="116.64506881956946">
        <ele>40.161685943603516</ele>
        <time>2018-05-14T12:40:48Z</time>
      </trkpt>
      <trkpt lat="39.917792256496945" lon="116.64514162067054">
        <ele>33.32291793823242</ele>
        <time>2018-05-14T12:40:55Z</time>
      </trkpt>
      <trkpt lat="39.91789314903613" lon="116.64520045518124">
        <ele>38.70086669921875</ele>
        <time>2018-05-14T12:40:57Z</time>
      </trkpt>
      <trkpt lat="39.9179251004395" lon="116.64522738116345">
        <ele>37.313899993896484</ele>
        <time>2018-05-14T12:40:59Z</time>
      </trkpt>
      <trkpt lat="39.91798105782317" lon="116.64525031457964">
        <ele>45.4273681640625</ele>
        <time>2018-05-14T12:41:02Z</time>
      </trkpt>
      <trkpt lat="39.91805691627931" lon="116.64532910003187">
        <ele>51.082210540771484</ele>
        <time>2018-05-14T12:41:04Z</time>
      </trkpt>
      <trkpt lat="39.918884791320686" lon="116.6476339342484">
        <ele>48.272884368896484</ele>
        <time>2018-05-14T12:42:27Z</time>
      </trkpt>
      <trkpt lat="39.91896134445549" lon="116.64788126747776">
        <ele>37.87841796875</ele>
        <time>2018-05-14T12:42:38Z</time>
      </trkpt>
      <trkpt lat="39.91899800243198" lon="116.64807075851179">
        <ele>49.1397819519043</ele>
        <time>2018-05-14T12:42:47Z</time>
      </trkpt>
      <trkpt lat="39.91901173269376" lon="116.64822035805804">
        <ele>25.286235809326172</ele>
        <time>2018-05-14T12:42:52Z</time>
      </trkpt>
      <trkpt lat="39.918990658156694" lon="116.64826224890605">
        <ele>28.678993225097656</ele>
        <time>2018-05-14T12:42:54Z</time>
      </trkpt>
      <trkpt lat="39.91896556400019" lon="116.64831511093385">
        <ele>33.91549301147461</ele>
        <time>2018-05-14T12:42:56Z</time>
      </trkpt>
      <trkpt lat="39.91896842548714" lon="116.6483919055676">
        <ele>38.122276306152344</ele>
        <time>2018-05-14T12:42:58Z</time>
      </trkpt>
      <trkpt lat="39.91896034311107" lon="116.6484377840266">
        <ele>34.705848693847656</ele>
        <time>2018-05-14T12:43:00Z</time>
      </trkpt>
      <trkpt lat="39.91900123166226" lon="116.64849861646448">
        <ele>37.71769714355469</ele>
        <time>2018-05-14T12:43:02Z</time>
      </trkpt>
      <trkpt lat="39.91902314795955" lon="116.64854449115164">
        <ele>41.42177963256836</ele>
        <time>2018-05-14T12:43:06Z</time>
      </trkpt>
      <trkpt lat="39.919050019001524" lon="116.64861529850673">
        <ele>40.38751983642578</ele>
        <time>2018-05-14T12:43:09Z</time>
      </trkpt>
      <trkpt lat="39.919024775011344" lon="116.64875093863076">
        <ele>42.46675491333008</ele>
        <time>2018-05-14T12:43:11Z</time>
      </trkpt>
      <trkpt lat="39.91899938817323" lon="116.64896536721368">
        <ele>28.677112579345703</ele>
        <time>2018-05-14T12:43:16Z</time>
      </trkpt>
      <trkpt lat="39.91895795074898" lon="116.6492077218975">
        <ele>19.972524642944336</ele>
        <time>2018-05-14T12:43:21Z</time>
      </trkpt>
      <trkpt lat="39.91895354360799" lon="116.64943211924287">
        <ele>24.772722244262695</ele>
        <time>2018-05-14T12:43:23Z</time>
      </trkpt>
      <trkpt lat="39.91894029763874" lon="116.64956775581872">
        <ele>19.04751205444336</ele>
        <time>2018-05-14T12:43:26Z</time>
      </trkpt>
      <trkpt lat="39.918933078406454" lon="116.64968843163562">
        <ele>30.584184646606445</ele>
        <time>2018-05-14T12:43:28Z</time>
      </trkpt>
      <trkpt lat="39.918915952035924" lon="116.64975824555873">
        <ele>29.25341033935547</ele>
        <time>2018-05-14T12:43:30Z</time>
      </trkpt>
      <trkpt lat="39.91890579078722" lon="116.64984700742409">
        <ele>21.8887939453125</ele>
        <time>2018-05-14T12:43:32Z</time>
      </trkpt>
      <trkpt lat="39.91891362868254" lon="116.6499357669406">
        <ele>21.53559112548828</ele>
        <time>2018-05-14T12:43:37Z</time>
      </trkpt>
      <trkpt lat="39.9189145504468" lon="116.64997865105265">
        <ele>13.916816711425781</ele>
        <time>2018-05-14T12:43:39Z</time>
      </trkpt>
      <trkpt lat="39.91889954562028" lon="116.64998164481408">
        <ele>8.2738037109375</ele>
        <time>2018-05-14T12:43:43Z</time>
      </trkpt>
      <trkpt lat="39.918821577993945" lon="116.64996569745853">
        <ele>12.646904945373535</ele>
        <time>2018-05-14T12:43:45Z</time>
      </trkpt>
      <trkpt lat="39.91872953457078" lon="116.64999163873206">
        <ele>20.254669189453125</ele>
        <time>2018-05-14T12:43:50Z</time>
      </trkpt>
      <trkpt lat="39.91849921481052" lon="116.65017217924539">
        <ele>32.131534576416016</ele>
        <time>2018-05-14T12:43:57Z</time>
      </trkpt>
      <trkpt lat="39.918302936978044" lon="116.65032877979161">
        <ele>38.03959274291992</ele>
        <time>2018-05-14T12:44:07Z</time>
      </trkpt>
      <trkpt lat="39.918118800656416" lon="116.65040758910077">
        <ele>36.12594223022461</ele>
        <time>2018-05-14T12:44:09Z</time>
      </trkpt>
      <trkpt lat="39.91806496886781" lon="116.6503168413612">
        <ele>33.658084869384766</ele>
        <time>2018-05-14T12:44:11Z</time>
      </trkpt>
      <trkpt lat="39.91799817031574" lon="116.65020814361309">
        <ele>32.250003814697266</ele>
        <time>2018-05-14T12:44:15Z</time>
      </trkpt>
      <trkpt lat="39.91791029604011" lon="116.65014133503803">
        <ele>44.59653091430664</ele>
        <time>2018-05-14T12:44:17Z</time>
      </trkpt>
      <trkpt lat="39.91781638738141" lon="116.65009347592509">
        <ele>51.703121185302734</ele>
        <time>2018-05-14T12:44:19Z</time>
      </trkpt>
      <trkpt lat="39.91773838702691" lon="116.65009548010012">
        <ele>49.24655532836914</ele>
        <time>2018-05-14T12:44:23Z</time>
      </trkpt>
      <trkpt lat="39.91760939428314" lon="116.65009449861246">
        <ele>42.12275695800781</ele>
        <time>2018-05-14T12:44:25Z</time>
      </trkpt>
      <trkpt lat="39.91749641542786" lon="116.65008553671885">
        <ele>76.7416763305664</ele>
        <time>2018-05-14T12:44:29Z</time>
      </trkpt>
      <trkpt lat="39.91741448621967" lon="116.65004864645536">
        <ele>74.58688354492188</ele>
        <time>2018-05-14T12:44:31Z</time>
      </trkpt>
      <trkpt lat="39.91740550479469" lon="116.6500386744958">
        <ele>77.53961944580078</ele>
        <time>2018-05-14T12:44:34Z</time>
      </trkpt>
      <trkpt lat="39.91738450386091" lon="116.65003967437708">
        <ele>76.44601440429688</ele>
        <time>2018-05-14T12:44:37Z</time>
      </trkpt>
      <trkpt lat="39.91732350825348" lon="116.65003868455015">
        <ele>69.06623077392578</ele>
        <time>2018-05-14T12:44:39Z</time>
      </trkpt>
      <trkpt lat="39.917248524153855" lon="116.65003171260092">
        <ele>63.87374496459961</ele>
        <time>2018-05-14T12:44:41Z</time>
      </trkpt>
      <trkpt lat="39.917127316305944" lon="116.65014841218043">
        <ele>59.705474853515625</ele>
        <time>2018-05-14T12:44:44Z</time>
      </trkpt>
      <trkpt lat="39.91702396170606" lon="116.65034489345067">
        <ele>60.948673248291016</ele>
        <time>2018-05-14T12:45:03Z</time>
      </trkpt>
      <trkpt lat="39.91698056210274" lon="116.65056430453004">
        <ele>54.26237869262695</ele>
        <time>2018-05-14T12:45:09Z</time>
      </trkpt>
      <trkpt lat="39.917002436979686" lon="116.65063211800354">
        <ele>46.03546905517578</ele>
        <time>2018-05-14T12:45:13Z</time>
      </trkpt>
      <trkpt lat="39.917025454275795" lon="116.6506221422215">
        <ele>59.95595932006836</ele>
        <time>2018-05-14T12:45:19Z</time>
      </trkpt>
      <trkpt lat="39.917008537181665" lon="116.65057726595873">
        <ele>61.15367889404297</ele>
        <time>2018-05-14T12:45:21Z</time>
      </trkpt>
      <trkpt lat="39.916955574114176" lon="116.65055832381219">
        <ele>59.43571090698242</ele>
        <time>2018-05-14T12:45:23Z</time>
      </trkpt>
      <trkpt lat="39.916860563519506" lon="116.6505663138404">
        <ele>57.17300033569336</ele>
        <time>2018-05-14T12:45:30Z</time>
      </trkpt>
      <trkpt lat="39.916753527865936" lon="116.65058826749627">
        <ele>49.092594146728516</ele>
        <time>2018-05-14T12:45:35Z</time>
      </trkpt>
      <trkpt lat="39.91662149143846" lon="116.65061122150624">
        <ele>48.31650924682617</ele>
        <time>2018-05-14T12:45:37Z</time>
      </trkpt>
      <trkpt lat="39.916507439630706" lon="116.65064215166767">
        <ele>50.71038818359375</ele>
        <time>2018-05-14T12:45:43Z</time>
      </trkpt>
      <trkpt lat="39.916347333107886" lon="116.65070400360274">
        <ele>50.33371353149414</ele>
        <time>2018-05-14T12:45:45Z</time>
      </trkpt>
      <trkpt lat="39.9162262011211" lon="116.65077881550816">
        <ele>41.84055709838867</ele>
        <time>2018-05-14T12:45:50Z</time>
      </trkpt>
      <trkpt lat="39.916098131559984" lon="116.65081972022868">
        <ele>42.774227142333984</ele>
        <time>2018-05-14T12:45:53Z</time>
      </trkpt>
      <trkpt lat="39.916014124143416" lon="116.65082571428741">
        <ele>40.71662902832031</ele>
        <time>2018-05-14T12:45:56Z</time>
      </trkpt>
      <trkpt lat="39.915934167770494" lon="116.6508037836528">
        <ele>38.87973403930664</ele>
        <time>2018-05-14T12:45:58Z</time>
      </trkpt>
      <trkpt lat="39.915866203569614" lon="116.65078584071225">
        <ele>37.34113311767578</ele>
        <time>2018-05-14T12:46:00Z</time>
      </trkpt>
      <trkpt lat="39.915789258030664" lon="116.65075792593106">
        <ele>38.35609436035156</ele>
        <time>2018-05-14T12:46:02Z</time>
      </trkpt>
      <trkpt lat="39.91575929769428" lon="116.65073698643322">
        <ele>48.498226165771484</ele>
        <time>2018-05-14T12:46:05Z</time>
      </trkpt>
      <trkpt lat="39.915726317373384" lon="116.6507270175361">
        <ele>56.85380172729492</ele>
        <time>2018-05-14T12:46:07Z</time>
      </trkpt>
      <trkpt lat="39.91568332833629" lon="116.65072203633667">
        <ele>54.43785858154297</ele>
        <time>2018-05-14T12:46:11Z</time>
      </trkpt>
      <trkpt lat="39.91559235047405" lon="116.6507120745496">
        <ele>61.194305419921875</ele>
        <time>2018-05-14T12:46:13Z</time>
      </trkpt>
      <trkpt lat="39.915501376267" lon="116.65070011817083">
        <ele>67.9796371459961</ele>
        <time>2018-05-14T12:46:15Z</time>
      </trkpt>
      <trkpt lat="39.915427348336266" lon="116.65071708125734">
        <ele>62.1597785949707</ele>
        <time>2018-05-14T12:46:18Z</time>
      </trkpt>
      <trkpt lat="39.91536430348321" lon="116.6507430186388">
        <ele>54.89873123168945</ele>
        <time>2018-05-14T12:46:21Z</time>
      </trkpt>
      <trkpt lat="39.914027771050804" lon="116.65106431035414">
        <ele>46.73619842529297</ele>
        <time>2018-05-14T12:47:07Z</time>
      </trkpt>
      <trkpt lat="39.91395784180969" lon="116.6510274192393">
        <ele>47.745628356933594</ele>
        <time>2018-05-14T12:47:09Z</time>
      </trkpt>
      <trkpt lat="39.91298933135086" lon="116.65132772134247">
        <ele>44.137413024902344</ele>
        <time>2018-05-14T12:47:46Z</time>
      </trkpt>
      <trkpt lat="39.91232604763667" lon="116.65149734079364">
        <ele>21.792184829711914</ele>
        <time>2018-05-14T12:48:10Z</time>
      </trkpt>
      <trkpt lat="39.912118916876615" lon="116.65157315955135">
        <ele>22.328590393066406</ele>
        <time>2018-05-14T12:48:21Z</time>
      </trkpt>
      <trkpt lat="39.91190498854417" lon="116.65153927824893">
        <ele>22.76024055480957</ele>
        <time>2018-05-14T12:48:25Z</time>
      </trkpt>
      <trkpt lat="39.91178911660999" lon="116.65147247460348">
        <ele>15.926188468933105</ele>
        <time>2018-05-14T12:48:31Z</time>
      </trkpt>
      <trkpt lat="39.91169314828453" lon="116.65145752714193">
        <ele>19.407941818237305</ele>
        <time>2018-05-14T12:48:34Z</time>
      </trkpt>
      <trkpt lat="39.91167004090002" lon="116.65151636960006">
        <ele>15.711437225341797</ele>
        <time>2018-05-14T12:48:36Z</time>
      </trkpt>
      <trkpt lat="39.91163493766758" lon="116.65157321891247">
        <ele>16.638668060302734</ele>
        <time>2018-05-14T12:48:38Z</time>
      </trkpt>
      <trkpt lat="39.911620897834794" lon="116.65159516079859">
        <ele>14.004290580749512</ele>
        <time>2018-05-14T12:48:40Z</time>
      </trkpt>
      <trkpt lat="39.911629788982324" lon="116.65165399920058">
        <ele>28.83740234375</ele>
        <time>2018-05-14T12:48:42Z</time>
      </trkpt>
      <trkpt lat="39.91164666687067" lon="116.65171981751331">
        <ele>30.85824203491211</ele>
        <time>2018-05-14T12:48:46Z</time>
      </trkpt>
      <trkpt lat="39.91166748564577" lon="116.6518175481269">
        <ele>36.10353469848633</ele>
        <time>2018-05-14T12:48:48Z</time>
      </trkpt>
      <trkpt lat="39.91169636842129" lon="116.65188037296788">
        <ele>39.91913604736328</ele>
        <time>2018-05-14T12:48:50Z</time>
      </trkpt>
      <trkpt lat="39.91170826109328" lon="116.65193821345756">
        <ele>32.74615478515625</ele>
        <time>2018-05-14T12:48:52Z</time>
      </trkpt>
      <trkpt lat="39.91173516229607" lon="116.65199106568478">
        <ele>25.53067970275879</ele>
        <time>2018-05-14T12:48:54Z</time>
      </trkpt>
      <trkpt lat="39.9117969679529" lon="116.65209477448059">
        <ele>25.192392349243164</ele>
        <time>2018-05-14T12:48:56Z</time>
      </trkpt>
      <trkpt lat="39.91188771505344" lon="116.65222939493196">
        <ele>23.644136428833008</ele>
        <time>2018-05-14T12:49:03Z</time>
      </trkpt>
      <trkpt lat="39.91196842914776" lon="116.65238196714975">
        <ele>27.881683349609375</ele>
        <time>2018-05-14T12:49:07Z</time>
      </trkpt>
      <trkpt lat="39.912023230970846" lon="116.65248767070354">
        <ele>36.53969192504883</ele>
        <time>2018-05-14T12:49:09Z</time>
      </trkpt>
      <trkpt lat="39.91206915692071" lon="116.65252655842953">
        <ele>46.71945571899414</ele>
        <time>2018-05-14T12:49:13Z</time>
      </trkpt>
      <trkpt lat="39.91210820884263" lon="116.65249763293632">
        <ele>64.00244903564453</ele>
        <time>2018-05-14T12:49:15Z</time>
      </trkpt>
      <trkpt lat="39.91217428176853" lon="116.65245673691919">
        <ele>44.64802932739258</ele>
        <time>2018-05-14T12:49:19Z</time>
      </trkpt>
      <trkpt lat="39.91224325478892" lon="116.65246969291906">
        <ele>49.714298248291016</ele>
        <time>2018-05-14T12:49:23Z</time>
      </trkpt>
      <trkpt lat="39.912323129386806" lon="116.65253550265645">
        <ele>52.27402114868164</ele>
        <time>2018-05-14T12:49:26Z</time>
      </trkpt>
      <trkpt lat="39.912374949662976" lon="116.65263123368901">
        <ele>51.94282913208008</ele>
        <time>2018-05-14T12:49:28Z</time>
      </trkpt>
      <trkpt lat="39.91243182328569" lon="116.65269804334865">
        <ele>54.59816360473633</ele>
        <time>2018-05-14T12:49:30Z</time>
      </trkpt>
      <trkpt lat="39.91248671360446" lon="116.65275587782762">
        <ele>60.648162841796875</ele>
        <time>2018-05-14T12:49:32Z</time>
      </trkpt>
      <trkpt lat="39.91254663884736" lon="116.65279476367631">
        <ele>59.803592681884766</ele>
        <time>2018-05-14T12:49:34Z</time>
      </trkpt>
      <trkpt lat="39.912599545859294" lon="116.65284362296964">
        <ele>55.92634963989258</ele>
        <time>2018-05-14T12:49:37Z</time>
      </trkpt>
      <trkpt lat="39.91265143992454" lon="116.6528994631698">
        <ele>53.994266510009766</ele>
        <time>2018-05-14T12:49:39Z</time>
      </trkpt>
      <trkpt lat="39.91270732452258" lon="116.65296028912789">
        <ele>51.75093460083008</ele>
        <time>2018-05-14T12:49:41Z</time>
      </trkpt>
      <trkpt lat="39.91282505070272" lon="116.65310487705544">
        <ele>54.65393829345703</ele>
        <time>2018-05-14T12:49:45Z</time>
      </trkpt>
      <trkpt lat="39.91293678064013" lon="116.65324747090122">
        <ele>73.98108673095703</ele>
        <time>2018-05-14T12:49:51Z</time>
      </trkpt>
      <trkpt lat="39.91303552207345" lon="116.65338408252856">
        <ele>68.90348815917969</ele>
        <time>2018-05-14T12:49:53Z</time>
      </trkpt>
      <trkpt lat="39.91307144252606" lon="116.65342596271785">
        <ele>66.94649505615234</ele>
        <time>2018-05-14T12:49:55Z</time>
      </trkpt>
      <trkpt lat="39.91311137951138" lon="116.65345886712541">
        <ele>64.44629669189453</ele>
        <time>2018-05-14T12:49:57Z</time>
      </trkpt>
      <trkpt lat="39.91314935001724" lon="116.65347382123682">
        <ele>62.072696685791016</ele>
        <time>2018-05-14T12:49:59Z</time>
      </trkpt>
      <trkpt lat="39.91319032225097" lon="116.65348777772539">
        <ele>61.8861083984375</ele>
        <time>2018-05-14T12:50:01Z</time>
      </trkpt>
      <trkpt lat="39.91323628869437" lon="116.65350472535091">
        <ele>59.754940032958984</ele>
        <time>2018-05-14T12:50:03Z</time>
      </trkpt>
      <trkpt lat="39.913283236507326" lon="116.65353164535767">
        <ele>59.865360260009766</ele>
        <time>2018-05-14T12:50:05Z</time>
      </trkpt>
      <trkpt lat="39.91332818439894" lon="116.65355856559945">
        <ele>58.17689514160156</ele>
        <time>2018-05-14T12:50:07Z</time>
      </trkpt>
      <trkpt lat="39.913375119184344" lon="116.65359246633483">
        <ele>57.93471908569336</ele>
        <time>2018-05-14T12:50:09Z</time>
      </trkpt>
      <trkpt lat="39.91342502593712" lon="116.6536413254249">
        <ele>59.528480529785156</ele>
        <time>2018-05-14T12:50:13Z</time>
      </trkpt>
      <trkpt lat="39.913474886161055" lon="116.65371511568902">
        <ele>60.952964782714844</ele>
        <time>2018-05-14T12:50:15Z</time>
      </trkpt>
      <trkpt lat="39.91352170923732" lon="116.65380885118398">
        <ele>61.751861572265625</ele>
        <time>2018-05-14T12:50:17Z</time>
      </trkpt>
      <trkpt lat="39.91356752296104" lon="116.65390757290615">
        <ele>61.67320251464844</ele>
        <time>2018-05-14T12:50:19Z</time>
      </trkpt>
      <trkpt lat="39.913624358479225" lon="116.65399432621231">
        <ele>61.627891540527344</ele>
        <time>2018-05-14T12:50:21Z</time>
      </trkpt>
      <trkpt lat="39.91368524780332" lon="116.65405215886844">
        <ele>61.58161926269531</ele>
        <time>2018-05-14T12:50:23Z</time>
      </trkpt>
      <trkpt lat="39.9137461781047" lon="116.65408805213616">
        <ele>61.61019515991211</ele>
        <time>2018-05-14T12:50:25Z</time>
      </trkpt>
      <trkpt lat="39.91379714424026" lon="116.65410499900399">
        <ele>61.671051025390625</ele>
        <time>2018-05-14T12:50:27Z</time>
      </trkpt>
      <trkpt lat="39.91384011444328" lon="116.65411995236487">
        <ele>61.70877456665039</ele>
        <time>2018-05-14T12:50:29Z</time>
      </trkpt>
      <trkpt lat="39.913884077144324" lon="116.65413889456909">
        <ele>61.645545959472656</ele>
        <time>2018-05-14T12:50:31Z</time>
      </trkpt>
      <trkpt lat="39.91393101920351" lon="116.65416880606146">
        <ele>61.6094856262207</ele>
        <time>2018-05-14T12:50:33Z</time>
      </trkpt>
      <trkpt lat="39.91398294985156" lon="116.65420470037624">
        <ele>61.606929779052734</ele>
        <time>2018-05-14T12:50:35Z</time>
      </trkpt>
      <trkpt lat="39.91403189367302" lon="116.65423361435508">
        <ele>61.62240219116211</ele>
        <time>2018-05-14T12:50:37Z</time>
      </trkpt>
      <trkpt lat="39.91408183557887" lon="116.6542635254403">
        <ele>61.48063659667969</ele>
        <time>2018-05-14T12:50:41Z</time>
      </trkpt>
      <trkpt lat="39.91412779070783" lon="116.6542864563228">
        <ele>61.467926025390625</ele>
        <time>2018-05-14T12:50:43Z</time>
      </trkpt>
      <trkpt lat="39.91418174735724" lon="116.65430838897593">
        <ele>61.361351013183594</ele>
        <time>2018-05-14T12:50:45Z</time>
      </trkpt>
      <trkpt lat="39.91423370035548" lon="116.6543323163474">
        <ele>61.333683013916016</ele>
        <time>2018-05-14T12:50:47Z</time>
      </trkpt>
      <trkpt lat="39.91430263955953" lon="116.65436322229888">
        <ele>61.186927795410156</ele>
        <time>2018-05-14T12:50:51Z</time>
      </trkpt>
      <trkpt lat="39.91437657107542" lon="116.65439811657868">
        <ele>61.05192184448242</ele>
        <time>2018-05-14T12:50:53Z</time>
      </trkpt>
      <trkpt lat="39.914445499059596" lon="116.65443500593244">
        <ele>60.95479965209961</ele>
        <time>2018-05-14T12:50:55Z</time>
      </trkpt>
      <trkpt lat="39.91450338081096" lon="116.65449682755896">
        <ele>60.82094192504883</ele>
        <time>2018-05-14T12:50:57Z</time>
      </trkpt>
      <trkpt lat="39.91454424456876" lon="116.65456862358755">
        <ele>60.76948547363281</ele>
        <time>2018-05-14T12:50:59Z</time>
      </trkpt>
      <trkpt lat="39.91457912535604" lon="116.65463144516404">
        <ele>60.67901611328125</ele>
        <time>2018-05-14T12:51:03Z</time>
      </trkpt>
      <trkpt lat="39.91460605692071" lon="116.65466734232488">
        <ele>61.10102081298828</ele>
        <time>2018-05-14T12:51:09Z</time>
      </trkpt>
      <trkpt lat="39.914635997693864" lon="116.65469825292654">
        <ele>61.373878479003906</ele>
        <time>2018-05-14T12:51:11Z</time>
      </trkpt>
      <trkpt lat="39.91467292694197" lon="116.6547351460623">
        <ele>61.60858154296875</ele>
        <time>2018-05-14T12:51:13Z</time>
      </trkpt>
      <trkpt lat="39.91471287288154" lon="116.65476306370667">
        <ele>61.58677673339844</ele>
        <time>2018-05-14T12:51:15Z</time>
      </trkpt>
      <trkpt lat="39.91475780924999" lon="116.6547959668947">
        <ele>61.69671630859375</ele>
        <time>2018-05-14T12:51:17Z</time>
      </trkpt>
      <trkpt lat="39.91480474552407" lon="116.65482886982298">
        <ele>61.831886291503906</ele>
        <time>2018-05-14T12:51:19Z</time>
      </trkpt>
      <trkpt lat="39.91486264764274" lon="116.65487972157261">
        <ele>61.8654670715332</ele>
        <time>2018-05-14T12:51:21Z</time>
      </trkpt>
      <trkpt lat="39.91491856105329" lon="116.6549245901433">
        <ele>61.80502700805664</ele>
        <time>2018-05-14T12:51:23Z</time>
      </trkpt>
      <trkpt lat="39.914960471297974" lon="116.65497145486977">
        <ele>61.67307662963867</ele>
        <time>2018-05-14T12:51:25Z</time>
      </trkpt>
      <trkpt lat="39.9149883839911" lon="116.65501732405662">
        <ele>61.45404052734375</ele>
        <time>2018-05-14T12:51:29Z</time>
      </trkpt>
      <trkpt lat="39.91500629896378" lon="116.65506219721455">
        <ele>61.67232894897461</ele>
        <time>2018-05-14T12:51:31Z</time>
      </trkpt>
      <trkpt lat="39.91501821604717" lon="116.65510607385417">
        <ele>61.96759796142578</ele>
        <time>2018-05-14T12:51:33Z</time>
      </trkpt>
      <trkpt lat="39.915035147888766" lon="116.65514197202283">
        <ele>62.3634033203125</ele>
        <time>2018-05-14T12:51:35Z</time>
      </trkpt>
      <trkpt lat="39.915060058768375" lon="116.65518883870729">
        <ele>62.8710823059082</ele>
        <time>2018-05-14T12:51:37Z</time>
      </trkpt>
      <trkpt lat="39.91509995024979" lon="116.6552456758007">
        <ele>63.22733688354492</ele>
        <time>2018-05-14T12:51:39Z</time>
      </trkpt>
      <trkpt lat="39.91514183599474" lon="116.65530550428923">
        <ele>63.52271270751953</ele>
        <time>2018-05-14T12:51:41Z</time>
      </trkpt>
      <trkpt lat="39.91518372921066" lon="116.65536134382762">
        <ele>63.83174514770508</ele>
        <time>2018-05-14T12:51:43Z</time>
      </trkpt>
      <trkpt lat="39.915223633739586" lon="116.65541120021851">
        <ele>64.0822982788086</ele>
        <time>2018-05-14T12:51:45Z</time>
      </trkpt>
      <trkpt lat="39.915257551634994" lon="116.65545407673918">
        <ele>64.27719116210938</ele>
        <time>2018-05-14T12:51:47Z</time>
      </trkpt>
      <trkpt lat="39.915287475314116" lon="116.65549396205425">
        <ele>64.60425567626953</ele>
        <time>2018-05-14T12:51:49Z</time>
      </trkpt>
      <trkpt lat="39.915316387762466" lon="116.65553983081797">
        <ele>64.86383056640625</ele>
        <time>2018-05-14T12:51:51Z</time>
      </trkpt>
      <trkpt lat="39.9153442908504" lon="116.6555906857968">
        <ele>65.05382537841797</ele>
        <time>2018-05-14T12:51:53Z</time>
      </trkpt>
      <trkpt lat="39.915366197926964" lon="116.6556395470352">
        <ele>65.15406799316406</ele>
        <time>2018-05-14T12:51:55Z</time>
      </trkpt>
      <trkpt lat="39.9153831202195" lon="116.65568043107926">
        <ele>65.12457275390625</ele>
        <time>2018-05-14T12:51:57Z</time>
      </trkpt>
      <trkpt lat="39.91541001014339" lon="116.65573826664709">
        <ele>64.96650695800781</ele>
        <time>2018-05-14T12:51:59Z</time>
      </trkpt>
      <trkpt lat="39.91544390350073" lon="116.65579410687259">
        <ele>64.57347869873047</ele>
        <time>2018-05-14T12:52:03Z</time>
      </trkpt>
      <trkpt lat="39.915477804349955" lon="116.65584595817877">
        <ele>64.23084259033203</ele>
        <time>2018-05-14T12:52:05Z</time>
      </trkpt>
      <trkpt lat="39.91549869445154" lon="116.65590379436911">
        <ele>63.602115631103516</ele>
        <time>2018-05-14T12:52:09Z</time>
      </trkpt>
      <trkpt lat="39.91551956384462" lon="116.65597259992978">
        <ele>63.037742614746094</ele>
        <time>2018-05-14T12:52:11Z</time>
      </trkpt>
      <trkpt lat="39.915540429438714" lon="116.65604339987121">
        <ele>61.76107406616211</ele>
        <time>2018-05-14T12:52:15Z</time>
      </trkpt>
      <trkpt lat="39.91556527601009" lon="116.65612417143576">
        <ele>61.05849075317383</ele>
        <time>2018-05-14T12:52:17Z</time>
      </trkpt>
      <trkpt lat="39.91558911316281" lon="116.65620992912896">
        <ele>58.97542953491211</ele>
        <time>2018-05-14T12:52:23Z</time>
      </trkpt>
      <trkpt lat="39.9156089466629" lon="116.6562976816595">
        <ele>58.03915786743164</ele>
        <time>2018-05-14T12:52:25Z</time>
      </trkpt>
      <trkpt lat="39.915633840157085" lon="116.65635352262521">
        <ele>57.053043365478516</ele>
        <time>2018-05-14T12:52:27Z</time>
      </trkpt>
      <trkpt lat="39.915667733245876" lon="116.65640936244961">
        <ele>56.029396057128906</ele>
        <time>2018-05-14T12:52:29Z</time>
      </trkpt>
      <trkpt lat="39.91572159343382" lon="116.65648215240701">
        <ele>55.028079986572266</ele>
        <time>2018-05-14T12:52:31Z</time>
      </trkpt>
      <trkpt lat="39.91577644034695" lon="116.6565619226681">
        <ele>54.13208770751953</ele>
        <time>2018-05-14T12:52:33Z</time>
      </trkpt>
      <trkpt lat="39.91584028306086" lon="116.6566436861749">
        <ele>53.229278564453125</ele>
        <time>2018-05-14T12:52:35Z</time>
      </trkpt>
      <trkpt lat="39.91589414312284" lon="116.65671647594138">
        <ele>52.314598083496094</ele>
        <time>2018-05-14T12:52:37Z</time>
      </trkpt>
      <trkpt lat="39.91594901253588" lon="116.6567842794774">
        <ele>51.35843276977539</ele>
        <time>2018-05-14T12:52:39Z</time>
      </trkpt>
      <trkpt lat="39.91599488418401" lon="116.65685108685987">
        <ele>50.427345275878906</ele>
        <time>2018-05-14T12:52:41Z</time>
      </trkpt>
      <trkpt lat="39.91603775970186" lon="116.65691590014558">
        <ele>49.601531982421875</ele>
        <time>2018-05-14T12:52:43Z</time>
      </trkpt>
      <trkpt lat="39.916082633217314" lon="116.65698171034776">
        <ele>48.83061981201172</ele>
        <time>2018-05-14T12:52:45Z</time>
      </trkpt>
      <trkpt lat="39.9161235087598" lon="116.65704652378791">
        <ele>48.0169677734375</ele>
        <time>2018-05-14T12:52:47Z</time>
      </trkpt>
      <trkpt lat="39.9161653766756" lon="116.65711532588557">
        <ele>47.116310119628906</ele>
        <time>2018-05-14T12:52:49Z</time>
      </trkpt>
      <trkpt lat="39.91620124103399" lon="116.6571861230815">
        <ele>46.02845764160156</ele>
        <time>2018-05-14T12:52:51Z</time>
      </trkpt>
      <trkpt lat="39.91622911892413" lon="116.65724994077401">
        <ele>44.99018096923828</ele>
        <time>2018-05-14T12:52:53Z</time>
      </trkpt>
      <trkpt lat="39.91625801186449" lon="116.6573057806669">
        <ele>43.94172286987305</ele>
        <time>2018-05-14T12:52:55Z</time>
      </trkpt>
      <trkpt lat="39.91628990276614" lon="116.65736261736234">
        <ele>43.02409362792969</ele>
        <time>2018-05-14T12:52:57Z</time>
      </trkpt>
      <trkpt lat="39.91631880889919" lon="116.65741147676769">
        <ele>42.186256408691406</ele>
        <time>2018-05-14T12:52:59Z</time>
      </trkpt>
      <trkpt lat="39.91634671127627" lon="116.65746233067676">
        <ele>41.499725341796875</ele>
        <time>2018-05-14T12:53:01Z</time>
      </trkpt>
      <trkpt lat="39.916370615696714" lon="116.65751218784884">
        <ele>40.789527893066406</ele>
        <time>2018-05-14T12:53:03Z</time>
      </trkpt>
      <trkpt lat="39.91640350080165" lon="116.65757201590564">
        <ele>40.12388610839844</ele>
        <time>2018-05-14T12:53:05Z</time>
      </trkpt>
      <trkpt lat="39.91643738773282" lon="116.65763084660225">
        <ele>39.45908737182617</ele>
        <time>2018-05-14T12:53:07Z</time>
      </trkpt>
      <trkpt lat="39.91647427640697" lon="116.65768867969481">
        <ele>38.744422912597656</ele>
        <time>2018-05-14T12:53:09Z</time>
      </trkpt>
      <trkpt lat="39.91650718226519" lon="116.6577375384466">
        <ele>38.08647918701172</ele>
        <time>2018-05-14T12:53:11Z</time>
      </trkpt>
      <trkpt lat="39.91654308987434" lon="116.65778539960634">
        <ele>37.45338439941406</ele>
        <time>2018-05-14T12:53:13Z</time>
      </trkpt>
      <trkpt lat="39.91657800129817" lon="116.65783126646828">
        <ele>36.816314697265625</ele>
        <time>2018-05-14T12:53:15Z</time>
      </trkpt>
      <trkpt lat="39.91661090521777" lon="116.65788112234942">
        <ele>36.21104431152344</ele>
        <time>2018-05-14T12:53:17Z</time>
      </trkpt>
      <trkpt lat="39.916635815142314" lon="116.6579279875955">
        <ele>35.68739700317383</ele>
        <time>2018-05-14T12:53:19Z</time>
      </trkpt>
      <trkpt lat="39.916665711580215" lon="116.65798183258845">
        <ele>35.225887298583984</ele>
        <time>2018-05-14T12:53:21Z</time>
      </trkpt>
      <trkpt lat="39.916699611620444" lon="116.65803368266742">
        <ele>34.75520706176758</ele>
        <time>2018-05-14T12:53:23Z</time>
      </trkpt>
      <trkpt lat="39.91673450970649" lon="116.65808652979399">
        <ele>34.28694534301758</ele>
        <time>2018-05-14T12:53:25Z</time>
      </trkpt>
      <trkpt lat="39.91676242323476" lon="116.65813140018582">
        <ele>33.835323333740234</ele>
        <time>2018-05-14T12:53:27Z</time>
      </trkpt>
      <trkpt lat="39.91678933110572" lon="116.65817926226832">
        <ele>33.400169372558594</ele>
        <time>2018-05-14T12:53:29Z</time>
      </trkpt>
      <trkpt lat="39.916814242839166" lon="116.65822513018453">
        <ele>32.93288803100586</ele>
        <time>2018-05-14T12:53:31Z</time>
      </trkpt>
      <trkpt lat="39.916839156456064" lon="116.65827000088606">
        <ele>32.55519104003906</ele>
        <time>2018-05-14T12:53:33Z</time>
      </trkpt>
      <trkpt lat="39.916871060282155" lon="116.65831985667973">
        <ele>32.21099090576172</ele>
        <time>2018-05-14T12:53:35Z</time>
      </trkpt>
      <trkpt lat="39.91690296788706" lon="116.65836771806235">
        <ele>31.882165908813477</ele>
        <time>2018-05-14T12:53:37Z</time>
      </trkpt>
      <trkpt lat="39.916939848706214" lon="116.65842953951615">
        <ele>31.57554817199707</ele>
        <time>2018-05-14T12:53:39Z</time>
      </trkpt>
      <trkpt lat="39.916968748816444" lon="116.65848138999033">
        <ele>30.869352340698242</ele>
        <time>2018-05-14T12:53:43Z</time>
      </trkpt>
      <trkpt lat="39.91700163735461" lon="116.65853922310197">
        <ele>30.439720153808594</ele>
        <time>2018-05-14T12:53:45Z</time>
      </trkpt>
      <trkpt lat="39.917031548778304" lon="116.65858509024984">
        <ele>29.988521575927734</ele>
        <time>2018-05-14T12:53:47Z</time>
      </trkpt>
      <trkpt lat="39.91706145449449" lon="116.658633948953">
        <ele>29.581401824951172</ele>
        <time>2018-05-14T12:53:49Z</time>
      </trkpt>
      <trkpt lat="39.9170963485933" lon="116.65868879016567">
        <ele>29.204513549804688</ele>
        <time>2018-05-14T12:53:51Z</time>
      </trkpt>
      <trkpt lat="39.917136231069264" lon="116.65874961387915">
        <ele>28.787656784057617</ele>
        <time>2018-05-14T12:53:53Z</time>
      </trkpt>
      <trkpt lat="39.917176123021505" lon="116.65880545161006">
        <ele>28.41506576538086</ele>
        <time>2018-05-14T12:53:55Z</time>
      </trkpt>
      <trkpt lat="39.917211034164445" lon="116.65885131803337">
        <ele>28.15924072265625</ele>
        <time>2018-05-14T12:53:57Z</time>
      </trkpt>
      <trkpt lat="39.91724494343793" lon="116.65889818175019">
        <ele>28.000022888183594</ele>
        <time>2018-05-14T12:53:59Z</time>
      </trkpt>
      <trkpt lat="39.917283837286384" lon="116.65895302234223">
        <ele>27.72565269470215</ele>
        <time>2018-05-14T12:54:01Z</time>
      </trkpt>
      <trkpt lat="39.9173277157027" lon="116.65901583979819">
        <ele>27.39996910095215</ele>
        <time>2018-05-14T12:54:03Z</time>
      </trkpt>
      <trkpt lat="39.917373592112185" lon="116.65907965416157">
        <ele>27.083518981933594</ele>
        <time>2018-05-14T12:54:05Z</time>
      </trkpt>
      <trkpt lat="39.917421474119244" lon="116.65914047668291">
        <ele>26.89091682434082</ele>
        <time>2018-05-14T12:54:07Z</time>
      </trkpt>
      <trkpt lat="39.91746934469681" lon="116.65920728229167">
        <ele>26.731918334960938</ele>
        <time>2018-05-14T12:54:09Z</time>
      </trkpt>
      <trkpt lat="39.91751022315386" lon="116.65927009997996">
        <ele>26.540733337402344</ele>
        <time>2018-05-14T12:54:11Z</time>
      </trkpt>
      <trkpt lat="39.9175441056899" lon="116.65933092412527">
        <ele>26.285202026367188</ele>
        <time>2018-05-14T12:54:13Z</time>
      </trkpt>
      <trkpt lat="39.91757001327744" lon="116.65937878581894">
        <ele>25.98798370361328</ele>
        <time>2018-05-14T12:54:15Z</time>
      </trkpt>
      <trkpt lat="39.917599911170456" lon="116.65943163292484">
        <ele>25.58017349243164</ele>
        <time>2018-05-14T12:54:17Z</time>
      </trkpt>
      <trkpt lat="39.9176298090491" lon="116.6594844800078">
        <ele>25.270923614501953</ele>
        <time>2018-05-14T12:54:19Z</time>
      </trkpt>
      <trkpt lat="39.9176676666046" lon="116.65955826694103">
        <ele>24.941370010375977</ele>
        <time>2018-05-14T12:54:21Z</time>
      </trkpt>
      <trkpt lat="39.91770252616288" lon="116.65963105701636">
        <ele>24.09897804260254</ele>
        <time>2018-05-14T12:54:25Z</time>
      </trkpt>
      <trkpt lat="39.91774037985569" lon="116.65970683822749">
        <ele>23.710453033447266</ele>
        <time>2018-05-14T12:54:27Z</time>
      </trkpt>
      <trkpt lat="39.917770268138995" lon="116.65976467110342">
        <ele>23.424528121948242</ele>
        <time>2018-05-14T12:54:29Z</time>
      </trkpt>
      <trkpt lat="39.91779716415145" lon="116.65981851559602">
        <ele>23.191452026367188</ele>
        <time>2018-05-14T12:54:31Z</time>
      </trkpt>
      <trkpt lat="39.917820071748416" lon="116.65986637747126">
        <ele>22.92536163330078</ele>
        <time>2018-05-14T12:54:33Z</time>
      </trkpt>
      <trkpt lat="39.917836971966175" lon="116.65991822879002">
        <ele>22.677810668945312</ele>
        <time>2018-05-14T12:54:35Z</time>
      </trkpt>
      <trkpt lat="39.91784482681705" lon="116.65999401352214">
        <ele>22.42453384399414</ele>
        <time>2018-05-14T12:54:37Z</time>
      </trkpt>
      <trkpt lat="39.91782864643764" lon="116.66008874757493">
        <ele>22.152729034423828</ele>
        <time>2018-05-14T12:54:39Z</time>
      </trkpt>
      <trkpt lat="39.91779546673262" lon="116.66018348365238">
        <ele>21.835418701171875</ele>
        <time>2018-05-14T12:54:43Z</time>
      </trkpt>
      <trkpt lat="39.91775834054691" lon="116.66025029916668">
        <ele>21.90389633178711</ele>
        <time>2018-05-14T12:54:45Z</time>
      </trkpt>
      <trkpt lat="39.91772322569933" lon="116.66031113133549">
        <ele>22.034393310546875</ele>
        <time>2018-05-14T12:54:47Z</time>
      </trkpt>
      <trkpt lat="39.917691116430895" lon="116.66036897157623">
        <ele>22.121150970458984</ele>
        <time>2018-05-14T12:54:49Z</time>
      </trkpt>
      <trkpt lat="39.917655005408754" lon="116.66042780946229">
        <ele>22.211576461791992</ele>
        <time>2018-05-14T12:54:51Z</time>
      </trkpt>
      <trkpt lat="39.917623928501115" lon="116.6604686975286">
        <ele>22.310752868652344</ele>
        <time>2018-05-14T12:54:53Z</time>
      </trkpt>
      <trkpt lat="39.91759285540217" lon="116.66050759123029">
        <ele>22.394094467163086</ele>
        <time>2018-05-14T12:54:55Z</time>
      </trkpt>
      <trkpt lat="39.9175617842049" lon="116.66054548774521">
        <ele>22.32316780090332</ele>
        <time>2018-05-14T12:54:57Z</time>
      </trkpt>
      <trkpt lat="39.91752970350247" lon="116.66058837025278">
        <ele>22.22148895263672</ele>
        <time>2018-05-14T12:54:59Z</time>
      </trkpt>
      <trkpt lat="39.91748860408716" lon="116.66064122561083">
        <ele>22.09609031677246</ele>
        <time>2018-05-14T12:55:01Z</time>
      </trkpt>
      <trkpt lat="39.91744049159443" lon="116.66070106203719">
        <ele>22.056209564208984</ele>
        <time>2018-05-14T12:55:03Z</time>
      </trkpt>
      <trkpt lat="39.91738937157763" lon="116.6607648875073">
        <ele>21.938940048217773</ele>
        <time>2018-05-14T12:55:05Z</time>
      </trkpt>
      <trkpt lat="39.91734227046809" lon="116.6608187407148">
        <ele>21.8809757232666</ele>
        <time>2018-05-14T12:55:07Z</time>
      </trkpt>
      <trkpt lat="39.91730017868323" lon="116.66086760741776">
        <ele>21.93449592590332</ele>
        <time>2018-05-14T12:55:09Z</time>
      </trkpt>
      <trkpt lat="39.917266098009016" lon="116.6609104900782">
        <ele>22.083654403686523</ele>
        <time>2018-05-14T12:55:11Z</time>
      </trkpt>
      <trkpt lat="39.91722802513542" lon="116.660949384525">
        <ele>22.340620040893555</ele>
        <time>2018-05-14T12:55:13Z</time>
      </trkpt>
      <trkpt lat="39.91719398073528" lon="116.6609733208707">
        <ele>22.600614547729492</ele>
        <time>2018-05-14T12:55:15Z</time>
      </trkpt>
      <trkpt lat="39.91715096727142" lon="116.66098130354892">
        <ele>22.850576400756836</ele>
        <time>2018-05-14T12:55:17Z</time>
      </trkpt>
      <trkpt lat="39.91710898050362" lon="116.66097532567807">
        <ele>23.517837524414062</ele>
        <time>2018-05-14T12:55:21Z</time>
      </trkpt>
    </trkseg>
  </trk>
</gpx>