<?xml version="1.0" encoding="UTF-8"?>
<gpx xmlns="http://www.topografix.com/GPX/1/1" xmlns:gpxtpx="http://www.garmin.com/xmlschemas/TrackPointExtension/v1" xmlns:xsi="http://www.w3.org/2001/XMLSchema-instance" xsi:schemaLocation="http://www.topografix.com/GPX/1/1 http://www.topografix.com/GPX/1/1/gpx.xsd" version="1.1" creator="gpx.py -- https://github.com/tkrajina/gpxpy">
  <trk>
    <name>gpx from codoon</name>
    <type>Run</type>
    <trkseg>
      <trkpt lat="43.82672026414035" lon="87.6170714929306">
        <ele>837.2209265136719</ele>
        <time>2020-06-23T00:14:10Z</time>
      </trkpt>
      <trkpt lat="43.82670724200427" lon="87.61708747475674">
        <ele>837.2209265136719</ele>
        <time>2020-06-23T00:14:13Z</time>
      </trkpt>
      <trkpt lat="43.82667619574179" lon="87.61711843980572">
        <ele>837.2209265136719</ele>
        <time>2020-06-23T00:14:14Z</time>
      </trkpt>
      <trkpt lat="43.82661321532108" lon="87.61705751484742">
        <ele>837.9993218994141</ele>
        <time>2020-06-23T00:14:17Z</time>
      </trkpt>
      <trkpt lat="43.82654723212856" lon="87.61699758868932">
        <ele>838.5184216308594</ele>
        <time>2020-06-23T00:14:24Z</time>
      </trkpt>
      <trkpt lat="43.82649426903649" lon="87.61692367807662">
        <ele>839.4086700439453</ele>
        <time>2020-06-23T00:14:26Z</time>
      </trkpt>
      <trkpt lat="43.82646823768141" lon="87.61694165833738">
        <ele>839.4086700439453</ele>
        <time>2020-06-23T00:14:28Z</time>
      </trkpt>
      <trkpt lat="43.826441203916886" lon="87.61696163629047">
        <ele>839.3929089355469</ele>
        <time>2020-06-23T00:14:30Z</time>
      </trkpt>
      <trkpt lat="43.82641415736744" lon="87.61699559780465">
        <ele>839.3929089355469</ele>
        <time>2020-06-23T00:14:32Z</time>
      </trkpt>
      <trkpt lat="43.82640110969878" lon="87.61703954680019">
        <ele>838.9815948486328</ele>
        <time>2020-06-23T00:14:36Z</time>
      </trkpt>
      <trkpt lat="43.82638604706996" lon="87.61709847813785">
        <ele>838.9815948486328</ele>
        <time>2020-06-23T00:14:38Z</time>
      </trkpt>
      <trkpt lat="43.82637398971584" lon="87.61715341387892">
        <ele>838.5687554931641</ele>
        <time>2020-06-23T00:14:42Z</time>
      </trkpt>
      <trkpt lat="43.826351925575" lon="87.61720934880019">
        <ele>838.5687554931641</ele>
        <time>2020-06-23T00:14:44Z</time>
      </trkpt>
      <trkpt lat="43.82635487294801" lon="87.61726827873977">
        <ele>839.9608172607421</ele>
        <time>2020-06-23T00:14:46Z</time>
      </trkpt>
      <trkpt lat="43.82637582223768" lon="87.61733619689208">
        <ele>839.9608172607421</ele>
        <time>2020-06-23T00:14:48Z</time>
      </trkpt>
      <trkpt lat="43.82641277779188" lon="87.61740711042961">
        <ele>840.5338098144531</ele>
        <time>2020-06-23T00:14:50Z</time>
      </trkpt>
      <trkpt lat="43.82644173413789" lon="87.61747203131011">
        <ele>840.5338098144531</ele>
        <time>2020-06-23T00:14:52Z</time>
      </trkpt>
      <trkpt lat="43.826465691181234" lon="87.61753295703926">
        <ele>840.5338098144531</ele>
        <time>2020-06-23T00:14:54Z</time>
      </trkpt>
      <trkpt lat="43.82648264406052" lon="87.61759388294684">
        <ele>840.2389245605469</ele>
        <time>2020-06-23T00:14:56Z</time>
      </trkpt>
      <trkpt lat="43.826495594503136" lon="87.61765480888029">
        <ele>840.2389245605469</ele>
        <time>2020-06-23T00:14:58Z</time>
      </trkpt>
      <trkpt lat="43.82650754705172" lon="87.61771273831002">
        <ele>840.3360333251953</ele>
        <time>2020-06-23T00:15:00Z</time>
      </trkpt>
      <trkpt lat="43.82651650245383" lon="87.61776567378318">
        <ele>840.3360333251953</ele>
        <time>2020-06-23T00:15:02Z</time>
      </trkpt>
      <trkpt lat="43.826523464139385" lon="87.61781061892384">
        <ele>840.3360333251953</ele>
        <time>2020-06-23T00:15:04Z</time>
      </trkpt>
      <trkpt lat="43.82652842931749" lon="87.61785057014126">
        <ele>839.0243023681641</ele>
        <time>2020-06-23T00:15:08Z</time>
      </trkpt>
      <trkpt lat="43.82653238913872" lon="87.61789551525258">
        <ele>840.1280883789062</ele>
        <time>2020-06-23T00:15:10Z</time>
      </trkpt>
      <trkpt lat="43.82653533789851" lon="87.6179514469129">
        <ele>840.1280883789062</ele>
        <time>2020-06-23T00:15:12Z</time>
      </trkpt>
      <trkpt lat="43.826539278581144" lon="87.61801636737682">
        <ele>840.1280883789062</ele>
        <time>2020-06-23T00:15:14Z</time>
      </trkpt>
      <trkpt lat="43.826548221041" lon="87.61808228616047">
        <ele>840.7137915039062</ele>
        <time>2020-06-23T00:15:16Z</time>
      </trkpt>
      <trkpt lat="43.82655916831271" lon="87.6181442095485">
        <ele>840.7137915039062</ele>
        <time>2020-06-23T00:15:18Z</time>
      </trkpt>
      <trkpt lat="43.82657211946712" lon="87.61820313634549">
        <ele>840.4585632324219</ele>
        <time>2020-06-23T00:15:20Z</time>
      </trkpt>
      <trkpt lat="43.82658607394739" lon="87.6182590666276">
        <ele>840.4585632324219</ele>
        <time>2020-06-23T00:15:22Z</time>
      </trkpt>
      <trkpt lat="43.82660002927613" lon="87.61831399799753">
        <ele>840.4585632324219</ele>
        <time>2020-06-23T00:15:24Z</time>
      </trkpt>
      <trkpt lat="43.82661198526912" lon="87.61836693180373">
        <ele>840.3604376220703</ele>
        <time>2020-06-23T00:15:26Z</time>
      </trkpt>
      <trkpt lat="43.82662394308953" lon="87.6184178679595">
        <ele>840.3604376220703</ele>
        <time>2020-06-23T00:15:28Z</time>
      </trkpt>
      <trkpt lat="43.82663390256158" lon="87.61846580782453">
        <ele>840.5632983398438</ele>
        <time>2020-06-23T00:15:30Z</time>
      </trkpt>
      <trkpt lat="43.826643863885735" lon="87.61851175007205">
        <ele>840.5632983398438</ele>
        <time>2020-06-23T00:15:32Z</time>
      </trkpt>
      <trkpt lat="43.82665182495152" lon="87.6185566935693">
        <ele>840.5632983398438</ele>
        <time>2020-06-23T00:15:34Z</time>
      </trkpt>
      <trkpt lat="43.826657782853715" lon="87.61860363457345">
        <ele>840.5170318603516</ele>
        <time>2020-06-23T00:15:36Z</time>
      </trkpt>
      <trkpt lat="43.82666774006637" lon="87.61865357151358">
        <ele>840.5170318603516</ele>
        <time>2020-06-23T00:15:38Z</time>
      </trkpt>
      <trkpt lat="43.826680694050275" lon="87.61870850191005">
        <ele>840.7509063720703</ele>
        <time>2020-06-23T00:15:40Z</time>
      </trkpt>
      <trkpt lat="43.826696644776476" lon="87.61876842572418">
        <ele>840.7509063720703</ele>
        <time>2020-06-23T00:15:42Z</time>
      </trkpt>
      <trkpt lat="43.82671159284376" lon="87.61883034689932">
        <ele>840.7509063720703</ele>
        <time>2020-06-23T00:15:44Z</time>
      </trkpt>
      <trkpt lat="43.82672454158411" lon="87.61889027052271">
        <ele>840.9735955810547</ele>
        <time>2020-06-23T00:15:46Z</time>
      </trkpt>
      <trkpt lat="43.826732487317706" lon="87.61895019423207">
        <ele>840.9735955810547</ele>
        <time>2020-06-23T00:15:48Z</time>
      </trkpt>
      <trkpt lat="43.826738432757004" lon="87.61900911914366">
        <ele>840.9735955810547</ele>
        <time>2020-06-23T00:15:50Z</time>
      </trkpt>
      <trkpt lat="43.82674338144342" lon="87.61906404902955">
        <ele>841.1469677734375</ele>
        <time>2020-06-23T00:15:52Z</time>
      </trkpt>
      <trkpt lat="43.82675433644431" lon="87.61911598229028">
        <ele>841.1469677734375</ele>
        <time>2020-06-23T00:15:54Z</time>
      </trkpt>
      <trkpt lat="43.826769293654536" lon="87.61916791522094">
        <ele>841.2247564697266</ele>
        <time>2020-06-23T00:15:56Z</time>
      </trkpt>
      <trkpt lat="43.82678624993854" lon="87.61922184536596">
        <ele>841.2247564697266</ele>
        <time>2020-06-23T00:15:58Z</time>
      </trkpt>
      <trkpt lat="43.82680520826641" lon="87.61927477655439">
        <ele>841.2247564697266</ele>
        <time>2020-06-23T00:16:00Z</time>
      </trkpt>
      <trkpt lat="43.82682717021545" lon="87.61932571002654">
        <ele>841.5547229003906</ele>
        <time>2020-06-23T00:16:02Z</time>
      </trkpt>
      <trkpt lat="43.82685313836706" lon="87.61937264831764">
        <ele>841.5547229003906</ele>
        <time>2020-06-23T00:16:04Z</time>
      </trkpt>
      <trkpt lat="43.82688010701801" lon="87.61941958645495">
        <ele>841.7047076416015</ele>
        <time>2020-06-23T00:16:06Z</time>
      </trkpt>
      <trkpt lat="43.826904071862955" lon="87.61946852206182">
        <ele>841.7047076416015</ele>
        <time>2020-06-23T00:16:08Z</time>
      </trkpt>
      <trkpt lat="43.826926036474326" lon="87.61951645895158">
        <ele>841.7047076416015</ele>
        <time>2020-06-23T00:16:10Z</time>
      </trkpt>
      <trkpt lat="43.82694299812479" lon="87.61956439598913">
        <ele>841.676235961914</ele>
        <time>2020-06-23T00:16:12Z</time>
      </trkpt>
      <trkpt lat="43.82695695897208" lon="87.61961133436962">
        <ele>841.676235961914</ele>
        <time>2020-06-23T00:16:14Z</time>
      </trkpt>
      <trkpt lat="43.82696791801397" lon="87.61965827280056">
        <ele>841.813510131836</ele>
        <time>2020-06-23T00:16:16Z</time>
      </trkpt>
      <trkpt lat="43.826976874817866" lon="87.61970620992975">
        <ele>841.813510131836</ele>
        <time>2020-06-23T00:16:18Z</time>
      </trkpt>
      <trkpt lat="43.82698482995496" lon="87.61975514569964">
        <ele>841.813510131836</ele>
        <time>2020-06-23T00:16:20Z</time>
      </trkpt>
      <trkpt lat="43.82699178645673" lon="87.61980208402115">
        <ele>841.9614611816406</ele>
        <time>2020-06-23T00:16:22Z</time>
      </trkpt>
      <trkpt lat="43.827001741568964" lon="87.61985201816354">
        <ele>841.9614611816406</ele>
        <time>2020-06-23T00:16:24Z</time>
      </trkpt>
      <trkpt lat="43.827012697170666" lon="87.61990195213954">
        <ele>842.1627966308594</ele>
        <time>2020-06-23T00:16:26Z</time>
      </trkpt>
      <trkpt lat="43.827022654144095" lon="87.61994988867649">
        <ele>842.1627966308594</ele>
        <time>2020-06-23T00:16:28Z</time>
      </trkpt>
      <trkpt lat="43.82703161351811" lon="87.6199948291025">
        <ele>842.1627966308594</ele>
        <time>2020-06-23T00:16:30Z</time>
      </trkpt>
      <trkpt lat="43.827038572689915" lon="87.62003877085388">
        <ele>842.1978778076171</ele>
        <time>2020-06-23T00:16:32Z</time>
      </trkpt>
      <trkpt lat="43.82704452406452" lon="87.62008970333463">
        <ele>842.1978778076171</ele>
        <time>2020-06-23T00:16:34Z</time>
      </trkpt>
      <trkpt lat="43.827048466004534" lon="87.62014862522473">
        <ele>841.8089343261719</ele>
        <time>2020-06-23T00:16:36Z</time>
      </trkpt>
      <trkpt lat="43.82705640705049" lon="87.62021054277724">
        <ele>841.8089343261719</ele>
        <time>2020-06-23T00:16:38Z</time>
      </trkpt>
      <trkpt lat="43.82707035142128" lon="87.62027245984744">
        <ele>841.8089343261719</ele>
        <time>2020-06-23T00:16:40Z</time>
      </trkpt>
      <trkpt lat="43.827086300934134" lon="87.6203303819603">
        <ele>841.9828149414062</ele>
        <time>2020-06-23T00:16:42Z</time>
      </trkpt>
      <trkpt lat="43.8271032509075" lon="87.62038830386798">
        <ele>841.9828149414062</ele>
        <time>2020-06-23T00:16:44Z</time>
      </trkpt>
      <trkpt lat="43.82711920122331" lon="87.62044522700803">
        <ele>842.3168487548828</ele>
        <time>2020-06-23T00:16:46Z</time>
      </trkpt>
      <trkpt lat="43.82713515246386" lon="87.6205011513374">
        <ele>842.3168487548828</ele>
        <time>2020-06-23T00:16:48Z</time>
      </trkpt>
      <trkpt lat="43.82715110359677" lon="87.62055707552341">
        <ele>842.3168487548828</ele>
        <time>2020-06-23T00:16:50Z</time>
      </trkpt>
      <trkpt lat="43.8271630543971" lon="87.62061100245619">
        <ele>842.872046508789</ele>
        <time>2020-06-23T00:16:52Z</time>
      </trkpt>
      <trkpt lat="43.827174009730456" lon="87.62065993603363">
        <ele>842.872046508789</ele>
        <time>2020-06-23T00:16:54Z</time>
      </trkpt>
      <trkpt lat="43.827184968111794" lon="87.6207058735438">
        <ele>842.5456390380859</ele>
        <time>2020-06-23T00:16:56Z</time>
      </trkpt>
      <trkpt lat="43.82719892710479" lon="87.62075280945515">
        <ele>842.5456390380859</ele>
        <time>2020-06-23T00:16:58Z</time>
      </trkpt>
      <trkpt lat="43.82721288078894" lon="87.62080473850732">
        <ele>842.5456390380859</ele>
        <time>2020-06-23T00:17:00Z</time>
      </trkpt>
      <trkpt lat="43.8272268301863" lon="87.62086066201928">
        <ele>842.8893328857422</ele>
        <time>2020-06-23T00:17:02Z</time>
      </trkpt>
      <trkpt lat="43.827239776798955" lon="87.62091858272576">
        <ele>842.8893328857422</ele>
        <time>2020-06-23T00:17:04Z</time>
      </trkpt>
      <trkpt lat="43.82724972051502" lon="87.62097750207276">
        <ele>843.2930206298828</ele>
        <time>2020-06-23T00:17:06Z</time>
      </trkpt>
      <trkpt lat="43.82726066257932" lon="87.62103841848607">
        <ele>843.2930206298828</ele>
        <time>2020-06-23T00:17:08Z</time>
      </trkpt>
      <trkpt lat="43.82727160028927" lon="87.62110332926947">
        <ele>843.2930206298828</ele>
        <time>2020-06-23T00:17:10Z</time>
      </trkpt>
      <trkpt lat="43.82728454218558" lon="87.62116524386448">
        <ele>843.319458618164</ele>
        <time>2020-06-23T00:17:12Z</time>
      </trkpt>
      <trkpt lat="43.82729448646641" lon="87.62122316392231">
        <ele>843.319458618164</ele>
        <time>2020-06-23T00:17:14Z</time>
      </trkpt>
      <trkpt lat="43.8273034332454" lon="87.62127808799931">
        <ele>843.4724938964844</ele>
        <time>2020-06-23T00:17:16Z</time>
      </trkpt>
      <trkpt lat="43.827315378456504" lon="87.62133600765918">
        <ele>843.4724938964844</ele>
        <time>2020-06-23T00:17:18Z</time>
      </trkpt>
      <trkpt lat="43.827332325368914" lon="87.6213949255338">
        <ele>843.4724938964844</ele>
        <time>2020-06-23T00:17:20Z</time>
      </trkpt>
      <trkpt lat="43.82735327340044" lon="87.62145484166633">
        <ele>843.3850451660156</ele>
        <time>2020-06-23T00:17:22Z</time>
      </trkpt>
      <trkpt lat="43.8273732228757" lon="87.62151276045569">
        <ele>843.3850451660156</ele>
        <time>2020-06-23T00:17:24Z</time>
      </trkpt>
      <trkpt lat="43.827391168938675" lon="87.62157267642266">
        <ele>843.7775476074219</ele>
        <time>2020-06-23T00:17:26Z</time>
      </trkpt>
      <trkpt lat="43.82740511472398" lon="87.62163059521039">
        <ele>843.7775476074219</ele>
        <time>2020-06-23T00:17:28Z</time>
      </trkpt>
      <trkpt lat="43.827419069009345" lon="87.62168052498015">
        <ele>843.7775476074219</ele>
        <time>2020-06-23T00:17:30Z</time>
      </trkpt>
      <trkpt lat="43.8274340280997" lon="87.62172646016118">
        <ele>844.0566717529297</ele>
        <time>2020-06-23T00:17:32Z</time>
      </trkpt>
      <trkpt lat="43.827448984959474" lon="87.62177439245617">
        <ele>844.0566717529297</ele>
        <time>2020-06-23T00:17:34Z</time>
      </trkpt>
      <trkpt lat="43.82746593640616" lon="87.62182831615836">
        <ele>844.0698907470703</ele>
        <time>2020-06-23T00:17:36Z</time>
      </trkpt>
      <trkpt lat="43.82748088335154" lon="87.62188523563044">
        <ele>844.0698907470703</ele>
        <time>2020-06-23T00:17:38Z</time>
      </trkpt>
      <trkpt lat="43.827492831714096" lon="87.62193915931965">
        <ele>844.0698907470703</ele>
        <time>2020-06-23T00:17:40Z</time>
      </trkpt>
      <trkpt lat="43.82750278534756" lon="87.62198709141256">
        <ele>844.4806964111328</ele>
        <time>2020-06-23T00:17:42Z</time>
      </trkpt>
      <trkpt lat="43.82751174268091" lon="87.62203102908259">
        <ele>844.4806964111328</ele>
        <time>2020-06-23T00:17:44Z</time>
      </trkpt>
      <trkpt lat="43.827519699372765" lon="87.62207496671734">
        <ele>844.5854315185547</ele>
        <time>2020-06-23T00:17:46Z</time>
      </trkpt>
      <trkpt lat="43.82752564938954" lon="87.62212389731204">
        <ele>844.5854315185547</ele>
        <time>2020-06-23T00:17:48Z</time>
      </trkpt>
      <trkpt lat="43.827530599842426" lon="87.62217182926435">
        <ele>844.5854315185547</ele>
        <time>2020-06-23T00:17:50Z</time>
      </trkpt>
      <trkpt lat="43.82753255177238" lon="87.62221676551368">
        <ele>844.5696704101563</ele>
        <time>2020-06-23T00:17:52Z</time>
      </trkpt>
      <trkpt lat="43.82753050132821" lon="87.62226170187714">
        <ele>844.5696704101563</ele>
        <time>2020-06-23T00:17:54Z</time>
      </trkpt>
      <trkpt lat="43.827528448621074" lon="87.62230863531177">
        <ele>844.5696704101563</ele>
        <time>2020-06-23T00:17:56Z</time>
      </trkpt>
      <trkpt lat="43.827525394164276" lon="87.62235656727786">
        <ele>844.9901361083985</ele>
        <time>2020-06-23T00:17:58Z</time>
      </trkpt>
      <trkpt lat="43.82752333910628" lon="87.62240549766703">
        <ele>844.9901361083985</ele>
        <time>2020-06-23T00:18:00Z</time>
      </trkpt>
      <trkpt lat="43.827521283968196" lon="87.6224544279499">
        <ele>845.0735174560547</ele>
        <time>2020-06-23T00:18:02Z</time>
      </trkpt>
      <trkpt lat="43.8275202215966" lon="87.6225103480775">
        <ele>845.0735174560547</ele>
        <time>2020-06-23T00:18:04Z</time>
      </trkpt>
      <trkpt lat="43.82751814858615" lon="87.62257525523745">
        <ele>845.0735174560547</ele>
        <time>2020-06-23T00:18:06Z</time>
      </trkpt>
      <trkpt lat="43.827514068737926" lon="87.62264515514147">
        <ele>845.2174011230469</ele>
        <time>2020-06-23T00:18:08Z</time>
      </trkpt>
      <trkpt lat="43.82750898592783" lon="87.62271705200537">
        <ele>845.2174011230469</ele>
        <time>2020-06-23T00:18:10Z</time>
      </trkpt>
      <trkpt lat="43.82750490686321" lon="87.62278595291195">
        <ele>845.3943322753906</ele>
        <time>2020-06-23T00:18:12Z</time>
      </trkpt>
      <trkpt lat="43.82749983375888" lon="87.62284886232122">
        <ele>845.3943322753906</ele>
        <time>2020-06-23T00:18:14Z</time>
      </trkpt>
      <trkpt lat="43.82749276272314" lon="87.62290877599641">
        <ele>845.3943322753906</ele>
        <time>2020-06-23T00:18:16Z</time>
      </trkpt>
      <trkpt lat="43.82748669102528" lon="87.62296968801387">
        <ele>845.4894073486328</ele>
        <time>2020-06-23T00:18:18Z</time>
      </trkpt>
      <trkpt lat="43.82748161529404" lon="87.6230345940113">
        <ele>845.4894073486328</ele>
        <time>2020-06-23T00:18:20Z</time>
      </trkpt>
      <trkpt lat="43.82747553547479" lon="87.62310249551138">
        <ele>845.6510858154297</ele>
        <time>2020-06-23T00:18:22Z</time>
      </trkpt>
      <trkpt lat="43.82746745209738" lon="87.62317239399617">
        <ele>845.6510858154297</ele>
        <time>2020-06-23T00:18:24Z</time>
      </trkpt>
      <trkpt lat="43.82745936855867" lon="87.62324229226688">
        <ele>845.6510858154297</ele>
        <time>2020-06-23T00:18:26Z</time>
      </trkpt>
      <trkpt lat="43.82745429111208" lon="87.62330819602505">
        <ele>846.0588409423829</ele>
        <time>2020-06-23T00:18:28Z</time>
      </trkpt>
      <trkpt lat="43.827450216364895" lon="87.623372102475">
        <ele>846.0588409423829</ele>
        <time>2020-06-23T00:18:30Z</time>
      </trkpt>
      <trkpt lat="43.827450142654364" lon="87.62343700707332">
        <ele>846.015625</ele>
        <time>2020-06-23T00:18:32Z</time>
      </trkpt>
      <trkpt lat="43.82745406997426" lon="87.6235029098117">
        <ele>846.015625</ele>
        <time>2020-06-23T00:18:34Z</time>
      </trkpt>
      <trkpt lat="43.82746099774173" lon="87.6235698107328">
        <ele>846.015625</ele>
        <time>2020-06-23T00:18:36Z</time>
      </trkpt>
      <trkpt lat="43.82746892593899" lon="87.62363671140805">
        <ele>846.080703125</ele>
        <time>2020-06-23T00:18:38Z</time>
      </trkpt>
      <trkpt lat="43.827476853989644" lon="87.62370361188874">
        <ele>846.080703125</ele>
        <time>2020-06-23T00:18:40Z</time>
      </trkpt>
      <trkpt lat="43.82748278074076" lon="87.6237705122772">
        <ele>846.3211871337891</ele>
        <time>2020-06-23T00:18:42Z</time>
      </trkpt>
      <trkpt lat="43.827485703319525" lon="87.62383940965162">
        <ele>846.3211871337891</ele>
        <time>2020-06-23T00:18:44Z</time>
      </trkpt>
      <trkpt lat="43.827485628615314" lon="87.62390431293161">
        <ele>846.3211871337891</ele>
        <time>2020-06-23T00:18:46Z</time>
      </trkpt>
      <trkpt lat="43.827483559534826" lon="87.62396322508393">
        <ele>846.5530279541016</ele>
        <time>2020-06-23T00:18:48Z</time>
      </trkpt>
      <trkpt lat="43.82747449899949" lon="87.62401115388047">
        <ele>846.5530279541016</ele>
        <time>2020-06-23T00:18:50Z</time>
      </trkpt>
      <trkpt lat="43.82748843431566" lon="87.6240740589574">
        <ele>844.7740563964844</ele>
        <time>2020-06-23T00:19:22Z</time>
      </trkpt>
      <trkpt lat="43.827506330103716" lon="87.62417290965203">
        <ele>845.5519433593751</ele>
        <time>2020-06-23T00:19:28Z</time>
      </trkpt>
      <trkpt lat="43.82752325752941" lon="87.6242438021064">
        <ele>845.5519433593751</ele>
        <time>2020-06-23T00:19:30Z</time>
      </trkpt>
      <trkpt lat="43.82753218716106" lon="87.62430870379482">
        <ele>846.7294506835938</ele>
        <time>2020-06-23T00:19:32Z</time>
      </trkpt>
      <trkpt lat="43.827536088123004" lon="87.62439557233641">
        <ele>846.7294506835938</ele>
        <time>2020-06-23T00:19:35Z</time>
      </trkpt>
      <trkpt lat="43.82753096260293" lon="87.62450041375082">
        <ele>847.1168688964843</ele>
        <time>2020-06-23T00:19:37Z</time>
      </trkpt>
      <trkpt lat="43.82752284438167" lon="87.62459726700268">
        <ele>847.1168688964843</ele>
        <time>2020-06-23T00:19:39Z</time>
      </trkpt>
      <trkpt lat="43.827522743403776" lon="87.62468313619873">
        <ele>847.1168688964843</ele>
        <time>2020-06-23T00:19:41Z</time>
      </trkpt>
      <trkpt lat="43.827528658607534" lon="87.6247580215623">
        <ele>847.280072631836</ele>
        <time>2020-06-23T00:19:43Z</time>
      </trkpt>
      <trkpt lat="43.827539584775764" lon="87.6248259171348">
        <ele>847.280072631836</ele>
        <time>2020-06-23T00:19:45Z</time>
      </trkpt>
      <trkpt lat="43.827551517283844" lon="87.62488882011837">
        <ele>846.9470556640625</ele>
        <time>2020-06-23T00:19:47Z</time>
      </trkpt>
      <trkpt lat="43.82756245027274" lon="87.62495072451908">
        <ele>846.9470556640625</ele>
        <time>2020-06-23T00:19:49Z</time>
      </trkpt>
      <trkpt lat="43.82757738188708" lon="87.62501562394223">
        <ele>846.9470556640625</ele>
        <time>2020-06-23T00:19:51Z</time>
      </trkpt>
      <trkpt lat="43.82759231574335" lon="87.62507852626604">
        <ele>847.3919256591797</ele>
        <time>2020-06-23T00:19:53Z</time>
      </trkpt>
      <trkpt lat="43.827606242945365" lon="87.62514642076168">
        <ele>847.3919256591797</ele>
        <time>2020-06-23T00:19:55Z</time>
      </trkpt>
      <trkpt lat="43.82761817123214" lon="87.62521231825512">
        <ele>847.8027313232421</ele>
        <time>2020-06-23T00:19:57Z</time>
      </trkpt>
      <trkpt lat="43.8276320993394" lon="87.62527921391494">
        <ele>847.8027313232421</ele>
        <time>2020-06-23T00:19:59Z</time>
      </trkpt>
      <trkpt lat="43.82764602969773" lon="87.62534411248761">
        <ele>847.8027313232421</ele>
        <time>2020-06-23T00:20:01Z</time>
      </trkpt>
      <trkpt lat="43.82765695819228" lon="87.62540901103614">
        <ele>847.5403851318359</ele>
        <time>2020-06-23T00:20:03Z</time>
      </trkpt>
      <trkpt lat="43.82766788895465" lon="87.62547191251983">
        <ele>847.5403851318359</ele>
        <time>2020-06-23T00:20:05Z</time>
      </trkpt>
      <trkpt lat="43.8276818225244" lon="87.62553381524269">
        <ele>847.5403851318359</ele>
        <time>2020-06-23T00:20:07Z</time>
      </trkpt>
      <trkpt lat="43.82769675654961" lon="87.62559571775357">
        <ele>847.3004095458984</ele>
        <time>2020-06-23T00:20:09Z</time>
      </trkpt>
      <trkpt lat="43.8277056809602" lon="87.62566261259026">
        <ele>847.3004095458984</ele>
        <time>2020-06-23T00:20:11Z</time>
      </trkpt>
      <trkpt lat="43.82771560097058" lon="87.62573350092042">
        <ele>847.9003485107422</ele>
        <time>2020-06-23T00:20:13Z</time>
      </trkpt>
      <trkpt lat="43.827731523071606" lon="87.62580538716372">
        <ele>847.9003485107422</ele>
        <time>2020-06-23T00:20:15Z</time>
      </trkpt>
      <trkpt lat="43.827755454477604" lon="87.62587327907433">
        <ele>847.9003485107422</ele>
        <time>2020-06-23T00:20:17Z</time>
      </trkpt>
      <trkpt lat="43.82778139053878" lon="87.62593817541752">
        <ele>847.8327282714844</ele>
        <time>2020-06-23T00:20:19Z</time>
      </trkpt>
      <trkpt lat="43.82780633197801" lon="87.6259980795274">
        <ele>847.8327282714844</ele>
        <time>2020-06-23T00:20:21Z</time>
      </trkpt>
      <trkpt lat="43.827826271640106" lon="87.62605698532415">
        <ele>848.1326977539063</ele>
        <time>2020-06-23T00:20:23Z</time>
      </trkpt>
      <trkpt lat="43.82783820413716" lon="87.62611788821953">
        <ele>848.1326977539063</ele>
        <time>2020-06-23T00:20:25Z</time>
      </trkpt>
      <trkpt lat="43.827843128811445" lon="87.62618178656179">
        <ele>848.1326977539063</ele>
        <time>2020-06-23T00:20:27Z</time>
      </trkpt>
      <trkpt lat="43.827846049754235" lon="87.62624768166023">
        <ele>848.1677789306641</ele>
        <time>2020-06-23T00:20:29Z</time>
      </trkpt>
      <trkpt lat="43.82785097048779" lon="87.6263145748855">
        <ele>848.1677789306641</ele>
        <time>2020-06-23T00:20:31Z</time>
      </trkpt>
      <trkpt lat="43.82785489296329" lon="87.62637947116477">
        <ele>848.3858923339844</ele>
        <time>2020-06-23T00:20:33Z</time>
      </trkpt>
      <trkpt lat="43.827860820154626" lon="87.62644137195744">
        <ele>848.3858923339844</ele>
        <time>2020-06-23T00:20:35Z</time>
      </trkpt>
      <trkpt lat="43.82786775026951" lon="87.62650127573887">
        <ele>848.3858923339844</ele>
        <time>2020-06-23T00:20:37Z</time>
      </trkpt>
      <trkpt lat="43.82787468150762" lon="87.62656018097385">
        <ele>848.6746765136719</ele>
        <time>2020-06-23T00:20:39Z</time>
      </trkpt>
      <trkpt lat="43.82787360802327" lon="87.62661908647513">
        <ele>848.6746765136719</ele>
        <time>2020-06-23T00:20:41Z</time>
      </trkpt>
      <trkpt lat="43.8278645285781" lon="87.62667899063676">
        <ele>848.7443304443359</ele>
        <time>2020-06-23T00:20:43Z</time>
      </trkpt>
      <trkpt lat="43.82784944432047" lon="87.62673989334928">
        <ele>848.7443304443359</ele>
        <time>2020-06-23T00:20:45Z</time>
      </trkpt>
      <trkpt lat="43.82783935662054" lon="87.6268057875977">
        <ele>848.7443304443359</ele>
        <time>2020-06-23T00:20:47Z</time>
      </trkpt>
      <trkpt lat="43.827831267451046" lon="87.6268736783379">
        <ele>848.8434729003907</ele>
        <time>2020-06-23T00:20:49Z</time>
      </trkpt>
      <trkpt lat="43.82782818102326" lon="87.62694156863401">
        <ele>848.8434729003907</ele>
        <time>2020-06-23T00:20:51Z</time>
      </trkpt>
      <trkpt lat="43.82782809868101" lon="87.62700746182787">
        <ele>848.9471911621093</ele>
        <time>2020-06-23T00:20:53Z</time>
      </trkpt>
      <trkpt lat="43.82783602207008" lon="87.62707235605782">
        <ele>848.9471911621093</ele>
        <time>2020-06-23T00:20:55Z</time>
      </trkpt>
      <trkpt lat="43.827846945807444" lon="87.62713824833791">
        <ele>848.9471911621093</ele>
        <time>2020-06-23T00:20:57Z</time>
      </trkpt>
      <trkpt lat="43.827859866801" lon="87.62720713545615">
        <ele>849.2598712158203</ele>
        <time>2020-06-23T00:20:59Z</time>
      </trkpt>
      <trkpt lat="43.82787179209943" lon="87.62727202895454">
        <ele>849.2598712158203</ele>
        <time>2020-06-23T00:21:01Z</time>
      </trkpt>
      <trkpt lat="43.827884717845734" lon="87.62733692223097">
        <ele>849.3269830322266</ele>
        <time>2020-06-23T00:21:03Z</time>
      </trkpt>
      <trkpt lat="43.827895642309564" lon="87.62740181543913">
        <ele>849.3269830322266</ele>
        <time>2020-06-23T00:21:05Z</time>
      </trkpt>
      <trkpt lat="43.827904559177234" lon="87.62747170038764">
        <ele>849.3269830322266</ele>
        <time>2020-06-23T00:21:07Z</time>
      </trkpt>
      <trkpt lat="43.82790846921653" lon="87.6275445804708">
        <ele>849.0117608642578</ele>
        <time>2020-06-23T00:21:09Z</time>
      </trkpt>
      <trkpt lat="43.82791238036118" lon="87.627616461984">
        <ele>849.0117608642578</ele>
        <time>2020-06-23T00:21:11Z</time>
      </trkpt>
      <trkpt lat="43.82791629261798" lon="87.6276873449363">
        <ele>849.2461437988281</ele>
        <time>2020-06-23T00:21:13Z</time>
      </trkpt>
      <trkpt lat="43.827921206570444" lon="87.62775722928534">
        <ele>849.2461437988281</ele>
        <time>2020-06-23T00:21:15Z</time>
      </trkpt>
      <trkpt lat="43.82792311737044" lon="87.62782811193907">
        <ele>849.2461437988281</ele>
        <time>2020-06-23T00:21:17Z</time>
      </trkpt>
      <trkpt lat="43.82792403254424" lon="87.62789500106454">
        <ele>849.2771575927734</ele>
        <time>2020-06-23T00:21:19Z</time>
      </trkpt>
      <trkpt lat="43.827928953723074" lon="87.6279588947803">
        <ele>849.2771575927734</ele>
        <time>2020-06-23T00:21:21Z</time>
      </trkpt>
      <trkpt lat="43.827938884060224" lon="87.62801779637907">
        <ele>848.6304437255859</ele>
        <time>2020-06-23T00:21:23Z</time>
      </trkpt>
      <trkpt lat="43.82795181089845" lon="87.62808069103477">
        <ele>848.6304437255859</ele>
        <time>2020-06-23T00:21:25Z</time>
      </trkpt>
      <trkpt lat="43.82796373319093" lon="87.62814658058771">
        <ele>847.4890344238281</ele>
        <time>2020-06-23T00:21:29Z</time>
      </trkpt>
      <trkpt lat="43.82797464192186" lon="87.62822245333628">
        <ele>848.2613287353515</ele>
        <time>2020-06-23T00:21:33Z</time>
      </trkpt>
      <trkpt lat="43.827983555764696" lon="87.62829333431515">
        <ele>848.2613287353515</ele>
        <time>2020-06-23T00:21:37Z</time>
      </trkpt>
      <trkpt lat="43.8279914688798" lon="87.62836421514574">
        <ele>849.3193566894531</ele>
        <time>2020-06-23T00:21:39Z</time>
      </trkpt>
      <trkpt lat="43.82800237453091" lon="87.62844208388444">
        <ele>849.3193566894531</ele>
        <time>2020-06-23T00:21:41Z</time>
      </trkpt>
      <trkpt lat="43.82801428057753" lon="87.62851995233198">
        <ele>849.66</ele>
        <time>2020-06-23T00:21:44Z</time>
      </trkpt>
      <trkpt lat="43.82802318860235" lon="87.62859482574324">
        <ele>849.66</ele>
        <time>2020-06-23T00:21:46Z</time>
      </trkpt>
      <trkpt lat="43.82802911291097" lon="87.62865572268883">
        <ele>849.6854211425781</ele>
        <time>2020-06-23T00:21:48Z</time>
      </trkpt>
      <trkpt lat="43.828036035085354" lon="87.62871861606115">
        <ele>849.6854211425781</ele>
        <time>2020-06-23T00:21:50Z</time>
      </trkpt>
      <trkpt lat="43.82804295453748" lon="87.62878350589669">
        <ele>849.6854211425781</ele>
        <time>2020-06-23T00:21:52Z</time>
      </trkpt>
      <trkpt lat="43.828048869374726" lon="87.62885139053843">
        <ele>849.9620031738282</ele>
        <time>2020-06-23T00:21:54Z</time>
      </trkpt>
      <trkpt lat="43.82805478538149" lon="87.62891827669526">
        <ele>849.9620031738282</ele>
        <time>2020-06-23T00:21:56Z</time>
      </trkpt>
      <trkpt lat="43.82806370560304" lon="87.62898316592016">
        <ele>849.8318469238282</ele>
        <time>2020-06-23T00:21:58Z</time>
      </trkpt>
      <trkpt lat="43.82807563660108" lon="87.62904106673234">
        <ele>849.8318469238282</ele>
        <time>2020-06-23T00:22:00Z</time>
      </trkpt>
      <trkpt lat="43.82809057447731" lon="87.62909497407132">
        <ele>849.8318469238282</ele>
        <time>2020-06-23T00:22:02Z</time>
      </trkpt>
      <trkpt lat="43.82810451037776" lon="87.62914987964317">
        <ele>850.0596203613281</ele>
        <time>2020-06-23T00:22:04Z</time>
      </trkpt>
      <trkpt lat="43.828118444874654" lon="87.62920578339043">
        <ele>850.0596203613281</ele>
        <time>2020-06-23T00:22:06Z</time>
      </trkpt>
      <trkpt lat="43.82813237533022" lon="87.62926468188807">
        <ele>850.0596203613281</ele>
        <time>2020-06-23T00:22:08Z</time>
      </trkpt>
      <trkpt lat="43.82814430980246" lon="87.62931958719956">
        <ele>850.1948608398437</ele>
        <time>2020-06-23T00:22:10Z</time>
      </trkpt>
      <trkpt lat="43.828154245671506" lon="87.62937249592355">
        <ele>850.1948608398437</ele>
        <time>2020-06-23T00:22:12Z</time>
      </trkpt>
      <trkpt lat="43.828167184510754" lon="87.62942440610088">
        <ele>850.4180584716797</ele>
        <time>2020-06-23T00:22:14Z</time>
      </trkpt>
      <trkpt lat="43.82818412293383" lon="87.62947831253372">
        <ele>850.4180584716797</ele>
        <time>2020-06-23T00:22:16Z</time>
      </trkpt>
      <trkpt lat="43.82820205655144" lon="87.62953621192365">
        <ele>850.4180584716797</ele>
        <time>2020-06-23T00:22:18Z</time>
      </trkpt>
      <trkpt lat="43.828215989088996" lon="87.62959311311096">
        <ele>850.3367108154297</ele>
        <time>2020-06-23T00:22:20Z</time>
      </trkpt>
      <trkpt lat="43.82822792037788" lon="87.6296500142757">
        <ele>850.3367108154297</ele>
        <time>2020-06-23T00:22:22Z</time>
      </trkpt>
      <trkpt lat="43.82823685382924" lon="87.62970392064848">
        <ele>850.2273999023438</ele>
        <time>2020-06-23T00:22:24Z</time>
      </trkpt>
      <trkpt lat="43.82824678910394" lon="87.62975682858652">
        <ele>850.2273999023438</ele>
        <time>2020-06-23T00:22:26Z</time>
      </trkpt>
      <trkpt lat="43.828259720698576" lon="87.62981372934134">
        <ele>850.2273999023438</ele>
        <time>2020-06-23T00:22:28Z</time>
      </trkpt>
      <trkpt lat="43.828274650684946" lon="87.62987262640375">
        <ele>850.5187261962891</ele>
        <time>2020-06-23T00:22:30Z</time>
      </trkpt>
      <trkpt lat="43.8282895805707" lon="87.62993152333308">
        <ele>850.5187261962891</ele>
        <time>2020-06-23T00:22:32Z</time>
      </trkpt>
      <trkpt lat="43.82830451436881" lon="87.62998742534127">
        <ele>850.8222546386719</ele>
        <time>2020-06-23T00:22:34Z</time>
      </trkpt>
      <trkpt lat="43.82831945611115" lon="87.63003733766519">
        <ele>850.8222546386719</ele>
        <time>2020-06-23T00:22:36Z</time>
      </trkpt>
      <trkpt lat="43.828334401802785" lon="87.63008425511673">
        <ele>850.8222546386719</ele>
        <time>2020-06-23T00:22:38Z</time>
      </trkpt>
      <trkpt lat="43.82834734359306" lon="87.63013316910123">
        <ele>851.0286743164063</ele>
        <time>2020-06-23T00:22:40Z</time>
      </trkpt>
      <trkpt lat="43.828357276866456" lon="87.63018707442465">
        <ele>851.0286743164063</ele>
        <time>2020-06-23T00:22:42Z</time>
      </trkpt>
      <trkpt lat="43.82836120255817" lon="87.63024397470409">
        <ele>851.2518719482422</ele>
        <time>2020-06-23T00:22:44Z</time>
      </trkpt>
      <trkpt lat="43.82836012796383" lon="87.6302988786148">
        <ele>851.2518719482422</ele>
        <time>2020-06-23T00:22:46Z</time>
      </trkpt>
      <trkpt lat="43.82835805944586" lon="87.63034879121744">
        <ele>851.2518719482422</ele>
        <time>2020-06-23T00:22:48Z</time>
      </trkpt>
      <trkpt lat="43.828361994319344" lon="87.63039870341811">
        <ele>851.2915289306641</ele>
        <time>2020-06-23T00:22:50Z</time>
      </trkpt>
      <trkpt lat="43.82836992737735" lon="87.63045161005503">
        <ele>851.2915289306641</ele>
        <time>2020-06-23T00:22:52Z</time>
      </trkpt>
      <trkpt lat="43.8283768530153" lon="87.63050950785262">
        <ele>851.7684295654296</ele>
        <time>2020-06-23T00:22:54Z</time>
      </trkpt>
      <trkpt lat="43.82837877702549" lon="87.63056640753892">
        <ele>851.7684295654296</ele>
        <time>2020-06-23T00:22:56Z</time>
      </trkpt>
      <trkpt lat="43.8283716957483" lon="87.63062330756429">
        <ele>851.7684295654296</ele>
        <time>2020-06-23T00:22:58Z</time>
      </trkpt>
      <trkpt lat="43.828360609354895" lon="87.63068220414567">
        <ele>851.9184143066407</ele>
        <time>2020-06-23T00:23:00Z</time>
      </trkpt>
      <trkpt lat="43.82835652418435" lon="87.63074309670617">
        <ele>851.9184143066407</ele>
        <time>2020-06-23T00:23:02Z</time>
      </trkpt>
      <trkpt lat="43.82836444719528" lon="87.63080299028027">
        <ele>852.1858447265626</ele>
        <time>2020-06-23T00:23:04Z</time>
      </trkpt>
      <trkpt lat="43.82838637545949" lon="87.63086487946136">
        <ele>852.1858447265626</ele>
        <time>2020-06-23T00:23:06Z</time>
      </trkpt>
      <trkpt lat="43.82841330923014" lon="87.63092477178775">
        <ele>852.1858447265626</ele>
        <time>2020-06-23T00:23:08Z</time>
      </trkpt>
      <trkpt lat="43.82844124074443" lon="87.63098666037872">
        <ele>852.4441235351562</ele>
        <time>2020-06-23T00:23:10Z</time>
      </trkpt>
      <trkpt lat="43.8284591650102" lon="87.6310495475618">
        <ele>852.4441235351562</ele>
        <time>2020-06-23T00:23:12Z</time>
      </trkpt>
      <trkpt lat="43.828465082237116" lon="87.63111243521244">
        <ele>852.5686871337891</ele>
        <time>2020-06-23T00:23:14Z</time>
      </trkpt>
      <trkpt lat="43.8284619982713" lon="87.63117232852274">
        <ele>852.5686871337891</ele>
        <time>2020-06-23T00:23:16Z</time>
      </trkpt>
      <trkpt lat="43.82845891420422" lon="87.63123222169956">
        <ele>852.5686871337891</ele>
        <time>2020-06-23T00:23:18Z</time>
      </trkpt>
      <trkpt lat="43.828462831327165" lon="87.63129411081152">
        <ele>852.6342736816406</ele>
        <time>2020-06-23T00:23:20Z</time>
      </trkpt>
      <trkpt lat="43.82847375100652" lon="87.63135699763373">
        <ele>852.6342736816406</ele>
        <time>2020-06-23T00:23:22Z</time>
      </trkpt>
      <trkpt lat="43.828483672754196" lon="87.63141788794258">
        <ele>852.9469537353516</ele>
        <time>2020-06-23T00:23:24Z</time>
      </trkpt>
      <trkpt lat="43.82848959208875" lon="87.6314787783193">
        <ele>852.9469537353516</ele>
        <time>2020-06-23T00:23:26Z</time>
      </trkpt>
      <trkpt lat="43.828492506824055" lon="87.63154166512194">
        <ele>852.9469537353516</ele>
        <time>2020-06-23T00:23:28Z</time>
      </trkpt>
      <trkpt lat="43.82849642617641" lon="87.63160155712067">
        <ele>852.8828924560547</ele>
        <time>2020-06-23T00:23:30Z</time>
      </trkpt>
      <trkpt lat="43.82850234935325" lon="87.6316594524844">
        <ele>852.8828924560547</ele>
        <time>2020-06-23T00:23:32Z</time>
      </trkpt>
      <trkpt lat="43.828517290111094" lon="87.63170836347936">
        <ele>853.1396459960938</ele>
        <time>2020-06-23T00:23:34Z</time>
      </trkpt>
      <trkpt lat="43.828536230335985" lon="87.63175927057429">
        <ele>853.1396459960938</ele>
        <time>2020-06-23T00:23:36Z</time>
      </trkpt>
      <trkpt lat="43.82855616689837" lon="87.6318131721065">
        <ele>853.1396459960938</ele>
        <time>2020-06-23T00:23:38Z</time>
      </trkpt>
      <trkpt lat="43.828571090757016" lon="87.63187406113568">
        <ele>853.2591253662109</ele>
        <time>2020-06-23T00:23:40Z</time>
      </trkpt>
      <trkpt lat="43.82858501114999" lon="87.63193694646047">
        <ele>853.2591253662109</ele>
        <time>2020-06-23T00:23:42Z</time>
      </trkpt>
      <trkpt lat="43.82859993479972" lon="87.63199783521392">
        <ele>853.5321484375</ele>
        <time>2020-06-23T00:23:44Z</time>
      </trkpt>
      <trkpt lat="43.82861485415837" lon="87.63206171838858">
        <ele>853.5321484375</ele>
        <time>2020-06-23T00:23:46Z</time>
      </trkpt>
      <trkpt lat="43.828623769940066" lon="87.63212560172231">
        <ele>853.5321484375</ele>
        <time>2020-06-23T00:23:48Z</time>
      </trkpt>
      <trkpt lat="43.82863168643146" lon="87.63218848677802">
        <ele>853.6068865966797</ele>
        <time>2020-06-23T00:23:50Z</time>
      </trkpt>
      <trkpt lat="43.82864161517929" lon="87.63224338615764">
        <ele>853.6068865966797</ele>
        <time>2020-06-23T00:23:52Z</time>
      </trkpt>
      <trkpt lat="43.828660550443445" lon="87.63229728678927">
        <ele>853.5341821289063</ele>
        <time>2020-06-23T00:23:54Z</time>
      </trkpt>
      <trkpt lat="43.828684488515" lon="87.63235118705904">
        <ele>853.5341821289063</ele>
        <time>2020-06-23T00:23:56Z</time>
      </trkpt>
      <trkpt lat="43.82871042906765" lon="87.63240408894801">
        <ele>853.5341821289063</ele>
        <time>2020-06-23T00:23:58Z</time>
      </trkpt>
      <trkpt lat="43.828736377986004" lon="87.63245100170816">
        <ele>853.8992297363282</ele>
        <time>2020-06-23T00:24:00Z</time>
      </trkpt>
      <trkpt lat="43.82876533984168" lon="87.6324899288763">
        <ele>853.8992297363282</ele>
        <time>2020-06-23T00:24:02Z</time>
      </trkpt>
      <trkpt lat="43.82880231754793" lon="87.6325208702295">
        <ele>854.0436218261718</ele>
        <time>2020-06-23T00:24:04Z</time>
      </trkpt>
      <trkpt lat="43.828846306319676" lon="87.6325468203498">
        <ele>854.0436218261718</ele>
        <time>2020-06-23T00:24:06Z</time>
      </trkpt>
      <trkpt lat="43.828892300460105" lon="87.63256977584201">
        <ele>854.0436218261718</ele>
        <time>2020-06-23T00:24:08Z</time>
      </trkpt>
      <trkpt lat="43.828936293432456" lon="87.63259273141783">
        <ele>853.9821026611328</ele>
        <time>2020-06-23T00:24:10Z</time>
      </trkpt>
      <trkpt lat="43.82897929145961" lon="87.63261169436389">
        <ele>853.9821026611328</ele>
        <time>2020-06-23T00:24:12Z</time>
      </trkpt>
      <trkpt lat="43.829022296537055" lon="87.63262566647197">
        <ele>853.9821026611328</ele>
        <time>2020-06-23T00:24:14Z</time>
      </trkpt>
      <trkpt lat="43.82906830757962" lon="87.63263664392512">
        <ele>854.2373309326172</ele>
        <time>2020-06-23T00:24:16Z</time>
      </trkpt>
      <trkpt lat="43.82911431720809" lon="87.6326486195382">
        <ele>854.2373309326172</ele>
        <time>2020-06-23T00:24:18Z</time>
      </trkpt>
      <trkpt lat="43.82916132882453" lon="87.6326595969309">
        <ele>854.1905560302735</ele>
        <time>2020-06-23T00:24:20Z</time>
      </trkpt>
      <trkpt lat="43.829204352255886" lon="87.63266059288806">
        <ele>854.1905560302735</ele>
        <time>2020-06-23T00:24:22Z</time>
      </trkpt>
      <trkpt lat="43.829245378770786" lon="87.63265859445626">
        <ele>854.1905560302735</ele>
        <time>2020-06-23T00:24:24Z</time>
      </trkpt>
      <trkpt lat="43.829287397388924" lon="87.63266258495617">
        <ele>853.9353277587891</ele>
        <time>2020-06-23T00:24:26Z</time>
      </trkpt>
      <trkpt lat="43.82933040952139" lon="87.63267156622176">
        <ele>853.9353277587891</ele>
        <time>2020-06-23T00:24:28Z</time>
      </trkpt>
      <trkpt lat="43.82937242814065" lon="87.63267555671976">
        <ele>854.1722528076172</ele>
        <time>2020-06-23T00:24:30Z</time>
      </trkpt>
      <trkpt lat="43.82941045010142" lon="87.63267555476962">
        <ele>854.1722528076172</ele>
        <time>2020-06-23T00:24:32Z</time>
      </trkpt>
      <trkpt lat="43.8294464709073" lon="87.6326755529221">
        <ele>854.1722528076172</ele>
        <time>2020-06-23T00:24:34Z</time>
      </trkpt>
      <trkpt lat="43.82948648978676" lon="87.63267854535898">
        <ele>854.1869970703125</ele>
        <time>2020-06-23T00:24:36Z</time>
      </trkpt>
      <trkpt lat="43.82953151014394" lon="87.63268253570199">
        <ele>854.1869970703125</ele>
        <time>2020-06-23T00:24:38Z</time>
      </trkpt>
      <trkpt lat="43.82957853307154" lon="87.63268552777886">
        <ele>854.1351379394531</ele>
        <time>2020-06-23T00:24:40Z</time>
      </trkpt>
      <trkpt lat="43.82962655375169" lon="87.63269051612961">
        <ele>854.1351379394531</ele>
        <time>2020-06-23T00:24:42Z</time>
      </trkpt>
      <trkpt lat="43.82967757192624" lon="87.63269849881303">
        <ele>854.1351379394531</ele>
        <time>2020-06-23T00:24:44Z</time>
      </trkpt>
      <trkpt lat="43.82973258817173" lon="87.63270947577516">
        <ele>854.044638671875</ele>
        <time>2020-06-23T00:24:46Z</time>
      </trkpt>
      <trkpt lat="43.82978860923695" lon="87.63271745819645">
        <ele>854.044638671875</ele>
        <time>2020-06-23T00:24:48Z</time>
      </trkpt>
      <trkpt lat="43.829840630818474" lon="87.63272344449767">
        <ele>854.0248101806641</ele>
        <time>2020-06-23T00:24:50Z</time>
      </trkpt>
      <trkpt lat="43.82988764668052" lon="87.63273142737681">
        <ele>854.0248101806641</ele>
        <time>2020-06-23T00:24:52Z</time>
      </trkpt>
      <trkpt lat="43.829931657977866" lon="87.6327414067295">
        <ele>854.0248101806641</ele>
        <time>2020-06-23T00:24:54Z</time>
      </trkpt>
      <trkpt lat="43.829974663034875" lon="87.6327553787718">
        <ele>853.8417779541015</ele>
        <time>2020-06-23T00:24:56Z</time>
      </trkpt>
      <trkpt lat="43.830018675743894" lon="87.63276435995579">
        <ele>853.8417779541015</ele>
        <time>2020-06-23T00:24:58Z</time>
      </trkpt>
      <trkpt lat="43.83006469102456" lon="87.6327723428744">
        <ele>853.6251898193359</ele>
        <time>2020-06-23T00:25:00Z</time>
      </trkpt>
      <trkpt lat="43.83011271454098" lon="87.63277533489006">
        <ele>853.6251898193359</ele>
        <time>2020-06-23T00:25:02Z</time>
      </trkpt>
      <trkpt lat="43.83015873265422" lon="87.63278132148662">
        <ele>853.6251898193359</ele>
        <time>2020-06-23T00:25:04Z</time>
      </trkpt>
      <trkpt lat="43.83020374735726" lon="87.63278930445163">
        <ele>853.5418084716797</ele>
        <time>2020-06-23T00:25:06Z</time>
      </trkpt>
      <trkpt lat="43.830250760384274" lon="87.63279928362942">
        <ele>853.5418084716797</ele>
        <time>2020-06-23T00:25:08Z</time>
      </trkpt>
      <trkpt lat="43.8302987796552" lon="87.63280527011811">
        <ele>853.4436828613282</ele>
        <time>2020-06-23T00:25:10Z</time>
      </trkpt>
      <trkpt lat="43.83034279802916" lon="87.63281025865238">
        <ele>853.4436828613282</ele>
        <time>2020-06-23T00:25:12Z</time>
      </trkpt>
      <trkpt lat="43.83038581724201" lon="87.6328142490788">
        <ele>853.4436828613282</ele>
        <time>2020-06-23T00:25:14Z</time>
      </trkpt>
      <trkpt lat="43.830428825119455" lon="87.63282622476868">
        <ele>853.4487670898437</ele>
        <time>2020-06-23T00:25:16Z</time>
      </trkpt>
      <trkpt lat="43.830475831056496" lon="87.6328411947202">
        <ele>853.4487670898437</ele>
        <time>2020-06-23T00:25:18Z</time>
      </trkpt>
      <trkpt lat="43.83052182932018" lon="87.63286115549855">
        <ele>853.4019921875</ele>
        <time>2020-06-23T00:25:20Z</time>
      </trkpt>
      <trkpt lat="43.83056483293113" lon="87.63287612563661">
        <ele>853.4019921875</ele>
        <time>2020-06-23T00:25:22Z</time>
      </trkpt>
      <trkpt lat="43.83060583963632" lon="87.63288810140249">
        <ele>853.4019921875</ele>
        <time>2020-06-23T00:25:24Z</time>
      </trkpt>
      <trkpt lat="43.83064986510301" lon="87.63288809914397">
        <ele>853.2794622802735</ele>
        <time>2020-06-23T00:25:26Z</time>
      </trkpt>
      <trkpt lat="43.83069389766482" lon="87.63288310610677">
        <ele>853.2794622802735</ele>
        <time>2020-06-23T00:25:28Z</time>
      </trkpt>
      <trkpt lat="43.83073593616201" lon="87.63287312239088">
        <ele>852.9688159179688</ele>
        <time>2020-06-23T00:25:30Z</time>
      </trkpt>
      <trkpt lat="43.83077595931715" lon="87.63287312033769">
        <ele>852.9688159179688</ele>
        <time>2020-06-23T00:25:32Z</time>
      </trkpt>
      <trkpt lat="43.830817975120276" lon="87.63287910711827">
        <ele>852.9688159179688</ele>
        <time>2020-06-23T00:25:34Z</time>
      </trkpt>
      <trkpt lat="43.83086299407926" lon="87.6328840955878">
        <ele>853.4289385986328</ele>
        <time>2020-06-23T00:25:36Z</time>
      </trkpt>
      <trkpt lat="43.830910014196974" lon="87.63288908395376">
        <ele>853.4289385986328</ele>
        <time>2020-06-23T00:25:38Z</time>
      </trkpt>
      <trkpt lat="43.83095503315752" lon="87.63289407242145">
        <ele>853.4467333984375</ele>
        <time>2020-06-23T00:25:40Z</time>
      </trkpt>
      <trkpt lat="43.831002047600236" lon="87.63290305340628">
        <ele>853.4467333984375</ele>
        <time>2020-06-23T00:25:42Z</time>
      </trkpt>
      <trkpt lat="43.83104806146322" lon="87.63291203443956">
        <ele>853.4467333984375</ele>
        <time>2020-06-23T00:25:44Z</time>
      </trkpt>
      <trkpt lat="43.83109307190692" lon="87.63292301183009">
        <ele>853.5011346435547</ele>
        <time>2020-06-23T00:25:46Z</time>
      </trkpt>
      <trkpt lat="43.831134084292266" lon="87.63293099495945">
        <ele>853.5011346435547</ele>
        <time>2020-06-23T00:25:48Z</time>
      </trkpt>
      <trkpt lat="43.8311730940985" lon="87.632939976343">
        <ele>853.6368835449218</ele>
        <time>2020-06-23T00:25:50Z</time>
      </trkpt>
      <trkpt lat="43.83121210248313" lon="87.63294995587708">
        <ele>853.6368835449218</ele>
        <time>2020-06-23T00:25:52Z</time>
      </trkpt>
      <trkpt lat="43.83125311060382" lon="87.63296093345798">
        <ele>853.6368835449218</ele>
        <time>2020-06-23T00:25:54Z</time>
      </trkpt>
      <trkpt lat="43.83129412866938" lon="87.63296492396515">
        <ele>853.966849975586</ele>
        <time>2020-06-23T00:25:56Z</time>
      </trkpt>
      <trkpt lat="43.83133714647323" lon="87.6329699125218">
        <ele>853.966849975586</ele>
        <time>2020-06-23T00:25:58Z</time>
      </trkpt>
      <trkpt lat="43.8313811605934" lon="87.63297789548368">
        <ele>853.7045037841797</ele>
        <time>2020-06-23T00:26:00Z</time>
      </trkpt>
      <trkpt lat="43.83143017334543" lon="87.63298887264284">
        <ele>853.7045037841797</ele>
        <time>2020-06-23T00:26:02Z</time>
      </trkpt>
      <trkpt lat="43.831480192362434" lon="87.63299585713948">
        <ele>853.7045037841797</ele>
        <time>2020-06-23T00:26:04Z</time>
      </trkpt>
      <trkpt lat="43.83153221680436" lon="87.63299984707689">
        <ele>853.8234747314453</ele>
        <time>2020-06-23T00:26:06Z</time>
      </trkpt>
      <trkpt lat="43.83158824498754" lon="87.63300283865685">
        <ele>853.8234747314453</ele>
        <time>2020-06-23T00:26:08Z</time>
      </trkpt>
      <trkpt lat="43.83164227059166" lon="87.63300682849056">
        <ele>854.0675177001954</ele>
        <time>2020-06-23T00:26:10Z</time>
      </trkpt>
      <trkpt lat="43.8316922896127" lon="87.63301381298261">
        <ele>854.0675177001954</ele>
        <time>2020-06-23T00:26:12Z</time>
      </trkpt>
      <trkpt lat="43.83174030463015" lon="87.6330227938773">
        <ele>854.0675177001954</ele>
        <time>2020-06-23T00:26:14Z</time>
      </trkpt>
      <trkpt lat="43.83178932022664" lon="87.63303177471774">
        <ele>854.2830889892579</ele>
        <time>2020-06-23T00:26:16Z</time>
      </trkpt>
      <trkpt lat="43.831837346625726" lon="87.63303277040401">
        <ele>854.2830889892579</ele>
        <time>2020-06-23T00:26:18Z</time>
      </trkpt>
      <trkpt lat="43.831882384091124" lon="87.63302478288898">
        <ele>854.2830889892579</ele>
        <time>2020-06-23T00:26:20Z</time>
      </trkpt>
      <trkpt lat="43.831925424663595" lon="87.63301380102112">
        <ele>854.1859802246094</ele>
        <time>2020-06-23T00:26:22Z</time>
      </trkpt>
      <trkpt lat="43.83197145844126" lon="87.6330088079035">
        <ele>854.1859802246094</ele>
        <time>2020-06-23T00:26:24Z</time>
      </trkpt>
      <trkpt lat="43.83201348136849" lon="87.63300980389862">
        <ele>853.999389038086</ele>
        <time>2020-06-23T00:26:26Z</time>
      </trkpt>
      <trkpt lat="43.83205150482201" lon="87.63300880379651">
        <ele>853.999389038086</ele>
        <time>2020-06-23T00:26:28Z</time>
      </trkpt>
      <trkpt lat="43.83208553591101" lon="87.63300081683944">
        <ele>853.999389038086</ele>
        <time>2020-06-23T00:26:30Z</time>
      </trkpt>
      <trkpt lat="43.83212458269208" lon="87.63298384625513">
        <ele>853.9932879638671</ele>
        <time>2020-06-23T00:26:32Z</time>
      </trkpt>
      <trkpt lat="43.832170643471514" lon="87.63295988823081">
        <ele>853.9932879638671</ele>
        <time>2020-06-23T00:26:34Z</time>
      </trkpt>
      <trkpt lat="43.832225716556295" lon="87.63293093895417">
        <ele>853.9154992675782</ele>
        <time>2020-06-23T00:26:36Z</time>
      </trkpt>
      <trkpt lat="43.8322807896205" lon="87.63290198964778">
        <ele>853.9154992675782</ele>
        <time>2020-06-23T00:26:38Z</time>
      </trkpt>
      <trkpt lat="43.83232984641735" lon="87.6328820240233">
        <ele>853.9154992675782</ele>
        <time>2020-06-23T00:26:40Z</time>
      </trkpt>
      <trkpt lat="43.832370887219156" lon="87.63287004404634">
        <ele>853.9424456787109</ele>
        <time>2020-06-23T00:26:42Z</time>
      </trkpt>
      <trkpt lat="43.83240791718954" lon="87.63286405320893">
        <ele>853.9424456787109</ele>
        <time>2020-06-23T00:26:44Z</time>
      </trkpt>
      <trkpt lat="43.83244794322784" lon="87.63286205484263">
        <ele>853.2748864746094</ele>
        <time>2020-06-23T00:26:46Z</time>
      </trkpt>
      <trkpt lat="43.83249396282061" lon="87.63286704326342">
        <ele>853.2748864746094</ele>
        <time>2020-06-23T00:26:48Z</time>
      </trkpt>
      <trkpt lat="43.83254497396685" lon="87.63288001667475">
        <ele>853.2748864746094</ele>
        <time>2020-06-23T00:26:50Z</time>
      </trkpt>
      <trkpt lat="43.83259797349896" lon="87.6329019733746">
        <ele>853.4238543701172</ele>
        <time>2020-06-23T00:26:52Z</time>
      </trkpt>
      <trkpt lat="43.83264796134012" lon="87.63293091729045">
        <ele>853.4238543701172</ele>
        <time>2020-06-23T00:26:54Z</time>
      </trkpt>
      <trkpt lat="43.83269194567892" lon="87.63295986148437">
        <ele>853.3003076171875</ele>
        <time>2020-06-23T00:26:56Z</time>
      </trkpt>
      <trkpt lat="43.832732936784375" lon="87.63298281688972">
        <ele>853.3003076171875</ele>
        <time>2020-06-23T00:26:58Z</time>
      </trkpt>
      <trkpt lat="43.83277194377828" lon="87.63299379455967">
        <ele>853.3003076171875</ele>
        <time>2020-06-23T00:27:00Z</time>
      </trkpt>
      <trkpt lat="43.83280895814075" lon="87.63299878341877">
        <ele>851.6997924804688</ele>
        <time>2020-06-23T00:27:02Z</time>
      </trkpt>
      <trkpt lat="43.83284196449411" lon="87.6330077650879">
        <ele>851.6997924804688</ele>
        <time>2020-06-23T00:27:04Z</time>
      </trkpt>
      <trkpt lat="43.83287494524024" lon="87.63303471346636">
        <ele>850.920888671875</ele>
        <time>2020-06-23T00:27:08Z</time>
      </trkpt>
      <trkpt lat="43.832907903187845" lon="87.63307763220487">
        <ele>852.1126318359375</ele>
        <time>2020-06-23T00:27:12Z</time>
      </trkpt>
      <trkpt lat="43.832943854276614" lon="87.63312653960708">
        <ele>852.1126318359375</ele>
        <time>2020-06-23T00:27:14Z</time>
      </trkpt>
      <trkpt lat="43.832974816664034" lon="87.63316546572555">
        <ele>851.3845703125</ele>
        <time>2020-06-23T00:27:18Z</time>
      </trkpt>
      <trkpt lat="43.83300378498683" lon="87.63319940117076">
        <ele>851.3845703125</ele>
        <time>2020-06-23T00:27:20Z</time>
      </trkpt>
      <trkpt lat="43.833029764389906" lon="87.63322435343781">
        <ele>851.3428796386719</ele>
        <time>2020-06-23T00:27:22Z</time>
      </trkpt>
      <trkpt lat="43.833058755517435" lon="87.63324231852856">
        <ele>851.3428796386719</ele>
        <time>2020-06-23T00:27:24Z</time>
      </trkpt>
      <trkpt lat="43.833089763513684" lon="87.63324930393696">
        <ele>851.2289929199219</ele>
        <time>2020-06-23T00:27:26Z</time>
      </trkpt>
      <trkpt lat="43.833122789813416" lon="87.63324431152824">
        <ele>851.2289929199219</ele>
        <time>2020-06-23T00:27:28Z</time>
      </trkpt>
      <trkpt lat="43.8331588292804" lon="87.63323133381864">
        <ele>851.2289929199219</ele>
        <time>2020-06-23T00:27:30Z</time>
      </trkpt>
      <trkpt lat="43.833194870171475" lon="87.63321735795923">
        <ele>850.9463098144531</ele>
        <time>2020-06-23T00:27:32Z</time>
      </trkpt>
      <trkpt lat="43.83323189593657" lon="87.6332143616276">
        <ele>850.9463098144531</ele>
        <time>2020-06-23T00:27:34Z</time>
      </trkpt>
      <trkpt lat="43.833269906578415" lon="87.63322234482715">
        <ele>851.7099609375</ele>
        <time>2020-06-23T00:27:36Z</time>
      </trkpt>
      <trkpt lat="43.83331190240365" lon="87.63324230553756">
        <ele>851.7099609375</ele>
        <time>2020-06-23T00:27:38Z</time>
      </trkpt>
      <trkpt lat="43.833355895093945" lon="87.63326526055783">
        <ele>851.7099609375</ele>
        <time>2020-06-23T00:27:40Z</time>
      </trkpt>
      <trkpt lat="43.83339889433839" lon="87.63328322490344">
        <ele>852.9494958496094</ele>
        <time>2020-06-23T00:27:42Z</time>
      </trkpt>
      <trkpt lat="43.83344290416521" lon="87.63329420219895">
        <ele>852.9494958496094</ele>
        <time>2020-06-23T00:27:44Z</time>
      </trkpt>
      <trkpt lat="43.833481915376275" lon="87.63330218532445">
        <ele>853.214892578125</ele>
        <time>2020-06-23T00:27:47Z</time>
      </trkpt>
      <trkpt lat="43.833522927748305" lon="87.63331016834498">
        <ele>853.214892578125</ele>
        <time>2020-06-23T00:27:49Z</time>
      </trkpt>
      <trkpt lat="43.83356093694685" lon="87.63331914965757">
        <ele>853.0089813232422</ele>
        <time>2020-06-23T00:27:51Z</time>
      </trkpt>
      <trkpt lat="43.8336059473489" lon="87.63333012688767">
        <ele>853.0089813232422</ele>
        <time>2020-06-23T00:27:53Z</time>
      </trkpt>
      <trkpt lat="43.83365495148611" lon="87.63334709274446">
        <ele>853.0089813232422</ele>
        <time>2020-06-23T00:27:55Z</time>
      </trkpt>
      <trkpt lat="43.83370695449676" lon="87.6333660547143">
        <ele>853.2743780517578</ele>
        <time>2020-06-23T00:27:57Z</time>
      </trkpt>
      <trkpt lat="43.83376195781035" lon="87.63338601465523">
        <ele>853.2743780517578</ele>
        <time>2020-06-23T00:27:59Z</time>
      </trkpt>
      <trkpt lat="43.833814964251495" lon="87.63340298027296">
        <ele>852.8432354736328</ele>
        <time>2020-06-23T00:28:01Z</time>
      </trkpt>
      <trkpt lat="43.83386096805264" lon="87.63341894810324">
        <ele>852.8432354736328</ele>
        <time>2020-06-23T00:28:03Z</time>
      </trkpt>
      <trkpt lat="43.8339039701052" lon="87.63343491607854">
        <ele>852.8432354736328</ele>
        <time>2020-06-23T00:28:05Z</time>
      </trkpt>
      <trkpt lat="43.8339419749823" lon="87.6334468917588">
        <ele>850.8644537353516</ele>
        <time>2020-06-23T00:28:09Z</time>
      </trkpt>
      <trkpt lat="43.83397998559305" lon="87.63345487489231">
        <ele>851.3215258789063</ele>
        <time>2020-06-23T00:28:11Z</time>
      </trkpt>
      <trkpt lat="43.83401606815433" lon="87.63341195318502">
        <ele>851.0210479736328</ele>
        <time>2020-06-23T00:28:36Z</time>
      </trkpt>
      <trkpt lat="43.834068072578425" lon="87.63342991697475">
        <ele>850.4216174316406</ele>
        <time>2020-06-23T00:28:40Z</time>
      </trkpt>
      <trkpt lat="43.834113074361056" lon="87.63344688297681">
        <ele>851.3611828613282</ele>
        <time>2020-06-23T00:28:42Z</time>
      </trkpt>
      <trkpt lat="43.83415207982107" lon="87.63345885860055">
        <ele>851.3611828613282</ele>
        <time>2020-06-23T00:28:44Z</time>
      </trkpt>
      <trkpt lat="43.83419808934724" lon="87.63347083385969">
        <ele>851.3611828613282</ele>
        <time>2020-06-23T00:28:46Z</time>
      </trkpt>
      <trkpt lat="43.83425110867928" lon="87.63347881621597">
        <ele>852.2331280517578</ele>
        <time>2020-06-23T00:28:48Z</time>
      </trkpt>
      <trkpt lat="43.834306133478904" lon="87.63348380406401">
        <ele>852.2331280517578</ele>
        <time>2020-06-23T00:28:50Z</time>
      </trkpt>
      <trkpt lat="43.83436217177501" lon="87.63347980864981">
        <ele>851.7704632568359</ele>
        <time>2020-06-23T00:28:52Z</time>
      </trkpt>
      <trkpt lat="43.83441721092604" lon="87.63347481515164">
        <ele>851.7704632568359</ele>
        <time>2020-06-23T00:28:54Z</time>
      </trkpt>
      <trkpt lat="43.83447226011911" lon="87.63346283470712">
        <ele>851.7704632568359</ele>
        <time>2020-06-23T00:28:56Z</time>
      </trkpt>
      <trkpt lat="43.834524303263905" lon="87.63345384881833">
        <ele>851.8182550048829</ele>
        <time>2020-06-23T00:28:58Z</time>
      </trkpt>
      <trkpt lat="43.83457534726066" lon="87.63344386484226">
        <ele>851.8182550048829</ele>
        <time>2020-06-23T00:29:00Z</time>
      </trkpt>
      <trkpt lat="43.834621379747155" lon="87.63343986993608">
        <ele>851.3449133300782</ele>
        <time>2020-06-23T00:29:02Z</time>
      </trkpt>
      <trkpt lat="43.83466641165308" lon="87.63343587508072">
        <ele>851.3449133300782</ele>
        <time>2020-06-23T00:29:04Z</time>
      </trkpt>
      <trkpt lat="43.83471044154488" lon="87.63343287841242">
        <ele>851.3449133300782</ele>
        <time>2020-06-23T00:29:06Z</time>
      </trkpt>
      <trkpt lat="43.834752470274445" lon="87.63342988184651">
        <ele>850.0448760986328</ele>
        <time>2020-06-23T00:29:08Z</time>
      </trkpt>
      <trkpt lat="43.83479149725992" lon="87.63342688543437">
        <ele>850.0448760986328</ele>
        <time>2020-06-23T00:29:10Z</time>
      </trkpt>
    </trkseg>
  </trk>
</gpx>