<?xml version="1.0" encoding="UTF-8"?>
<gpx xmlns="http://www.topografix.com/GPX/1/1" xmlns:gpxtpx="http://www.garmin.com/xmlschemas/TrackPointExtension/v1" xmlns:xsi="http://www.w3.org/2001/XMLSchema-instance" xsi:schemaLocation="http://www.topografix.com/GPX/1/1 http://www.topografix.com/GPX/1/1/gpx.xsd" version="1.1" creator="gpx.py -- https://github.com/tkrajina/gpxpy">
  <trk>
    <name>gpx from codoon</name>
    <type>Run</type>
    <trkseg>
      <trkpt lat="39.91651731129437" lon="116.65071196111286">
        <ele>22.39894676208496</ele>
        <time>2018-05-26T23:24:06Z</time>
      </trkpt>
      <trkpt lat="39.91651528396129" lon="116.65072692077686">
        <ele>31.955087661743164</ele>
        <time>2018-05-26T23:24:08Z</time>
      </trkpt>
      <trkpt lat="39.9165092970103" lon="116.65071994045108">
        <ele>30.153474807739258</ele>
        <time>2018-05-26T23:24:09Z</time>
      </trkpt>
      <trkpt lat="39.916478333048495" lon="116.65070099565283">
        <ele>33.075016021728516</ele>
        <time>2018-05-26T23:24:12Z</time>
      </trkpt>
      <trkpt lat="39.91640940906273" lon="116.65066111230497">
        <ele>21.252872467041016</ele>
        <time>2018-05-26T23:24:14Z</time>
      </trkpt>
      <trkpt lat="39.916307466360905" lon="116.65063220323437">
        <ele>29.421520233154297</ele>
        <time>2018-05-26T23:24:18Z</time>
      </trkpt>
      <trkpt lat="39.91622547713883" lon="116.65062822410572">
        <ele>33.83818054199219</ele>
        <time>2018-05-26T23:24:20Z</time>
      </trkpt>
      <trkpt lat="39.91615453676808" lon="116.6505973166234">
        <ele>30.21314239501953</ele>
        <time>2018-05-26T23:24:22Z</time>
      </trkpt>
      <trkpt lat="39.91609858296887" lon="116.65057338836513">
        <ele>40.22779846191406</ele>
        <time>2018-05-26T23:24:24Z</time>
      </trkpt>
      <trkpt lat="39.9160206246176" lon="116.65055245468713">
        <ele>45.747318267822266</ele>
        <time>2018-05-26T23:24:26Z</time>
      </trkpt>
      <trkpt lat="39.91594661497162" lon="116.65055944484344">
        <ele>44.935543060302734</ele>
        <time>2018-05-26T23:24:28Z</time>
      </trkpt>
      <trkpt lat="39.915884604817215" lon="116.65056643352739">
        <ele>42.005699157714844</ele>
        <time>2018-05-26T23:24:30Z</time>
      </trkpt>
      <trkpt lat="39.91576360629413" lon="116.65056844295971">
        <ele>37.49827194213867</ele>
        <time>2018-05-26T23:24:32Z</time>
      </trkpt>
      <trkpt lat="39.91561553951984" lon="116.65060835298308">
        <ele>30.8231143951416</ele>
        <time>2018-05-26T23:24:43Z</time>
      </trkpt>
      <trkpt lat="39.91467921739947" lon="116.65080593214493">
        <ele>17.49770164489746</ele>
        <time>2018-05-26T23:25:17Z</time>
      </trkpt>
      <trkpt lat="39.91449215402297" lon="116.65084484949857">
        <ele>4.423830032348633</ele>
        <time>2018-05-26T23:25:29Z</time>
      </trkpt>
      <trkpt lat="39.91433112611952" lon="116.65086381779741">
        <ele>8.843754768371582</ele>
        <time>2018-05-26T23:25:31Z</time>
      </trkpt>
      <trkpt lat="39.91339879240395" lon="116.65106737935882">
        <ele>20.366262435913086</ele>
        <time>2018-05-26T23:26:11Z</time>
      </trkpt>
      <trkpt lat="39.9132197579166" lon="116.65109033894936">
        <ele>20.35967254638672</ele>
        <time>2018-05-26T23:26:15Z</time>
      </trkpt>
      <trkpt lat="39.91308572700012" lon="116.65111030114839">
        <ele>27.52997398376465</ele>
        <time>2018-05-26T23:26:21Z</time>
      </trkpt>
      <trkpt lat="39.91233938305019" lon="116.65131483635848">
        <ele>-4.983996391296387</ele>
        <time>2018-05-26T23:26:52Z</time>
      </trkpt>
      <trkpt lat="39.91203555568357" lon="116.65122810980134">
        <ele>-0.22917766869068146</ele>
        <time>2018-05-26T23:27:03Z</time>
      </trkpt>
      <trkpt lat="39.91184067223526" lon="116.65116929379836">
        <ele>0.335389643907547</ele>
        <time>2018-05-26T23:27:05Z</time>
      </trkpt>
      <trkpt lat="39.91176466450159" lon="116.65117528684121">
        <ele>15.477261543273926</ele>
        <time>2018-05-26T23:27:09Z</time>
      </trkpt>
      <trkpt lat="39.911686594515274" lon="116.65121518787767">
        <ele>35.49192428588867</ele>
        <time>2018-05-26T23:27:14Z</time>
      </trkpt>
      <trkpt lat="39.911643462472824" lon="116.65128799501805">
        <ele>42.37291717529297</ele>
        <time>2018-05-26T23:27:19Z</time>
      </trkpt>
      <trkpt lat="39.911646229263766" lon="116.65141464974478">
        <ele>42.0074577331543</ele>
        <time>2018-05-26T23:27:21Z</time>
      </trkpt>
      <trkpt lat="39.91173093721655" lon="116.65157121257727">
        <ele>42.61017990112305</ele>
        <time>2018-05-26T23:27:27Z</time>
      </trkpt>
      <trkpt lat="39.91183066448119" lon="116.65171680311059">
        <ele>33.18312072753906</ele>
        <time>2018-05-26T23:27:36Z</time>
      </trkpt>
      <trkpt lat="39.91192849835745" lon="116.65180455151575">
        <ele>37.722347259521484</ele>
        <time>2018-05-26T23:27:38Z</time>
      </trkpt>
      <trkpt lat="39.91202718660061" lon="116.65197108438588">
        <ele>34.38056182861328</ele>
        <time>2018-05-26T23:27:40Z</time>
      </trkpt>
      <trkpt lat="39.91212987805446" lon="116.65213562178135">
        <ele>49.293033599853516</ele>
        <time>2018-05-26T23:27:56Z</time>
      </trkpt>
      <trkpt lat="39.912287469007794" lon="116.65235300724194">
        <ele>41.5602912902832</ele>
        <time>2018-05-26T23:27:58Z</time>
      </trkpt>
      <trkpt lat="39.91245034382392" lon="116.65241681238022">
        <ele>46.4515495300293</ele>
        <time>2018-05-26T23:28:07Z</time>
      </trkpt>
      <trkpt lat="39.91259621008954" lon="116.6524856058717">
        <ele>21.494173049926758</ele>
        <time>2018-05-26T23:28:11Z</time>
      </trkpt>
      <trkpt lat="39.912675143871645" lon="116.65251950322089">
        <ele>25.159456253051758</ele>
        <time>2018-05-26T23:28:13Z</time>
      </trkpt>
      <trkpt lat="39.91268501219318" lon="116.65259030781829">
        <ele>37.33717727661133</ele>
        <time>2018-05-26T23:28:16Z</time>
      </trkpt>
      <trkpt lat="39.91272090894204" lon="116.65264515293104">
        <ele>29.943586349487305</ele>
        <time>2018-05-26T23:28:18Z</time>
      </trkpt>
      <trkpt lat="39.912760851737836" lon="116.65267506592924">
        <ele>16.95360565185547</ele>
        <time>2018-05-26T23:28:20Z</time>
      </trkpt>
      <trkpt lat="39.91279972610367" lon="116.65274187775191">
        <ele>18.13642692565918</ele>
        <time>2018-05-26T23:28:22Z</time>
      </trkpt>
      <trkpt lat="39.91283953002495" lon="116.65284658530307">
        <ele>18.37590789794922</ele>
        <time>2018-05-26T23:28:25Z</time>
      </trkpt>
      <trkpt lat="39.91295512857119" lon="116.65305998452658">
        <ele>21.771297454833984</ele>
        <time>2018-05-26T23:28:32Z</time>
      </trkpt>
      <trkpt lat="39.91309285004223" lon="116.65320656429644">
        <ele>79.74880981445312</ele>
        <time>2018-05-26T23:28:44Z</time>
      </trkpt>
      <trkpt lat="39.91327462883016" lon="116.65332122623845">
        <ele>68.96027374267578</ele>
        <time>2018-05-26T23:28:47Z</time>
      </trkpt>
      <trkpt lat="39.91337963919378" lon="116.65331323532169">
        <ele>60.200439453125</ele>
        <time>2018-05-26T23:28:55Z</time>
      </trkpt>
      <trkpt lat="39.91415086847693" lon="116.65370904922422">
        <ele>48.173683166503906</ele>
        <time>2018-05-26T23:29:21Z</time>
      </trkpt>
      <trkpt lat="39.91426215423632" lon="116.65408898603403">
        <ele>56.50598907470703</ele>
        <time>2018-05-26T23:29:28Z</time>
      </trkpt>
      <trkpt lat="39.9144017920936" lon="116.65427944200124">
        <ele>55.80615997314453</ele>
        <time>2018-05-26T23:29:30Z</time>
      </trkpt>
      <trkpt lat="39.91451363430665" lon="116.6543612019148">
        <ele>67.0322036743164</ele>
        <time>2018-05-26T23:29:35Z</time>
      </trkpt>
      <trkpt lat="39.91461843380991" lon="116.65446589907172">
        <ele>72.01200866699219</ele>
        <time>2018-05-26T23:29:41Z</time>
      </trkpt>
      <trkpt lat="39.914661211563285" lon="116.65458356776779">
        <ele>66.27747344970703</ele>
        <time>2018-05-26T23:29:45Z</time>
      </trkpt>
      <trkpt lat="39.914700114600265" lon="116.65463442201371">
        <ele>63.318702697753906</ele>
        <time>2018-05-26T23:29:47Z</time>
      </trkpt>
      <trkpt lat="39.914749073266265" lon="116.65465535794257">
        <ele>61.100914001464844</ele>
        <time>2018-05-26T23:29:50Z</time>
      </trkpt>
      <trkpt lat="39.91480701846057" lon="116.6546832734058">
        <ele>52.876461029052734</ele>
        <time>2018-05-26T23:29:53Z</time>
      </trkpt>
      <trkpt lat="39.91485894146751" lon="116.65472315641006">
        <ele>20.8154239654541</ele>
        <time>2018-05-26T23:29:55Z</time>
      </trkpt>
      <trkpt lat="39.91488071610212" lon="116.65484282175267">
        <ele>23.721351623535156</ele>
        <time>2018-05-26T23:29:59Z</time>
      </trkpt>
      <trkpt lat="39.91490249809772" lon="116.65495849798464">
        <ele>39.61361312866211</ele>
        <time>2018-05-26T23:30:03Z</time>
      </trkpt>
      <trkpt lat="39.91496226899709" lon="116.65507915552841">
        <ele>46.58106231689453</ele>
        <time>2018-05-26T23:30:05Z</time>
      </trkpt>
      <trkpt lat="39.915066169051244" lon="116.65513000146537">
        <ele>64.42372131347656</ele>
        <time>2018-05-26T23:30:09Z</time>
      </trkpt>
      <trkpt lat="39.91514504016633" lon="116.65519680609599">
        <ele>50.55872344970703</ele>
        <time>2018-05-26T23:30:15Z</time>
      </trkpt>
      <trkpt lat="39.91518393168683" lon="116.65525364330631">
        <ele>53.4460563659668</ele>
        <time>2018-05-26T23:30:17Z</time>
      </trkpt>
      <trkpt lat="39.91520086160894" lon="116.65529053863544">
        <ele>54.366065979003906</ele>
        <time>2018-05-26T23:30:19Z</time>
      </trkpt>
      <trkpt lat="39.91524384103584" lon="116.65530050562622">
        <ele>57.28010940551758</ele>
        <time>2018-05-26T23:30:21Z</time>
      </trkpt>
      <trkpt lat="39.91532075152005" lon="116.65534636860404">
        <ele>50.12372970581055</ele>
        <time>2018-05-26T23:30:23Z</time>
      </trkpt>
      <trkpt lat="39.915438489542936" lon="116.65548297403436">
        <ele>46.16324234008789</ele>
        <time>2018-05-26T23:30:32Z</time>
      </trkpt>
      <trkpt lat="39.91553619446708" lon="116.65563753170741">
        <ele>35.1035270690918</ele>
        <time>2018-05-26T23:30:36Z</time>
      </trkpt>
      <trkpt lat="39.915597784224595" lon="116.65585392120131">
        <ele>29.982240676879883</ele>
        <time>2018-05-26T23:30:38Z</time>
      </trkpt>
      <trkpt lat="39.91560933810666" lon="116.65609026063673">
        <ele>71.26586151123047</ele>
        <time>2018-05-26T23:30:53Z</time>
      </trkpt>
      <trkpt lat="39.915631866605494" lon="116.65633956186493">
        <ele>52.64714050292969</ele>
        <time>2018-05-26T23:30:57Z</time>
      </trkpt>
      <trkpt lat="39.915651583213275" lon="116.65648914149997">
        <ele>42.74810028076172</ele>
        <time>2018-05-26T23:30:59Z</time>
      </trkpt>
      <trkpt lat="39.91566744119948" lon="116.65656393048594">
        <ele>40.23940658569336</ele>
        <time>2018-05-26T23:31:01Z</time>
      </trkpt>
      <trkpt lat="39.915672309036935" lon="116.65663373470385">
        <ele>35.13637924194336</ele>
        <time>2018-05-26T23:31:05Z</time>
      </trkpt>
      <trkpt lat="39.9156981627471" lon="116.65671051676226">
        <ele>44.37437438964844</ele>
        <time>2018-05-26T23:31:07Z</time>
      </trkpt>
      <trkpt lat="39.91575007190006" lon="116.65675737926135">
        <ele>42.617313385009766</ele>
        <time>2018-05-26T23:31:09Z</time>
      </trkpt>
      <trkpt lat="39.91585099971146" lon="116.65679326640826">
        <ele>49.0539665222168</ele>
        <time>2018-05-26T23:31:13Z</time>
      </trkpt>
      <trkpt lat="39.91593700549884" lon="116.6567882697913">
        <ele>50.91105651855469</ele>
        <time>2018-05-26T23:31:18Z</time>
      </trkpt>
      <trkpt lat="39.916032982567195" lon="116.65679823009178">
        <ele>34.011383056640625</ele>
        <time>2018-05-26T23:31:20Z</time>
      </trkpt>
      <trkpt lat="39.91608894246434" lon="116.65681816740177">
        <ele>19.216520309448242</ele>
        <time>2018-05-26T23:31:23Z</time>
      </trkpt>
      <trkpt lat="39.916143798618805" lon="116.65689295132279">
        <ele>18.516149520874023</ele>
        <time>2018-05-26T23:31:25Z</time>
      </trkpt>
      <trkpt lat="39.91615259815943" lon="116.65699865427473">
        <ele>24.26954460144043</ele>
        <time>2018-05-26T23:31:27Z</time>
      </trkpt>
      <trkpt lat="39.916157375125614" lon="116.65711632407505">
        <ele>25.213315963745117</ele>
        <time>2018-05-26T23:31:29Z</time>
      </trkpt>
      <trkpt lat="39.91616614615655" lon="116.65723698485264">
        <ele>29.569055557250977</ele>
        <time>2018-05-26T23:31:31Z</time>
      </trkpt>
      <trkpt lat="39.91618596009839" lon="116.65733470843682">
        <ele>32.26919174194336</ele>
        <time>2018-05-26T23:31:33Z</time>
      </trkpt>
      <trkpt lat="39.91623784257919" lon="116.65739553147083">
        <ele>36.15974044799805</ele>
        <time>2018-05-26T23:31:35Z</time>
      </trkpt>
      <trkpt lat="39.91627666695904" lon="116.6574872693451">
        <ele>35.21281051635742</ele>
        <time>2018-05-26T23:31:37Z</time>
      </trkpt>
      <trkpt lat="39.91633552638078" lon="116.65756005784444">
        <ele>42.456748962402344</ele>
        <time>2018-05-26T23:31:39Z</time>
      </trkpt>
      <trkpt lat="39.91637740162475" lon="116.65762487077146">
        <ele>12.208708763122559</ele>
        <time>2018-05-26T23:31:42Z</time>
      </trkpt>
      <trkpt lat="39.91640136276403" lon="116.6576448118404">
        <ele>2.7335915565490723</ele>
        <time>2018-05-26T23:31:44Z</time>
      </trkpt>
      <trkpt lat="39.916410252617325" lon="116.65770264836686">
        <ele>7.5928544998168945</ele>
        <time>2018-05-26T23:31:46Z</time>
      </trkpt>
      <trkpt lat="39.91640206743954" lon="116.65780037493019">
        <ele>14.607504844665527</ele>
        <time>2018-05-26T23:31:48Z</time>
      </trkpt>
      <trkpt lat="39.916448872296996" lon="116.65790208343151">
        <ele>26.81706428527832</ele>
        <time>2018-05-26T23:31:51Z</time>
      </trkpt>
      <trkpt lat="39.916502724156466" lon="116.6579788610347">
        <ele>48.71946334838867</ele>
        <time>2018-05-26T23:31:53Z</time>
      </trkpt>
      <trkpt lat="39.91655461585639" lon="116.65803469769085">
        <ele>57.0594482421875</ele>
        <time>2018-05-26T23:31:56Z</time>
      </trkpt>
      <trkpt lat="39.91660253613322" lon="116.65807557686">
        <ele>59.69717788696289</ele>
        <time>2018-05-26T23:31:59Z</time>
      </trkpt>
      <trkpt lat="39.916648536083365" lon="116.65807457400801">
        <ele>35.54454040527344</ele>
        <time>2018-05-26T23:32:01Z</time>
      </trkpt>
      <trkpt lat="39.9166464205564" lon="116.65813540323181">
        <ele>28.100717544555664</ele>
        <time>2018-05-26T23:32:04Z</time>
      </trkpt>
      <trkpt lat="39.91660926288047" lon="116.65821917221758">
        <ele>40.200462341308594</ele>
        <time>2018-05-26T23:32:07Z</time>
      </trkpt>
      <trkpt lat="39.9165970092726" lon="116.65835279777717">
        <ele>36.62594223022461</ele>
        <time>2018-05-26T23:32:09Z</time>
      </trkpt>
      <trkpt lat="39.91664892550654" lon="116.65839567071855">
        <ele>20.351205825805664</ele>
        <time>2018-05-26T23:32:11Z</time>
      </trkpt>
      <trkpt lat="39.916735904755186" lon="116.6584046347637">
        <ele>22.45216178894043</ele>
        <time>2018-05-26T23:32:13Z</time>
      </trkpt>
      <trkpt lat="39.91680689985748" lon="116.65840562322731">
        <ele>27.394350051879883</ele>
        <time>2018-05-26T23:32:15Z</time>
      </trkpt>
      <trkpt lat="39.916884807391334" lon="116.65845248172278">
        <ele>30.335819244384766</ele>
        <time>2018-05-26T23:32:17Z</time>
      </trkpt>
      <trkpt lat="39.916907724826714" lon="116.65849535818985">
        <ele>31.763315200805664</ele>
        <time>2018-05-26T23:32:19Z</time>
      </trkpt>
      <trkpt lat="39.916915642884895" lon="116.65853823648453">
        <ele>16.248525619506836</ele>
        <time>2018-05-26T23:32:21Z</time>
      </trkpt>
      <trkpt lat="39.91690755591369" lon="116.65858410830569">
        <ele>15.458661079406738</ele>
        <time>2018-05-26T23:32:23Z</time>
      </trkpt>
      <trkpt lat="39.916943408217534" lon="116.65866088762944">
        <ele>22.7591495513916</ele>
        <time>2018-05-26T23:32:27Z</time>
      </trkpt>
      <trkpt lat="39.91700027479269" lon="116.65872968679314">
        <ele>21.539783477783203</ele>
        <time>2018-05-26T23:32:29Z</time>
      </trkpt>
      <trkpt lat="39.91707619561888" lon="116.65876956506432">
        <ele>24.229795455932617</ele>
        <time>2018-05-26T23:32:31Z</time>
      </trkpt>
      <trkpt lat="39.917177098286196" lon="116.65881841495543">
        <ele>26.80202865600586</ele>
        <time>2018-05-26T23:32:33Z</time>
      </trkpt>
      <trkpt lat="39.9172469775518" lon="116.65888023209872">
        <ele>27.084848403930664</ele>
        <time>2018-05-26T23:32:37Z</time>
      </trkpt>
      <trkpt lat="39.9172748129623" lon="116.65896598690068">
        <ele>29.0313777923584</ele>
        <time>2018-05-26T23:32:39Z</time>
      </trkpt>
      <trkpt lat="39.91728965458296" lon="116.6590487516743">
        <ele>26.928569793701172</ele>
        <time>2018-05-26T23:32:41Z</time>
      </trkpt>
      <trkpt lat="39.91734445074867" lon="116.65915444677096">
        <ele>28.926773071289062</ele>
        <time>2018-05-26T23:32:44Z</time>
      </trkpt>
      <trkpt lat="39.91745322745941" lon="116.65926910980485">
        <ele>25.288846969604492</ele>
        <time>2018-05-26T23:32:47Z</time>
      </trkpt>
      <trkpt lat="39.91754402769127" lon="116.65937180872147">
        <ele>30.518667221069336</ele>
        <time>2018-05-26T23:32:49Z</time>
      </trkpt>
      <trkpt lat="39.91756790490807" lon="116.65943562559939">
        <ele>30.591501235961914</ele>
        <time>2018-05-26T23:32:51Z</time>
      </trkpt>
      <trkpt lat="39.917556831157" lon="116.65947451714504">
        <ele>-2.7336740493774414</ele>
        <time>2018-05-26T23:32:53Z</time>
      </trkpt>
      <trkpt lat="39.91755375515765" lon="116.65951440487834">
        <ele>-1.7183527946472168</ele>
        <time>2018-05-26T23:32:57Z</time>
      </trkpt>
      <trkpt lat="39.91759862763526" lon="116.65958021346584">
        <ele>-2.156270980834961</ele>
        <time>2018-05-26T23:33:00Z</time>
      </trkpt>
      <trkpt lat="39.917647503730436" lon="116.65964402716055">
        <ele>1.187019944190979</ele>
        <time>2018-05-26T23:33:02Z</time>
      </trkpt>
      <trkpt lat="39.91768937819627" lon="116.65970883886618">
        <ele>24.641010284423828</ele>
        <time>2018-05-26T23:33:04Z</time>
      </trkpt>
      <trkpt lat="39.91773229449813" lon="116.65975171241207">
        <ele>26.68688201904297</ele>
        <time>2018-05-26T23:33:06Z</time>
      </trkpt>
      <trkpt lat="39.91780017735829" lon="116.65981153495602">
        <ele>21.7906494140625</ele>
        <time>2018-05-26T23:33:08Z</time>
      </trkpt>
      <trkpt lat="39.917877025531425" lon="116.65988930562357">
        <ele>26.063045501708984</ele>
        <time>2018-05-26T23:33:10Z</time>
      </trkpt>
      <trkpt lat="39.917935855379156" lon="116.65997705026213">
        <ele>30.113466262817383</ele>
        <time>2018-05-26T23:33:16Z</time>
      </trkpt>
      <trkpt lat="39.91792969364543" lon="116.66006181129993">
        <ele>23.804546356201172</ele>
        <time>2018-05-26T23:33:18Z</time>
      </trkpt>
      <trkpt lat="39.9179156122761" lon="116.66010469174164">
        <ele>20.013267517089844</ele>
        <time>2018-05-26T23:33:22Z</time>
      </trkpt>
      <trkpt lat="39.91786250013271" lon="116.66016452901076">
        <ele>-1.0750972032546997</ele>
        <time>2018-05-26T23:33:27Z</time>
      </trkpt>
      <trkpt lat="39.91780335581198" lon="116.66024131902496">
        <ele>-4.33894157409668</ele>
        <time>2018-05-26T23:33:31Z</time>
      </trkpt>
      <trkpt lat="39.91768208629254" lon="116.6603849275217">
        <ele>6.8922905921936035</ele>
        <time>2018-05-26T23:33:35Z</time>
      </trkpt>
      <trkpt lat="39.917585903393935" lon="116.660482662678">
        <ele>11.996126174926758</ele>
        <time>2018-05-26T23:33:37Z</time>
      </trkpt>
      <trkpt lat="39.91754276592487" lon="116.66055546184478">
        <ele>19.523609161376953</ele>
        <time>2018-05-26T23:33:39Z</time>
      </trkpt>
      <trkpt lat="39.91754070303869" lon="116.66058836889918">
        <ele>14.2346830368042</ele>
        <time>2018-05-26T23:33:41Z</time>
      </trkpt>
      <trkpt lat="39.917486518285195" lon="116.66068609874894">
        <ele>23.67568588256836</ele>
        <time>2018-05-26T23:33:43Z</time>
      </trkpt>
      <trkpt lat="39.91741133055969" lon="116.66078582546702">
        <ele>27.37124252319336</ele>
        <time>2018-05-26T23:33:47Z</time>
      </trkpt>
      <trkpt lat="39.91732914881792" lon="116.66088256145825">
        <ele>33.305294036865234</ele>
        <time>2018-05-26T23:33:49Z</time>
      </trkpt>
      <trkpt lat="39.91729102247696" lon="116.66094937677177">
        <ele>28.843488693237305</ele>
        <time>2018-05-26T23:33:51Z</time>
      </trkpt>
      <trkpt lat="39.917245900233866" lon="116.66101419857148">
        <ele>34.609230041503906</ele>
        <time>2018-05-26T23:33:53Z</time>
      </trkpt>
      <trkpt lat="39.9172298416971" lon="116.66104511290193">
        <ele>26.221988677978516</ele>
        <time>2018-05-26T23:33:55Z</time>
      </trkpt>
      <trkpt lat="39.91721977908294" lon="116.66107802083305">
        <ele>28.294963836669922</ele>
        <time>2018-05-26T23:33:57Z</time>
      </trkpt>
      <trkpt lat="39.91720774138359" lon="116.66109796576131">
        <ele>29.51930046081543</ele>
        <time>2018-05-26T23:34:00Z</time>
      </trkpt>
      <trkpt lat="39.917109611788" lon="116.66116777988258">
        <ele>21.321269989013672</ele>
        <time>2018-05-26T23:34:02Z</time>
      </trkpt>
      <trkpt lat="39.916996456056296" lon="116.66125155622174">
        <ele>51.1740608215332</ele>
        <time>2018-05-26T23:34:05Z</time>
      </trkpt>
      <trkpt lat="39.916897284418816" lon="116.66134330816249">
        <ele>55.76321029663086</ele>
        <time>2018-05-26T23:34:07Z</time>
      </trkpt>
      <trkpt lat="39.91687516110958" lon="116.66140812697088">
        <ele>37.90648651123047</ele>
        <time>2018-05-26T23:34:09Z</time>
      </trkpt>
      <trkpt lat="39.91687110584411" lon="116.66143704540752">
        <ele>26.432262420654297</ele>
        <time>2018-05-26T23:34:11Z</time>
      </trkpt>
      <trkpt lat="39.916876027254894" lon="116.6614779287736">
        <ele>30.305749893188477</ele>
        <time>2018-05-26T23:34:15Z</time>
      </trkpt>
      <trkpt lat="39.91685496696496" lon="116.66150984080045">
        <ele>30.13846206665039</ele>
        <time>2018-05-26T23:34:17Z</time>
      </trkpt>
      <trkpt lat="39.91677584220196" lon="116.66157666089907">
        <ele>34.54064178466797</ele>
        <time>2018-05-26T23:34:19Z</time>
      </trkpt>
      <trkpt lat="39.91667974300264" lon="116.66163051986435">
        <ele>9.595118522644043</ele>
        <time>2018-05-26T23:34:23Z</time>
      </trkpt>
      <trkpt lat="39.9165886034211" lon="116.66170531874413">
        <ele>9.918939590454102</ele>
        <time>2018-05-26T23:34:25Z</time>
      </trkpt>
      <trkpt lat="39.916558560701056" lon="116.66172825731852">
        <ele>7.226376533508301</ele>
        <time>2018-05-26T23:34:27Z</time>
      </trkpt>
      <trkpt lat="39.91655548814704" lon="116.66176615009412">
        <ele>8.01644229888916</ele>
        <time>2018-05-26T23:34:31Z</time>
      </trkpt>
      <trkpt lat="39.91656343042568" lon="116.66179606416112">
        <ele>8.792569160461426</ele>
        <time>2018-05-26T23:34:33Z</time>
      </trkpt>
      <trkpt lat="39.91657133252946" lon="116.66184691875262">
        <ele>12.949111938476562</ele>
        <time>2018-05-26T23:34:35Z</time>
      </trkpt>
      <trkpt lat="39.91654526475956" lon="116.66188281999833">
        <ele>14.613569259643555</ele>
        <time>2018-05-26T23:34:37Z</time>
      </trkpt>
      <trkpt lat="39.916481070400536" lon="116.66198553613297">
        <ele>20.66068458557129</ele>
        <time>2018-05-26T23:34:39Z</time>
      </trkpt>
      <trkpt lat="39.91640285746363" lon="116.66209822560023">
        <ele>26.13530921936035</ele>
        <time>2018-05-26T23:34:43Z</time>
      </trkpt>
      <trkpt lat="39.916326642489985" lon="116.66221191191951">
        <ele>29.423625946044922</ele>
        <time>2018-05-26T23:34:45Z</time>
      </trkpt>
      <trkpt lat="39.91630453239748" lon="116.66226975024958">
        <ele>22.942398071289062</ele>
        <time>2018-05-26T23:34:47Z</time>
      </trkpt>
      <trkpt lat="39.91625832375584" lon="116.66237944411316">
        <ele>28.164077758789062</ele>
        <time>2018-05-26T23:34:51Z</time>
      </trkpt>
      <trkpt lat="39.91626120491826" lon="116.66244126797491">
        <ele>55.12635040283203</ele>
        <time>2018-05-26T23:34:57Z</time>
      </trkpt>
      <trkpt lat="39.91625708062151" lon="116.66250608417289">
        <ele>30.705265045166016</ele>
        <time>2018-05-26T23:35:03Z</time>
      </trkpt>
      <trkpt lat="39.91629400820024" lon="116.66254297470164">
        <ele>29.8483829498291</ele>
        <time>2018-05-26T23:35:05Z</time>
      </trkpt>
      <trkpt lat="39.91628082680859" lon="116.66263770689406">
        <ele>22.187026977539062</ele>
        <time>2018-05-26T23:35:08Z</time>
      </trkpt>
      <trkpt lat="39.916277658378846" lon="116.66272545766758">
        <ele>13.368575096130371</ele>
        <time>2018-05-26T23:35:10Z</time>
      </trkpt>
      <trkpt lat="39.91627651091786" lon="116.66280223936432">
        <ele>11.869726181030273</ele>
        <time>2018-05-26T23:35:12Z</time>
      </trkpt>
      <trkpt lat="39.91628836289187" lon="116.6628790194327">
        <ele>14.906050682067871</ele>
        <time>2018-05-26T23:35:14Z</time>
      </trkpt>
      <trkpt lat="39.9162691816736" lon="116.66297375221419">
        <ele>13.639274597167969</ele>
        <time>2018-05-26T23:35:16Z</time>
      </trkpt>
      <trkpt lat="39.91623799136039" lon="116.66307347224287">
        <ele>0.9437772631645203</ele>
        <time>2018-05-26T23:35:18Z</time>
      </trkpt>
      <trkpt lat="39.91619977640512" lon="116.66318615618896">
        <ele>-0.2757888436317444</ele>
        <time>2018-05-26T23:35:20Z</time>
      </trkpt>
      <trkpt lat="39.91613453572932" lon="116.66331280365925">
        <ele>-2.1127820014953613</ele>
        <time>2018-05-26T23:35:23Z</time>
      </trkpt>
      <trkpt lat="39.91608639590661" lon="116.66338659946499">
        <ele>19.545970916748047</ele>
        <time>2018-05-26T23:35:25Z</time>
      </trkpt>
      <trkpt lat="39.91604730553821" lon="116.66343446797163">
        <ele>14.7845458984375</ele>
        <time>2018-05-26T23:35:27Z</time>
      </trkpt>
      <trkpt lat="39.91603621973091" lon="116.66347934153991">
        <ele>11.415485382080078</ele>
        <time>2018-05-26T23:35:29Z</time>
      </trkpt>
      <trkpt lat="39.916019080488326" lon="116.66355213631873">
        <ele>17.369884490966797</ele>
        <time>2018-05-26T23:35:34Z</time>
      </trkpt>
      <trkpt lat="39.915993899389115" lon="116.66364686957374">
        <ele>16.885173797607422</ele>
        <time>2018-05-26T23:35:36Z</time>
      </trkpt>
      <trkpt lat="39.91594473654993" lon="116.66373263131817">
        <ele>8.163105964660645</ele>
        <time>2018-05-26T23:35:40Z</time>
      </trkpt>
      <trkpt lat="39.91586358847933" lon="116.66381141686487">
        <ele>4.066143035888672</ele>
        <time>2018-05-26T23:35:42Z</time>
      </trkpt>
      <trkpt lat="39.91576848702336" lon="116.66386627230474">
        <ele>20.441097259521484</ele>
        <time>2018-05-26T23:35:44Z</time>
      </trkpt>
      <trkpt lat="39.91568850192328" lon="116.66386029920669">
        <ele>19.330575942993164</ele>
        <time>2018-05-26T23:35:46Z</time>
      </trkpt>
      <trkpt lat="39.915623493172745" lon="116.66386629016625">
        <ele>22.49246597290039</ele>
        <time>2018-05-26T23:35:50Z</time>
      </trkpt>
      <trkpt lat="39.91558144316994" lon="116.6638932186256">
        <ele>18.143579483032227</ele>
        <time>2018-05-26T23:35:52Z</time>
      </trkpt>
      <trkpt lat="39.91554126840725" lon="116.66398496213705">
        <ele>12.771234512329102</ele>
        <time>2018-05-26T23:35:54Z</time>
      </trkpt>
      <trkpt lat="39.91549610343512" lon="116.66407172044545">
        <ele>11.746623992919922</ele>
        <time>2018-05-26T23:35:56Z</time>
      </trkpt>
      <trkpt lat="39.9154129477385" lon="116.66415449477913">
        <ele>15.877119064331055</ele>
        <time>2018-05-26T23:35:58Z</time>
      </trkpt>
      <trkpt lat="39.91531080051378" lon="116.66423328280153">
        <ele>23.258281707763672</ele>
        <time>2018-05-26T23:36:00Z</time>
      </trkpt>
      <trkpt lat="39.91523761943427" lon="116.66432901890585">
        <ele>11.257294654846191</ele>
        <time>2018-05-26T23:36:04Z</time>
      </trkpt>
      <trkpt lat="39.9151714533961" lon="116.66441677686416">
        <ele>8.144210815429688</ele>
        <time>2018-05-26T23:36:06Z</time>
      </trkpt>
      <trkpt lat="39.91510628922552" lon="116.66450353751995">
        <ele>11.529748916625977</ele>
        <time>2018-05-26T23:36:10Z</time>
      </trkpt>
      <trkpt lat="39.91502215080016" lon="116.6645773374606">
        <ele>12.35733699798584</ele>
        <time>2018-05-26T23:36:12Z</time>
      </trkpt>
      <trkpt lat="39.91495301748909" lon="116.66464814406916">
        <ele>13.418901443481445</ele>
        <time>2018-05-26T23:36:14Z</time>
      </trkpt>
      <trkpt lat="39.914905921618654" lon="116.66469900483003">
        <ele>26.5645809173584</ele>
        <time>2018-05-26T23:36:16Z</time>
      </trkpt>
      <trkpt lat="39.91488484958814" lon="116.66473689935135">
        <ele>24.022329330444336</ele>
        <time>2018-05-26T23:36:18Z</time>
      </trkpt>
      <trkpt lat="39.91488778037393" lon="116.66477279659972">
        <ele>17.438751220703125</ele>
        <time>2018-05-26T23:36:20Z</time>
      </trkpt>
      <trkpt lat="39.914895707107675" lon="116.66481068754042">
        <ele>21.662630081176758</ele>
        <time>2018-05-26T23:36:22Z</time>
      </trkpt>
      <trkpt lat="39.91487559856658" lon="116.66486752788754">
        <ele>21.589298248291016</ele>
        <time>2018-05-26T23:36:24Z</time>
      </trkpt>
      <trkpt lat="39.914817487800455" lon="116.6649263672203">
        <ele>21.56318473815918</ele>
        <time>2018-05-26T23:36:26Z</time>
      </trkpt>
      <trkpt lat="39.91475044842731" lon="116.6649483128994">
        <ele>22.97757911682129</ele>
        <time>2018-05-26T23:36:28Z</time>
      </trkpt>
      <trkpt lat="39.9146894375879" lon="116.664955300505">
        <ele>-3.0724034309387207</ele>
        <time>2018-05-26T23:36:32Z</time>
      </trkpt>
      <trkpt lat="39.91464938938936" lon="116.66498123147764">
        <ele>-3.706531047821045</ele>
        <time>2018-05-26T23:36:34Z</time>
      </trkpt>
      <trkpt lat="39.91462228689695" lon="116.66503508119804">
        <ele>5.6770758628845215</ele>
        <time>2018-05-26T23:36:36Z</time>
      </trkpt>
      <trkpt lat="39.91461215680812" lon="116.66510288899002">
        <ele>10.282191276550293</ele>
        <time>2018-05-26T23:36:38Z</time>
      </trkpt>
      <trkpt lat="39.914578073803106" lon="116.66514676800702">
        <ele>14.55721664428711</ele>
        <time>2018-05-26T23:36:40Z</time>
      </trkpt>
      <trkpt lat="39.914544954285596" lon="116.66520959284156">
        <ele>17.212820053100586</ele>
        <time>2018-05-26T23:36:42Z</time>
      </trkpt>
      <trkpt lat="39.91448587810082" lon="116.66525048346473">
        <ele>19.185333251953125</ele>
        <time>2018-05-26T23:36:44Z</time>
      </trkpt>
      <trkpt lat="39.91444371865421" lon="116.66533424964432">
        <ele>26.940025329589844</ele>
        <time>2018-05-26T23:36:46Z</time>
      </trkpt>
      <trkpt lat="39.914411568376174" lon="116.66541302880464">
        <ele>20.365678787231445</ele>
        <time>2018-05-26T23:36:48Z</time>
      </trkpt>
      <trkpt lat="39.91437537219667" lon="116.66551574015133">
        <ele>23.080202102661133</ele>
        <time>2018-05-26T23:36:50Z</time>
      </trkpt>
      <trkpt lat="39.91431125974881" lon="116.66557557729809">
        <ele>30.187768936157227</ele>
        <time>2018-05-26T23:36:52Z</time>
      </trkpt>
      <trkpt lat="39.91420214345942" lon="116.66563841144746">
        <ele>34.83396911621094</ele>
        <time>2018-05-26T23:36:54Z</time>
      </trkpt>
      <trkpt lat="39.91408005267996" lon="116.66568828418994">
        <ele>28.213359832763672</ele>
        <time>2018-05-26T23:36:56Z</time>
      </trkpt>
      <trkpt lat="39.91397998399915" lon="116.665726188369">
        <ele>27.829618453979492</ele>
        <time>2018-05-26T23:36:58Z</time>
      </trkpt>
      <trkpt lat="39.91392494219401" lon="116.66574912968997">
        <ele>23.856664657592773</ele>
        <time>2018-05-26T23:37:00Z</time>
      </trkpt>
      <trkpt lat="39.91390290090091" lon="116.66577106978883">
        <ele>23.772506713867188</ele>
        <time>2018-05-26T23:37:02Z</time>
      </trkpt>
      <trkpt lat="39.91325646763459" lon="116.66652998307951">
        <ele>-3.735875368118286</ele>
        <time>2018-05-26T23:37:42Z</time>
      </trkpt>
      <trkpt lat="39.91322737673923" lon="116.66657785000109">
        <ele>12.811095237731934</ele>
        <time>2018-05-26T23:37:44Z</time>
      </trkpt>
      <trkpt lat="39.91318326153383" lon="116.66663868175925">
        <ele>11.58884334564209</ele>
        <time>2018-05-26T23:37:46Z</time>
      </trkpt>
      <trkpt lat="39.913087196540545" lon="116.66667459110212">
        <ele>13.381035804748535</ele>
        <time>2018-05-26T23:37:48Z</time>
      </trkpt>
      <trkpt lat="39.91301613623774" lon="116.6667075059033">
        <ele>4.499272346496582</ele>
        <time>2018-05-26T23:37:50Z</time>
      </trkpt>
      <trkpt lat="39.91297002304321" lon="116.66676734075062">
        <ele>-4.7239813804626465</ele>
        <time>2018-05-26T23:37:52Z</time>
      </trkpt>
      <trkpt lat="39.912927900083496" lon="116.66683216086741">
        <ele>-4.166897773742676</ele>
        <time>2018-05-26T23:37:57Z</time>
      </trkpt>
      <trkpt lat="39.9128866907176" lon="116.66694185273708">
        <ele>-4.306448936462402</ele>
        <time>2018-05-26T23:37:59Z</time>
      </trkpt>
      <trkpt lat="39.91287652609403" lon="116.66702760911278">
        <ele>7.855621337890625</ele>
        <time>2018-05-26T23:38:01Z</time>
      </trkpt>
      <trkpt lat="39.91285337162886" lon="116.66710838132538">
        <ele>33.78178024291992</ele>
        <time>2018-05-26T23:38:03Z</time>
      </trkpt>
      <trkpt lat="39.91282023870727" lon="116.66717818608927">
        <ele>45.087066650390625</ele>
        <time>2018-05-26T23:38:06Z</time>
      </trkpt>
      <trkpt lat="39.912759135774316" lon="116.6672330370138">
        <ele>44.96739196777344</ele>
        <time>2018-05-26T23:38:08Z</time>
      </trkpt>
      <trkpt lat="39.912681983638834" lon="116.66731381588346">
        <ele>43.77633285522461</ele>
        <time>2018-05-26T23:38:10Z</time>
      </trkpt>
      <trkpt lat="39.91261180818581" lon="116.6674065597237">
        <ele>31.437116622924805</ele>
        <time>2018-05-26T23:38:17Z</time>
      </trkpt>
      <trkpt lat="39.91253157944956" lon="116.6675272250769">
        <ele>23.18546485900879</ele>
        <time>2018-05-26T23:38:19Z</time>
      </trkpt>
      <trkpt lat="39.91249642554386" lon="116.66760799877106">
        <ele>20.057756423950195</ele>
        <time>2018-05-26T23:38:21Z</time>
      </trkpt>
      <trkpt lat="39.912442234093184" lon="116.66770871786784">
        <ele>23.45680046081543</ele>
        <time>2018-05-26T23:38:23Z</time>
      </trkpt>
      <trkpt lat="39.9123940807653" lon="116.66778949317104">
        <ele>14.018959999084473</ele>
        <time>2018-05-26T23:38:25Z</time>
      </trkpt>
      <trkpt lat="39.91234693699528" lon="116.6678652825897">
        <ele>12.595312118530273</ele>
        <time>2018-05-26T23:38:27Z</time>
      </trkpt>
      <trkpt lat="39.91231885187987" lon="116.66791015792612">
        <ele>30.536746978759766</ele>
        <time>2018-05-26T23:38:30Z</time>
      </trkpt>
      <trkpt lat="39.9122927321575" lon="116.66797298177126">
        <ele>27.11846351623535</ele>
        <time>2018-05-26T23:38:33Z</time>
      </trkpt>
      <trkpt lat="39.91226560481285" lon="116.66803979435478">
        <ele>22.98723030090332</ele>
        <time>2018-05-26T23:38:38Z</time>
      </trkpt>
      <trkpt lat="39.91222851242525" lon="116.66808865941934">
        <ele>23.14137077331543</ele>
        <time>2018-05-26T23:38:40Z</time>
      </trkpt>
      <trkpt lat="39.912171424735696" lon="116.66813553264656">
        <ele>19.611248016357422</ele>
        <time>2018-05-26T23:38:42Z</time>
      </trkpt>
      <trkpt lat="39.91206821054618" lon="116.6682492208152">
        <ele>11.879985809326172</ele>
        <time>2018-05-26T23:38:46Z</time>
      </trkpt>
      <trkpt lat="39.91196696370169" lon="116.66837986035782">
        <ele>22.07121467590332</ele>
        <time>2018-05-26T23:38:50Z</time>
      </trkpt>
      <trkpt lat="39.91186874168434" lon="116.66849753655417">
        <ele>25.544435501098633</ele>
        <time>2018-05-26T23:38:52Z</time>
      </trkpt>
      <trkpt lat="39.91181467307467" lon="116.66853443789687">
        <ele>30.603506088256836</ele>
        <time>2018-05-26T23:38:54Z</time>
      </trkpt>
      <trkpt lat="39.91176758691527" lon="116.6685803127605">
        <ele>26.645069122314453</ele>
        <time>2018-05-26T23:38:58Z</time>
      </trkpt>
      <trkpt lat="39.91173650582325" lon="116.66862319419215">
        <ele>19.524559020996094</ele>
        <time>2018-05-26T23:39:00Z</time>
      </trkpt>
      <trkpt lat="39.91170040194984" lon="116.66867804208827">
        <ele>12.07820987701416</ele>
        <time>2018-05-26T23:39:02Z</time>
      </trkpt>
      <trkpt lat="39.91166538237111" lon="116.66868901509763">
        <ele>7.325977802276611</ele>
        <time>2018-05-26T23:39:04Z</time>
      </trkpt>
      <trkpt lat="39.9116303742927" lon="116.66869400518438">
        <ele>9.101842880249023</ele>
        <time>2018-05-26T23:39:06Z</time>
      </trkpt>
      <trkpt lat="39.911617340352336" lon="116.66871195555663">
        <ele>8.236937522888184</ele>
        <time>2018-05-26T23:39:08Z</time>
      </trkpt>
      <trkpt lat="39.91161717936476" lon="116.66879571648236">
        <ele>16.043333053588867</ele>
        <time>2018-05-26T23:39:10Z</time>
      </trkpt>
      <trkpt lat="39.91161500698163" lon="116.66888546058996">
        <ele>22.186052322387695</ele>
        <time>2018-05-26T23:39:12Z</time>
      </trkpt>
      <trkpt lat="39.91158284357139" lon="116.66897121979501">
        <ele>21.229053497314453</ele>
        <time>2018-05-26T23:39:14Z</time>
      </trkpt>
      <trkpt lat="39.91150773184043" lon="116.66903105830507">
        <ele>19.40414047241211</ele>
        <time>2018-05-26T23:39:16Z</time>
      </trkpt>
      <trkpt lat="39.91142761075561" lon="116.6690958832109">
        <ele>18.031042098999023</ele>
        <time>2018-05-26T23:39:18Z</time>
      </trkpt>
      <trkpt lat="39.91136048529159" lon="116.66916270082996">
        <ele>21.13287353515625</ele>
        <time>2018-05-26T23:39:20Z</time>
      </trkpt>
      <trkpt lat="39.91131537230025" lon="116.66922253566042">
        <ele>15.490922927856445</ele>
        <time>2018-05-26T23:39:24Z</time>
      </trkpt>
      <trkpt lat="39.91127927233775" lon="116.66927538930395">
        <ele>20.608583450317383</ele>
        <time>2018-05-26T23:39:26Z</time>
      </trkpt>
      <trkpt lat="39.9112531891884" lon="116.66931926732525">
        <ele>25.02280616760254</ele>
        <time>2018-05-26T23:39:28Z</time>
      </trkpt>
      <trkpt lat="39.911228061956386" lon="116.66938607979233">
        <ele>26.235071182250977</ele>
        <time>2018-05-26T23:39:30Z</time>
      </trkpt>
      <trkpt lat="39.91116787880182" lon="116.6694828112442">
        <ele>32.83439636230469</ele>
        <time>2018-05-26T23:39:32Z</time>
      </trkpt>
      <trkpt lat="39.91109167530475" lon="116.66959051340204">
        <ele>45.3259391784668</ele>
        <time>2018-05-26T23:39:36Z</time>
      </trkpt>
      <trkpt lat="39.910960462727914" lon="116.66970420530954">
        <ele>30.799774169921875</ele>
        <time>2018-05-26T23:39:41Z</time>
      </trkpt>
      <trkpt lat="39.910874290354315" lon="116.66979595426382">
        <ele>23.738924026489258</ele>
        <time>2018-05-26T23:39:45Z</time>
      </trkpt>
      <trkpt lat="39.91080014427927" lon="116.6698737415721">
        <ele>19.672195434570312</ele>
        <time>2018-05-26T23:39:47Z</time>
      </trkpt>
      <trkpt lat="39.91075706959446" lon="116.66991363312913">
        <ele>9.276619911193848</ele>
        <time>2018-05-26T23:39:49Z</time>
      </trkpt>
      <trkpt lat="39.91072001761587" lon="116.66994155807322">
        <ele>3.3964765071868896</ele>
        <time>2018-05-26T23:39:51Z</time>
      </trkpt>
      <trkpt lat="39.91068693868225" lon="116.66998344271656">
        <ele>4.2391510009765625</ele>
        <time>2018-05-26T23:39:53Z</time>
      </trkpt>
      <trkpt lat="39.91068183750272" lon="116.67003629263205">
        <ele>0.7534164786338806</ele>
        <time>2018-05-26T23:39:55Z</time>
      </trkpt>
      <trkpt lat="39.91065065902945" lon="116.67013002919535">
        <ele>3.81375789642334</ele>
        <time>2018-05-26T23:39:57Z</time>
      </trkpt>
      <trkpt lat="39.91061846150451" lon="116.67023373747973">
        <ele>10.60901927947998</ele>
        <time>2018-05-26T23:39:59Z</time>
      </trkpt>
      <trkpt lat="39.91058026618714" lon="116.67033644937962">
        <ele>18.578927993774414</ele>
        <time>2018-05-26T23:40:01Z</time>
      </trkpt>
      <trkpt lat="39.910558125655875" lon="116.67041024176108">
        <ele>20.234813690185547</ele>
        <time>2018-05-26T23:40:03Z</time>
      </trkpt>
      <trkpt lat="39.910494069155355" lon="116.67044116155316">
        <ele>30.273054122924805</ele>
        <time>2018-05-26T23:40:07Z</time>
      </trkpt>
      <trkpt lat="39.91042301678428" lon="116.67047008789656">
        <ele>13.078214645385742</ele>
        <time>2018-05-26T23:40:09Z</time>
      </trkpt>
      <trkpt lat="39.910348983661336" lon="116.67048904303272">
        <ele>12.683032989501953</ele>
        <time>2018-05-26T23:40:11Z</time>
      </trkpt>
      <trkpt lat="39.910308897464326" lon="116.67053491724285">
        <ele>12.749679565429688</ele>
        <time>2018-05-26T23:40:13Z</time>
      </trkpt>
      <trkpt lat="39.91025978681927" lon="116.67059375562964">
        <ele>17.28765106201172</ele>
        <time>2018-05-26T23:40:15Z</time>
      </trkpt>
      <trkpt lat="39.91021366841405" lon="116.67065658229227">
        <ele>18.080305099487305</ele>
        <time>2018-05-26T23:40:17Z</time>
      </trkpt>
      <trkpt lat="39.91016757104122" lon="116.67070844022199">
        <ele>24.488821029663086</ele>
        <time>2018-05-26T23:40:19Z</time>
      </trkpt>
      <trkpt lat="39.91015049344085" lon="116.67074932583304">
        <ele>12.922553062438965</ele>
        <time>2018-05-26T23:40:21Z</time>
      </trkpt>
      <trkpt lat="39.910167353246834" lon="116.6708221163444">
        <ele>18.275100708007812</ele>
        <time>2018-05-26T23:40:23Z</time>
      </trkpt>
      <trkpt lat="39.9101551131033" lon="116.67094775990996">
        <ele>43.102760314941406</ele>
        <time>2018-05-26T23:40:27Z</time>
      </trkpt>
      <trkpt lat="39.91011580545809" lon="116.6711093046341">
        <ele>40.53190994262695</ele>
        <time>2018-05-26T23:40:29Z</time>
      </trkpt>
      <trkpt lat="39.91002757828867" lon="116.67122997191716">
        <ele>44.53205108642578</ele>
        <time>2018-05-26T23:40:32Z</time>
      </trkpt>
      <trkpt lat="39.90994944234337" lon="116.67130277429114">
        <ele>41.695159912109375</ele>
        <time>2018-05-26T23:40:35Z</time>
      </trkpt>
      <trkpt lat="39.9099024634602" lon="116.67129280848417">
        <ele>36.339019775390625</ele>
        <time>2018-05-26T23:40:37Z</time>
      </trkpt>
      <trkpt lat="39.90986747833331" lon="116.67128583267879">
        <ele>24.386320114135742</ele>
        <time>2018-05-26T23:40:39Z</time>
      </trkpt>
      <trkpt lat="39.909838418521666" lon="116.67131774541198">
        <ele>19.767765045166016</ele>
        <time>2018-05-26T23:40:41Z</time>
      </trkpt>
      <trkpt lat="39.90967687418184" lon="116.67160594502008">
        <ele>23.39865493774414</ele>
        <time>2018-05-26T23:40:46Z</time>
      </trkpt>
      <trkpt lat="39.90951430358045" lon="116.67190810541136">
        <ele>14.977631568908691</ele>
        <time>2018-05-26T23:41:06Z</time>
      </trkpt>
      <trkpt lat="39.90934065962922" lon="116.67224915703906">
        <ele>25.368534088134766</ele>
        <time>2018-05-26T23:41:08Z</time>
      </trkpt>
      <trkpt lat="39.90928135190251" lon="116.672411702346">
        <ele>37.131160736083984</ele>
        <time>2018-05-26T23:41:16Z</time>
      </trkpt>
      <trkpt lat="39.909218086337106" lon="116.6725523106117">
        <ele>16.716327667236328</ele>
        <time>2018-05-26T23:41:22Z</time>
      </trkpt>
      <trkpt lat="39.908659411880585" lon="116.67344384891163">
        <ele>4.912190914154053</ele>
        <time>2018-05-26T23:41:50Z</time>
      </trkpt>
      <trkpt lat="39.90854924211475" lon="116.67353560236347">
        <ele>13.577120780944824</ele>
        <time>2018-05-26T23:41:54Z</time>
      </trkpt>
      <trkpt lat="39.90847317333864" lon="116.67357350432071">
        <ele>26.9520320892334</ele>
        <time>2018-05-26T23:41:56Z</time>
      </trkpt>
      <trkpt lat="39.90840913629198" lon="116.67359445286148">
        <ele>21.86654281616211</ele>
        <time>2018-05-26T23:41:58Z</time>
      </trkpt>
      <trkpt lat="39.90837402592355" lon="116.67365329040842">
        <ele>29.802980422973633</ele>
        <time>2018-05-26T23:42:01Z</time>
      </trkpt>
      <trkpt lat="39.908331923464644" lon="116.67370814014758">
        <ele>22.13460922241211</ele>
        <time>2018-05-26T23:42:05Z</time>
      </trkpt>
      <trkpt lat="39.90831781601449" lon="116.67376498079506">
        <ele>24.695255279541016</ele>
        <time>2018-05-26T23:42:07Z</time>
      </trkpt>
      <trkpt lat="39.908303780608385" lon="116.67378392883555">
        <ele>29.16619873046875</ele>
        <time>2018-05-26T23:42:09Z</time>
      </trkpt>
      <trkpt lat="39.908280694423404" lon="116.67382980170254">
        <ele>23.623327255249023</ele>
        <time>2018-05-26T23:42:11Z</time>
      </trkpt>
      <trkpt lat="39.90824152368275" lon="116.6739205494386">
        <ele>22.2376766204834</ele>
        <time>2018-05-26T23:42:13Z</time>
      </trkpt>
      <trkpt lat="39.90820233215942" lon="116.67402226616493">
        <ele>19.517488479614258</ele>
        <time>2018-05-26T23:42:15Z</time>
      </trkpt>
      <trkpt lat="39.908168121550894" lon="116.6741339541108">
        <ele>24.36185073852539</ele>
        <time>2018-05-26T23:42:17Z</time>
      </trkpt>
      <trkpt lat="39.90814097885471" lon="116.67420974289475">
        <ele>27.771686553955078</ele>
        <time>2018-05-26T23:42:19Z</time>
      </trkpt>
      <trkpt lat="39.908114845613994" lon="116.67428054570703">
        <ele>13.484225273132324</ele>
        <time>2018-05-26T23:42:21Z</time>
      </trkpt>
      <trkpt lat="39.90808669925023" lon="116.67435832904984">
        <ele>12.377493858337402</ele>
        <time>2018-05-26T23:42:23Z</time>
      </trkpt>
      <trkpt lat="39.908025586517674" lon="116.67441916447585">
        <ele>21.721878051757812</ele>
        <time>2018-05-26T23:42:25Z</time>
      </trkpt>
      <trkpt lat="39.907957476006395" lon="116.67447900361498">
        <ele>22.305625915527344</ele>
        <time>2018-05-26T23:42:27Z</time>
      </trkpt>
      <trkpt lat="39.90789538794644" lon="116.67452687588462">
        <ele>20.288558959960938</ele>
        <time>2018-05-26T23:42:29Z</time>
      </trkpt>
      <trkpt lat="39.907865277713434" lon="116.67458571319487">
        <ele>24.588966369628906</ele>
        <time>2018-05-26T23:42:31Z</time>
      </trkpt>
      <trkpt lat="39.90782815080016" lon="116.6746535260196">
        <ele>30.979516983032227</ele>
        <time>2018-05-26T23:42:33Z</time>
      </trkpt>
      <trkpt lat="39.90779003529862" lon="116.67471535591703">
        <ele>28.916887283325195</ele>
        <time>2018-05-26T23:42:35Z</time>
      </trkpt>
      <trkpt lat="39.90774795966891" lon="116.67475624553106">
        <ele>24.94273567199707</ele>
        <time>2018-05-26T23:42:37Z</time>
      </trkpt>
      <trkpt lat="39.90778794281138" lon="116.67476421803671">
        <ele>8.792586326599121</ele>
        <time>2018-05-26T23:42:39Z</time>
      </trkpt>
      <trkpt lat="39.90784800065011" lon="116.6747323008242">
        <ele>21.209918975830078</ele>
        <time>2018-05-26T23:42:43Z</time>
      </trkpt>
      <trkpt lat="39.907931108514134" lon="116.67467345689865">
        <ele>26.687814712524414</ele>
        <time>2018-05-26T23:42:45Z</time>
      </trkpt>
      <trkpt lat="39.90795724345902" lon="116.67460165670349">
        <ele>28.679349899291992</ele>
        <time>2018-05-26T23:42:47Z</time>
      </trkpt>
      <trkpt lat="39.90801842229265" lon="116.67450591991495">
        <ele>33.685123443603516</ele>
        <time>2018-05-26T23:42:49Z</time>
      </trkpt>
      <trkpt lat="39.90811960322912" lon="116.67440818389309">
        <ele>29.532032012939453</ele>
        <time>2018-05-26T23:42:54Z</time>
      </trkpt>
      <trkpt lat="39.90820878664523" lon="116.67430945224618">
        <ele>38.74789810180664</ele>
        <time>2018-05-26T23:42:56Z</time>
      </trkpt>
      <trkpt lat="39.908251907777334" lon="116.67424463038323">
        <ele>34.423919677734375</ele>
        <time>2018-05-26T23:42:58Z</time>
      </trkpt>
      <trkpt lat="39.90824103507368" lon="116.67417782086966">
        <ele>27.126609802246094</ele>
        <time>2018-05-26T23:43:00Z</time>
      </trkpt>
      <trkpt lat="39.90825415188693" lon="116.67411599430397">
        <ele>30.98996353149414</ele>
        <time>2018-05-26T23:43:02Z</time>
      </trkpt>
      <trkpt lat="39.90825525977812" lon="116.67405915512848">
        <ele>27.974878311157227</ele>
        <time>2018-05-26T23:43:04Z</time>
      </trkpt>
      <trkpt lat="39.908273401045264" lon="116.67398436471173">
        <ele>23.361616134643555</ele>
        <time>2018-05-26T23:43:06Z</time>
      </trkpt>
      <trkpt lat="39.90828456349464" lon="116.67389860627198">
        <ele>28.387989044189453</ele>
        <time>2018-05-26T23:43:08Z</time>
      </trkpt>
      <trkpt lat="39.90832973967289" lon="116.67380486628466">
        <ele>27.465787887573242</ele>
        <time>2018-05-26T23:43:10Z</time>
      </trkpt>
      <trkpt lat="39.90833786253615" lon="116.67374004897134">
        <ele>31.936195373535156</ele>
        <time>2018-05-26T23:43:12Z</time>
      </trkpt>
      <trkpt lat="39.90834597404833" lon="116.67368121472728">
        <ele>33.171966552734375</ele>
        <time>2018-05-26T23:43:14Z</time>
      </trkpt>
      <trkpt lat="39.90834502528918" lon="116.67365429116512">
        <ele>36.502254486083984</ele>
        <time>2018-05-26T23:43:16Z</time>
      </trkpt>
      <trkpt lat="39.90836510975751" lon="116.67360941589484">
        <ele>32.508419036865234</ele>
        <time>2018-05-26T23:43:18Z</time>
      </trkpt>
      <trkpt lat="39.90841920224293" lon="116.6735595505723">
        <ele>22.830121994018555</ele>
        <time>2018-05-26T23:43:22Z</time>
      </trkpt>
      <trkpt lat="39.90849536019046" lon="116.67347478151291">
        <ele>33.12895202636719</ele>
        <time>2018-05-26T23:43:24Z</time>
      </trkpt>
      <trkpt lat="39.9085684955381" lon="116.67340197893162">
        <ele>27.307104110717773</ele>
        <time>2018-05-26T23:43:26Z</time>
      </trkpt>
      <trkpt lat="39.90860860767608" lon="116.67334214368954">
        <ele>26.929141998291016</ele>
        <time>2018-05-26T23:43:28Z</time>
      </trkpt>
      <trkpt lat="39.90862869222809" lon="116.67329726850802">
        <ele>14.146769523620605</ele>
        <time>2018-05-26T23:43:30Z</time>
      </trkpt>
      <trkpt lat="39.908660772472935" lon="116.67325438619821">
        <ele>11.990894317626953</ele>
        <time>2018-05-26T23:43:32Z</time>
      </trkpt>
      <trkpt lat="39.90868685678702" lon="116.67320951029956">
        <ele>19.370450973510742</ele>
        <time>2018-05-26T23:43:34Z</time>
      </trkpt>
      <trkpt lat="39.9086539949558" lon="116.67313771810319">
        <ele>20.23702621459961</ele>
        <time>2018-05-26T23:43:36Z</time>
      </trkpt>
      <trkpt lat="39.90924136125001" lon="116.67240771862178">
        <ele>5.593852996826172</ele>
        <time>2018-05-26T23:44:03Z</time>
      </trkpt>
      <trkpt lat="39.90926151836557" lon="116.67232495137756">
        <ele>22.143739700317383</ele>
        <time>2018-05-26T23:44:07Z</time>
      </trkpt>
      <trkpt lat="39.90927167785327" lon="116.67224118823829">
        <ele>16.195209503173828</ele>
        <time>2018-05-26T23:44:11Z</time>
      </trkpt>
      <trkpt lat="39.90929180647161" lon="116.67217337853839">
        <ele>14.973743438720703</ele>
        <time>2018-05-26T23:44:13Z</time>
      </trkpt>
      <trkpt lat="39.909329884811605" lon="116.67213149292074">
        <ele>17.70454978942871</ele>
        <time>2018-05-26T23:44:15Z</time>
      </trkpt>
      <trkpt lat="39.9093739762338" lon="116.67208262641905">
        <ele>17.598358154296875</ele>
        <time>2018-05-26T23:44:18Z</time>
      </trkpt>
      <trkpt lat="39.90941410594301" lon="116.67201381713836">
        <ele>18.38534927368164</ele>
        <time>2018-05-26T23:44:22Z</time>
      </trkpt>
      <trkpt lat="39.9095173568101" lon="116.67188018445947">
        <ele>22.666555404663086</ele>
        <time>2018-05-26T23:44:26Z</time>
      </trkpt>
      <trkpt lat="39.9096436696793" lon="116.67171364265037">
        <ele>40.500003814697266</ele>
        <time>2018-05-26T23:44:34Z</time>
      </trkpt>
      <trkpt lat="39.90974097248884" lon="116.67155308752108">
        <ele>53.57283401489258</ele>
        <time>2018-05-26T23:44:40Z</time>
      </trkpt>
      <trkpt lat="39.90976219857326" lon="116.67143442267106">
        <ele>47.39255905151367</ele>
        <time>2018-05-26T23:44:42Z</time>
      </trkpt>
      <trkpt lat="39.909793410928" lon="116.67132273677358">
        <ele>40.99872970581055</ele>
        <time>2018-05-26T23:44:45Z</time>
      </trkpt>
      <trkpt lat="39.909865625378885" lon="116.67120905154422">
        <ele>35.061031341552734</ele>
        <time>2018-05-26T23:44:52Z</time>
      </trkpt>
      <trkpt lat="39.90995979502235" lon="116.67111829833647">
        <ele>38.242584228515625</ele>
        <time>2018-05-26T23:44:54Z</time>
      </trkpt>
      <trkpt lat="39.91004291553195" lon="116.67105347267903">
        <ele>27.947473526000977</ele>
        <time>2018-05-26T23:44:56Z</time>
      </trkpt>
      <trkpt lat="39.91011604413036" lon="116.67098465963358">
        <ele>23.119619369506836</ele>
        <time>2018-05-26T23:45:00Z</time>
      </trkpt>
      <trkpt lat="39.910214238516744" lon="116.6708809429394">
        <ele>28.583696365356445</ele>
        <time>2018-05-26T23:45:02Z</time>
      </trkpt>
      <trkpt lat="39.91031039482501" lon="116.67079716971303">
        <ele>35.04282760620117</ele>
        <time>2018-05-26T23:45:07Z</time>
      </trkpt>
      <trkpt lat="39.91043854786899" lon="116.6707143897208">
        <ele>32.375465393066406</ele>
        <time>2018-05-26T23:45:09Z</time>
      </trkpt>
      <trkpt lat="39.910525668314094" lon="116.67064956366784">
        <ele>30.919673919677734</ele>
        <time>2018-05-26T23:45:13Z</time>
      </trkpt>
      <trkpt lat="39.910590799281216" lon="116.67057975455378">
        <ele>35.0236701965332</ele>
        <time>2018-05-26T23:45:15Z</time>
      </trkpt>
      <trkpt lat="39.91058489701441" lon="116.67052890022474">
        <ele>39.51883316040039</ele>
        <time>2018-05-26T23:45:17Z</time>
      </trkpt>
      <trkpt lat="39.910568981807934" lon="116.67048502724451">
        <ele>25.646947860717773</ele>
        <time>2018-05-26T23:45:19Z</time>
      </trkpt>
      <trkpt lat="39.91058913387679" lon="116.67040525214583">
        <ele>14.956472396850586</ele>
        <time>2018-05-26T23:45:22Z</time>
      </trkpt>
      <trkpt lat="39.9106233025727" lon="116.67031650092208">
        <ele>24.75157356262207</ele>
        <time>2018-05-26T23:45:26Z</time>
      </trkpt>
      <trkpt lat="39.91064543165405" lon="116.67024869150579">
        <ele>20.309722900390625</ele>
        <time>2018-05-26T23:45:28Z</time>
      </trkpt>
      <trkpt lat="39.910645523449844" lon="116.67020082796063">
        <ele>16.586227416992188</ele>
        <time>2018-05-26T23:45:30Z</time>
      </trkpt>
      <trkpt lat="39.910673612132534" lon="116.67015395812335">
        <ele>13.319764137268066</ele>
        <time>2018-05-26T23:45:32Z</time>
      </trkpt>
      <trkpt lat="39.91070371030041" lon="116.67010210226154">
        <ele>18.42715835571289</ele>
        <time>2018-05-26T23:45:35Z</time>
      </trkpt>
      <trkpt lat="39.910743798481015" lon="116.67005523095679">
        <ele>14.36604118347168</ele>
        <time>2018-05-26T23:45:37Z</time>
      </trkpt>
      <trkpt lat="39.910795872759664" lon="116.67001533827336">
        <ele>20.139692306518555</ele>
        <time>2018-05-26T23:45:42Z</time>
      </trkpt>
      <trkpt lat="39.91086098474851" lon="116.66995550086118">
        <ele>24.413562774658203</ele>
        <time>2018-05-26T23:45:44Z</time>
      </trkpt>
      <trkpt lat="39.91091213753658" lon="116.66987472490602">
        <ele>19.020923614501953</ele>
        <time>2018-05-26T23:45:48Z</time>
      </trkpt>
      <trkpt lat="39.91093930860401" lon="116.66978497752636">
        <ele>18.8835506439209</ele>
        <time>2018-05-26T23:45:52Z</time>
      </trkpt>
      <trkpt lat="39.910977473479626" lon="116.66969822027707">
        <ele>15.236294746398926</ele>
        <time>2018-05-26T23:45:54Z</time>
      </trkpt>
      <trkpt lat="39.9110195922623" lon="116.66963539428654">
        <ele>5.304336071014404</ele>
        <time>2018-05-26T23:45:56Z</time>
      </trkpt>
      <trkpt lat="39.91108572533838" lon="116.6695645881005">
        <ele>15.251212120056152</ele>
        <time>2018-05-26T23:45:58Z</time>
      </trkpt>
      <trkpt lat="39.911169869142235" lon="116.66948779677364">
        <ele>26.248809814453125</ele>
        <time>2018-05-26T23:46:00Z</time>
      </trkpt>
      <trkpt lat="39.911223995106624" lon="116.66942098071326">
        <ele>36.011505126953125</ele>
        <time>2018-05-26T23:46:03Z</time>
      </trkpt>
      <trkpt lat="39.91121609119785" lon="116.66937112394784">
        <ele>32.07467269897461</ele>
        <time>2018-05-26T23:46:05Z</time>
      </trkpt>
      <trkpt lat="39.911184153857356" lon="116.6693392189375">
        <ele>13.433874130249023</ele>
        <time>2018-05-26T23:46:07Z</time>
      </trkpt>
      <trkpt lat="39.91117419833576" lon="116.66931628560849">
        <ele>10.328747749328613</ele>
        <time>2018-05-26T23:46:09Z</time>
      </trkpt>
      <trkpt lat="39.91120925619934" lon="116.66928536948934">
        <ele>13.48849105834961</ele>
        <time>2018-05-26T23:46:11Z</time>
      </trkpt>
      <trkpt lat="39.91125934023442" lon="116.66924049135496">
        <ele>15.346184730529785</ele>
        <time>2018-05-26T23:46:13Z</time>
      </trkpt>
      <trkpt lat="39.91129648804645" lon="116.66916270872662">
        <ele>18.236753463745117</ele>
        <time>2018-05-26T23:46:15Z</time>
      </trkpt>
      <trkpt lat="39.91135968264933" lon="116.66905999404183">
        <ele>14.099486351013184</ele>
        <time>2018-05-26T23:46:17Z</time>
      </trkpt>
      <trkpt lat="39.91142883678403" lon="116.6689782188749">
        <ele>26.715980529785156</ele>
        <time>2018-05-26T23:46:19Z</time>
      </trkpt>
      <trkpt lat="39.911488922341164" lon="116.66893234237898">
        <ele>28.582639694213867</ele>
        <time>2018-05-26T23:46:21Z</time>
      </trkpt>
      <trkpt lat="39.91155899022783" lon="116.66889543903986">
        <ele>28.45216941833496</ele>
        <time>2018-05-26T23:46:23Z</time>
      </trkpt>
      <trkpt lat="39.911628111818246" lon="116.6688306155141">
        <ele>41.16675567626953</ele>
        <time>2018-05-26T23:46:27Z</time>
      </trkpt>
      <trkpt lat="39.911702267701244" lon="116.66874784260855">
        <ele>46.5756721496582</ele>
        <time>2018-05-26T23:46:30Z</time>
      </trkpt>
      <trkpt lat="39.91171539747167" lon="116.6686800345453">
        <ele>35.137001037597656</ele>
        <time>2018-05-26T23:46:34Z</time>
      </trkpt>
      <trkpt lat="39.91170949931665" lon="116.66862718613775">
        <ele>25.292774200439453</ele>
        <time>2018-05-26T23:46:36Z</time>
      </trkpt>
      <trkpt lat="39.91173564963223" lon="116.66854840779254">
        <ele>25.649431228637695</ele>
        <time>2018-05-26T23:46:38Z</time>
      </trkpt>
      <trkpt lat="39.91184794772344" lon="116.6683908437244">
        <ele>20.008464813232422</ele>
        <time>2018-05-26T23:46:44Z</time>
      </trkpt>
      <trkpt lat="39.91196224961382" lon="116.66823128513195">
        <ele>19.289222717285156</ele>
        <time>2018-05-26T23:46:52Z</time>
      </trkpt>
      <trkpt lat="39.912068484772064" lon="116.66810662791038">
        <ele>21.39992904663086</ele>
        <time>2018-05-26T23:46:54Z</time>
      </trkpt>
      <trkpt lat="39.912284855256495" lon="116.6679091649666">
        <ele>20.89154815673828</ele>
        <time>2018-05-26T23:46:58Z</time>
      </trkpt>
      <trkpt lat="39.91250523331067" lon="116.66770771294523">
        <ele>33.72562789916992</ele>
        <time>2018-05-26T23:47:14Z</time>
      </trkpt>
      <trkpt lat="39.91270654125263" lon="116.66754315794019">
        <ele>27.309974670410156</ele>
        <time>2018-05-26T23:47:16Z</time>
      </trkpt>
      <trkpt lat="39.912715550460234" lon="116.66753817106631">
        <ele>24.870468139648438</ele>
        <time>2018-05-26T23:47:20Z</time>
      </trkpt>
      <trkpt lat="39.91270354138114" lon="116.66754315831017">
        <ele>22.933692932128906</ele>
        <time>2018-05-26T23:47:22Z</time>
      </trkpt>
      <trkpt lat="39.91270564874037" lon="116.66748731750714">
        <ele>33.908164978027344</ele>
        <time>2018-05-26T23:47:24Z</time>
      </trkpt>
      <trkpt lat="39.912721778528905" lon="116.66741950914486">
        <ele>43.44052505493164</ele>
        <time>2018-05-26T23:47:28Z</time>
      </trkpt>
      <trkpt lat="39.9127459482763" lon="116.66733075958847">
        <ele>43.77988052368164</ele>
        <time>2018-05-26T23:47:30Z</time>
      </trkpt>
      <trkpt lat="39.91276408374815" lon="116.66725995952211">
        <ele>39.68451690673828</ele>
        <time>2018-05-26T23:47:33Z</time>
      </trkpt>
      <trkpt lat="39.91279124762526" lon="116.66717420105412">
        <ele>47.15804672241211</ele>
        <time>2018-05-26T23:47:35Z</time>
      </trkpt>
      <trkpt lat="39.912842360585266" lon="116.66711436559847">
        <ele>45.88112258911133</ele>
        <time>2018-05-26T23:47:37Z</time>
      </trkpt>
      <trkpt lat="39.912877470395664" lon="116.66705652642078">
        <ele>44.59749984741211</ele>
        <time>2018-05-26T23:47:39Z</time>
      </trkpt>
      <trkpt lat="39.912939582891845" lon="116.66699668960759">
        <ele>37.282875061035156</ele>
        <time>2018-05-26T23:47:43Z</time>
      </trkpt>
      <trkpt lat="39.91299771667448" lon="116.6669258846055">
        <ele>25.08664894104004</ele>
        <time>2018-05-26T23:47:48Z</time>
      </trkpt>
      <trkpt lat="39.913095871781934" lon="116.66684310883548">
        <ele>22.853376388549805</ele>
        <time>2018-05-26T23:47:50Z</time>
      </trkpt>
      <trkpt lat="39.913170964540456" lon="116.66679324194426">
        <ele>12.848755836486816</ele>
        <time>2018-05-26T23:47:55Z</time>
      </trkpt>
      <trkpt lat="39.913268131217166" lon="116.66670448337531">
        <ele>10.740099906921387</ele>
        <time>2018-05-26T23:47:57Z</time>
      </trkpt>
      <trkpt lat="39.91331026570083" lon="116.66663368033676">
        <ele>2.4922921657562256</ele>
        <time>2018-05-26T23:47:59Z</time>
      </trkpt>
      <trkpt lat="39.91335243473825" lon="116.66654492854015">
        <ele>-5.6472978591918945</ele>
        <time>2018-05-26T23:48:03Z</time>
      </trkpt>
      <trkpt lat="39.913363511048104" lon="116.66650504106134">
        <ele>-2.3321712017059326</ele>
        <time>2018-05-26T23:48:05Z</time>
      </trkpt>
      <trkpt lat="39.91341260876904" lon="116.66645318305913">
        <ele>1.469244360923767</ele>
        <time>2018-05-26T23:48:07Z</time>
      </trkpt>
      <trkpt lat="39.91350669305159" lon="116.66640730242615">
        <ele>3.6464760303497314</ele>
        <time>2018-05-26T23:48:09Z</time>
      </trkpt>
      <trkpt lat="39.91359182762934" lon="116.6663354969174">
        <ele>23.38149070739746</ele>
        <time>2018-05-26T23:48:12Z</time>
      </trkpt>
      <trkpt lat="39.91373403656028" lon="116.66622379824446">
        <ele>10.601786613464355</ele>
        <time>2018-05-26T23:48:16Z</time>
      </trkpt>
      <trkpt lat="39.91380125253651" lon="116.6661101144969">
        <ele>17.22736167907715</ele>
        <time>2018-05-26T23:48:20Z</time>
      </trkpt>
      <trkpt lat="39.91422930355391" lon="116.66555464716444">
        <ele>34.08988571166992</ele>
        <time>2018-05-26T23:48:44Z</time>
      </trkpt>
      <trkpt lat="39.91416131796953" lon="116.66554867261935">
        <ele>9.550280570983887</ele>
        <time>2018-05-26T23:48:48Z</time>
      </trkpt>
      <trkpt lat="39.91415939291781" lon="116.66550978384606">
        <ele>16.704015731811523</ele>
        <time>2018-05-26T23:48:50Z</time>
      </trkpt>
      <trkpt lat="39.91422351496062" lon="116.6654449609193">
        <ele>16.945833206176758</ele>
        <time>2018-05-26T23:48:52Z</time>
      </trkpt>
      <trkpt lat="39.914290590806225" lon="116.66540406932566">
        <ele>15.444485664367676</ele>
        <time>2018-05-26T23:48:54Z</time>
      </trkpt>
      <trkpt lat="39.91439472649951" lon="116.66533126421882">
        <ele>16.595563888549805</ele>
        <time>2018-05-26T23:48:56Z</time>
      </trkpt>
      <trkpt lat="39.91448388010542" lon="116.6652494865563">
        <ele>28.80289649963379</ele>
        <time>2018-05-26T23:49:00Z</time>
      </trkpt>
      <trkpt lat="39.91458801771512" lon="116.66517568427207">
        <ele>26.637365341186523</ele>
        <time>2018-05-26T23:49:03Z</time>
      </trkpt>
      <trkpt lat="39.9146370943245" lon="116.66513479487485">
        <ele>27.638582229614258</ele>
        <time>2018-05-26T23:49:05Z</time>
      </trkpt>
      <trkpt lat="39.91467116965207" lon="116.6650949044777">
        <ele>30.49628257751465</ele>
        <time>2018-05-26T23:49:07Z</time>
      </trkpt>
      <trkpt lat="39.91468729180809" lon="116.66503108456679">
        <ele>25.668466567993164</ele>
        <time>2018-05-26T23:49:09Z</time>
      </trkpt>
      <trkpt lat="39.91471443076645" lon="116.66495828889106">
        <ele>10.411861419677734</ele>
        <time>2018-05-26T23:49:13Z</time>
      </trkpt>
      <trkpt lat="39.914768580087284" lon="116.66487950694122">
        <ele>8.137819290161133</ele>
        <time>2018-05-26T23:49:16Z</time>
      </trkpt>
      <trkpt lat="39.91489673969015" lon="116.66479373576637">
        <ele>13.303069114685059</ele>
        <time>2018-05-26T23:49:18Z</time>
      </trkpt>
      <trkpt lat="39.9150148709281" lon="116.66472292314766">
        <ele>48.77585220336914</ele>
        <time>2018-05-26T23:49:23Z</time>
      </trkpt>
      <trkpt lat="39.9151169817342" lon="116.66466308120697">
        <ele>45.55495834350586</ele>
        <time>2018-05-26T23:49:25Z</time>
      </trkpt>
      <trkpt lat="39.91514905137629" lon="116.66462618247951">
        <ele>41.667274475097656</ele>
        <time>2018-05-26T23:49:27Z</time>
      </trkpt>
      <trkpt lat="39.91518814374654" lon="116.66457731700774">
        <ele>38.85088348388672</ele>
        <time>2018-05-26T23:49:29Z</time>
      </trkpt>
      <trkpt lat="39.91523724336503" lon="116.66452446167062">
        <ele>36.47725296020508</ele>
        <time>2018-05-26T23:49:31Z</time>
      </trkpt>
      <trkpt lat="39.91529134660592" lon="116.66446961139596">
        <ele>34.76413345336914</ele>
        <time>2018-05-26T23:49:33Z</time>
      </trkpt>
      <trkpt lat="39.91534243462137" lon="116.66442273873815">
        <ele>32.025962829589844</ele>
        <time>2018-05-26T23:49:35Z</time>
      </trkpt>
      <trkpt lat="39.91538551146216" lon="116.66438185000219">
        <ele>31.730356216430664</ele>
        <time>2018-05-26T23:49:37Z</time>
      </trkpt>
      <trkpt lat="39.91542058096625" lon="116.66434495087574">
        <ele>28.859893798828125</ele>
        <time>2018-05-26T23:49:39Z</time>
      </trkpt>
      <trkpt lat="39.91545265635181" lon="116.66430506064286">
        <ele>27.89839744567871</ele>
        <time>2018-05-26T23:49:41Z</time>
      </trkpt>
      <trkpt lat="39.915486739324635" lon="116.66426118152893">
        <ele>28.481775283813477</ele>
        <time>2018-05-26T23:49:43Z</time>
      </trkpt>
      <trkpt lat="39.915526839306466" lon="116.66420832725137">
        <ele>28.245052337646484</ele>
        <time>2018-05-26T23:49:45Z</time>
      </trkpt>
      <trkpt lat="39.91556693544793" lon="116.66415746728062">
        <ele>28.110580444335938</ele>
        <time>2018-05-26T23:49:47Z</time>
      </trkpt>
      <trkpt lat="39.9156000338012" lon="116.66410561100598">
        <ele>28.06247901916504</ele>
        <time>2018-05-26T23:49:49Z</time>
      </trkpt>
      <trkpt lat="39.9156281246899" lon="116.664057743971">
        <ele>28.00275993347168</ele>
        <time>2018-05-26T23:49:51Z</time>
      </trkpt>
      <trkpt lat="39.915658225081195" lon="116.66400489089061">
        <ele>27.91019058227539</ele>
        <time>2018-05-26T23:49:53Z</time>
      </trkpt>
      <trkpt lat="39.91568831587797" lon="116.66395702359313">
        <ele>27.679706573486328</ele>
        <time>2018-05-26T23:49:57Z</time>
      </trkpt>
      <trkpt lat="39.915723419885154" lon="116.66390217556145">
        <ele>27.58304214477539</ele>
        <time>2018-05-26T23:49:59Z</time>
      </trkpt>
      <trkpt lat="39.91575952384522" lon="116.66384732739614">
        <ele>27.492769241333008</ele>
        <time>2018-05-26T23:50:01Z</time>
      </trkpt>
      <trkpt lat="39.915800637177455" lon="116.6637874928091">
        <ele>27.457992553710938</ele>
        <time>2018-05-26T23:50:03Z</time>
      </trkpt>
      <trkpt lat="39.91583673537418" lon="116.66373563609913">
        <ele>27.436674118041992</ele>
        <time>2018-05-26T23:50:05Z</time>
      </trkpt>
      <trkpt lat="39.915872831648755" lon="116.6636847765388">
        <ele>27.457977294921875</ele>
        <time>2018-05-26T23:50:07Z</time>
      </trkpt>
      <trkpt lat="39.91591193546179" lon="116.66362992796088">
        <ele>27.476198196411133</ele>
        <time>2018-05-26T23:50:09Z</time>
      </trkpt>
      <trkpt lat="39.91594703176935" lon="116.66357906850371">
        <ele>27.44170379638672</ele>
        <time>2018-05-26T23:50:11Z</time>
      </trkpt>
      <trkpt lat="39.91598112811459" lon="116.66352820915986">
        <ele>27.30696678161621</ele>
        <time>2018-05-26T23:50:13Z</time>
      </trkpt>
      <trkpt lat="39.91601923195444" lon="116.66347336067244">
        <ele>27.19352149963379</ele>
        <time>2018-05-26T23:50:15Z</time>
      </trkpt>
      <trkpt lat="39.916067366038455" lon="116.66340255637387">
        <ele>27.135799407958984</ele>
        <time>2018-05-26T23:50:17Z</time>
      </trkpt>
      <trkpt lat="39.91611249448892" lon="116.66333474390717">
        <ele>27.127992630004883</ele>
        <time>2018-05-26T23:50:19Z</time>
      </trkpt>
      <trkpt lat="39.916160640054166" lon="116.66325795660254">
        <ele>27.112812042236328</ele>
        <time>2018-05-26T23:50:21Z</time>
      </trkpt>
      <trkpt lat="39.9162027686116" lon="116.66319014446509">
        <ele>26.965347290039062</ele>
        <time>2018-05-26T23:50:26Z</time>
      </trkpt>
      <trkpt lat="39.91624690090749" lon="116.66312033773859">
        <ele>26.91118621826172</ele>
        <time>2018-05-26T23:50:28Z</time>
      </trkpt>
      <trkpt lat="39.91628403348902" lon="116.66305053185327">
        <ele>26.806386947631836</ele>
        <time>2018-05-26T23:50:31Z</time>
      </trkpt>
      <trkpt lat="39.91632117372414" lon="116.66297673729746">
        <ele>26.831785202026367</ele>
        <time>2018-05-26T23:50:33Z</time>
      </trkpt>
      <trkpt lat="39.91635231036857" lon="116.66290493778159">
        <ele>26.924701690673828</ele>
        <time>2018-05-26T23:50:35Z</time>
      </trkpt>
      <trkpt lat="39.91637142260287" lon="116.6628461028383">
        <ele>26.832679748535156</ele>
        <time>2018-05-26T23:50:41Z</time>
      </trkpt>
      <trkpt lat="39.91638855790138" lon="116.66277530216689">
        <ele>26.854122161865234</ele>
        <time>2018-05-26T23:50:43Z</time>
      </trkpt>
      <trkpt lat="39.916401699102984" lon="116.66270151047388">
        <ele>26.851442337036133</ele>
        <time>2018-05-26T23:50:45Z</time>
      </trkpt>
      <trkpt lat="39.91641585365513" lon="116.66262073848415">
        <ele>26.8664493560791</ele>
        <time>2018-05-26T23:50:49Z</time>
      </trkpt>
      <trkpt lat="39.916418981844615" lon="116.66255392811793">
        <ele>26.92412757873535</ele>
        <time>2018-05-26T23:50:51Z</time>
      </trkpt>
      <trkpt lat="39.916423123383986" lon="116.66248013745408">
        <ele>26.854551315307617</ele>
        <time>2018-05-26T23:50:53Z</time>
      </trkpt>
      <trkpt lat="39.91642425929127" lon="116.6624093386275">
        <ele>26.753005981445312</ele>
        <time>2018-05-26T23:50:55Z</time>
      </trkpt>
      <trkpt lat="39.916429393100735" lon="116.66233953644834">
        <ele>26.62078857421875</ele>
        <time>2018-05-26T23:50:57Z</time>
      </trkpt>
      <trkpt lat="39.916441547657044" lon="116.66225876455898">
        <ele>26.503936767578125</ele>
        <time>2018-05-26T23:50:59Z</time>
      </trkpt>
      <trkpt lat="39.916453683053966" lon="116.66218796429743">
        <ele>26.433244705200195</ele>
        <time>2018-05-26T23:51:03Z</time>
      </trkpt>
      <trkpt lat="39.91647183349268" lon="116.66210918593823">
        <ele>26.356990814208984</ele>
        <time>2018-05-26T23:51:05Z</time>
      </trkpt>
      <trkpt lat="39.916485968773095" lon="116.66203838537403">
        <ele>26.25415802001953</ele>
        <time>2018-05-26T23:51:08Z</time>
      </trkpt>
      <trkpt lat="39.916505153573" lon="116.66194165781411">
        <ele>26.14432716369629</ele>
        <time>2018-05-26T23:51:10Z</time>
      </trkpt>
      <trkpt lat="39.91652632869368" lon="116.66184991579621">
        <ele>26.10064125061035</ele>
        <time>2018-05-26T23:51:12Z</time>
      </trkpt>
      <trkpt lat="39.916546492353106" lon="116.66176415686503">
        <ele>26.019874572753906</ele>
        <time>2018-05-26T23:51:14Z</time>
      </trkpt>
      <trkpt lat="39.91657363083031" lon="116.66169136022641">
        <ele>25.856578826904297</ele>
        <time>2018-05-26T23:51:16Z</time>
      </trkpt>
      <trkpt lat="39.91659876363759" lon="116.66162155531126">
        <ele>25.694229125976562</ele>
        <time>2018-05-26T23:51:18Z</time>
      </trkpt>
      <trkpt lat="39.91663187696989" lon="116.66156172107982">
        <ele>25.6097354888916</ele>
        <time>2018-05-26T23:51:20Z</time>
      </trkpt>
      <trkpt lat="39.9166589714252" lon="116.66151185926569">
        <ele>25.40764045715332</ele>
        <time>2018-05-26T23:51:23Z</time>
      </trkpt>
      <trkpt lat="39.916685046797205" lon="116.66147196926214">
        <ele>25.209875106811523</ele>
        <time>2018-05-26T23:51:25Z</time>
      </trkpt>
      <trkpt lat="39.91670611281712" lon="116.66143706571661">
        <ele>24.9680233001709</ele>
        <time>2018-05-26T23:51:27Z</time>
      </trkpt>
      <trkpt lat="39.91672717309834" lon="116.66140515367557">
        <ele>24.755504608154297</ele>
        <time>2018-05-26T23:51:29Z</time>
      </trkpt>
      <trkpt lat="39.91674823719864" lon="116.66137124728677">
        <ele>24.499866485595703</ele>
        <time>2018-05-26T23:51:31Z</time>
      </trkpt>
      <trkpt lat="39.916776329666945" lon="116.6613223824634">
        <ele>24.266799926757812</ele>
        <time>2018-05-26T23:51:33Z</time>
      </trkpt>
      <trkpt lat="39.91680943529214" lon="116.66126653680989">
        <ele>23.806791305541992</ele>
        <time>2018-05-26T23:51:37Z</time>
      </trkpt>
      <trkpt lat="39.916847555980524" lon="116.66120271314702">
        <ele>23.61487579345703</ele>
        <time>2018-05-26T23:51:39Z</time>
      </trkpt>
      <trkpt lat="39.91688065967049" lon="116.66114786462401">
        <ele>23.371685028076172</ele>
        <time>2018-05-26T23:51:41Z</time>
      </trkpt>
      <trkpt lat="39.91691375188721" lon="116.66109899911713">
        <ele>22.89133071899414</ele>
        <time>2018-05-26T23:51:45Z</time>
      </trkpt>
      <trkpt lat="39.91694583840666" lon="116.66105312523656">
        <ele>22.75383758544922</ele>
        <time>2018-05-26T23:51:47Z</time>
      </trkpt>
      <trkpt lat="39.91698093816111" lon="116.66100027076139">
        <ele>22.71237564086914</ele>
        <time>2018-05-26T23:51:49Z</time>
      </trkpt>
      <trkpt lat="39.91702006065241" lon="116.66093544969348">
        <ele>22.63074493408203</ele>
        <time>2018-05-26T23:51:51Z</time>
      </trkpt>
      <trkpt lat="39.91707122271772" lon="116.6608496864659">
        <ele>22.368940353393555</ele>
        <time>2018-05-26T23:51:53Z</time>
      </trkpt>
      <trkpt lat="39.91712439039614" lon="116.66076093141916">
        <ele>21.749284744262695</ele>
        <time>2018-05-26T23:51:57Z</time>
      </trkpt>
      <trkpt lat="39.91717655426742" lon="116.66067417079311">
        <ele>21.50128936767578</ele>
        <time>2018-05-26T23:51:59Z</time>
      </trkpt>
      <trkpt lat="39.917214665265355" lon="116.66061533276135">
        <ele>21.259742736816406</ele>
        <time>2018-05-26T23:52:01Z</time>
      </trkpt>
      <trkpt lat="39.91725075534352" lon="116.6605674638889">
        <ele>21.068532943725586</ele>
        <time>2018-05-26T23:52:03Z</time>
      </trkpt>
      <trkpt lat="39.91728181891099" lon="116.66053355608453">
        <ele>20.821273803710938</ele>
        <time>2018-05-26T23:52:05Z</time>
      </trkpt>
      <trkpt lat="39.91731788607846" lon="116.66049765330386">
        <ele>20.511262893676758</ele>
        <time>2018-05-26T23:52:07Z</time>
      </trkpt>
      <trkpt lat="39.91735697791399" lon="116.66044878684623">
        <ele>20.281505584716797</ele>
        <time>2018-05-26T23:52:09Z</time>
      </trkpt>
      <trkpt lat="39.917401100047066" lon="116.66038396491997">
        <ele>20.11569595336914</ele>
        <time>2018-05-26T23:52:11Z</time>
      </trkpt>
      <trkpt lat="39.91744421838979" lon="116.66032113744247">
        <ele>19.931480407714844</ele>
        <time>2018-05-26T23:52:13Z</time>
      </trkpt>
      <trkpt lat="39.917486325316275" lon="116.66026429312899">
        <ele>19.770383834838867</ele>
        <time>2018-05-26T23:52:15Z</time>
      </trkpt>
      <trkpt lat="39.917532445405776" lon="116.66020046804948">
        <ele>19.72429084777832</ele>
        <time>2018-05-26T23:52:17Z</time>
      </trkpt>
      <trkpt lat="39.91757757505038" lon="116.6601316571675">
        <ele>19.693214416503906</ele>
        <time>2018-05-26T23:52:19Z</time>
      </trkpt>
      <trkpt lat="39.91761769154254" lon="116.66006982712332">
        <ele>19.57398796081543</ele>
        <time>2018-05-26T23:52:21Z</time>
      </trkpt>
      <trkpt lat="39.91765280441643" lon="116.66000999202599">
        <ele>19.516937255859375</ele>
        <time>2018-05-26T23:52:23Z</time>
      </trkpt>
      <trkpt lat="39.91767892908514" lon="116.65994417492571">
        <ele>19.281457901000977</ele>
        <time>2018-05-26T23:52:27Z</time>
      </trkpt>
      <trkpt lat="39.91769406943707" lon="116.6598703816969">
        <ele>19.14850425720215</ele>
        <time>2018-05-26T23:52:29Z</time>
      </trkpt>
      <trkpt lat="39.91769217619452" lon="116.65981453978712">
        <ele>19.24799919128418</ele>
        <time>2018-05-26T23:52:33Z</time>
      </trkpt>
      <trkpt lat="39.91766628204371" lon="116.65975969798755">
        <ele>19.44159698486328</ele>
        <time>2018-05-26T23:52:37Z</time>
      </trkpt>
      <trkpt lat="39.91763236536457" lon="116.65971682333705">
        <ele>19.64214515686035</ele>
        <time>2018-05-26T23:52:41Z</time>
      </trkpt>
      <trkpt lat="39.91759444694103" lon="116.6596749463467">
        <ele>19.8171329498291</ele>
        <time>2018-05-26T23:52:43Z</time>
      </trkpt>
      <trkpt lat="39.9175685127721" lon="116.65964104532989">
        <ele>19.996471405029297</ele>
        <time>2018-05-26T23:52:45Z</time>
      </trkpt>
      <trkpt lat="39.9175396148937" lon="116.65958819819058">
        <ele>20.21307373046875</ele>
        <time>2018-05-26T23:52:47Z</time>
      </trkpt>
      <trkpt lat="39.91750373823302" lon="116.65952438286782">
        <ele>20.565549850463867</ele>
        <time>2018-05-26T23:52:49Z</time>
      </trkpt>
      <trkpt lat="39.91746786155172" lon="116.65946056751199">
        <ele>20.91007423400879</ele>
        <time>2018-05-26T23:52:51Z</time>
      </trkpt>
      <trkpt lat="39.917428981170815" lon="116.65939874686165">
        <ele>21.250625610351562</ele>
        <time>2018-05-26T23:52:53Z</time>
      </trkpt>
      <trkpt lat="39.91739010457485" lon="116.65933493180898">
        <ele>21.588293075561523</ele>
        <time>2018-05-26T23:52:55Z</time>
      </trkpt>
      <trkpt lat="39.91735422592913" lon="116.65927211353939">
        <ele>21.856599807739258</ele>
        <time>2018-05-26T23:52:57Z</time>
      </trkpt>
      <trkpt lat="39.91731933961379" lon="116.65921328385951">
        <ele>22.160951614379883</ele>
        <time>2018-05-26T23:52:59Z</time>
      </trkpt>
      <trkpt lat="39.91728743984384" lon="116.65916143408973">
        <ele>22.37541961669922</ele>
        <time>2018-05-26T23:53:01Z</time>
      </trkpt>
      <trkpt lat="39.917255540059514" lon="116.6591095842971">
        <ele>22.704177856445312</ele>
        <time>2018-05-26T23:53:03Z</time>
      </trkpt>
      <trkpt lat="39.91722762868679" lon="116.65906371711586">
        <ele>23.142534255981445</ele>
        <time>2018-05-26T23:53:05Z</time>
      </trkpt>
      <trkpt lat="39.91719872494728" lon="116.6590138612871">
        <ele>23.603864669799805</ele>
        <time>2018-05-26T23:53:07Z</time>
      </trkpt>
      <trkpt lat="39.91716282719058" lon="116.65896101473201">
        <ele>24.038179397583008</ele>
        <time>2018-05-26T23:53:09Z</time>
      </trkpt>
      <trkpt lat="39.91712893123412" lon="116.65890717071764">
        <ele>24.466567993164062</ele>
        <time>2018-05-26T23:53:11Z</time>
      </trkpt>
      <trkpt lat="39.91709602572077" lon="116.65885831250233">
        <ele>24.87491798400879</ele>
        <time>2018-05-26T23:53:13Z</time>
      </trkpt>
      <trkpt lat="39.91706909904643" lon="116.6588204226165">
        <ele>25.30552101135254</ele>
        <time>2018-05-26T23:53:15Z</time>
      </trkpt>
      <trkpt lat="39.91703718207162" lon="116.65877754738204">
        <ele>25.7924861907959</ele>
        <time>2018-05-26T23:53:17Z</time>
      </trkpt>
      <trkpt lat="39.91700827255584" lon="116.65873068299996">
        <ele>26.189477920532227</ele>
        <time>2018-05-26T23:53:19Z</time>
      </trkpt>
      <trkpt lat="39.9169763764453" lon="116.65867683862984">
        <ele>26.64885902404785</ele>
        <time>2018-05-26T23:53:21Z</time>
      </trkpt>
      <trkpt lat="39.91694647643686" lon="116.6586249883708">
        <ele>27.09769058227539</ele>
        <time>2018-05-26T23:53:23Z</time>
      </trkpt>
      <trkpt lat="39.91690559206214" lon="116.65856516190368">
        <ele>27.47972297668457</ele>
        <time>2018-05-26T23:53:25Z</time>
      </trkpt>
      <trkpt lat="39.91686371150428" lon="116.65850334114161">
        <ele>27.897796630859375</ele>
        <time>2018-05-26T23:53:27Z</time>
      </trkpt>
      <trkpt lat="39.916817840579554" lon="116.65843653487012">
        <ele>28.261384963989258</ele>
        <time>2018-05-26T23:53:29Z</time>
      </trkpt>
      <trkpt lat="39.916781944545775" lon="116.65838269084733">
        <ele>28.651552200317383</ele>
        <time>2018-05-26T23:53:31Z</time>
      </trkpt>
      <trkpt lat="39.91674704845247" lon="116.65832884667464">
        <ele>28.945667266845703</ele>
        <time>2018-05-26T23:53:33Z</time>
      </trkpt>
      <trkpt lat="39.916713154195804" lon="116.65827400515707">
        <ele>29.36611557006836</ele>
        <time>2018-05-26T23:53:35Z</time>
      </trkpt>
      <trkpt lat="39.91667726569339" lon="116.65821617227121">
        <ele>29.753673553466797</ele>
        <time>2018-05-26T23:53:37Z</time>
      </trkpt>
      <trkpt lat="39.91663539258888" lon="116.65815036252421">
        <ele>30.0290584564209</ele>
        <time>2018-05-26T23:53:39Z</time>
      </trkpt>
      <trkpt lat="39.91659151575202" lon="116.65808654737485">
        <ele>30.248620986938477</ele>
        <time>2018-05-26T23:53:41Z</time>
      </trkpt>
      <trkpt lat="39.916550640657846" lon="116.65802173462036">
        <ele>30.4675235748291</ele>
        <time>2018-05-26T23:53:43Z</time>
      </trkpt>
      <trkpt lat="39.91651773867765" lon="116.65797088160976">
        <ele>30.632017135620117</ele>
        <time>2018-05-26T23:53:45Z</time>
      </trkpt>
      <trkpt lat="39.916484849939785" lon="116.65791304818677">
        <ele>30.735687255859375</ele>
        <time>2018-05-26T23:53:47Z</time>
      </trkpt>
      <trkpt lat="39.9164539573087" lon="116.6578572088827">
        <ele>30.947420120239258</ele>
        <time>2018-05-26T23:53:51Z</time>
      </trkpt>
      <trkpt lat="39.91642407029539" lon="116.65779837782709">
        <ele>31.199100494384766</ele>
        <time>2018-05-26T23:53:53Z</time>
      </trkpt>
      <trkpt lat="39.91639417190198" lon="116.65774552993652">
        <ele>31.406871795654297</ele>
        <time>2018-05-26T23:53:55Z</time>
      </trkpt>
      <trkpt lat="39.91635828510009" lon="116.65768669955324">
        <ele>31.58836555480957</ele>
        <time>2018-05-26T23:53:57Z</time>
      </trkpt>
      <trkpt lat="39.916318400337154" lon="116.65762687242595">
        <ele>31.73439598083496</ele>
        <time>2018-05-26T23:53:59Z</time>
      </trkpt>
      <trkpt lat="39.91628350020441" lon="116.65757502226073">
        <ele>31.82854461669922</ele>
        <time>2018-05-26T23:54:01Z</time>
      </trkpt>
      <trkpt lat="39.91624660770461" lon="116.65751918350567">
        <ele>31.92311668395996</ele>
        <time>2018-05-26T23:54:03Z</time>
      </trkpt>
      <trkpt lat="39.91621271316597" lon="116.65746434155274">
        <ele>32.110107421875</ele>
        <time>2018-05-26T23:54:05Z</time>
      </trkpt>
      <trkpt lat="39.91617282831495" lon="116.65740451429012">
        <ele>32.29509353637695</ele>
        <time>2018-05-26T23:54:07Z</time>
      </trkpt>
      <trkpt lat="39.91612995112807" lon="116.65734069854359">
        <ele>32.50377655029297</ele>
        <time>2018-05-26T23:54:09Z</time>
      </trkpt>
      <trkpt lat="39.916080085549034" lon="116.65727090038725">
        <ele>32.69165802001953</ele>
        <time>2018-05-26T23:54:11Z</time>
      </trkpt>
      <trkpt lat="39.916023241015445" lon="116.65719013378025">
        <ele>32.8694953918457</ele>
        <time>2018-05-26T23:54:13Z</time>
      </trkpt>
      <trkpt lat="39.91597337725305" lon="116.6571193383073">
        <ele>32.965187072753906</ele>
        <time>2018-05-26T23:54:15Z</time>
      </trkpt>
      <trkpt lat="39.9159314961222" lon="116.65705751666063">
        <ele>33.01393127441406</ele>
        <time>2018-05-26T23:54:17Z</time>
      </trkpt>
      <trkpt lat="39.91589758630644" lon="116.6570106521024">
        <ele>33.054866790771484</ele>
        <time>2018-05-26T23:54:19Z</time>
      </trkpt>
      <trkpt lat="39.915863678362896" lon="116.65696279031266">
        <ele>33.12270736694336</ele>
        <time>2018-05-26T23:54:21Z</time>
      </trkpt>
      <trkpt lat="39.91582876478357" lon="116.65691792024641">
        <ele>33.23283767700195</ele>
        <time>2018-05-26T23:54:23Z</time>
      </trkpt>
      <trkpt lat="39.91579085320414" lon="116.65687205331811">
        <ele>33.33969497680664</ele>
        <time>2018-05-26T23:54:25Z</time>
      </trkpt>
      <trkpt lat="39.91575194919876" lon="116.65682219765212">
        <ele>33.497432708740234</ele>
        <time>2018-05-26T23:54:27Z</time>
      </trkpt>
      <trkpt lat="39.915708060477606" lon="116.65676436489316">
        <ele>33.81687545776367</ele>
        <time>2018-05-26T23:54:31Z</time>
      </trkpt>
    </trkseg>
  </trk>
</gpx>