<?xml version="1.0" encoding="UTF-8"?>
<gpx xmlns="http://www.topografix.com/GPX/1/1" xmlns:gpxtpx="http://www.garmin.com/xmlschemas/TrackPointExtension/v1" xmlns:xsi="http://www.w3.org/2001/XMLSchema-instance" xsi:schemaLocation="http://www.topografix.com/GPX/1/1 http://www.topografix.com/GPX/1/1/gpx.xsd" version="1.1" creator="gpx.py -- https://github.com/tkrajina/gpxpy">
  <trk>
    <name>gpx from codoon</name>
    <type>Run</type>
    <trkseg>
      <trkpt lat="39.80009183957665" lon="116.49129831846588">
        <ele>28.22924042106015</ele>
        <time>2020-11-09T22:23:32Z</time>
      </trkpt>
      <trkpt lat="39.800075882756055" lon="116.49131237367591">
        <ele>28.22924042106015</ele>
        <time>2020-11-09T22:23:33Z</time>
      </trkpt>
      <trkpt lat="39.80004994170193" lon="116.49133144913449">
        <ele>28.469991216320913</ele>
        <time>2020-11-09T22:23:38Z</time>
      </trkpt>
      <trkpt lat="39.800015019327475" lon="116.49135654852032">
        <ele>28.469991216320913</ele>
        <time>2020-11-09T22:23:40Z</time>
      </trkpt>
      <trkpt lat="39.79998506961978" lon="116.49137261306798">
        <ele>28.469991216320913</ele>
        <time>2020-11-09T22:23:42Z</time>
      </trkpt>
      <trkpt lat="39.799955131883586" lon="116.49139269282487">
        <ele>28.687626684245796</ele>
        <time>2020-11-09T22:23:44Z</time>
      </trkpt>
      <trkpt lat="39.79992522706824" lon="116.49142381440728">
        <ele>28.687626684245796</ele>
        <time>2020-11-09T22:23:46Z</time>
      </trkpt>
      <trkpt lat="39.79989733107286" lon="116.49145794715017">
        <ele>28.54739453352908</ele>
        <time>2020-11-09T22:23:48Z</time>
      </trkpt>
      <trkpt lat="39.7998714379123" lon="116.49149308344907">
        <ele>28.54739453352908</ele>
        <time>2020-11-09T22:23:50Z</time>
      </trkpt>
      <trkpt lat="39.79984753561501" lon="116.49152520809452">
        <ele>28.54739453352908</ele>
        <time>2020-11-09T22:23:52Z</time>
      </trkpt>
      <trkpt lat="39.799817657746765" lon="116.49156536390261">
        <ele>28.821326479242504</ele>
        <time>2020-11-09T22:23:54Z</time>
      </trkpt>
      <trkpt lat="39.7997837772111" lon="116.49160451640454">
        <ele>28.821326479242504</ele>
        <time>2020-11-09T22:23:57Z</time>
      </trkpt>
      <trkpt lat="39.79974687596861" lon="116.4916366426614">
        <ele>28.553425985012602</ele>
        <time>2020-11-09T22:23:59Z</time>
      </trkpt>
      <trkpt lat="39.79971293856909" lon="116.49165672291775">
        <ele>28.553425985012602</ele>
        <time>2020-11-09T22:24:01Z</time>
      </trkpt>
      <trkpt lat="39.7996769983388" lon="116.49167579961927">
        <ele>28.420232244834594</ele>
        <time>2020-11-09T22:24:03Z</time>
      </trkpt>
      <trkpt lat="39.79964305495553" lon="116.49169387227107">
        <ele>28.420232244834594</ele>
        <time>2020-11-09T22:24:05Z</time>
      </trkpt>
      <trkpt lat="39.79961211133175" lon="116.49171194455191">
        <ele>28.420232244834594</ele>
        <time>2020-11-09T22:24:07Z</time>
      </trkpt>
      <trkpt lat="39.79958317353452" lon="116.49173202419063">
        <ele>28.403645973854164</ele>
        <time>2020-11-09T22:24:09Z</time>
      </trkpt>
      <trkpt lat="39.79954821227536" lon="116.49174407415131">
        <ele>28.403645973854164</ele>
        <time>2020-11-09T22:24:11Z</time>
      </trkpt>
      <trkpt lat="39.799509227392775" lon="116.49174809418632">
        <ele>28.33076721750226</ele>
        <time>2020-11-09T22:24:13Z</time>
      </trkpt>
      <trkpt lat="39.79946818879226" lon="116.49173404602266">
        <ele>28.33076721750226</ele>
        <time>2020-11-09T22:24:15Z</time>
      </trkpt>
      <trkpt lat="39.79942513239458" lon="116.49171397529138">
        <ele>28.33076721750226</ele>
        <time>2020-11-09T22:24:17Z</time>
      </trkpt>
      <trkpt lat="39.79937806734168" lon="116.49169089364781">
        <ele>28.544881429777</ele>
        <time>2020-11-09T22:24:19Z</time>
      </trkpt>
      <trkpt lat="39.79933099031816" lon="116.49166379679481">
        <ele>28.544881429777</ele>
        <time>2020-11-09T22:24:21Z</time>
      </trkpt>
      <trkpt lat="39.79929187673383" lon="116.4916246533233">
        <ele>28.479038327596506</ele>
        <time>2020-11-09T22:24:23Z</time>
      </trkpt>
      <trkpt lat="39.79926274438758" lon="116.49157948580164">
        <ele>28.479038327596506</ele>
        <time>2020-11-09T22:24:25Z</time>
      </trkpt>
      <trkpt lat="39.799237608729854" lon="116.49153331398476">
        <ele>28.479038327596506</ele>
        <time>2020-11-09T22:24:27Z</time>
      </trkpt>
      <trkpt lat="39.7992094703263" lon="116.49148613873894">
        <ele>28.449886552748488</ele>
        <time>2020-11-09T22:24:29Z</time>
      </trkpt>
      <trkpt lat="39.79918533759005" lon="116.49144097060518">
        <ele>28.449886552748488</ele>
        <time>2020-11-09T22:24:31Z</time>
      </trkpt>
      <trkpt lat="39.79916422556452" lon="116.4914028287181">
        <ele>28.35640037709441</ele>
        <time>2020-11-09T22:24:33Z</time>
      </trkpt>
      <trkpt lat="39.79914511637327" lon="116.49136569038744">
        <ele>28.35640037709441</ele>
        <time>2020-11-09T22:24:35Z</time>
      </trkpt>
      <trkpt lat="39.79912098364949" lon="116.49132052226007">
        <ele>28.35640037709441</ele>
        <time>2020-11-09T22:24:37Z</time>
      </trkpt>
      <trkpt lat="39.79909382424179" lon="116.4912663202879">
        <ele>28.290055858445196</ele>
        <time>2020-11-09T22:24:39Z</time>
      </trkpt>
      <trkpt lat="39.79906665885665" lon="116.49121011071566">
        <ele>28.290055858445196</ele>
        <time>2020-11-09T22:24:41Z</time>
      </trkpt>
      <trkpt lat="39.7990404963904" lon="116.4911549048259">
        <ele>28.30211846675493</ele>
        <time>2020-11-09T22:24:43Z</time>
      </trkpt>
      <trkpt lat="39.799013334012535" lon="116.49109969906426">
        <ele>28.30211846675493</ele>
        <time>2020-11-09T22:24:45Z</time>
      </trkpt>
      <trkpt lat="39.798986183609664" lon="116.49104850851418">
        <ele>28.30211846675493</ele>
        <time>2020-11-09T22:24:47Z</time>
      </trkpt>
      <trkpt lat="39.79896003612436" lon="116.49099832164609">
        <ele>28.474514770971922</ele>
        <time>2020-11-09T22:24:49Z</time>
      </trkpt>
      <trkpt lat="39.79893689438607" lon="116.49095014201396">
        <ele>28.474514770971922</ele>
        <time>2020-11-09T22:24:51Z</time>
      </trkpt>
      <trkpt lat="39.79891676138552" lon="116.49090497341895">
        <ele>28.474514770971922</ele>
        <time>2020-11-09T22:24:53Z</time>
      </trkpt>
      <trkpt lat="39.798893631624566" lon="116.49086080900013">
        <ele>28.187021648635948</ele>
        <time>2020-11-09T22:24:55Z</time>
      </trkpt>
      <trkpt lat="39.79886949895866" lon="116.4908156409071">
        <ele>28.187021648635948</ele>
        <time>2020-11-09T22:24:57Z</time>
      </trkpt>
      <trkpt lat="39.798846354252966" lon="116.4907664574889">
        <ele>28.318704576001128</ele>
        <time>2020-11-09T22:24:59Z</time>
      </trkpt>
      <trkpt lat="39.798824203491066" lon="116.49071526634901">
        <ele>28.318704576001128</ele>
        <time>2020-11-09T22:25:01Z</time>
      </trkpt>
      <trkpt lat="39.798803055646374" lon="116.49066507889144">
        <ele>28.318704576001128</ele>
        <time>2020-11-09T22:25:03Z</time>
      </trkpt>
      <trkpt lat="39.798778920014655" lon="116.49061890701402">
        <ele>28.4941168638527</ele>
        <time>2020-11-09T22:25:05Z</time>
      </trkpt>
      <trkpt lat="39.79875478737976" lon="116.4905737389418">
        <ele>28.4941168638527</ele>
        <time>2020-11-09T22:25:07Z</time>
      </trkpt>
      <trkpt lat="39.7987296578224" lon="116.49052957479839">
        <ele>28.145305648793112</ele>
        <time>2020-11-09T22:25:09Z</time>
      </trkpt>
      <trkpt lat="39.79870452827096" lon="116.49048541065906">
        <ele>28.145305648793112</ele>
        <time>2020-11-09T22:25:11Z</time>
      </trkpt>
      <trkpt lat="39.79867939274511" lon="116.49043923892272">
        <ele>28.145305648793112</ele>
        <time>2020-11-09T22:25:13Z</time>
      </trkpt>
      <trkpt lat="39.79865525116467" lon="116.49039105946626">
        <ele>28.083485860013468</ele>
        <time>2020-11-09T22:25:15Z</time>
      </trkpt>
      <trkpt lat="39.79863210652047" lon="116.49034187609084">
        <ele>28.083485860013468</ele>
        <time>2020-11-09T22:25:17Z</time>
      </trkpt>
      <trkpt lat="39.79860897085311" lon="116.49029570412186">
        <ele>28.0121171294485</ele>
        <time>2020-11-09T22:25:19Z</time>
      </trkpt>
      <trkpt lat="39.79858683212183" lon="116.49024852823393">
        <ele>28.0121171294485</ele>
        <time>2020-11-09T22:25:21Z</time>
      </trkpt>
      <trkpt lat="39.79856568733764" lon="116.49019934462743">
        <ele>28.0121171294485</ele>
        <time>2020-11-09T22:25:23Z</time>
      </trkpt>
      <trkpt lat="39.79854353068521" lon="116.49014614595087">
        <ele>28.047298836894697</ele>
        <time>2020-11-09T22:25:25Z</time>
      </trkpt>
      <trkpt lat="39.79852037412316" lon="116.4900929474052">
        <ele>28.047298836894697</ele>
        <time>2020-11-09T22:25:27Z</time>
      </trkpt>
      <trkpt lat="39.798496229607444" lon="116.49004376418927">
        <ele>28.114144408570773</ele>
        <time>2020-11-09T22:25:29Z</time>
      </trkpt>
      <trkpt lat="39.798472091077535" lon="116.48999658857873">
        <ele>28.114144408570773</ele>
        <time>2020-11-09T22:25:31Z</time>
      </trkpt>
      <trkpt lat="39.79844796152124" lon="116.48995242437243">
        <ele>28.114144408570773</ele>
        <time>2020-11-09T22:25:33Z</time>
      </trkpt>
      <trkpt lat="39.79842482591356" lon="116.48990625244903">
        <ele>28.251857690996033</ele>
        <time>2020-11-09T22:25:35Z</time>
      </trkpt>
      <trkpt lat="39.79840066947621" lon="116.48985305406119">
        <ele>28.251857690996033</ele>
        <time>2020-11-09T22:25:37Z</time>
      </trkpt>
      <trkpt lat="39.79837650109633" lon="116.48979584048533">
        <ele>28.23778471726112</ele>
        <time>2020-11-09T22:25:39Z</time>
      </trkpt>
      <trkpt lat="39.79835232675225" lon="116.48973661932122">
        <ele>28.23778471726112</ele>
        <time>2020-11-09T22:25:41Z</time>
      </trkpt>
      <trkpt lat="39.79832816138394" lon="116.48968040956339">
        <ele>28.23778471726112</ele>
        <time>2020-11-09T22:25:43Z</time>
      </trkpt>
      <trkpt lat="39.798307001758495" lon="116.48962620704057">
        <ele>28.316694137110947</ele>
        <time>2020-11-09T22:25:45Z</time>
      </trkpt>
      <trkpt lat="39.7982878449687" lon="116.48957300807739">
        <ele>28.316694137110947</ele>
        <time>2020-11-09T22:25:47Z</time>
      </trkpt>
      <trkpt lat="39.79826769125781" lon="116.48952081304502">
        <ele>28.130227617682014</ele>
        <time>2020-11-09T22:25:49Z</time>
      </trkpt>
      <trkpt lat="39.798245537719744" lon="116.48946861826892">
        <ele>28.130227617682014</ele>
        <time>2020-11-09T22:25:51Z</time>
      </trkpt>
      <trkpt lat="39.7982203874227" lon="116.48941742767093">
        <ele>28.130227617682014</ele>
        <time>2020-11-09T22:25:53Z</time>
      </trkpt>
      <trkpt lat="39.798193243271584" lon="116.48936824492455">
        <ele>28.115149608408135</ele>
        <time>2020-11-09T22:25:55Z</time>
      </trkpt>
      <trkpt lat="39.79816510518414" lon="116.48932106990512">
        <ele>28.115149608408135</ele>
        <time>2020-11-09T22:25:57Z</time>
      </trkpt>
      <trkpt lat="39.79813897888784" lon="116.48927790983501">
        <ele>28.180990409407077</ele>
        <time>2020-11-09T22:25:59Z</time>
      </trkpt>
      <trkpt lat="39.79811386147594" lon="116.48923776103915">
        <ele>28.180990409407077</ele>
        <time>2020-11-09T22:26:01Z</time>
      </trkpt>
      <trkpt lat="39.79808974398933" lon="116.48919761212508">
        <ele>28.180990409407077</ele>
        <time>2020-11-09T22:26:03Z</time>
      </trkpt>
      <trkpt lat="39.79806762634669" lon="116.48915746296903">
        <ele>28.296589769544354</ele>
        <time>2020-11-09T22:26:05Z</time>
      </trkpt>
      <trkpt lat="39.79804549975404" lon="116.48911430242833">
        <ele>28.296589769544354</ele>
        <time>2020-11-09T22:26:07Z</time>
      </trkpt>
      <trkpt lat="39.798022370265144" lon="116.48907013822159">
        <ele>28.401132904799496</ele>
        <time>2020-11-09T22:26:09Z</time>
      </trkpt>
      <trkpt lat="39.79799923182887" lon="116.48902296263262">
        <ele>28.401132904799496</ele>
        <time>2020-11-09T22:26:11Z</time>
      </trkpt>
      <trkpt lat="39.79797609041702" lon="116.48897478325561">
        <ele>28.401132904799496</ele>
        <time>2020-11-09T22:26:13Z</time>
      </trkpt>
      <trkpt lat="39.79795294603028" lon="116.48892560009125">
        <ele>28.427771467654274</ele>
        <time>2020-11-09T22:26:15Z</time>
      </trkpt>
      <trkpt lat="39.7979288106891" lon="116.48887942844766">
        <ele>28.427771467654274</ele>
        <time>2020-11-09T22:26:17Z</time>
      </trkpt>
      <trkpt lat="39.79790569318218" lon="116.48883927946294">
        <ele>28.521760903715638</ele>
        <time>2020-11-09T22:26:19Z</time>
      </trkpt>
      <trkpt lat="39.79788058181381" lon="116.48880113832347">
        <ele>28.521760903715638</ele>
        <time>2020-11-09T22:26:21Z</time>
      </trkpt>
      <trkpt lat="39.79785547343607" lon="116.4887640009852">
        <ele>28.521760903715638</ele>
        <time>2020-11-09T22:26:23Z</time>
      </trkpt>
      <trkpt lat="39.79783135006354" lon="116.48872184455209">
        <ele>28.40716427155243</ele>
        <time>2020-11-09T22:26:25Z</time>
      </trkpt>
      <trkpt lat="39.79781022347083" lon="116.48867868395942">
        <ele>28.40716427155243</ele>
        <time>2020-11-09T22:26:27Z</time>
      </trkpt>
      <trkpt lat="39.7977880939845" lon="116.48863451970328">
        <ele>28.462451962933063</ele>
        <time>2020-11-09T22:26:29Z</time>
      </trkpt>
      <trkpt lat="39.79776497055523" lon="116.48859236316856">
        <ele>28.462451962933063</ele>
        <time>2020-11-09T22:26:31Z</time>
      </trkpt>
      <trkpt lat="39.79773884737873" lon="116.48855020701288">
        <ele>28.462451962933063</ele>
        <time>2020-11-09T22:26:33Z</time>
      </trkpt>
      <trkpt lat="39.79771270333" lon="116.48850102430396">
        <ele>28.64992968391646</ele>
        <time>2020-11-09T22:26:35Z</time>
      </trkpt>
      <trkpt lat="39.79768952922115" lon="116.48844180329225">
        <ele>28.64992968391646</ele>
        <time>2020-11-09T22:26:37Z</time>
      </trkpt>
      <trkpt lat="39.79766633126976" lon="116.48837455194487">
        <ele>28.66450584119282</ele>
        <time>2020-11-09T22:26:39Z</time>
      </trkpt>
      <trkpt lat="39.7976411364848" lon="116.48830830465863">
        <ele>28.66450584119282</ele>
        <time>2020-11-09T22:26:41Z</time>
      </trkpt>
      <trkpt lat="39.797611953974034" lon="116.48824607306051">
        <ele>28.66450584119282</ele>
        <time>2020-11-09T22:26:43Z</time>
      </trkpt>
      <trkpt lat="39.79758379227064" lon="116.48819086790701">
        <ele>28.639877173546854</ele>
        <time>2020-11-09T22:26:45Z</time>
      </trkpt>
      <trkpt lat="39.79755864524346" lon="116.48814068135965">
        <ele>28.639877173546854</ele>
        <time>2020-11-09T22:26:47Z</time>
      </trkpt>
      <trkpt lat="39.79753550402748" lon="116.4880925021613">
        <ele>28.642390300228755</ele>
        <time>2020-11-09T22:26:49Z</time>
      </trkpt>
      <trkpt lat="39.797511359923945" lon="116.48804331930543">
        <ele>28.642390300228755</ele>
        <time>2020-11-09T22:26:51Z</time>
      </trkpt>
      <trkpt lat="39.79749021558762" lon="116.48799413608936">
        <ele>28.642390300228755</ele>
        <time>2020-11-09T22:26:53Z</time>
      </trkpt>
      <trkpt lat="39.79746807432542" lon="116.48794595680062">
        <ele>28.593133127822714</ele>
        <time>2020-11-09T22:26:55Z</time>
      </trkpt>
      <trkpt lat="39.79744394217852" lon="116.48790078914584">
        <ele>28.593133127822714</ele>
        <time>2020-11-09T22:26:57Z</time>
      </trkpt>
      <trkpt lat="39.79741882204316" lon="116.48785963679067">
        <ele>28.593133127822714</ele>
        <time>2020-11-09T22:26:59Z</time>
      </trkpt>
      <trkpt lat="39.79739669869196" lon="116.48781748028095">
        <ele>28.623793177139042</ele>
        <time>2020-11-09T22:27:01Z</time>
      </trkpt>
      <trkpt lat="39.79737456939126" lon="116.48777331619809">
        <ele>28.623793177139042</ele>
        <time>2020-11-09T22:27:03Z</time>
      </trkpt>
      <trkpt lat="39.79735342214416" lon="116.48772312925655">
        <ele>28.71426598012154</ele>
        <time>2020-11-09T22:27:05Z</time>
      </trkpt>
      <trkpt lat="39.79733625968907" lon="116.48766792287974">
        <ele>28.71426598012154</ele>
        <time>2020-11-09T22:27:07Z</time>
      </trkpt>
      <trkpt lat="39.79733307823439" lon="116.48760669204268">
        <ele>28.71426598012154</ele>
        <time>2020-11-09T22:27:09Z</time>
      </trkpt>
      <trkpt lat="39.797345895491674" lon="116.48754545924218">
        <ele>28.70672654984579</ele>
        <time>2020-11-09T22:27:11Z</time>
      </trkpt>
      <trkpt lat="39.79737472635088" lon="116.48748924342597">
        <ele>28.70672654984579</ele>
        <time>2020-11-09T22:27:13Z</time>
      </trkpt>
      <trkpt lat="39.797412595201386" lon="116.48744607577146">
        <ele>28.620777430578833</ele>
        <time>2020-11-09T22:27:15Z</time>
      </trkpt>
      <trkpt lat="39.79745249665142" lon="116.48741394955903">
        <ele>28.620777430578833</ele>
        <time>2020-11-09T22:27:17Z</time>
      </trkpt>
      <trkpt lat="39.79749441878592" lon="116.48738884962702">
        <ele>28.620777430578833</ele>
        <time>2020-11-09T22:27:19Z</time>
      </trkpt>
      <trkpt lat="39.797534341088024" lon="116.48736374994616">
        <ele>28.885663834570074</ele>
        <time>2020-11-09T22:27:21Z</time>
      </trkpt>
      <trkpt lat="39.79757824818264" lon="116.48733363082923">
        <ele>28.885663834570074</ele>
        <time>2020-11-09T22:27:23Z</time>
      </trkpt>
      <trkpt lat="39.79761914659737" lon="116.4873005007233">
        <ele>28.800718504181308</ele>
        <time>2020-11-09T22:27:25Z</time>
      </trkpt>
      <trkpt lat="39.797660045019036" lon="116.48726737062321">
        <ele>28.800718504181308</ele>
        <time>2020-11-09T22:27:27Z</time>
      </trkpt>
      <trkpt lat="39.79769993459973" lon="116.48723122928854">
        <ele>28.800718504181308</ele>
        <time>2020-11-09T22:27:29Z</time>
      </trkpt>
      <trkpt lat="39.79773783625674" lon="116.48719910336067">
        <ele>28.78513689158144</ele>
        <time>2020-11-09T22:27:31Z</time>
      </trkpt>
      <trkpt lat="39.797774743954065" lon="116.487168985138">
        <ele>28.78513689158144</ele>
        <time>2020-11-09T22:27:33Z</time>
      </trkpt>
      <trkpt lat="39.79780765793508" lon="116.48714087499137">
        <ele>28.722810674368258</ele>
        <time>2020-11-09T22:27:35Z</time>
      </trkpt>
      <trkpt lat="39.7978385750599" lon="116.4871137688845">
        <ele>28.722810674368258</ele>
        <time>2020-11-09T22:27:37Z</time>
      </trkpt>
      <trkpt lat="39.79786949218938" lon="116.4870866627817">
        <ele>28.722810674368258</ele>
        <time>2020-11-09T22:27:39Z</time>
      </trkpt>
      <trkpt lat="39.79790140329109" lon="116.48705754898471">
        <ele>28.508692802998</ele>
        <time>2020-11-09T22:27:41Z</time>
      </trkpt>
      <trkpt lat="39.79793730514651" lon="116.48702542333564">
        <ele>28.508692802998</ele>
        <time>2020-11-09T22:27:43Z</time>
      </trkpt>
      <trkpt lat="39.79797320998365" lon="116.48699430147923">
        <ele>28.95904911585862</ele>
        <time>2020-11-09T22:27:45Z</time>
      </trkpt>
      <trkpt lat="39.79801212350779" lon="116.48696619061634">
        <ele>28.95904911585862</ele>
        <time>2020-11-09T22:27:47Z</time>
      </trkpt>
      <trkpt lat="39.79805104298692" lon="116.48694008733094">
        <ele>28.95904911585862</ele>
        <time>2020-11-09T22:27:49Z</time>
      </trkpt>
      <trkpt lat="39.798091962308106" lon="116.4869139838015">
        <ele>28.871087367669762</ele>
        <time>2020-11-09T22:27:51Z</time>
      </trkpt>
      <trkpt lat="39.7981318876645" lon="116.4868898879723">
        <ele>28.871087367669762</ele>
        <time>2020-11-09T22:27:53Z</time>
      </trkpt>
      <trkpt lat="39.79817081905521" lon="116.48686779984254">
        <ele>28.722810674368258</ele>
        <time>2020-11-09T22:27:55Z</time>
      </trkpt>
      <trkpt lat="39.79820775358639" lon="116.48684671574948">
        <ele>28.722810674368258</ele>
        <time>2020-11-09T22:27:57Z</time>
      </trkpt>
      <trkpt lat="39.79824467919849" lon="116.4868226203015">
        <ele>28.722810674368258</ele>
        <time>2020-11-09T22:27:59Z</time>
      </trkpt>
      <trkpt lat="39.79828259878552" lon="116.48679651716162">
        <ele>28.80976590284498</ele>
        <time>2020-11-09T22:28:01Z</time>
      </trkpt>
      <trkpt lat="39.798321512348494" lon="116.48676840633077">
        <ele>28.80976590284498</ele>
        <time>2020-11-09T22:28:03Z</time>
      </trkpt>
      <trkpt lat="39.798361425835765" lon="116.48674029538059">
        <ele>29.026403185425217</ele>
        <time>2020-11-09T22:28:05Z</time>
      </trkpt>
      <trkpt lat="39.79840234519434" lon="116.48671419188142">
        <ele>29.026403185425217</ele>
        <time>2020-11-09T22:28:07Z</time>
      </trkpt>
      <trkpt lat="39.79844527034221" lon="116.48669009570835">
        <ele>29.026403185425217</ele>
        <time>2020-11-09T22:28:09Z</time>
      </trkpt>
      <trkpt lat="39.798487186656125" lon="116.48666298830813">
        <ele>29.048519542098358</ele>
        <time>2020-11-09T22:28:11Z</time>
      </trkpt>
      <trkpt lat="39.798527097191624" lon="116.4866338735909">
        <ele>29.048519542098358</ele>
        <time>2020-11-09T22:28:13Z</time>
      </trkpt>
      <trkpt lat="39.79856300211185" lon="116.48660275180575">
        <ele>29.098281516392188</ele>
        <time>2020-11-09T22:28:15Z</time>
      </trkpt>
      <trkpt lat="39.798599915875435" lon="116.4865746412554">
        <ele>29.098281516392188</ele>
        <time>2020-11-09T22:28:17Z</time>
      </trkpt>
      <trkpt lat="39.79863783550843" lon="116.48654853815415">
        <ele>29.098281516392188</ele>
        <time>2020-11-09T22:28:19Z</time>
      </trkpt>
      <trkpt lat="39.7986767491207" lon="116.48652042736515">
        <ele>29.21640432691681</ele>
        <time>2020-11-09T22:28:21Z</time>
      </trkpt>
      <trkpt lat="39.79871264217695" lon="116.4864852904666">
        <ele>29.21640432691681</ele>
        <time>2020-11-09T22:28:23Z</time>
      </trkpt>
      <trkpt lat="39.79874449990362" lon="116.4864381086699">
        <ele>29.31140619794441</ele>
        <time>2020-11-09T22:28:25Z</time>
      </trkpt>
      <trkpt lat="39.79877534286828" lon="116.48638590809564">
        <ele>29.31140619794441</ele>
        <time>2020-11-09T22:28:27Z</time>
      </trkpt>
      <trkpt lat="39.79880920640566" lon="116.48634073364637">
        <ele>29.31140619794441</ele>
        <time>2020-11-09T22:28:29Z</time>
      </trkpt>
      <trkpt lat="39.79884710825478" lon="116.48630860788757">
        <ele>29.148043728523238</ele>
        <time>2020-11-09T22:28:31Z</time>
      </trkpt>
      <trkpt lat="39.79889002753124" lon="116.4862825042099">
        <ele>29.148043728523238</ele>
        <time>2020-11-09T22:28:33Z</time>
      </trkpt>
      <trkpt lat="39.79893392890836" lon="116.48625037771906">
        <ele>29.044498382845703</ele>
        <time>2020-11-09T22:28:35Z</time>
      </trkpt>
      <trkpt lat="39.79897782435228" lon="116.48621624367084">
        <ele>29.044498382845703</ele>
        <time>2020-11-09T22:28:37Z</time>
      </trkpt>
      <trkpt lat="39.799019719966374" lon="116.48618210987819">
        <ele>29.044498382845703</ele>
        <time>2020-11-09T22:28:39Z</time>
      </trkpt>
      <trkpt lat="39.79905963060034" lon="116.48615299524903">
        <ele>28.99523930803226</ele>
        <time>2020-11-09T22:28:41Z</time>
      </trkpt>
      <trkpt lat="39.799097550311636" lon="116.48612689221763">
        <ele>28.99523930803226</ele>
        <time>2020-11-09T22:28:43Z</time>
      </trkpt>
      <trkpt lat="39.799133476128965" lon="116.48610279700124">
        <ele>28.81227907053381</ele>
        <time>2020-11-09T22:28:45Z</time>
      </trkpt>
      <trkpt lat="39.79916841094002" lon="116.48608171325597">
        <ele>28.81227907053381</ele>
        <time>2020-11-09T22:28:47Z</time>
      </trkpt>
      <trkpt lat="39.79920634254293" lon="116.48605962536062">
        <ele>28.81227907053381</ele>
        <time>2020-11-09T22:28:49Z</time>
      </trkpt>
      <trkpt lat="39.79924927374605" lon="116.48603753684843">
        <ele>28.68461091919507</ele>
        <time>2020-11-09T22:28:51Z</time>
      </trkpt>
      <trkpt lat="39.79929520471114" lon="116.48601544796738">
        <ele>28.68461091919507</ele>
        <time>2020-11-09T22:28:53Z</time>
      </trkpt>
      <trkpt lat="39.79933813592263" lon="116.4859933594616">
        <ele>28.650934935484955</ele>
        <time>2020-11-09T22:28:55Z</time>
      </trkpt>
      <trkpt lat="39.79937705855467" lon="116.48596826011409">
        <ele>28.650934935484955</ele>
        <time>2020-11-09T22:28:57Z</time>
      </trkpt>
      <trkpt lat="39.799413972447205" lon="116.48594014967837">
        <ele>28.650934935484955</ele>
        <time>2020-11-09T22:28:59Z</time>
      </trkpt>
      <trkpt lat="39.79945088040892" lon="116.4859100316881">
        <ele>28.851987200551722</ele>
        <time>2020-11-09T22:29:01Z</time>
      </trkpt>
      <trkpt lat="39.79948979712068" lon="116.4858829247952">
        <ele>28.851987200551722</ele>
        <time>2020-11-09T22:29:03Z</time>
      </trkpt>
      <trkpt lat="39.79952870790212" lon="116.4858538103482">
        <ele>28.851987200551722</ele>
        <time>2020-11-09T22:29:05Z</time>
      </trkpt>
      <trkpt lat="39.79956761572222" lon="116.48582369212767">
        <ele>28.87360055016282</ele>
        <time>2020-11-09T22:29:07Z</time>
      </trkpt>
      <trkpt lat="39.799604517775144" lon="116.48579156660321">
        <ele>28.87360055016282</ele>
        <time>2020-11-09T22:29:09Z</time>
      </trkpt>
      <trkpt lat="39.79964042288365" lon="116.48576044498884">
        <ele>28.79669744062953</ele>
        <time>2020-11-09T22:29:11Z</time>
      </trkpt>
      <trkpt lat="39.799676333933704" lon="116.48573133093862">
        <ele>28.79669744062953</ele>
        <time>2020-11-09T22:29:13Z</time>
      </trkpt>
      <trkpt lat="39.79971325084363" lon="116.48570422432728">
        <ele>28.79669744062953</ele>
        <time>2020-11-09T22:29:15Z</time>
      </trkpt>
      <trkpt lat="39.79975217946555" lon="116.48568113258628">
        <ele>28.874103186735255</ele>
        <time>2020-11-09T22:29:17Z</time>
      </trkpt>
      <trkpt lat="39.7997941078505" lon="116.4856580404769">
        <ele>28.874103186735255</ele>
        <time>2020-11-09T22:29:19Z</time>
      </trkpt>
      <trkpt lat="39.79983603624002" lon="116.48563494837127">
        <ele>28.631332547361197</ele>
        <time>2020-11-09T22:29:21Z</time>
      </trkpt>
      <trkpt lat="39.7998739590231" lon="116.48560984920991">
        <ele>28.631332547361197</ele>
        <time>2020-11-09T22:29:23Z</time>
      </trkpt>
      <trkpt lat="39.799909881972084" lon="116.48558475030109">
        <ele>28.631332547361197</ele>
        <time>2020-11-09T22:29:25Z</time>
      </trkpt>
      <trkpt lat="39.79994580492609" lon="116.48555965139677">
        <ele>28.574536092716773</ele>
        <time>2020-11-09T22:29:27Z</time>
      </trkpt>
      <trkpt lat="39.799981727885125" lon="116.48553455249697">
        <ele>28.574536092716773</ele>
        <time>2020-11-09T22:29:29Z</time>
      </trkpt>
      <trkpt lat="39.80001863890638" lon="116.48550543836933">
        <ele>28.699187125028118</ele>
        <time>2020-11-09T22:29:31Z</time>
      </trkpt>
      <trkpt lat="39.80005552917661" lon="116.4854692978101">
        <ele>28.699187125028118</ele>
        <time>2020-11-09T22:29:33Z</time>
      </trkpt>
      <trkpt lat="39.80009239870119" lon="116.4854261308249">
        <ele>28.699187125028118</ele>
        <time>2020-11-09T22:29:35Z</time>
      </trkpt>
      <trkpt lat="39.800128253496275" lon="116.48537794509686">
        <ele>28.991720811603955</ele>
        <time>2020-11-09T22:29:37Z</time>
      </trkpt>
      <trkpt lat="39.80016510229949" lon="116.48532775171054">
        <ele>28.991720811603955</ele>
        <time>2020-11-09T22:29:39Z</time>
      </trkpt>
      <trkpt lat="39.80020194519339" lon="116.4852755507924">
        <ele>28.8555056497571</ele>
        <time>2020-11-09T22:29:41Z</time>
      </trkpt>
      <trkpt lat="39.80023780300585" lon="116.48522836889367">
        <ele>28.8555056497571</ele>
        <time>2020-11-09T22:29:43Z</time>
      </trkpt>
      <trkpt lat="39.80027269351187" lon="116.48519222865717">
        <ele>28.8555056497571</ele>
        <time>2020-11-09T22:29:45Z</time>
      </trkpt>
      <trkpt lat="39.800307610696244" lon="116.48516512240072">
        <ele>28.70019238135582</ele>
        <time>2020-11-09T22:29:47Z</time>
      </trkpt>
      <trkpt lat="39.800341539818724" lon="116.4851420313711">
        <ele>28.70019238135582</ele>
        <time>2020-11-09T22:29:49Z</time>
      </trkpt>
      <trkpt lat="39.80037546302001" lon="116.48511693279728">
        <ele>28.89571658225521</ele>
        <time>2020-11-09T22:29:51Z</time>
      </trkpt>
      <trkpt lat="39.80040838038138" lon="116.48508982680451">
        <ele>28.89571658225521</ele>
        <time>2020-11-09T22:29:53Z</time>
      </trkpt>
      <trkpt lat="39.800441277011885" lon="116.4850556944017">
        <ele>28.89571658225521</ele>
        <time>2020-11-09T22:29:55Z</time>
      </trkpt>
      <trkpt lat="39.800475152836746" lon="116.48501453547041">
        <ele>29.108334469367882</ele>
        <time>2020-11-09T22:29:57Z</time>
      </trkpt>
      <trkpt lat="39.800512034357965" lon="116.48497538372614">
        <ele>29.108334469367882</ele>
        <time>2020-11-09T22:29:59Z</time>
      </trkpt>
      <trkpt lat="39.8005499543111" lon="116.48494928091553">
        <ele>29.106826525804603</ele>
        <time>2020-11-09T22:30:01Z</time>
      </trkpt>
      <trkpt lat="39.800590959913265" lon="116.48495228714664">
        <ele>29.106826525804603</ele>
        <time>2020-11-09T22:30:03Z</time>
      </trkpt>
      <trkpt lat="39.80062903387585" lon="116.48497838052786">
        <ele>29.106826525804603</ele>
        <time>2020-11-09T22:30:05Z</time>
      </trkpt>
      <trkpt lat="39.80065815003301" lon="116.48501852785755">
        <ele>29.695443760117186</ele>
        <time>2020-11-09T22:30:07Z</time>
      </trkpt>
      <trkpt lat="39.800675284937064" lon="116.4850646993312">
        <ele>29.695443760117186</ele>
        <time>2020-11-09T22:30:09Z</time>
      </trkpt>
      <trkpt lat="39.80068441753417" lon="116.4851098680402">
        <ele>29.85077187604782</ele>
        <time>2020-11-09T22:30:11Z</time>
      </trkpt>
      <trkpt lat="39.800694555992436" lon="116.48515704418999">
        <ele>29.85077187604782</ele>
        <time>2020-11-09T22:30:13Z</time>
      </trkpt>
      <trkpt lat="39.80070468854002" lon="116.48520221280745">
        <ele>29.85077187604782</ele>
        <time>2020-11-09T22:30:15Z</time>
      </trkpt>
      <trkpt lat="39.8007168239062" lon="116.4852483849677">
        <ele>29.630598727470733</ele>
        <time>2020-11-09T22:30:17Z</time>
      </trkpt>
      <trkpt lat="39.80073196201194" lon="116.48529556054767">
        <ele>29.630598727470733</ele>
        <time>2020-11-09T22:30:19Z</time>
      </trkpt>
      <trkpt lat="39.80075011175167" lon="116.48534675087605">
        <ele>29.549166002721535</ele>
        <time>2020-11-09T22:30:21Z</time>
      </trkpt>
      <trkpt lat="39.800772273049795" lon="116.48540195583334">
        <ele>29.549166002721535</ele>
        <time>2020-11-09T22:30:23Z</time>
      </trkpt>
      <trkpt lat="39.80079542835922" lon="116.48545515313606">
        <ele>29.549166002721535</ele>
        <time>2020-11-09T22:30:25Z</time>
      </trkpt>
      <trkpt lat="39.80081658384867" lon="116.4855083507081">
        <ele>29.49839653987033</ele>
        <time>2020-11-09T22:30:27Z</time>
      </trkpt>
      <trkpt lat="39.80083472773396" lon="116.48555753356327">
        <ele>29.49839653987033</ele>
        <time>2020-11-09T22:30:29Z</time>
      </trkpt>
      <trkpt lat="39.80085487444266" lon="116.48560771996603">
        <ele>29.653721716034465</ele>
        <time>2020-11-09T22:30:31Z</time>
      </trkpt>
      <trkpt lat="39.800878012029244" lon="116.48565489468045">
        <ele>29.653721716034465</ele>
        <time>2020-11-09T22:30:33Z</time>
      </trkpt>
      <trkpt lat="39.80090414939168" lon="116.48570206903894">
        <ele>29.653721716034465</ele>
        <time>2020-11-09T22:30:35Z</time>
      </trkpt>
      <trkpt lat="39.800930292704216" lon="116.48575125097133">
        <ele>29.492867207377216</ele>
        <time>2020-11-09T22:30:37Z</time>
      </trkpt>
      <trkpt lat="39.80095544798399" lon="116.4858044481622">
        <ele>29.492867207377216</ele>
        <time>2020-11-09T22:30:39Z</time>
      </trkpt>
      <trkpt lat="39.8009806092192" lon="116.48585965293256">
        <ele>29.387307786643806</ele>
        <time>2020-11-09T22:30:41Z</time>
      </trkpt>
      <trkpt lat="39.80100977015575" lon="116.4859148572283">
        <ele>29.387307786643806</ele>
        <time>2020-11-09T22:30:43Z</time>
      </trkpt>
      <trkpt lat="39.801040927984566" lon="116.4859690575169">
        <ele>29.387307786643806</ele>
        <time>2020-11-09T22:30:45Z</time>
      </trkpt>
      <trkpt lat="39.80107208583326" lon="116.48602325782595">
        <ele>29.562738079282482</ele>
        <time>2020-11-09T22:30:47Z</time>
      </trkpt>
      <trkpt lat="39.80110023206323" lon="116.48607344340263">
        <ele>29.562738079282482</ele>
        <time>2020-11-09T22:30:49Z</time>
      </trkpt>
      <trkpt lat="39.801126369560265" lon="116.48612061790013">
        <ele>29.467733914893774</ele>
        <time>2020-11-09T22:30:51Z</time>
      </trkpt>
      <trkpt lat="39.801151507151836" lon="116.48616779253676">
        <ele>29.467733914893774</ele>
        <time>2020-11-09T22:30:53Z</time>
      </trkpt>
      <trkpt lat="39.801174641947206" lon="116.48621396365432">
        <ele>29.467733914893774</ele>
        <time>2020-11-09T22:30:55Z</time>
      </trkpt>
      <trkpt lat="39.80119777972716" lon="116.48626113856857">
        <ele>29.37775722518331</ele>
        <time>2020-11-09T22:30:57Z</time>
      </trkpt>
      <trkpt lat="39.80122292627502" lon="116.4863113245978">
        <ele>29.37775722518331</ele>
        <time>2020-11-09T22:30:59Z</time>
      </trkpt>
      <trkpt lat="39.80125008753627" lon="116.48636652931114">
        <ele>29.323469989627824</ele>
        <time>2020-11-09T22:31:01Z</time>
      </trkpt>
      <trkpt lat="39.80127925460099" lon="116.48642374136332">
        <ele>29.323469989627824</ele>
        <time>2020-11-09T22:31:03Z</time>
      </trkpt>
      <trkpt lat="39.80130841277041" lon="116.48647794208513">
        <ele>29.323469989627824</ele>
        <time>2020-11-09T22:31:05Z</time>
      </trkpt>
      <trkpt lat="39.80133555922837" lon="116.48652812793708">
        <ele>29.355640169118622</ele>
        <time>2020-11-09T22:31:07Z</time>
      </trkpt>
      <trkpt lat="39.801358706020835" lon="116.48657831430106">
        <ele>29.355640169118622</ele>
        <time>2020-11-09T22:31:09Z</time>
      </trkpt>
      <trkpt lat="39.80137886495981" lon="116.48663251619212">
        <ele>29.355640169118622</ele>
        <time>2020-11-09T22:31:11Z</time>
      </trkpt>
      <trkpt lat="39.80139902689011" lon="116.48668772188665">
        <ele>29.502417874431043</ele>
        <time>2020-11-09T22:31:13Z</time>
      </trkpt>
      <trkpt lat="39.80142119165333" lon="116.48674393113753">
        <ele>29.502417874431043</ele>
        <time>2020-11-09T22:31:15Z</time>
      </trkpt>
      <trkpt lat="39.801448350089565" lon="116.48679813221611">
        <ele>29.25510868824993</ele>
        <time>2020-11-09T22:31:17Z</time>
      </trkpt>
      <trkpt lat="39.801478514253375" lon="116.48685434051292">
        <ele>29.25510868824993</ele>
        <time>2020-11-09T22:31:19Z</time>
      </trkpt>
      <trkpt lat="39.80150967240735" lon="116.48690854113174">
        <ele>29.25510868824993</ele>
        <time>2020-11-09T22:31:21Z</time>
      </trkpt>
      <trkpt lat="39.80154381546555" lon="116.4869577224621">
        <ele>29.449637981868474</ele>
        <time>2020-11-09T22:31:23Z</time>
      </trkpt>
      <trkpt lat="39.801572944060204" lon="116.48700188549132">
        <ele>29.449637981868474</ele>
        <time>2020-11-09T22:31:25Z</time>
      </trkpt>
      <trkpt lat="39.80159807893557" lon="116.48704805660255">
        <ele>29.43506072536335</ele>
        <time>2020-11-09T22:31:27Z</time>
      </trkpt>
      <trkpt lat="39.801617241082255" lon="116.48710326255852">
        <ele>29.43506072536335</ele>
        <time>2020-11-09T22:31:29Z</time>
      </trkpt>
      <trkpt lat="39.8016364062225" lon="116.48715947231993">
        <ele>29.43506072536335</ele>
        <time>2020-11-09T22:31:31Z</time>
      </trkpt>
      <trkpt lat="39.801658565189385" lon="116.48721367415081">
        <ele>29.58133687960078</ele>
        <time>2020-11-09T22:31:33Z</time>
      </trkpt>
      <trkpt lat="39.80168470897156" lon="116.48726285655957">
        <ele>29.58133687960078</ele>
        <time>2020-11-09T22:31:35Z</time>
      </trkpt>
      <trkpt lat="39.801711852687994" lon="116.48731203885787">
        <ele>29.42802343642216</ele>
        <time>2020-11-09T22:31:37Z</time>
      </trkpt>
      <trkpt lat="39.801741002213575" lon="116.48736322849982">
        <ele>29.42802343642216</ele>
        <time>2020-11-09T22:31:39Z</time>
      </trkpt>
      <trkpt lat="39.801766143139304" lon="116.48741140728386">
        <ele>29.42802343642216</ele>
        <time>2020-11-09T22:31:41Z</time>
      </trkpt>
      <trkpt lat="39.801790284157384" lon="116.48745958620442">
        <ele>29.266167103626422</ele>
        <time>2020-11-09T22:31:43Z</time>
      </trkpt>
      <trkpt lat="39.801813434201705" lon="116.48751077663107">
        <ele>29.266167103626422</ele>
        <time>2020-11-09T22:31:45Z</time>
      </trkpt>
      <trkpt lat="39.8018395959352" lon="116.48756598186048">
        <ele>29.42752077310565</ele>
        <time>2020-11-09T22:31:47Z</time>
      </trkpt>
      <trkpt lat="39.80186576066378" lon="116.48762219089639">
        <ele>29.42752077310565</ele>
        <time>2020-11-09T22:31:49Z</time>
      </trkpt>
      <trkpt lat="39.801889916631424" lon="116.4876753888243">
        <ele>29.42752077310565</ele>
        <time>2020-11-09T22:31:51Z</time>
      </trkpt>
      <trkpt lat="39.801910066973356" lon="116.4877265796805">
        <ele>29.64567893157983</ele>
        <time>2020-11-09T22:31:53Z</time>
      </trkpt>
      <trkpt lat="39.80192620870833" lon="116.48777475967192">
        <ele>29.64567893157983</ele>
        <time>2020-11-09T22:31:55Z</time>
      </trkpt>
      <trkpt lat="39.80194135947367" lon="116.48782595117346">
        <ele>29.341063044222505</ele>
        <time>2020-11-09T22:31:57Z</time>
      </trkpt>
      <trkpt lat="39.80195950703443" lon="116.48787613852444">
        <ele>29.341063044222505</ele>
        <time>2020-11-09T22:31:59Z</time>
      </trkpt>
      <trkpt lat="39.801979651469175" lon="116.48792532184795">
        <ele>29.341063044222505</ele>
        <time>2020-11-09T22:32:01Z</time>
      </trkpt>
      <trkpt lat="39.802002789717385" lon="116.48797249722696">
        <ele>29.359158788533257</ele>
        <time>2020-11-09T22:32:03Z</time>
      </trkpt>
      <trkpt lat="39.80202592499627" lon="116.48801866882427">
        <ele>29.359158788533257</ele>
        <time>2020-11-09T22:32:05Z</time>
      </trkpt>
      <trkpt lat="39.80204706044458" lon="116.4880648406796">
        <ele>29.59591434090922</ele>
        <time>2020-11-09T22:32:07Z</time>
      </trkpt>
      <trkpt lat="39.80206721088831" lon="116.4881160316334">
        <ele>29.59591434090922</ele>
        <time>2020-11-09T22:32:09Z</time>
      </trkpt>
      <trkpt lat="39.802082373666934" lon="116.48817123839163">
        <ele>29.59591434090922</ele>
        <time>2020-11-09T22:32:11Z</time>
      </trkpt>
      <trkpt lat="39.80209654250289" lon="116.48822845287462">
        <ele>29.424504793733192</ele>
        <time>2020-11-09T22:32:13Z</time>
      </trkpt>
      <trkpt lat="39.80210769966474" lon="116.48828165256947">
        <ele>29.424504793733192</ele>
        <time>2020-11-09T22:32:15Z</time>
      </trkpt>
      <trkpt lat="39.802120850717124" lon="116.48833284444135">
        <ele>29.630096054374963</ele>
        <time>2020-11-09T22:32:17Z</time>
      </trkpt>
      <trkpt lat="39.802138001464705" lon="116.48838403582917">
        <ele>29.630096054374963</ele>
        <time>2020-11-09T22:32:19Z</time>
      </trkpt>
      <trkpt lat="39.80215515818981" lon="116.48843723481713">
        <ele>29.630096054374963</ele>
        <time>2020-11-09T22:32:21Z</time>
      </trkpt>
      <trkpt lat="39.80216931516582" lon="116.48849043418902">
        <ele>29.460193938977852</ele>
        <time>2020-11-09T22:32:23Z</time>
      </trkpt>
      <trkpt lat="39.80218047835878" lon="116.48854564153423">
        <ele>29.460193938977852</ele>
        <time>2020-11-09T22:32:25Z</time>
      </trkpt>
      <trkpt lat="39.802194632377656" lon="116.48859783713542">
        <ele>29.63110140059111</ele>
        <time>2020-11-09T22:32:27Z</time>
      </trkpt>
      <trkpt lat="39.802211786171036" lon="116.4886500323762">
        <ele>29.63110140059111</ele>
        <time>2020-11-09T22:32:29Z</time>
      </trkpt>
      <trkpt lat="39.802232939659646" lon="116.48870222713256">
        <ele>29.63110140059111</ele>
        <time>2020-11-09T22:32:31Z</time>
      </trkpt>
      <trkpt lat="39.80225609598598" lon="116.48875542544782">
        <ele>29.670309978602027</ele>
        <time>2020-11-09T22:32:33Z</time>
      </trkpt>
      <trkpt lat="39.8022762465939" lon="116.48880661655427">
        <ele>29.670309978602027</ele>
        <time>2020-11-09T22:32:35Z</time>
      </trkpt>
      <trkpt lat="39.802295397292426" lon="116.4888578077949">
        <ele>29.542128636653658</ele>
        <time>2020-11-09T22:32:37Z</time>
      </trkpt>
      <trkpt lat="39.802314548002244" lon="116.48890899904566">
        <ele>29.542128636653658</ele>
        <time>2020-11-09T22:32:39Z</time>
      </trkpt>
      <trkpt lat="39.802336695500784" lon="116.48895918613835">
        <ele>29.542128636653658</ele>
        <time>2020-11-09T22:32:41Z</time>
      </trkpt>
      <trkpt lat="39.80236084583682" lon="116.48901037678942">
        <ele>29.65724043618971</ele>
        <time>2020-11-09T22:32:43Z</time>
      </trkpt>
      <trkpt lat="39.80238599610478" lon="116.48906156732639">
        <ele>29.65724043618971</ele>
        <time>2020-11-09T22:32:45Z</time>
      </trkpt>
      <trkpt lat="39.80241515502382" lon="116.48911576876854">
        <ele>29.49839653987033</ele>
        <time>2020-11-09T22:32:47Z</time>
      </trkpt>
      <trkpt lat="39.80244231411336" lon="116.48916997046906">
        <ele>29.49839653987033</ele>
        <time>2020-11-09T22:32:49Z</time>
      </trkpt>
      <trkpt lat="39.80246447958253" lon="116.48922618039417">
        <ele>29.49839653987033</ele>
        <time>2020-11-09T22:32:51Z</time>
      </trkpt>
      <trkpt lat="39.8024726461719" lon="116.4892823920643">
        <ele>29.30637962220474</ele>
        <time>2020-11-09T22:32:53Z</time>
      </trkpt>
      <trkpt lat="39.80246580798738" lon="116.48933659800743">
        <ele>29.30637962220474</ele>
        <time>2020-11-09T22:32:55Z</time>
      </trkpt>
      <trkpt lat="39.80244395009464" lon="116.48938377923233">
        <ele>29.199314135239806</ele>
        <time>2020-11-09T22:32:57Z</time>
      </trkpt>
      <trkpt lat="39.80241206612103" lon="116.48942192752013">
        <ele>29.199314135239806</ele>
        <time>2020-11-09T22:32:59Z</time>
      </trkpt>
      <trkpt lat="39.80237416769393" lon="116.48945505756464">
        <ele>29.199314135239806</ele>
        <time>2020-11-09T22:33:01Z</time>
      </trkpt>
      <trkpt lat="39.802333254574215" lon="116.4894831689927">
        <ele>28.915319468156405</ele>
        <time>2020-11-09T22:33:03Z</time>
      </trkpt>
      <trkpt lat="39.8022983529315" lon="116.48951529487348">
        <ele>28.915319468156405</ele>
        <time>2020-11-09T22:33:05Z</time>
      </trkpt>
      <trkpt lat="39.80226846583333" lon="116.48955243913053">
        <ele>28.57805444816039</ele>
        <time>2020-11-09T22:33:09Z</time>
      </trkpt>
      <trkpt lat="39.802242572448996" lon="116.48958757529915">
        <ele>28.59062001302652</ele>
        <time>2020-11-09T22:33:13Z</time>
      </trkpt>
      <trkpt lat="39.80221066162" lon="116.48961668942238">
        <ele>28.59062001302652</ele>
        <time>2020-11-09T22:33:15Z</time>
      </trkpt>
      <trkpt lat="39.802172745295" lon="116.48964379669358">
        <ele>28.622787928188846</ele>
        <time>2020-11-09T22:33:19Z</time>
      </trkpt>
      <trkpt lat="39.802137837698574" lon="116.48967391499187">
        <ele>28.628316798615792</ele>
        <time>2020-11-09T22:33:23Z</time>
      </trkpt>
      <trkpt lat="39.802104947874255" lon="116.4897100558387">
        <ele>28.628316798615792</ele>
        <time>2020-11-09T22:33:25Z</time>
      </trkpt>
      <trkpt lat="39.80207204311542" lon="116.48974117769399">
        <ele>28.51170851709029</ele>
        <time>2020-11-09T22:33:29Z</time>
      </trkpt>
      <trkpt lat="39.802038138439876" lon="116.48977229967579">
        <ele>28.361426494217966</ele>
        <time>2020-11-09T22:33:33Z</time>
      </trkpt>
      <trkpt lat="39.80200322787136" lon="116.48980141418565">
        <ele>28.361426494217966</ele>
        <time>2020-11-09T22:33:35Z</time>
      </trkpt>
      <trkpt lat="39.801970320135915" lon="116.48983153224941">
        <ele>28.423750548138585</ele>
        <time>2020-11-09T22:33:39Z</time>
      </trkpt>
      <trkpt lat="39.80192941602757" lon="116.4898626551056">
        <ele>28.401132904799496</ele>
        <time>2020-11-09T22:33:43Z</time>
      </trkpt>
      <trkpt lat="39.80189249367508" lon="116.4898877546723">
        <ele>28.401132904799496</ele>
        <time>2020-11-09T22:33:47Z</time>
      </trkpt>
      <trkpt lat="39.80185457140485" lon="116.48991285436445">
        <ele>28.273972402440958</ele>
        <time>2020-11-09T22:33:49Z</time>
      </trkpt>
      <trkpt lat="39.80181765503525" lon="116.48993996153352">
        <ele>28.201094553753652</ele>
        <time>2020-11-09T22:33:53Z</time>
      </trkpt>
      <trkpt lat="39.80177574803225" lon="116.48997008072251">
        <ele>28.201094553753652</ele>
        <time>2020-11-09T22:33:57Z</time>
      </trkpt>
      <trkpt lat="39.80174081656637" lon="116.48999216864924">
        <ele>28.06086895582768</ele>
        <time>2020-11-09T22:34:01Z</time>
      </trkpt>
      <trkpt lat="39.80170886394229" lon="116.49000722960737">
        <ele>27.983469255477697</ele>
        <time>2020-11-09T22:34:03Z</time>
      </trkpt>
      <trkpt lat="39.80167391155801" lon="116.4900222909375">
        <ele>27.983469255477697</ele>
        <time>2020-11-09T22:34:05Z</time>
      </trkpt>
      <trkpt lat="39.80163796224358" lon="116.49003835619179">
        <ele>27.99955226273859</ele>
        <time>2020-11-09T22:34:09Z</time>
      </trkpt>
      <trkpt lat="39.801603015840094" lon="116.49005542512273">
        <ele>27.99955226273859</ele>
        <time>2020-11-09T22:34:11Z</time>
      </trkpt>
      <trkpt lat="39.80157605385641" lon="116.49006747406432">
        <ele>27.987490004966226</ele>
        <time>2020-11-09T22:34:13Z</time>
      </trkpt>
      <trkpt lat="39.80154512208279" lon="116.4900895615009">
        <ele>27.987490004966226</ele>
        <time>2020-11-09T22:34:15Z</time>
      </trkpt>
      <trkpt lat="39.801516205097975" lon="116.49011666769107">
        <ele>28.004075613009544</ele>
        <time>2020-11-09T22:34:19Z</time>
      </trkpt>
      <trkpt lat="39.80148331234874" lon="116.490151804779">
        <ele>28.004075613009544</ele>
        <time>2020-11-09T22:34:21Z</time>
      </trkpt>
      <trkpt lat="39.80144739891704" lon="116.49017991563997">
        <ele>28.02669239382512</ele>
        <time>2020-11-09T22:34:25Z</time>
      </trkpt>
      <trkpt lat="39.80141248540883" lon="116.49020802637894">
        <ele>27.991510756005063</ele>
        <time>2020-11-09T22:34:29Z</time>
      </trkpt>
      <trkpt lat="39.80138058661262" lon="116.49024115574983">
        <ele>27.991510756005063</ele>
        <time>2020-11-09T22:34:31Z</time>
      </trkpt>
      <trkpt lat="39.80135470229074" lon="116.49027930338237">
        <ele>27.9668836802665</ele>
        <time>2020-11-09T22:34:35Z</time>
      </trkpt>
      <trkpt lat="39.80132680617379" lon="116.49031343606383">
        <ele>27.908583080076845</ele>
        <time>2020-11-09T22:34:39Z</time>
      </trkpt>
      <trkpt lat="39.80129987709219" lon="116.49033652681804">
        <ele>27.908583080076845</ele>
        <time>2020-11-09T22:34:41Z</time>
      </trkpt>
      <trkpt lat="39.801275935813635" lon="116.4903556019997">
        <ele>27.860334554383485</ele>
        <time>2020-11-09T22:34:43Z</time>
      </trkpt>
      <trkpt lat="39.80125400035701" lon="116.49037668453575">
        <ele>27.860334554383485</ele>
        <time>2020-11-09T22:34:45Z</time>
      </trkpt>
      <trkpt lat="39.80122507443038" lon="116.49040077934129">
        <ele>27.860334554383485</ele>
        <time>2020-11-09T22:34:47Z</time>
      </trkpt>
      <trkpt lat="39.80119513961524" lon="116.49042186286965">
        <ele>27.822137963441975</ele>
        <time>2020-11-09T22:34:51Z</time>
      </trkpt>
      <trkpt lat="39.801163201971214" lon="116.49044194284572">
        <ele>27.77740792323616</ele>
        <time>2020-11-09T22:34:53Z</time>
      </trkpt>
      <trkpt lat="39.801132267239375" lon="116.4904630264996">
        <ele>27.77740792323616</ele>
        <time>2020-11-09T22:34:55Z</time>
      </trkpt>
      <trkpt lat="39.80109635982137" lon="116.49049314498096">
        <ele>27.735693564521835</ele>
        <time>2020-11-09T22:34:59Z</time>
      </trkpt>
      <trkpt lat="39.801061461298154" lon="116.4905262747431">
        <ele>27.640706070064052</ele>
        <time>2020-11-09T22:35:03Z</time>
      </trkpt>
      <trkpt lat="39.80102655978817" lon="116.49055840070638">
        <ele>27.640706070064052</ele>
        <time>2020-11-09T22:35:05Z</time>
      </trkpt>
      <trkpt lat="39.80099365513138" lon="116.49058952262298">
        <ele>27.61406952084526</ele>
        <time>2020-11-09T22:35:09Z</time>
      </trkpt>
      <trkpt lat="39.80096078038513" lon="116.49063068255265">
        <ele>27.62311588841013</ele>
        <time>2020-11-09T22:35:13Z</time>
      </trkpt>
      <trkpt lat="39.80092991445693" lon="116.49067485364154">
        <ele>27.62311588841013</ele>
        <time>2020-11-09T22:35:17Z</time>
      </trkpt>
      <trkpt lat="39.8009040271982" lon="116.49071199750607">
        <ele>27.58492016771416</ele>
        <time>2020-11-09T22:35:21Z</time>
      </trkpt>
      <trkpt lat="39.80087410736172" lon="116.49073810005335">
        <ele>27.58492016771416</ele>
        <time>2020-11-09T22:35:23Z</time>
      </trkpt>
      <trkpt lat="39.80084716934115" lon="116.49075817942223">
        <ele>27.62814165156595</ele>
        <time>2020-11-09T22:35:25Z</time>
      </trkpt>
      <trkpt lat="39.8008122469174" lon="116.49078327878898">
        <ele>27.62814165156595</ele>
        <time>2020-11-09T22:35:27Z</time>
      </trkpt>
      <trkpt lat="39.80077733047841" lon="116.49081038575964">
        <ele>27.51556513834415</ele>
        <time>2020-11-09T22:35:31Z</time>
      </trkpt>
      <trkpt lat="39.80074141711328" lon="116.49083849665678">
        <ele>27.51556513834415</ele>
        <time>2020-11-09T22:35:33Z</time>
      </trkpt>
      <trkpt lat="39.800712482251235" lon="116.49085958007798">
        <ele>27.453246520499</ele>
        <time>2020-11-09T22:35:35Z</time>
      </trkpt>
      <trkpt lat="39.8006855382565" lon="116.49087765184761">
        <ele>27.453246520499</ele>
        <time>2020-11-09T22:35:37Z</time>
      </trkpt>
      <trkpt lat="39.8006595911915" lon="116.49089471969238">
        <ele>27.522098563428543</ele>
        <time>2020-11-09T22:35:39Z</time>
      </trkpt>
      <trkpt lat="39.80063465003053" lon="116.49091379501708">
        <ele>27.522098563428543</ele>
        <time>2020-11-09T22:35:41Z</time>
      </trkpt>
      <trkpt lat="39.80060372131739" lon="116.49093688629151">
        <ele>27.522098563428543</ele>
        <time>2020-11-09T22:35:43Z</time>
      </trkpt>
      <trkpt lat="39.80056779300649" lon="116.49095997818553">
        <ele>27.402989842322313</ele>
        <time>2020-11-09T22:35:47Z</time>
      </trkpt>
      <trkpt lat="39.80052587116156" lon="116.4909850784263">
        <ele>27.357256475993502</ele>
        <time>2020-11-09T22:35:51Z</time>
      </trkpt>
      <trkpt lat="39.800484964197715" lon="116.49101519755308">
        <ele>27.31453867790481</ele>
        <time>2020-11-09T22:35:55Z</time>
      </trkpt>
      <trkpt lat="39.80044507510782" lon="116.4910513393683">
        <ele>27.267298022917753</ele>
        <time>2020-11-09T22:35:59Z</time>
      </trkpt>
      <trkpt lat="39.80041217947692" lon="116.49108547271528">
        <ele>27.267298022917753</ele>
        <time>2020-11-09T22:36:03Z</time>
      </trkpt>
      <trkpt lat="39.80038225069693" lon="116.49110856387146">
        <ele>27.245688007516282</ele>
        <time>2020-11-09T22:36:05Z</time>
      </trkpt>
      <trkpt lat="39.80035230995054" lon="116.49112763982056">
        <ele>27.245688007516282</ele>
        <time>2020-11-09T22:36:07Z</time>
      </trkpt>
      <trkpt lat="39.80031739354318" lon="116.4911547468046">
        <ele>27.349215465314842</ele>
        <time>2020-11-09T22:36:11Z</time>
      </trkpt>
      <trkpt lat="39.80028248611465" lon="116.49118486519559">
        <ele>27.2396573135437</ele>
        <time>2020-11-09T22:36:15Z</time>
      </trkpt>
      <trkpt lat="39.80025256332649" lon="116.49120996395871">
        <ele>27.2396573135437</ele>
        <time>2020-11-09T22:36:17Z</time>
      </trkpt>
      <trkpt lat="39.800221577783205" lon="116.49121398300298">
        <ele>27.386907756536083</ele>
        <time>2020-11-09T22:36:19Z</time>
      </trkpt>
      <trkpt lat="39.80019153530808" lon="116.4911989296847">
        <ele>27.386907756536083</ele>
        <time>2020-11-09T22:36:21Z</time>
      </trkpt>
      <trkpt lat="39.8001754198988" lon="116.49115978338656">
        <ele>27.462795316781587</ele>
        <time>2020-11-09T22:36:25Z</time>
      </trkpt>
      <trkpt lat="39.80016827684265" lon="116.49111160175966">
        <ele>27.471841552909712</ele>
        <time>2020-11-09T22:36:37Z</time>
      </trkpt>
      <trkpt lat="39.80016512748717" lon="116.49106141203742">
        <ele>27.545216869726687</ele>
        <time>2020-11-09T22:36:39Z</time>
      </trkpt>
      <trkpt lat="39.80015198791597" lon="116.49101423496177">
        <ele>27.545216869726687</ele>
        <time>2020-11-09T22:36:41Z</time>
      </trkpt>
      <trkpt lat="39.80013785740556" lon="116.49097006941842">
        <ele>27.545216869726687</ele>
        <time>2020-11-09T22:36:43Z</time>
      </trkpt>
      <trkpt lat="39.80011974517059" lon="116.49093192718298">
        <ele>27.433646387155772</ele>
        <time>2020-11-09T22:36:45Z</time>
      </trkpt>
      <trkpt lat="39.80009765420094" lon="116.49090081205601">
        <ele>27.433646387155772</ele>
        <time>2020-11-09T22:36:47Z</time>
      </trkpt>
      <trkpt lat="39.80007158150371" lon="116.49087572023494">
        <ele>27.563812066391502</ele>
        <time>2020-11-09T22:36:51Z</time>
      </trkpt>
      <trkpt lat="39.80003950031656" lon="116.4908476177531">
        <ele>27.605525736472945</ele>
        <time>2020-11-09T22:36:55Z</time>
      </trkpt>
      <trkpt lat="39.80001041889088" lon="116.49081951490142">
        <ele>27.500990589462614</ele>
        <time>2020-11-09T22:36:59Z</time>
      </trkpt>
      <trkpt lat="39.7999873190384" lon="116.49078538850034">
        <ele>27.500990589462614</ele>
        <time>2020-11-09T22:37:01Z</time>
      </trkpt>
      <trkpt lat="39.79997220957298" lon="116.49074824970735">
        <ele>27.500990589462614</ele>
        <time>2020-11-09T22:37:03Z</time>
      </trkpt>
      <trkpt lat="39.79995706721095" lon="116.49070006910348">
        <ele>27.494959747619998</ele>
        <time>2020-11-09T22:37:05Z</time>
      </trkpt>
      <trkpt lat="39.799941936818584" lon="116.49065590370851">
        <ele>27.53064227934114</ele>
        <time>2020-11-09T22:37:09Z</time>
      </trkpt>
      <trkpt lat="39.79991486422023" lon="116.4906308120228">
        <ele>27.53064227934114</ele>
        <time>2020-11-09T22:37:11Z</time>
      </trkpt>
      <trkpt lat="39.79988288174752" lon="116.49063583498895">
        <ele>27.508026576030307</ele>
        <time>2020-11-09T22:37:15Z</time>
      </trkpt>
      <trkpt lat="39.79984294777167" lon="116.49065691976307">
        <ele>27.508026576030307</ele>
        <time>2020-11-09T22:37:17Z</time>
      </trkpt>
      <trkpt lat="39.79981202802803" lon="116.49068302242986">
        <ele>27.759314927846297</ele>
        <time>2020-11-09T22:37:21Z</time>
      </trkpt>
      <trkpt lat="39.79978409608149" lon="116.49070510952167">
        <ele>27.759314927846297</ele>
        <time>2020-11-09T22:37:23Z</time>
      </trkpt>
      <trkpt lat="39.79975715209218" lon="116.49072318128555">
        <ele>27.697497430838073</ele>
        <time>2020-11-09T22:37:25Z</time>
      </trkpt>
      <trkpt lat="39.799726181506884" lon="116.49073221933361">
        <ele>27.697497430838073</ele>
        <time>2020-11-09T22:37:27Z</time>
      </trkpt>
      <trkpt lat="39.79969118432514" lon="116.49073222366545">
        <ele>27.697497430838073</ele>
        <time>2020-11-09T22:37:29Z</time>
      </trkpt>
      <trkpt lat="39.799655166287494" lon="116.4907252015123">
        <ele>27.71458515753221</ele>
        <time>2020-11-09T22:37:31Z</time>
      </trkpt>
      <trkpt lat="39.79961914525967" lon="116.49071717555805">
        <ele>27.71458515753221</ele>
        <time>2020-11-09T22:37:33Z</time>
      </trkpt>
      <trkpt lat="39.799589084866966" lon="116.49069609944574">
        <ele>27.662819483451738</ele>
        <time>2020-11-09T22:37:35Z</time>
      </trkpt>
      <trkpt lat="39.799572990448276" lon="116.49066397978908">
        <ele>27.662819483451738</ele>
        <time>2020-11-09T22:37:39Z</time>
      </trkpt>
      <trkpt lat="39.7995810227029" lon="116.4906750206114">
        <ele>27.646736996332116</ele>
        <time>2020-11-09T22:37:43Z</time>
      </trkpt>
      <trkpt lat="39.79959105180583" lon="116.49068505738528">
        <ele>30.24488338486765</ele>
        <time>2020-11-09T22:38:01Z</time>
      </trkpt>
      <trkpt lat="39.799583139187504" lon="116.49071416861">
        <ele>31.20358169807477</ele>
        <time>2020-11-09T22:38:05Z</time>
      </trkpt>
      <trkpt lat="39.799588058029364" lon="116.49068706535891">
        <ele>31.926559947368897</ele>
        <time>2020-11-09T22:38:49Z</time>
      </trkpt>
    </trkseg>
  </trk>
</gpx>