<?xml version="1.0" encoding="UTF-8"?>
<gpx xmlns="http://www.topografix.com/GPX/1/1" xmlns:gpxtpx="http://www.garmin.com/xmlschemas/TrackPointExtension/v1" xmlns:xsi="http://www.w3.org/2001/XMLSchema-instance" xsi:schemaLocation="http://www.topografix.com/GPX/1/1 http://www.topografix.com/GPX/1/1/gpx.xsd" version="1.1" creator="gpx.py -- https://github.com/tkrajina/gpxpy">
  <trk>
    <name>gpx from codoon</name>
    <type>Run</type>
    <trkseg>
      <trkpt lat="39.9136196851086" lon="116.64499850486281">
        <ele>39.5651741027832</ele>
        <time>2018-05-26T03:39:07Z</time>
      </trkpt>
      <trkpt lat="39.91370679836935" lon="116.64493166777683">
        <ele>45.015777587890625</ele>
        <time>2018-05-26T03:39:12Z</time>
      </trkpt>
      <trkpt lat="39.91378889083877" lon="116.64487680014098">
        <ele>46.623191833496094</ele>
        <time>2018-05-26T03:39:13Z</time>
      </trkpt>
      <trkpt lat="39.913830927420335" lon="116.6448548519414">
        <ele>11.496988296508789</ele>
        <time>2018-05-26T03:39:32Z</time>
      </trkpt>
      <trkpt lat="39.913895938599424" lon="116.64484686468911">
        <ele>9.878806114196777</ele>
        <time>2018-05-26T03:39:34Z</time>
      </trkpt>
      <trkpt lat="39.91393090745708" lon="116.6448638164098">
        <ele>6.100649833679199</ele>
        <time>2018-05-26T03:39:40Z</time>
      </trkpt>
      <trkpt lat="39.91396584490639" lon="116.64489872152592">
        <ele>7.98939323425293</ele>
        <time>2018-05-26T03:39:43Z</time>
      </trkpt>
      <trkpt lat="39.91407786630103" lon="116.6448837466502">
        <ele>25.208171844482422</ele>
        <time>2018-05-26T03:39:52Z</time>
      </trkpt>
      <trkpt lat="39.91424088377627" lon="116.64486976293908">
        <ele>65.54116821289062</ele>
        <time>2018-05-26T03:40:02Z</time>
      </trkpt>
      <trkpt lat="39.91433379781299" lon="116.64491662987992">
        <ele>70.62886810302734</ele>
        <time>2018-05-26T03:40:06Z</time>
      </trkpt>
      <trkpt lat="39.914330639068986" lon="116.64500739451726">
        <ele>9.085360527038574</ele>
        <time>2018-05-26T03:40:19Z</time>
      </trkpt>
      <trkpt lat="39.91429251663865" lon="116.64507821511674">
        <ele>7.576201915740967</ele>
        <time>2018-05-26T03:40:21Z</time>
      </trkpt>
      <trkpt lat="39.91432155210244" lon="116.64505726601685">
        <ele>5.402841091156006</ele>
        <time>2018-05-26T03:40:23Z</time>
      </trkpt>
      <trkpt lat="39.91435057008771" lon="116.64504629098458">
        <ele>2.9623162746429443</ele>
        <time>2018-05-26T03:40:25Z</time>
      </trkpt>
      <trkpt lat="39.91437957933567" lon="116.64504030298873">
        <ele>2.105409860610962</ele>
        <time>2018-05-26T03:40:27Z</time>
      </trkpt>
      <trkpt lat="39.91440958155233" lon="116.64503830450116">
        <ele>1.4982997179031372</ele>
        <time>2018-05-26T03:40:29Z</time>
      </trkpt>
      <trkpt lat="39.91443858031747" lon="116.64503830095158">
        <ele>0.3762800991535187</ele>
        <time>2018-05-26T03:40:31Z</time>
      </trkpt>
      <trkpt lat="39.914477589139274" lon="116.64503231173067">
        <ele>0.43821385502815247</ele>
        <time>2018-05-26T03:40:33Z</time>
      </trkpt>
      <trkpt lat="39.91451760315876" lon="116.64502333016219">
        <ele>0.9690364003181458</ele>
        <time>2018-05-26T03:40:35Z</time>
      </trkpt>
      <trkpt lat="39.91456563080976" lon="116.6450063683451">
        <ele>1.0043888092041016</ele>
        <time>2018-05-26T03:40:37Z</time>
      </trkpt>
      <trkpt lat="39.9146066622468" lon="116.64498741256038">
        <ele>1.2194730043411255</ele>
        <time>2018-05-26T03:40:41Z</time>
      </trkpt>
      <trkpt lat="39.91464868839769" lon="116.64497144887322">
        <ele>0.626384437084198</ele>
        <time>2018-05-26T03:40:45Z</time>
      </trkpt>
      <trkpt lat="39.91476669210763" lon="116.64496644738328">
        <ele>0.598443329334259</ele>
        <time>2018-05-26T03:40:49Z</time>
      </trkpt>
      <trkpt lat="39.91488167848749" lon="116.64497142035432">
        <ele>0.8931809663772583</ele>
        <time>2018-05-26T03:40:59Z</time>
      </trkpt>
      <trkpt lat="39.91499466669986" lon="116.64497539616026">
        <ele>1.2162799835205078</ele>
        <time>2018-05-26T03:41:03Z</time>
      </trkpt>
      <trkpt lat="39.915025658398015" lon="116.6449793820026">
        <ele>1.2543822526931763</ele>
        <time>2018-05-26T03:41:07Z</time>
      </trkpt>
      <trkpt lat="39.91506465324846" lon="116.6449813720472">
        <ele>1.3059501647949219</ele>
        <time>2018-05-26T03:41:09Z</time>
      </trkpt>
      <trkpt lat="39.91510464456414" lon="116.64498535678734">
        <ele>1.370483636856079</ele>
        <time>2018-05-26T03:41:11Z</time>
      </trkpt>
      <trkpt lat="39.91513761696691" lon="116.64500031388047">
        <ele>1.430830717086792</ele>
        <time>2018-05-26T03:41:13Z</time>
      </trkpt>
      <trkpt lat="39.91516556512284" lon="116.64502923529463">
        <ele>1.5866705179214478</ele>
        <time>2018-05-26T03:41:18Z</time>
      </trkpt>
      <trkpt lat="39.91519251330761" lon="116.64505815681207">
        <ele>1.6664642095565796</ele>
        <time>2018-05-26T03:41:24Z</time>
      </trkpt>
      <trkpt lat="39.91522447874455" lon="116.64507710363041">
        <ele>1.9143344163894653</ele>
        <time>2018-05-26T03:41:30Z</time>
      </trkpt>
      <trkpt lat="39.91525546169782" lon="116.64508607649707">
        <ele>1.9418689012527466</ele>
        <time>2018-05-26T03:41:32Z</time>
      </trkpt>
      <trkpt lat="39.91529040601954" lon="116.64511699180966">
        <ele>2.040015459060669</ele>
        <time>2018-05-26T03:41:36Z</time>
      </trkpt>
      <trkpt lat="39.91532533983215" lon="116.6451538915318">
        <ele>2.06408429145813</ele>
        <time>2018-05-26T03:41:40Z</time>
      </trkpt>
      <trkpt lat="39.91536525941321" lon="116.64519876984478">
        <ele>2.137866735458374</ele>
        <time>2018-05-26T03:41:42Z</time>
      </trkpt>
      <trkpt lat="39.915398200262956" lon="116.64523168012971">
        <ele>2.1384522914886475</ele>
        <time>2018-05-26T03:41:44Z</time>
      </trkpt>
      <trkpt lat="39.915430139386864" lon="116.6452655879151">
        <ele>2.0950076580047607</ele>
        <time>2018-05-26T03:41:46Z</time>
      </trkpt>
      <trkpt lat="39.91545409459323" lon="116.64529052003601">
        <ele>1.977720022201538</ele>
        <time>2018-05-26T03:41:48Z</time>
      </trkpt>
      <trkpt lat="39.915478055044325" lon="116.64531245993821">
        <ele>1.9177806377410889</ele>
        <time>2018-05-26T03:41:50Z</time>
      </trkpt>
      <trkpt lat="39.91550601882179" lon="116.64533240453765">
        <ele>1.870783805847168</ele>
        <time>2018-05-26T03:41:52Z</time>
      </trkpt>
      <trkpt lat="39.91554097879148" lon="116.64535434307247">
        <ele>1.7599362134933472</ele>
        <time>2018-05-26T03:41:54Z</time>
      </trkpt>
      <trkpt lat="39.915584936619176" lon="116.64537727789477">
        <ele>1.5867270231246948</ele>
        <time>2018-05-26T03:41:57Z</time>
      </trkpt>
      <trkpt lat="39.915635899400606" lon="116.64539721964928">
        <ele>1.2985162734985352</ele>
        <time>2018-05-26T03:41:59Z</time>
      </trkpt>
      <trkpt lat="39.91568686217597" lon="116.64541716139479">
        <ele>0.4528326094150543</ele>
        <time>2018-05-26T03:42:05Z</time>
      </trkpt>
      <trkpt lat="39.91576977272826" lon="116.64546602376882">
        <ele>0.17837011814117432</ele>
        <time>2018-05-26T03:42:07Z</time>
      </trkpt>
      <trkpt lat="39.91584767819043" lon="116.64551787889222">
        <ele>-0.677177369594574</ele>
        <time>2018-05-26T03:42:13Z</time>
      </trkpt>
      <trkpt lat="39.91591958737582" lon="116.64556773989808">
        <ele>-1.0407460927963257</ele>
        <time>2018-05-26T03:42:15Z</time>
      </trkpt>
      <trkpt lat="39.91595155617132" lon="116.64558469170672">
        <ele>-1.6279772520065308</ele>
        <time>2018-05-26T03:42:17Z</time>
      </trkpt>
      <trkpt lat="39.915988540555766" lon="116.64559266633995">
        <ele>-2.7737374305725098</ele>
        <time>2018-05-26T03:42:21Z</time>
      </trkpt>
      <trkpt lat="39.91603452982666" lon="116.64559764768441">
        <ele>-4.215587139129639</ele>
        <time>2018-05-26T03:42:28Z</time>
      </trkpt>
    </trkseg>
  </trk>
</gpx>