<?xml version="1.0" encoding="UTF-8"?>
<gpx xmlns="http://www.topografix.com/GPX/1/1" xmlns:gpxtpx="http://www.garmin.com/xmlschemas/TrackPointExtension/v1" xmlns:xsi="http://www.w3.org/2001/XMLSchema-instance" xsi:schemaLocation="http://www.topografix.com/GPX/1/1 http://www.topografix.com/GPX/1/1/gpx.xsd" version="1.1" creator="gpx.py -- https://github.com/tkrajina/gpxpy">
  <trk>
    <name>gpx from codoon</name>
    <type>Run</type>
    <trkseg>
      <trkpt lat="43.82541537969184" lon="87.61747902374277">
        <ele>832.4</ele>
        <time>2020-09-08T12:52:20Z</time>
      </trkpt>
      <trkpt lat="43.825406657135666" lon="87.61749060067386">
        <ele>832.4</ele>
        <time>2020-09-08T12:52:21Z</time>
      </trkpt>
      <trkpt lat="43.82538632411496" lon="87.61750892042534">
        <ele>832.4</ele>
        <time>2020-09-08T12:52:22Z</time>
      </trkpt>
      <trkpt lat="43.82536446487714" lon="87.61752624108917">
        <ele>832.4</ele>
        <time>2020-09-08T12:52:23Z</time>
      </trkpt>
      <trkpt lat="43.82534455321911" lon="87.61753985805454">
        <ele>832.6</ele>
        <time>2020-09-08T12:52:24Z</time>
      </trkpt>
      <trkpt lat="43.825315619358605" lon="87.61755240345354">
        <ele>832.6</ele>
        <time>2020-09-08T12:52:25Z</time>
      </trkpt>
      <trkpt lat="43.82529436542872" lon="87.61756946699333">
        <ele>832.6</ele>
        <time>2020-09-08T12:52:26Z</time>
      </trkpt>
      <trkpt lat="43.82527238270549" lon="87.61758767532187">
        <ele>832.6</ele>
        <time>2020-09-08T12:52:27Z</time>
      </trkpt>
      <trkpt lat="43.82525080076162" lon="87.61760660708633">
        <ele>832.6</ele>
        <time>2020-09-08T12:52:28Z</time>
      </trkpt>
      <trkpt lat="43.82523018318787" lon="87.6176265104132">
        <ele>832.7</ele>
        <time>2020-09-08T12:52:29Z</time>
      </trkpt>
      <trkpt lat="43.82521052263808" lon="87.61764764507674">
        <ele>832.7</ele>
        <time>2020-09-08T12:52:30Z</time>
      </trkpt>
      <trkpt lat="43.825192211499484" lon="87.617670946932">
        <ele>832.7</ele>
        <time>2020-09-08T12:52:31Z</time>
      </trkpt>
      <trkpt lat="43.825175261160204" lon="87.61769559998763">
        <ele>832.7</ele>
        <time>2020-09-08T12:52:32Z</time>
      </trkpt>
      <trkpt lat="43.82515955221824" lon="87.61772161850122">
        <ele>832.7</ele>
        <time>2020-09-08T12:52:33Z</time>
      </trkpt>
      <trkpt lat="43.82514523673969" lon="87.61774908471192">
        <ele>833.1</ele>
        <time>2020-09-08T12:52:34Z</time>
      </trkpt>
      <trkpt lat="43.82513216969268" lon="87.61777688864616">
        <ele>833.1</ele>
        <time>2020-09-08T12:52:35Z</time>
      </trkpt>
      <trkpt lat="43.825120069078885" lon="87.61780524433819">
        <ele>833.1</ele>
        <time>2020-09-08T12:52:36Z</time>
      </trkpt>
      <trkpt lat="43.82510871220887" lon="87.6178337046828">
        <ele>833.1</ele>
        <time>2020-09-08T12:52:37Z</time>
      </trkpt>
      <trkpt lat="43.825098006139854" lon="87.61786234159511">
        <ele>833.1</ele>
        <time>2020-09-08T12:52:38Z</time>
      </trkpt>
      <trkpt lat="43.825087661909585" lon="87.61789111251129">
        <ele>833.1</ele>
        <time>2020-09-08T12:52:39Z</time>
      </trkpt>
      <trkpt lat="43.82507727132698" lon="87.61791955855438">
        <ele>833.1</ele>
        <time>2020-09-08T12:52:40Z</time>
      </trkpt>
      <trkpt lat="43.825066469257486" lon="87.61794794910945">
        <ele>833.1</ele>
        <time>2020-09-08T12:52:41Z</time>
      </trkpt>
      <trkpt lat="43.8250553664165" lon="87.61797566174268">
        <ele>833.1</ele>
        <time>2020-09-08T12:52:42Z</time>
      </trkpt>
      <trkpt lat="43.82504383476125" lon="87.61800256263312">
        <ele>833.1</ele>
        <time>2020-09-08T12:52:43Z</time>
      </trkpt>
      <trkpt lat="43.82503158334158" lon="87.61802815660252">
        <ele>833.3</ele>
        <time>2020-09-08T12:52:44Z</time>
      </trkpt>
      <trkpt lat="43.825018572647004" lon="87.61805225045157">
        <ele>833.3</ele>
        <time>2020-09-08T12:52:45Z</time>
      </trkpt>
      <trkpt lat="43.8250046059522" lon="87.61807477469739">
        <ele>833.3</ele>
        <time>2020-09-08T12:52:46Z</time>
      </trkpt>
      <trkpt lat="43.82498998419564" lon="87.61809528795038">
        <ele>833.3</ele>
        <time>2020-09-08T12:52:47Z</time>
      </trkpt>
      <trkpt lat="43.824974732826455" lon="87.6181136684531">
        <ele>833.3</ele>
        <time>2020-09-08T12:52:48Z</time>
      </trkpt>
      <trkpt lat="43.824958508914506" lon="87.61813014856415">
        <ele>833.4</ele>
        <time>2020-09-08T12:52:49Z</time>
      </trkpt>
      <trkpt lat="43.82494166828909" lon="87.61814463149376">
        <ele>833.4</ele>
        <time>2020-09-08T12:52:50Z</time>
      </trkpt>
      <trkpt lat="43.82492397420509" lon="87.61815717868303">
        <ele>833.4</ele>
        <time>2020-09-08T12:52:51Z</time>
      </trkpt>
      <trkpt lat="43.824905774417665" lon="87.61816755775035">
        <ele>833.4</ele>
        <time>2020-09-08T12:52:52Z</time>
      </trkpt>
      <trkpt lat="43.82488717855143" lon="87.6181760042967">
        <ele>833.4</ele>
        <time>2020-09-08T12:52:53Z</time>
      </trkpt>
      <trkpt lat="43.82486795449244" lon="87.61818246080672">
        <ele>833.4</ele>
        <time>2020-09-08T12:52:54Z</time>
      </trkpt>
      <trkpt lat="43.82484864752308" lon="87.61818680127655">
        <ele>833.4</ele>
        <time>2020-09-08T12:52:55Z</time>
      </trkpt>
      <trkpt lat="43.824829341483024" lon="87.61818928750945">
        <ele>833.4</ele>
        <time>2020-09-08T12:52:56Z</time>
      </trkpt>
      <trkpt lat="43.82481004638833" lon="87.61819030366587">
        <ele>833.4</ele>
        <time>2020-09-08T12:52:57Z</time>
      </trkpt>
      <trkpt lat="43.824790704389606" lon="87.61819099411596">
        <ele>833.4</ele>
        <time>2020-09-08T12:52:58Z</time>
      </trkpt>
      <trkpt lat="43.82477154032237" lon="87.61819259054568">
        <ele>833.2</ele>
        <time>2020-09-08T12:52:59Z</time>
      </trkpt>
      <trkpt lat="43.82475317922202" lon="87.61819606653275">
        <ele>833.2</ele>
        <time>2020-09-08T12:53:00Z</time>
      </trkpt>
      <trkpt lat="43.824735820294805" lon="87.6182013688715">
        <ele>833.2</ele>
        <time>2020-09-08T12:53:01Z</time>
      </trkpt>
      <trkpt lat="43.82471971759561" lon="87.61820912754014">
        <ele>833.2</ele>
        <time>2020-09-08T12:53:02Z</time>
      </trkpt>
      <trkpt lat="43.824704982643155" lon="87.61821927318994">
        <ele>833.2</ele>
        <time>2020-09-08T12:53:03Z</time>
      </trkpt>
      <trkpt lat="43.82469189612456" lon="87.61823188551519">
        <ele>833.5</ele>
        <time>2020-09-08T12:53:04Z</time>
      </trkpt>
      <trkpt lat="43.824681712338375" lon="87.61824719735282">
        <ele>833.5</ele>
        <time>2020-09-08T12:53:05Z</time>
      </trkpt>
      <trkpt lat="43.824674926974915" lon="87.61826419701683">
        <ele>833.5</ele>
        <time>2020-09-08T12:53:06Z</time>
      </trkpt>
      <trkpt lat="43.82467151741871" lon="87.61828217338882">
        <ele>833.5</ele>
        <time>2020-09-08T12:53:07Z</time>
      </trkpt>
      <trkpt lat="43.82467204109212" lon="87.61830070193042">
        <ele>833.5</ele>
        <time>2020-09-08T12:53:08Z</time>
      </trkpt>
      <trkpt lat="43.82467629495284" lon="87.61831872162173">
        <ele>833.5</ele>
        <time>2020-09-08T12:53:09Z</time>
      </trkpt>
      <trkpt lat="43.82468419022612" lon="87.61833541608249">
        <ele>833.5</ele>
        <time>2020-09-08T12:53:10Z</time>
      </trkpt>
      <trkpt lat="43.82469519470873" lon="87.61834981190833">
        <ele>833.5</ele>
        <time>2020-09-08T12:53:11Z</time>
      </trkpt>
      <trkpt lat="43.82470886696144" lon="87.61836186149948">
        <ele>833.5</ele>
        <time>2020-09-08T12:53:12Z</time>
      </trkpt>
      <trkpt lat="43.82472540682186" lon="87.6183712128118">
        <ele>833.5</ele>
        <time>2020-09-08T12:53:13Z</time>
      </trkpt>
      <trkpt lat="43.82474439595087" lon="87.61837802616785">
        <ele>833.5</ele>
        <time>2020-09-08T12:53:14Z</time>
      </trkpt>
      <trkpt lat="43.82476569317996" lon="87.61838219111276">
        <ele>833.5</ele>
        <time>2020-09-08T12:53:15Z</time>
      </trkpt>
      <trkpt lat="43.82478809814602" lon="87.61838378832122">
        <ele>833.5</ele>
        <time>2020-09-08T12:53:16Z</time>
      </trkpt>
      <trkpt lat="43.82481080857077" lon="87.61838411948115">
        <ele>833.5</ele>
        <time>2020-09-08T12:53:17Z</time>
      </trkpt>
      <trkpt lat="43.82483394168936" lon="87.61838400179822">
        <ele>833.5</ele>
        <time>2020-09-08T12:53:18Z</time>
      </trkpt>
      <trkpt lat="43.82485287177647" lon="87.61838378172425">
        <ele>833.4</ele>
        <time>2020-09-08T12:53:19Z</time>
      </trkpt>
      <trkpt lat="43.82487187798553" lon="87.61838319098096">
        <ele>833.4</ele>
        <time>2020-09-08T12:53:20Z</time>
      </trkpt>
      <trkpt lat="43.82489074017961" lon="87.61838182853596">
        <ele>833.4</ele>
        <time>2020-09-08T12:53:21Z</time>
      </trkpt>
      <trkpt lat="43.82490937049356" lon="87.6183794760585">
        <ele>833.4</ele>
        <time>2020-09-08T12:53:22Z</time>
      </trkpt>
      <trkpt lat="43.82492765457177" lon="87.61837603163849">
        <ele>833.4</ele>
        <time>2020-09-08T12:53:23Z</time>
      </trkpt>
      <trkpt lat="43.824945387887716" lon="87.6183711470828">
        <ele>833.1</ele>
        <time>2020-09-08T12:53:24Z</time>
      </trkpt>
      <trkpt lat="43.82496250019142" lon="87.6183646930346">
        <ele>833.1</ele>
        <time>2020-09-08T12:53:25Z</time>
      </trkpt>
      <trkpt lat="43.82497879044343" lon="87.61835646044027">
        <ele>833.1</ele>
        <time>2020-09-08T12:53:26Z</time>
      </trkpt>
      <trkpt lat="43.82499417513561" lon="87.61834643619409">
        <ele>833.1</ele>
        <time>2020-09-08T12:53:27Z</time>
      </trkpt>
      <trkpt lat="43.82500861824266" lon="87.61833471127497">
        <ele>833.1</ele>
        <time>2020-09-08T12:53:28Z</time>
      </trkpt>
      <trkpt lat="43.825022021174064" lon="87.61832098665955">
        <ele>833.1</ele>
        <time>2020-09-08T12:53:29Z</time>
      </trkpt>
      <trkpt lat="43.82503867771472" lon="87.6183054928927">
        <ele>833.1</ele>
        <time>2020-09-08T12:53:30Z</time>
      </trkpt>
      <trkpt lat="43.825054619488235" lon="87.61828848419113">
        <ele>833.1</ele>
        <time>2020-09-08T12:53:31Z</time>
      </trkpt>
      <trkpt lat="43.82506976151547" lon="87.61827047313494">
        <ele>833.1</ele>
        <time>2020-09-08T12:53:32Z</time>
      </trkpt>
      <trkpt lat="43.82508453763425" lon="87.61825138853229">
        <ele>833.1</ele>
        <time>2020-09-08T12:53:33Z</time>
      </trkpt>
      <trkpt lat="43.825099107866464" lon="87.61823159374933">
        <ele>833.1</ele>
        <time>2020-09-08T12:53:34Z</time>
      </trkpt>
      <trkpt lat="43.825113469467674" lon="87.6182116556843">
        <ele>833.1</ele>
        <time>2020-09-08T12:53:35Z</time>
      </trkpt>
      <trkpt lat="43.82512817565072" lon="87.61819170231612">
        <ele>833.1</ele>
        <time>2020-09-08T12:53:36Z</time>
      </trkpt>
      <trkpt lat="43.8251431882105" lon="87.61817249487093">
        <ele>833.1</ele>
        <time>2020-09-08T12:53:37Z</time>
      </trkpt>
      <trkpt lat="43.82515906207483" lon="87.6181542851625">
        <ele>833.1</ele>
        <time>2020-09-08T12:53:38Z</time>
      </trkpt>
      <trkpt lat="43.825175856940625" lon="87.61813741885493">
        <ele>832.8</ele>
        <time>2020-09-08T12:53:39Z</time>
      </trkpt>
      <trkpt lat="43.82519335994171" lon="87.61812235159306">
        <ele>832.8</ele>
        <time>2020-09-08T12:53:40Z</time>
      </trkpt>
      <trkpt lat="43.82521185598009" lon="87.61810899500125">
        <ele>832.8</ele>
        <time>2020-09-08T12:53:41Z</time>
      </trkpt>
      <trkpt lat="43.82523097437449" lon="87.61809758355538">
        <ele>832.8</ele>
        <time>2020-09-08T12:53:42Z</time>
      </trkpt>
      <trkpt lat="43.825250686428525" lon="87.61808794704079">
        <ele>832.8</ele>
        <time>2020-09-08T12:53:43Z</time>
      </trkpt>
      <trkpt lat="43.82527101290589" lon="87.61808027711986">
        <ele>832.5</ele>
        <time>2020-09-08T12:53:44Z</time>
      </trkpt>
      <trkpt lat="43.825291833096664" lon="87.61807429002153">
        <ele>832.5</ele>
        <time>2020-09-08T12:53:45Z</time>
      </trkpt>
      <trkpt lat="43.82531328034268" lon="87.6180695086797">
        <ele>832.5</ele>
        <time>2020-09-08T12:53:46Z</time>
      </trkpt>
      <trkpt lat="43.82533481363949" lon="87.61806568235039">
        <ele>832.5</ele>
        <time>2020-09-08T12:53:47Z</time>
      </trkpt>
      <trkpt lat="43.82535629539413" lon="87.61806232153141">
        <ele>832.5</ele>
        <time>2020-09-08T12:53:48Z</time>
      </trkpt>
      <trkpt lat="43.82537760278064" lon="87.61805891916882">
        <ele>832</ele>
        <time>2020-09-08T12:53:49Z</time>
      </trkpt>
      <trkpt lat="43.82539883613317" lon="87.61805505018916">
        <ele>832</ele>
        <time>2020-09-08T12:53:50Z</time>
      </trkpt>
      <trkpt lat="43.82541979494407" lon="87.61805055140653">
        <ele>832</ele>
        <time>2020-09-08T12:53:51Z</time>
      </trkpt>
      <trkpt lat="43.82544046486738" lon="87.61804504972822">
        <ele>832</ele>
        <time>2020-09-08T12:53:52Z</time>
      </trkpt>
      <trkpt lat="43.825460821730594" lon="87.61803832931534">
        <ele>832</ele>
        <time>2020-09-08T12:53:53Z</time>
      </trkpt>
      <trkpt lat="43.825480730153984" lon="87.61803017601899">
        <ele>831.8</ele>
        <time>2020-09-08T12:53:54Z</time>
      </trkpt>
      <trkpt lat="43.82550016033308" lon="87.61802044585477">
        <ele>831.8</ele>
        <time>2020-09-08T12:53:55Z</time>
      </trkpt>
      <trkpt lat="43.82551899497693" lon="87.61800912344317">
        <ele>831.8</ele>
        <time>2020-09-08T12:53:56Z</time>
      </trkpt>
      <trkpt lat="43.82553670612098" lon="87.61799572299229">
        <ele>831.8</ele>
        <time>2020-09-08T12:53:57Z</time>
      </trkpt>
      <trkpt lat="43.82555296231116" lon="87.61798043204455">
        <ele>831.8</ele>
        <time>2020-09-08T12:53:58Z</time>
      </trkpt>
      <trkpt lat="43.82556749037989" lon="87.61796348004921">
        <ele>831.8</ele>
        <time>2020-09-08T12:53:59Z</time>
      </trkpt>
      <trkpt lat="43.82557963906178" lon="87.61794482137458">
        <ele>831.8</ele>
        <time>2020-09-08T12:54:00Z</time>
      </trkpt>
      <trkpt lat="43.82558923183957" lon="87.61792476563056">
        <ele>831.8</ele>
        <time>2020-09-08T12:54:01Z</time>
      </trkpt>
      <trkpt lat="43.82559620825909" lon="87.61790316007092">
        <ele>831.8</ele>
        <time>2020-09-08T12:54:02Z</time>
      </trkpt>
      <trkpt lat="43.82560023017427" lon="87.61788056577181">
        <ele>831.8</ele>
        <time>2020-09-08T12:54:03Z</time>
      </trkpt>
      <trkpt lat="43.82560155269174" lon="87.61785722433943">
        <ele>831.6</ele>
        <time>2020-09-08T12:54:04Z</time>
      </trkpt>
      <trkpt lat="43.82560012065281" lon="87.61783315255575">
        <ele>831.6</ele>
        <time>2020-09-08T12:54:05Z</time>
      </trkpt>
      <trkpt lat="43.825595737777164" lon="87.61780874746134">
        <ele>831.6</ele>
        <time>2020-09-08T12:54:06Z</time>
      </trkpt>
      <trkpt lat="43.82558852560379" lon="87.61778450276525">
        <ele>831.6</ele>
        <time>2020-09-08T12:54:07Z</time>
      </trkpt>
      <trkpt lat="43.82557870699565" lon="87.61776082265237">
        <ele>831.6</ele>
        <time>2020-09-08T12:54:08Z</time>
      </trkpt>
      <trkpt lat="43.825566968086704" lon="87.61773781766699">
        <ele>831.9</ele>
        <time>2020-09-08T12:54:09Z</time>
      </trkpt>
      <trkpt lat="43.82555361945542" lon="87.61771511284316">
        <ele>831.9</ele>
        <time>2020-09-08T12:54:10Z</time>
      </trkpt>
      <trkpt lat="43.825539285133615" lon="87.61769313868378">
        <ele>831.9</ele>
        <time>2020-09-08T12:54:11Z</time>
      </trkpt>
      <trkpt lat="43.825524085984966" lon="87.61767197997986">
        <ele>831.9</ele>
        <time>2020-09-08T12:54:12Z</time>
      </trkpt>
      <trkpt lat="43.82550802450838" lon="87.61765201207405">
        <ele>831.9</ele>
        <time>2020-09-08T12:54:13Z</time>
      </trkpt>
      <trkpt lat="43.825491276578056" lon="87.61763328839831">
        <ele>831.9</ele>
        <time>2020-09-08T12:54:14Z</time>
      </trkpt>
      <trkpt lat="43.82547382975734" lon="87.61761598998531">
        <ele>831.9</ele>
        <time>2020-09-08T12:54:15Z</time>
      </trkpt>
      <trkpt lat="43.825455724853065" lon="87.61760048407037">
        <ele>831.9</ele>
        <time>2020-09-08T12:54:16Z</time>
      </trkpt>
      <trkpt lat="43.82543710242189" lon="87.61758674649947">
        <ele>831.9</ele>
        <time>2020-09-08T12:54:17Z</time>
      </trkpt>
      <trkpt lat="43.82541824573576" lon="87.61757452241696">
        <ele>831.9</ele>
        <time>2020-09-08T12:54:18Z</time>
      </trkpt>
      <trkpt lat="43.82539908493595" lon="87.61756449203887">
        <ele>832.3</ele>
        <time>2020-09-08T12:54:19Z</time>
      </trkpt>
      <trkpt lat="43.825379671315375" lon="87.61755696132855">
        <ele>832.3</ele>
        <time>2020-09-08T12:54:20Z</time>
      </trkpt>
      <trkpt lat="43.82536004068826" lon="87.61755270986632">
        <ele>832.3</ele>
        <time>2020-09-08T12:54:21Z</time>
      </trkpt>
      <trkpt lat="43.82534037094891" lon="87.61755194496864">
        <ele>832.3</ele>
        <time>2020-09-08T12:54:22Z</time>
      </trkpt>
      <trkpt lat="43.82532092677676" lon="87.61755442577969">
        <ele>832.3</ele>
        <time>2020-09-08T12:54:23Z</time>
      </trkpt>
      <trkpt lat="43.82530194231379" lon="87.61756026740599">
        <ele>832.6</ele>
        <time>2020-09-08T12:54:24Z</time>
      </trkpt>
      <trkpt lat="43.82528352065024" lon="87.61756903198207">
        <ele>832.6</ele>
        <time>2020-09-08T12:54:25Z</time>
      </trkpt>
      <trkpt lat="43.82526570113384" lon="87.61758033755386">
        <ele>832.6</ele>
        <time>2020-09-08T12:54:26Z</time>
      </trkpt>
      <trkpt lat="43.82524853171743" lon="87.61759417695107">
        <ele>832.6</ele>
        <time>2020-09-08T12:54:27Z</time>
      </trkpt>
      <trkpt lat="43.82523199224037" lon="87.61761017612132">
        <ele>832.6</ele>
        <time>2020-09-08T12:54:28Z</time>
      </trkpt>
      <trkpt lat="43.8252159369577" lon="87.61762849628802">
        <ele>832.6</ele>
        <time>2020-09-08T12:54:29Z</time>
      </trkpt>
      <trkpt lat="43.82520061461251" lon="87.61764851485007">
        <ele>832.6</ele>
        <time>2020-09-08T12:54:30Z</time>
      </trkpt>
      <trkpt lat="43.8251859161113" lon="87.61766974113442">
        <ele>832.6</ele>
        <time>2020-09-08T12:54:31Z</time>
      </trkpt>
      <trkpt lat="43.82517180950504" lon="87.61769200570836">
        <ele>832.6</ele>
        <time>2020-09-08T12:54:32Z</time>
      </trkpt>
      <trkpt lat="43.825158091319736" lon="87.61771486993774">
        <ele>832.6</ele>
        <time>2020-09-08T12:54:33Z</time>
      </trkpt>
      <trkpt lat="43.82514461548793" lon="87.61773815586758">
        <ele>832.7</ele>
        <time>2020-09-08T12:54:34Z</time>
      </trkpt>
      <trkpt lat="43.82513151584464" lon="87.61776194042781">
        <ele>832.7</ele>
        <time>2020-09-08T12:54:35Z</time>
      </trkpt>
      <trkpt lat="43.82511881845319" lon="87.61778621092324">
        <ele>832.7</ele>
        <time>2020-09-08T12:54:36Z</time>
      </trkpt>
      <trkpt lat="43.82510646246262" lon="87.61781142089868">
        <ele>832.7</ele>
        <time>2020-09-08T12:54:37Z</time>
      </trkpt>
      <trkpt lat="43.8250947663077" lon="87.6178371985348">
        <ele>832.7</ele>
        <time>2020-09-08T12:54:38Z</time>
      </trkpt>
      <trkpt lat="43.82508364964853" lon="87.61786348822409">
        <ele>833.2</ele>
        <time>2020-09-08T12:54:39Z</time>
      </trkpt>
      <trkpt lat="43.8250727981475" lon="87.61789011976403">
        <ele>833.2</ele>
        <time>2020-09-08T12:54:40Z</time>
      </trkpt>
      <trkpt lat="43.82506203668491" lon="87.61791693394694">
        <ele>833.2</ele>
        <time>2020-09-08T12:54:41Z</time>
      </trkpt>
      <trkpt lat="43.82505128917628" lon="87.61794382744178">
        <ele>833.2</ele>
        <time>2020-09-08T12:54:42Z</time>
      </trkpt>
      <trkpt lat="43.82504048510954" lon="87.61797067664683">
        <ele>833.2</ele>
        <time>2020-09-08T12:54:43Z</time>
      </trkpt>
      <trkpt lat="43.82502951371323" lon="87.61799730694197">
        <ele>833</ele>
        <time>2020-09-08T12:54:44Z</time>
      </trkpt>
      <trkpt lat="43.825017905163016" lon="87.61802354062152">
        <ele>833</ele>
        <time>2020-09-08T12:54:45Z</time>
      </trkpt>
      <trkpt lat="43.82500565183749" lon="87.61804851228135">
        <ele>833</ele>
        <time>2020-09-08T12:54:46Z</time>
      </trkpt>
      <trkpt lat="43.824992568997054" lon="87.61807192421416">
        <ele>833</ele>
        <time>2020-09-08T12:54:47Z</time>
      </trkpt>
      <trkpt lat="43.824978368698766" lon="87.61809332788161">
        <ele>833</ele>
        <time>2020-09-08T12:54:48Z</time>
      </trkpt>
      <trkpt lat="43.82496306815693" lon="87.61811269381744">
        <ele>833.2</ele>
        <time>2020-09-08T12:54:49Z</time>
      </trkpt>
      <trkpt lat="43.824946415965876" lon="87.61813022668585">
        <ele>833.2</ele>
        <time>2020-09-08T12:54:50Z</time>
      </trkpt>
      <trkpt lat="43.82492890639502" lon="87.61814559136323">
        <ele>833.2</ele>
        <time>2020-09-08T12:54:51Z</time>
      </trkpt>
      <trkpt lat="43.824910792786696" lon="87.61815912018223">
        <ele>833.2</ele>
        <time>2020-09-08T12:54:52Z</time>
      </trkpt>
      <trkpt lat="43.82489183098833" lon="87.61817097357434">
        <ele>833.2</ele>
        <time>2020-09-08T12:54:53Z</time>
      </trkpt>
      <trkpt lat="43.82487235828062" lon="87.61818079938934">
        <ele>833</ele>
        <time>2020-09-08T12:54:54Z</time>
      </trkpt>
      <trkpt lat="43.824852139181786" lon="87.61818841493178">
        <ele>833</ele>
        <time>2020-09-08T12:54:55Z</time>
      </trkpt>
      <trkpt lat="43.82483177818948" lon="87.61819370760499">
        <ele>833</ele>
        <time>2020-09-08T12:54:56Z</time>
      </trkpt>
      <trkpt lat="43.8248114161068" lon="87.61819706330887">
        <ele>833</ele>
        <time>2020-09-08T12:54:57Z</time>
      </trkpt>
      <trkpt lat="43.824790770367386" lon="87.61819932591143">
        <ele>833</ele>
        <time>2020-09-08T12:54:58Z</time>
      </trkpt>
      <trkpt lat="43.82477051164757" lon="87.61820188159638">
        <ele>833.2</ele>
        <time>2020-09-08T12:54:59Z</time>
      </trkpt>
      <trkpt lat="43.824750986238854" lon="87.61820549432686">
        <ele>833.2</ele>
        <time>2020-09-08T12:55:00Z</time>
      </trkpt>
      <trkpt lat="43.82473265418757" lon="87.61821077568487">
        <ele>833.2</ele>
        <time>2020-09-08T12:55:01Z</time>
      </trkpt>
      <trkpt lat="43.82471574390807" lon="87.61821791379685">
        <ele>833.2</ele>
        <time>2020-09-08T12:55:02Z</time>
      </trkpt>
      <trkpt lat="43.82470024981804" lon="87.61822688916732">
        <ele>833.2</ele>
        <time>2020-09-08T12:55:03Z</time>
      </trkpt>
      <trkpt lat="43.82468638825719" lon="87.61823806170426">
        <ele>833.4</ele>
        <time>2020-09-08T12:55:04Z</time>
      </trkpt>
      <trkpt lat="43.82467454602448" lon="87.61825130797081">
        <ele>833.4</ele>
        <time>2020-09-08T12:55:05Z</time>
      </trkpt>
      <trkpt lat="43.82466606270072" lon="87.61826650344706">
        <ele>833.4</ele>
        <time>2020-09-08T12:55:06Z</time>
      </trkpt>
      <trkpt lat="43.824660917494455" lon="87.6182830287613">
        <ele>833.4</ele>
        <time>2020-09-08T12:55:07Z</time>
      </trkpt>
      <trkpt lat="43.82465895753301" lon="87.61829997812366">
        <ele>833.4</ele>
        <time>2020-09-08T12:55:08Z</time>
      </trkpt>
      <trkpt lat="43.82466071516718" lon="87.618316891118">
        <ele>833.4</ele>
        <time>2020-09-08T12:55:09Z</time>
      </trkpt>
      <trkpt lat="43.824665681739674" lon="87.61833245898934">
        <ele>833.4</ele>
        <time>2020-09-08T12:55:10Z</time>
      </trkpt>
      <trkpt lat="43.824673641496275" lon="87.61834616838547">
        <ele>833.4</ele>
        <time>2020-09-08T12:55:11Z</time>
      </trkpt>
      <trkpt lat="43.8246842181149" lon="87.61835741071792">
        <ele>833.4</ele>
        <time>2020-09-08T12:55:12Z</time>
      </trkpt>
      <trkpt lat="43.82469695027405" lon="87.61836624844234">
        <ele>833.4</ele>
        <time>2020-09-08T12:55:13Z</time>
      </trkpt>
      <trkpt lat="43.82471197525562" lon="87.61837273822198">
        <ele>833.4</ele>
        <time>2020-09-08T12:55:14Z</time>
      </trkpt>
      <trkpt lat="43.82472916215974" lon="87.61837657774022">
        <ele>833.4</ele>
        <time>2020-09-08T12:55:15Z</time>
      </trkpt>
      <trkpt lat="43.82474783583352" lon="87.61837797375536">
        <ele>833.4</ele>
        <time>2020-09-08T12:55:16Z</time>
      </trkpt>
      <trkpt lat="43.82476710650097" lon="87.6183774474002">
        <ele>833.4</ele>
        <time>2020-09-08T12:55:17Z</time>
      </trkpt>
      <trkpt lat="43.8247866223903" lon="87.61837586162254">
        <ele>833.4</ele>
        <time>2020-09-08T12:55:18Z</time>
      </trkpt>
      <trkpt lat="43.824806575915154" lon="87.61837406344235">
        <ele>833.4</ele>
        <time>2020-09-08T12:55:19Z</time>
      </trkpt>
      <trkpt lat="43.82482651557231" lon="87.61837195471574">
        <ele>833.4</ele>
        <time>2020-09-08T12:55:20Z</time>
      </trkpt>
      <trkpt lat="43.82484641898559" lon="87.61836948037093">
        <ele>833.4</ele>
        <time>2020-09-08T12:55:21Z</time>
      </trkpt>
      <trkpt lat="43.82486618954715" lon="87.61836632257489">
        <ele>833.4</ele>
        <time>2020-09-08T12:55:22Z</time>
      </trkpt>
      <trkpt lat="43.8248857708546" lon="87.61836235754221">
        <ele>833.4</ele>
        <time>2020-09-08T12:55:23Z</time>
      </trkpt>
      <trkpt lat="43.82490532461096" lon="87.61835711951674">
        <ele>833.5</ele>
        <time>2020-09-08T12:55:24Z</time>
      </trkpt>
      <trkpt lat="43.82492433834894" lon="87.618350569605">
        <ele>833.5</ele>
        <time>2020-09-08T12:55:25Z</time>
      </trkpt>
      <trkpt lat="43.82494279459726" lon="87.61834267455866">
        <ele>833.5</ele>
        <time>2020-09-08T12:55:26Z</time>
      </trkpt>
      <trkpt lat="43.8249609428005" lon="87.61833318820926">
        <ele>833.5</ele>
        <time>2020-09-08T12:55:27Z</time>
      </trkpt>
      <trkpt lat="43.82497842569385" lon="87.61832229258818">
        <ele>833.5</ele>
        <time>2020-09-08T12:55:28Z</time>
      </trkpt>
      <trkpt lat="43.824995345928805" lon="87.61831016944919">
        <ele>831</ele>
        <time>2020-09-08T12:55:29Z</time>
      </trkpt>
      <trkpt lat="43.82501170901277" lon="87.61829662764364">
        <ele>831</ele>
        <time>2020-09-08T12:55:30Z</time>
      </trkpt>
      <trkpt lat="43.82502761623904" lon="87.61828181015719">
        <ele>831</ele>
        <time>2020-09-08T12:55:31Z</time>
      </trkpt>
      <trkpt lat="43.82504333435097" lon="87.61826544449492">
        <ele>831</ele>
        <time>2020-09-08T12:55:32Z</time>
      </trkpt>
      <trkpt lat="43.82505861641304" lon="87.6182478916513">
        <ele>831</ele>
        <time>2020-09-08T12:55:33Z</time>
      </trkpt>
      <trkpt lat="43.825073610572844" lon="87.618229317693">
        <ele>830.7</ele>
        <time>2020-09-08T12:55:34Z</time>
      </trkpt>
      <trkpt lat="43.8250885059944" lon="87.6182099676301">
        <ele>830.7</ele>
        <time>2020-09-08T12:55:35Z</time>
      </trkpt>
      <trkpt lat="43.82510356180804" lon="87.61818992043126">
        <ele>830.7</ele>
        <time>2020-09-08T12:55:36Z</time>
      </trkpt>
      <trkpt lat="43.82511903276328" lon="87.61817001505759">
        <ele>830.7</ele>
        <time>2020-09-08T12:55:37Z</time>
      </trkpt>
      <trkpt lat="43.825135178350074" lon="87.61815088372687">
        <ele>830.7</ele>
        <time>2020-09-08T12:55:38Z</time>
      </trkpt>
      <trkpt lat="43.8251520451757" lon="87.61813295363856">
        <ele>830.4</ele>
        <time>2020-09-08T12:55:39Z</time>
      </trkpt>
      <trkpt lat="43.82516960917185" lon="87.61811653030614">
        <ele>830.4</ele>
        <time>2020-09-08T12:55:40Z</time>
      </trkpt>
      <trkpt lat="43.82518791645109" lon="87.61810209103639">
        <ele>830.4</ele>
        <time>2020-09-08T12:55:41Z</time>
      </trkpt>
      <trkpt lat="43.82520691956168" lon="87.61808961375209">
        <ele>830.4</ele>
        <time>2020-09-08T12:55:42Z</time>
      </trkpt>
      <trkpt lat="43.82522635907578" lon="87.61807943058787">
        <ele>830.4</ele>
        <time>2020-09-08T12:55:43Z</time>
      </trkpt>
      <trkpt lat="43.82524655778738" lon="87.61807143349046">
        <ele>830.1</ele>
        <time>2020-09-08T12:55:44Z</time>
      </trkpt>
      <trkpt lat="43.82526742402383" lon="87.61806539247705">
        <ele>830.1</ele>
        <time>2020-09-08T12:55:45Z</time>
      </trkpt>
      <trkpt lat="43.825288917396385" lon="87.61806130380255">
        <ele>830.1</ele>
        <time>2020-09-08T12:55:46Z</time>
      </trkpt>
      <trkpt lat="43.82531086854243" lon="87.61805888866544">
        <ele>830.1</ele>
        <time>2020-09-08T12:55:47Z</time>
      </trkpt>
      <trkpt lat="43.825333044977015" lon="87.61805705665296">
        <ele>830.1</ele>
        <time>2020-09-08T12:55:48Z</time>
      </trkpt>
      <trkpt lat="43.82535526304276" lon="87.61805516933181">
        <ele>829.8</ele>
        <time>2020-09-08T12:55:49Z</time>
      </trkpt>
      <trkpt lat="43.82537741797276" lon="87.61805255370182">
        <ele>829.8</ele>
        <time>2020-09-08T12:55:50Z</time>
      </trkpt>
      <trkpt lat="43.82539978529127" lon="87.61804855725819">
        <ele>829.8</ele>
        <time>2020-09-08T12:55:51Z</time>
      </trkpt>
      <trkpt lat="43.825421955089745" lon="87.61804306254832">
        <ele>829.8</ele>
        <time>2020-09-08T12:55:52Z</time>
      </trkpt>
      <trkpt lat="43.8254441851331" lon="87.61803582134475">
        <ele>829.8</ele>
        <time>2020-09-08T12:55:53Z</time>
      </trkpt>
      <trkpt lat="43.82546626805943" lon="87.61802668193513">
        <ele>829.4</ele>
        <time>2020-09-08T12:55:54Z</time>
      </trkpt>
      <trkpt lat="43.825487613888725" lon="87.61801549311494">
        <ele>829.4</ele>
        <time>2020-09-08T12:55:55Z</time>
      </trkpt>
      <trkpt lat="43.82550809723322" lon="87.6180018735094">
        <ele>829.4</ele>
        <time>2020-09-08T12:55:56Z</time>
      </trkpt>
      <trkpt lat="43.82552695069199" lon="87.61798593793061">
        <ele>829.4</ele>
        <time>2020-09-08T12:55:57Z</time>
      </trkpt>
      <trkpt lat="43.82554397340311" lon="87.61796763136131">
        <ele>829.4</ele>
        <time>2020-09-08T12:55:58Z</time>
      </trkpt>
      <trkpt lat="43.82555909618147" lon="87.61794744692646">
        <ele>829.4</ele>
        <time>2020-09-08T12:55:59Z</time>
      </trkpt>
      <trkpt lat="43.82557201593388" lon="87.61792587732258">
        <ele>829.4</ele>
        <time>2020-09-08T12:56:00Z</time>
      </trkpt>
      <trkpt lat="43.82558265819779" lon="87.61790281601628">
        <ele>829.4</ele>
        <time>2020-09-08T12:56:01Z</time>
      </trkpt>
      <trkpt lat="43.825590587927216" lon="87.61787888219203">
        <ele>829.4</ele>
        <time>2020-09-08T12:56:02Z</time>
      </trkpt>
      <trkpt lat="43.82559576553448" lon="87.61785437790917">
        <ele>829.4</ele>
        <time>2020-09-08T12:56:03Z</time>
      </trkpt>
      <trkpt lat="43.82559764178055" lon="87.61782959701645">
        <ele>829.2</ele>
        <time>2020-09-08T12:56:04Z</time>
      </trkpt>
      <trkpt lat="43.82559642137111" lon="87.6178051780638">
        <ele>829.2</ele>
        <time>2020-09-08T12:56:05Z</time>
      </trkpt>
      <trkpt lat="43.825592173132144" lon="87.61778134274809">
        <ele>829.2</ele>
        <time>2020-09-08T12:56:06Z</time>
      </trkpt>
      <trkpt lat="43.82558521976543" lon="87.61775893168485">
        <ele>829.2</ele>
        <time>2020-09-08T12:56:07Z</time>
      </trkpt>
      <trkpt lat="43.82557617732961" lon="87.61773813760483">
        <ele>829.2</ele>
        <time>2020-09-08T12:56:08Z</time>
      </trkpt>
      <trkpt lat="43.82556521075739" lon="87.6177191629038">
        <ele>829.4</ele>
        <time>2020-09-08T12:56:09Z</time>
      </trkpt>
      <trkpt lat="43.825552643815655" lon="87.6177018839809">
        <ele>829.4</ele>
        <time>2020-09-08T12:56:10Z</time>
      </trkpt>
      <trkpt lat="43.82553870611483" lon="87.61768609877107">
        <ele>829.4</ele>
        <time>2020-09-08T12:56:11Z</time>
      </trkpt>
      <trkpt lat="43.82552343434891" lon="87.61767191377642">
        <ele>829.4</ele>
        <time>2020-09-08T12:56:12Z</time>
      </trkpt>
      <trkpt lat="43.82550718403637" lon="87.61765917292722">
        <ele>829.4</ele>
        <time>2020-09-08T12:56:13Z</time>
      </trkpt>
      <trkpt lat="43.82548993579304" lon="87.61764772365706">
        <ele>829.8</ele>
        <time>2020-09-08T12:56:14Z</time>
      </trkpt>
      <trkpt lat="43.8254722566227" lon="87.61763779544475">
        <ele>829.8</ele>
        <time>2020-09-08T12:56:15Z</time>
      </trkpt>
      <trkpt lat="43.825454367479615" lon="87.61762922546485">
        <ele>829.8</ele>
        <time>2020-09-08T12:56:16Z</time>
      </trkpt>
      <trkpt lat="43.825436312016166" lon="87.61762231936834">
        <ele>829.8</ele>
        <time>2020-09-08T12:56:17Z</time>
      </trkpt>
      <trkpt lat="43.82541814618363" lon="87.6176167193249">
        <ele>829.8</ele>
        <time>2020-09-08T12:56:18Z</time>
      </trkpt>
      <trkpt lat="43.82539992682339" lon="87.61761265870106">
        <ele>830.1</ele>
        <time>2020-09-08T12:56:19Z</time>
      </trkpt>
      <trkpt lat="43.8253817509971" lon="87.61761077308923">
        <ele>830.1</ele>
        <time>2020-09-08T12:56:20Z</time>
      </trkpt>
      <trkpt lat="43.82536373977187" lon="87.61761113410569">
        <ele>830.1</ele>
        <time>2020-09-08T12:56:21Z</time>
      </trkpt>
      <trkpt lat="43.82534565367053" lon="87.61761406990509">
        <ele>830.1</ele>
        <time>2020-09-08T12:56:22Z</time>
      </trkpt>
      <trkpt lat="43.82532787408205" lon="87.61761962410972">
        <ele>830.1</ele>
        <time>2020-09-08T12:56:23Z</time>
      </trkpt>
      <trkpt lat="43.82531046990436" lon="87.6176276462235">
        <ele>830.1</ele>
        <time>2020-09-08T12:56:24Z</time>
      </trkpt>
      <trkpt lat="43.825293500441106" lon="87.61763819684556">
        <ele>830.1</ele>
        <time>2020-09-08T12:56:25Z</time>
      </trkpt>
      <trkpt lat="43.825276980491225" lon="87.61765091571459">
        <ele>830.1</ele>
        <time>2020-09-08T12:56:26Z</time>
      </trkpt>
      <trkpt lat="43.825260755604575" lon="87.61766591183417">
        <ele>830.1</ele>
        <time>2020-09-08T12:56:27Z</time>
      </trkpt>
      <trkpt lat="43.82524536737198" lon="87.61768287433408">
        <ele>830.1</ele>
        <time>2020-09-08T12:56:28Z</time>
      </trkpt>
      <trkpt lat="43.8252308085752" lon="87.61770181849431">
        <ele>830.2</ele>
        <time>2020-09-08T12:56:29Z</time>
      </trkpt>
      <trkpt lat="43.82521693064006" lon="87.61772273221008">
        <ele>830.2</ele>
        <time>2020-09-08T12:56:30Z</time>
      </trkpt>
      <trkpt lat="43.82520389823052" lon="87.61774488703219">
        <ele>830.2</ele>
        <time>2020-09-08T12:56:31Z</time>
      </trkpt>
      <trkpt lat="43.82519149497104" lon="87.6177679561386">
        <ele>830.2</ele>
        <time>2020-09-08T12:56:32Z</time>
      </trkpt>
      <trkpt lat="43.82517979371623" lon="87.61779198796795">
        <ele>830.2</ele>
        <time>2020-09-08T12:56:33Z</time>
      </trkpt>
      <trkpt lat="43.82516858600434" lon="87.61781681987391">
        <ele>830.8</ele>
        <time>2020-09-08T12:56:34Z</time>
      </trkpt>
      <trkpt lat="43.82515753373793" lon="87.61784263613052">
        <ele>830.8</ele>
        <time>2020-09-08T12:56:35Z</time>
      </trkpt>
      <trkpt lat="43.82514675257085" lon="87.61786886556914">
        <ele>830.8</ele>
        <time>2020-09-08T12:56:36Z</time>
      </trkpt>
      <trkpt lat="43.82513607159792" lon="87.61789533459779">
        <ele>830.8</ele>
        <time>2020-09-08T12:56:37Z</time>
      </trkpt>
      <trkpt lat="43.8251252788813" lon="87.61792171102947">
        <ele>830.8</ele>
        <time>2020-09-08T12:56:38Z</time>
      </trkpt>
      <trkpt lat="43.82511394360853" lon="87.6179474245751">
        <ele>830.7</ele>
        <time>2020-09-08T12:56:39Z</time>
      </trkpt>
      <trkpt lat="43.82510208570574" lon="87.61797255011658">
        <ele>830.7</ele>
        <time>2020-09-08T12:56:40Z</time>
      </trkpt>
      <trkpt lat="43.825089526526575" lon="87.61799675099765">
        <ele>830.7</ele>
        <time>2020-09-08T12:56:41Z</time>
      </trkpt>
      <trkpt lat="43.82507633277065" lon="87.61802009944837">
        <ele>830.7</ele>
        <time>2020-09-08T12:56:42Z</time>
      </trkpt>
      <trkpt lat="43.82506219358317" lon="87.61804255334721">
        <ele>830.7</ele>
        <time>2020-09-08T12:56:43Z</time>
      </trkpt>
      <trkpt lat="43.825047232694914" lon="87.61806340207634">
        <ele>830.4</ele>
        <time>2020-09-08T12:56:44Z</time>
      </trkpt>
      <trkpt lat="43.825031641100125" lon="87.61808282189787">
        <ele>830.4</ele>
        <time>2020-09-08T12:56:45Z</time>
      </trkpt>
      <trkpt lat="43.82501533233914" lon="87.61810061079831">
        <ele>830.4</ele>
        <time>2020-09-08T12:56:46Z</time>
      </trkpt>
      <trkpt lat="43.824998533371584" lon="87.61811704070568">
        <ele>830.4</ele>
        <time>2020-09-08T12:56:47Z</time>
      </trkpt>
      <trkpt lat="43.824980998750235" lon="87.6181323460804">
        <ele>830.4</ele>
        <time>2020-09-08T12:56:48Z</time>
      </trkpt>
      <trkpt lat="43.824963107716734" lon="87.61814627301452">
        <ele>830.8</ele>
        <time>2020-09-08T12:56:49Z</time>
      </trkpt>
      <trkpt lat="43.82494505838857" lon="87.61815916100727">
        <ele>830.8</ele>
        <time>2020-09-08T12:56:50Z</time>
      </trkpt>
      <trkpt lat="43.82492644518444" lon="87.61817094029261">
        <ele>830.8</ele>
        <time>2020-09-08T12:56:51Z</time>
      </trkpt>
      <trkpt lat="43.82490759333535" lon="87.61818128129048">
        <ele>830.8</ele>
        <time>2020-09-08T12:56:52Z</time>
      </trkpt>
      <trkpt lat="43.82488851054429" lon="87.6181900475365">
        <ele>830.8</ele>
        <time>2020-09-08T12:56:53Z</time>
      </trkpt>
      <trkpt lat="43.82486926455251" lon="87.61819717643674">
        <ele>830.8</ele>
        <time>2020-09-08T12:56:54Z</time>
      </trkpt>
      <trkpt lat="43.824849960052376" lon="87.6182031844036">
        <ele>830.8</ele>
        <time>2020-09-08T12:56:55Z</time>
      </trkpt>
      <trkpt lat="43.82483055416907" lon="87.61820929258393">
        <ele>830.8</ele>
        <time>2020-09-08T12:56:56Z</time>
      </trkpt>
      <trkpt lat="43.82481212410947" lon="87.61821622924205">
        <ele>830.8</ele>
        <time>2020-09-08T12:56:57Z</time>
      </trkpt>
      <trkpt lat="43.824794736091405" lon="87.6182240667261">
        <ele>830.8</ele>
        <time>2020-09-08T12:56:58Z</time>
      </trkpt>
      <trkpt lat="43.824778769704565" lon="87.61823320974203">
        <ele>831</ele>
        <time>2020-09-08T12:56:59Z</time>
      </trkpt>
      <trkpt lat="43.824764467338774" lon="87.6182437499582">
        <ele>831</ele>
        <time>2020-09-08T12:57:00Z</time>
      </trkpt>
      <trkpt lat="43.82475178340293" lon="87.61825582630516">
        <ele>831</ele>
        <time>2020-09-08T12:57:01Z</time>
      </trkpt>
      <trkpt lat="43.82474169940562" lon="87.61826955227643">
        <ele>831</ele>
        <time>2020-09-08T12:57:02Z</time>
      </trkpt>
      <trkpt lat="43.82473485868975" lon="87.61828404480949">
        <ele>831</ele>
        <time>2020-09-08T12:57:03Z</time>
      </trkpt>
      <trkpt lat="43.824731462173894" lon="87.61829841752716">
        <ele>831</ele>
        <time>2020-09-08T12:57:04Z</time>
      </trkpt>
      <trkpt lat="43.824731463404646" lon="87.61831240546027">
        <ele>831</ele>
        <time>2020-09-08T12:57:05Z</time>
      </trkpt>
      <trkpt lat="43.82473457445117" lon="87.61832588799885">
        <ele>831</ele>
        <time>2020-09-08T12:57:06Z</time>
      </trkpt>
      <trkpt lat="43.82474099200064" lon="87.61833793259954">
        <ele>831</ele>
        <time>2020-09-08T12:57:07Z</time>
      </trkpt>
      <trkpt lat="43.82474904919787" lon="87.61834980727629">
        <ele>831</ele>
        <time>2020-09-08T12:57:08Z</time>
      </trkpt>
      <trkpt lat="43.82475840982272" lon="87.61836149374629">
        <ele>831</ele>
        <time>2020-09-08T12:57:09Z</time>
      </trkpt>
      <trkpt lat="43.824769993261974" lon="87.61837050522607">
        <ele>831</ele>
        <time>2020-09-08T12:57:10Z</time>
      </trkpt>
      <trkpt lat="43.82478323232142" lon="87.61837688336819">
        <ele>831</ele>
        <time>2020-09-08T12:57:11Z</time>
      </trkpt>
      <trkpt lat="43.82479832578154" lon="87.61838061585419">
        <ele>831</ele>
        <time>2020-09-08T12:57:12Z</time>
      </trkpt>
      <trkpt lat="43.824814386223316" lon="87.61838169482805">
        <ele>831</ele>
        <time>2020-09-08T12:57:13Z</time>
      </trkpt>
      <trkpt lat="43.824830540264784" lon="87.61838125828383">
        <ele>830.9</ele>
        <time>2020-09-08T12:57:14Z</time>
      </trkpt>
      <trkpt lat="43.824846662651446" lon="87.61838012480985">
        <ele>830.9</ele>
        <time>2020-09-08T12:57:15Z</time>
      </trkpt>
      <trkpt lat="43.824862856882994" lon="87.61837871217176">
        <ele>830.9</ele>
        <time>2020-09-08T12:57:16Z</time>
      </trkpt>
      <trkpt lat="43.824879376223585" lon="87.61837668696793">
        <ele>830.9</ele>
        <time>2020-09-08T12:57:17Z</time>
      </trkpt>
      <trkpt lat="43.8248957503494" lon="87.61837379023194">
        <ele>830.9</ele>
        <time>2020-09-08T12:57:18Z</time>
      </trkpt>
      <trkpt lat="43.824912696587575" lon="87.61836798831158">
        <ele>830.8</ele>
        <time>2020-09-08T12:57:19Z</time>
      </trkpt>
      <trkpt lat="43.824930327102535" lon="87.61835928264655">
        <ele>830.8</ele>
        <time>2020-09-08T12:57:20Z</time>
      </trkpt>
      <trkpt lat="43.82494747098763" lon="87.61834971615289">
        <ele>830.8</ele>
        <time>2020-09-08T12:57:21Z</time>
      </trkpt>
      <trkpt lat="43.824964232585074" lon="87.61833926755507">
        <ele>830.8</ele>
        <time>2020-09-08T12:57:22Z</time>
      </trkpt>
      <trkpt lat="43.824980280086116" lon="87.61832795450526">
        <ele>830.8</ele>
        <time>2020-09-08T12:57:23Z</time>
      </trkpt>
      <trkpt lat="43.82499591321464" lon="87.61831541838535">
        <ele>831</ele>
        <time>2020-09-08T12:57:24Z</time>
      </trkpt>
      <trkpt lat="43.825011118113466" lon="87.61830184080435">
        <ele>831</ele>
        <time>2020-09-08T12:57:25Z</time>
      </trkpt>
      <trkpt lat="43.8250258979339" lon="87.6182874605853">
        <ele>831</ele>
        <time>2020-09-08T12:57:26Z</time>
      </trkpt>
      <trkpt lat="43.82504037823093" lon="87.61827262148222">
        <ele>831</ele>
        <time>2020-09-08T12:57:27Z</time>
      </trkpt>
      <trkpt lat="43.82505432463774" lon="87.61825769672032">
        <ele>831</ele>
        <time>2020-09-08T12:57:28Z</time>
      </trkpt>
      <trkpt lat="43.825068065602544" lon="87.61824244669859">
        <ele>830.7</ele>
        <time>2020-09-08T12:57:29Z</time>
      </trkpt>
      <trkpt lat="43.82508161286979" lon="87.61822690291011">
        <ele>830.7</ele>
        <time>2020-09-08T12:57:30Z</time>
      </trkpt>
      <trkpt lat="43.825094857510194" lon="87.61821101011846">
        <ele>830.7</ele>
        <time>2020-09-08T12:57:31Z</time>
      </trkpt>
      <trkpt lat="43.825108116240266" lon="87.61819450845687">
        <ele>830.7</ele>
        <time>2020-09-08T12:57:32Z</time>
      </trkpt>
      <trkpt lat="43.82512144249535" lon="87.61817763755772">
        <ele>830.7</ele>
        <time>2020-09-08T12:57:33Z</time>
      </trkpt>
      <trkpt lat="43.82513521595586" lon="87.61816044615293">
        <ele>830.5</ele>
        <time>2020-09-08T12:57:34Z</time>
      </trkpt>
      <trkpt lat="43.8251493232506" lon="87.61814360382014">
        <ele>830.5</ele>
        <time>2020-09-08T12:57:35Z</time>
      </trkpt>
      <trkpt lat="43.825163909744" lon="87.61812736247064">
        <ele>830.5</ele>
        <time>2020-09-08T12:57:36Z</time>
      </trkpt>
      <trkpt lat="43.82517910030925" lon="87.61811204890387">
        <ele>830.5</ele>
        <time>2020-09-08T12:57:37Z</time>
      </trkpt>
      <trkpt lat="43.82519485748418" lon="87.61809778918835">
        <ele>830.5</ele>
        <time>2020-09-08T12:57:38Z</time>
      </trkpt>
      <trkpt lat="43.82521150374206" lon="87.61808475298191">
        <ele>830.3</ele>
        <time>2020-09-08T12:57:39Z</time>
      </trkpt>
      <trkpt lat="43.82522874095687" lon="87.61807331317475">
        <ele>830.3</ele>
        <time>2020-09-08T12:57:40Z</time>
      </trkpt>
      <trkpt lat="43.82524659241925" lon="87.6180634812734">
        <ele>830.3</ele>
        <time>2020-09-08T12:57:41Z</time>
      </trkpt>
      <trkpt lat="43.825265415514394" lon="87.61805528578763">
        <ele>830.3</ele>
        <time>2020-09-08T12:57:42Z</time>
      </trkpt>
      <trkpt lat="43.82528490244608" lon="87.61804891017904">
        <ele>830.3</ele>
        <time>2020-09-08T12:57:43Z</time>
      </trkpt>
      <trkpt lat="43.82530501471048" lon="87.61804404072372">
        <ele>829.9</ele>
        <time>2020-09-08T12:57:44Z</time>
      </trkpt>
      <trkpt lat="43.82532573324091" lon="87.61804062368573">
        <ele>829.9</ele>
        <time>2020-09-08T12:57:45Z</time>
      </trkpt>
      <trkpt lat="43.8253469016566" lon="87.61803825740311">
        <ele>829.9</ele>
        <time>2020-09-08T12:57:46Z</time>
      </trkpt>
      <trkpt lat="43.82536869388559" lon="87.61803648640273">
        <ele>829.9</ele>
        <time>2020-09-08T12:57:47Z</time>
      </trkpt>
      <trkpt lat="43.825390614729734" lon="87.61803509247903">
        <ele>829.9</ele>
        <time>2020-09-08T12:57:48Z</time>
      </trkpt>
      <trkpt lat="43.82541263329655" lon="87.61803365347778">
        <ele>829.3</ele>
        <time>2020-09-08T12:57:49Z</time>
      </trkpt>
      <trkpt lat="43.825434752844316" lon="87.61803176290626">
        <ele>829.3</ele>
        <time>2020-09-08T12:57:50Z</time>
      </trkpt>
      <trkpt lat="43.82545695099861" lon="87.61802918376864">
        <ele>829.3</ele>
        <time>2020-09-08T12:57:51Z</time>
      </trkpt>
      <trkpt lat="43.82547917335826" lon="87.61802571180634">
        <ele>829.3</ele>
        <time>2020-09-08T12:57:52Z</time>
      </trkpt>
      <trkpt lat="43.82550128799777" lon="87.6180209543304">
        <ele>829.3</ele>
        <time>2020-09-08T12:57:53Z</time>
      </trkpt>
      <trkpt lat="43.82552313440062" lon="87.61801478960056">
        <ele>829.3</ele>
        <time>2020-09-08T12:57:54Z</time>
      </trkpt>
      <trkpt lat="43.82554466530148" lon="87.61800673865129">
        <ele>829.3</ele>
        <time>2020-09-08T12:57:55Z</time>
      </trkpt>
      <trkpt lat="43.825565124884285" lon="87.61799668124063">
        <ele>829.3</ele>
        <time>2020-09-08T12:57:56Z</time>
      </trkpt>
      <trkpt lat="43.82558417133584" lon="87.6179845751157">
        <ele>829.3</ele>
        <time>2020-09-08T12:57:57Z</time>
      </trkpt>
      <trkpt lat="43.825601265917044" lon="87.61797009707244">
        <ele>829.3</ele>
        <time>2020-09-08T12:57:58Z</time>
      </trkpt>
      <trkpt lat="43.82561615488157" lon="87.61795347345378">
        <ele>829.2</ele>
        <time>2020-09-08T12:57:59Z</time>
      </trkpt>
      <trkpt lat="43.82562861569202" lon="87.61793456768194">
        <ele>829.2</ele>
        <time>2020-09-08T12:58:00Z</time>
      </trkpt>
      <trkpt lat="43.825638145022886" lon="87.61791391455182">
        <ele>829.2</ele>
        <time>2020-09-08T12:58:01Z</time>
      </trkpt>
      <trkpt lat="43.8256447329381" lon="87.61789195595081">
        <ele>829.2</ele>
        <time>2020-09-08T12:58:02Z</time>
      </trkpt>
      <trkpt lat="43.82564817729954" lon="87.61786881380903">
        <ele>829.2</ele>
        <time>2020-09-08T12:58:03Z</time>
      </trkpt>
      <trkpt lat="43.825648370580105" lon="87.61784515924211">
        <ele>829.2</ele>
        <time>2020-09-08T12:58:04Z</time>
      </trkpt>
      <trkpt lat="43.82564538064617" lon="87.61782111340526">
        <ele>829.2</ele>
        <time>2020-09-08T12:58:05Z</time>
      </trkpt>
      <trkpt lat="43.82563943073197" lon="87.61779752544074">
        <ele>829.2</ele>
        <time>2020-09-08T12:58:06Z</time>
      </trkpt>
      <trkpt lat="43.82563107489835" lon="87.6177748122959">
        <ele>829.2</ele>
        <time>2020-09-08T12:58:07Z</time>
      </trkpt>
      <trkpt lat="43.82562059121138" lon="87.6177529813991">
        <ele>829.2</ele>
        <time>2020-09-08T12:58:08Z</time>
      </trkpt>
      <trkpt lat="43.825608381677114" lon="87.61773273380601">
        <ele>829.2</ele>
        <time>2020-09-08T12:58:09Z</time>
      </trkpt>
      <trkpt lat="43.825594924905396" lon="87.61771406901642">
        <ele>829.2</ele>
        <time>2020-09-08T12:58:10Z</time>
      </trkpt>
      <trkpt lat="43.82558031242307" lon="87.61769718576188">
        <ele>829.2</ele>
        <time>2020-09-08T12:58:11Z</time>
      </trkpt>
      <trkpt lat="43.82556492798568" lon="87.6176818309018">
        <ele>829.2</ele>
        <time>2020-09-08T12:58:12Z</time>
      </trkpt>
      <trkpt lat="43.82554874745926" lon="87.61766762831441">
        <ele>829.2</ele>
        <time>2020-09-08T12:58:13Z</time>
      </trkpt>
      <trkpt lat="43.82553227534485" lon="87.61765471167378">
        <ele>829.6</ele>
        <time>2020-09-08T12:58:14Z</time>
      </trkpt>
      <trkpt lat="43.82551559301274" lon="87.6176429241418">
        <ele>829.6</ele>
        <time>2020-09-08T12:58:15Z</time>
      </trkpt>
      <trkpt lat="43.825498656472355" lon="87.61763242530103">
        <ele>829.6</ele>
        <time>2020-09-08T12:58:16Z</time>
      </trkpt>
      <trkpt lat="43.825481502695716" lon="87.61762318700488">
        <ele>829.6</ele>
        <time>2020-09-08T12:58:17Z</time>
      </trkpt>
      <trkpt lat="43.82546417110418" lon="87.61761521788286">
        <ele>829.6</ele>
        <time>2020-09-08T12:58:18Z</time>
      </trkpt>
      <trkpt lat="43.825446596059976" lon="87.61760855578703">
        <ele>829.9</ele>
        <time>2020-09-08T12:58:19Z</time>
      </trkpt>
      <trkpt lat="43.82542886307466" lon="87.61760304696968">
        <ele>829.9</ele>
        <time>2020-09-08T12:58:20Z</time>
      </trkpt>
      <trkpt lat="43.825410719688506" lon="87.61759890200659">
        <ele>829.9</ele>
        <time>2020-09-08T12:58:21Z</time>
      </trkpt>
      <trkpt lat="43.825392639924736" lon="87.61759649900287">
        <ele>829.9</ele>
        <time>2020-09-08T12:58:22Z</time>
      </trkpt>
      <trkpt lat="43.82537466710736" lon="87.61759588731196">
        <ele>829.9</ele>
        <time>2020-09-08T12:58:23Z</time>
      </trkpt>
      <trkpt lat="43.8253568534758" lon="87.61759746304878">
        <ele>830.1</ele>
        <time>2020-09-08T12:58:24Z</time>
      </trkpt>
      <trkpt lat="43.825339207647005" lon="87.61760107019174">
        <ele>830.1</ele>
        <time>2020-09-08T12:58:25Z</time>
      </trkpt>
      <trkpt lat="43.82532150460263" lon="87.61760685644661">
        <ele>830.1</ele>
        <time>2020-09-08T12:58:26Z</time>
      </trkpt>
      <trkpt lat="43.825304144942784" lon="87.61761461476983">
        <ele>830.1</ele>
        <time>2020-09-08T12:58:27Z</time>
      </trkpt>
      <trkpt lat="43.825287147512476" lon="87.61762412164714">
        <ele>830.1</ele>
        <time>2020-09-08T12:58:28Z</time>
      </trkpt>
      <trkpt lat="43.82527034010919" lon="87.61763550423306">
        <ele>830.1</ele>
        <time>2020-09-08T12:58:29Z</time>
      </trkpt>
      <trkpt lat="43.82525420829205" lon="87.61764880920931">
        <ele>830.1</ele>
        <time>2020-09-08T12:58:30Z</time>
      </trkpt>
      <trkpt lat="43.82523867768884" lon="87.6176643114448">
        <ele>830.1</ele>
        <time>2020-09-08T12:58:31Z</time>
      </trkpt>
      <trkpt lat="43.825224159373086" lon="87.61768149370812">
        <ele>830.1</ele>
        <time>2020-09-08T12:58:32Z</time>
      </trkpt>
      <trkpt lat="43.82521048312419" lon="87.61769984872754">
        <ele>830.1</ele>
        <time>2020-09-08T12:58:33Z</time>
      </trkpt>
      <trkpt lat="43.82519742389254" lon="87.61771948304259">
        <ele>830.2</ele>
        <time>2020-09-08T12:58:34Z</time>
      </trkpt>
      <trkpt lat="43.825185060520546" lon="87.61773980003912">
        <ele>830.2</ele>
        <time>2020-09-08T12:58:35Z</time>
      </trkpt>
      <trkpt lat="43.82517319093517" lon="87.61776070588913">
        <ele>830.2</ele>
        <time>2020-09-08T12:58:36Z</time>
      </trkpt>
      <trkpt lat="43.82516175760671" lon="87.61778220008692">
        <ele>830.2</ele>
        <time>2020-09-08T12:58:37Z</time>
      </trkpt>
      <trkpt lat="43.82515076441575" lon="87.61780434872477">
        <ele>830.2</ele>
        <time>2020-09-08T12:58:38Z</time>
      </trkpt>
      <trkpt lat="43.82513998456089" lon="87.61782744192922">
        <ele>830.5</ele>
        <time>2020-09-08T12:58:39Z</time>
      </trkpt>
      <trkpt lat="43.825129651665264" lon="87.61785097644301">
        <ele>830.5</ele>
        <time>2020-09-08T12:58:40Z</time>
      </trkpt>
      <trkpt lat="43.825119663683864" lon="87.61787484115311">
        <ele>830.5</ele>
        <time>2020-09-08T12:58:41Z</time>
      </trkpt>
      <trkpt lat="43.825109872325214" lon="87.61789890475274">
        <ele>830.5</ele>
        <time>2020-09-08T12:58:42Z</time>
      </trkpt>
      <trkpt lat="43.82510015464548" lon="87.61792308365177">
        <ele>830.5</ele>
        <time>2020-09-08T12:58:43Z</time>
      </trkpt>
      <trkpt lat="43.825090341615244" lon="87.61794774006533">
        <ele>830.6</ele>
        <time>2020-09-08T12:58:44Z</time>
      </trkpt>
      <trkpt lat="43.825080433597655" lon="87.61797229620917">
        <ele>830.6</ele>
        <time>2020-09-08T12:58:45Z</time>
      </trkpt>
      <trkpt lat="43.82507036980201" lon="87.61799674546158">
        <ele>830.6</ele>
        <time>2020-09-08T12:58:46Z</time>
      </trkpt>
      <trkpt lat="43.8250600370459" lon="87.618021490689">
        <ele>830.6</ele>
        <time>2020-09-08T12:58:47Z</time>
      </trkpt>
      <trkpt lat="43.82504957470876" lon="87.61804595256656">
        <ele>830.6</ele>
        <time>2020-09-08T12:58:48Z</time>
      </trkpt>
      <trkpt lat="43.82503834678642" lon="87.61806870556866">
        <ele>830.7</ele>
        <time>2020-09-08T12:58:49Z</time>
      </trkpt>
      <trkpt lat="43.825026929784656" lon="87.61808700895547">
        <ele>830.7</ele>
        <time>2020-09-08T12:58:50Z</time>
      </trkpt>
      <trkpt lat="43.8250151641092" lon="87.6181011649295">
        <ele>830.7</ele>
        <time>2020-09-08T12:58:51Z</time>
      </trkpt>
      <trkpt lat="43.82500221021188" lon="87.61811413139044">
        <ele>830.7</ele>
        <time>2020-09-08T12:58:52Z</time>
      </trkpt>
      <trkpt lat="43.82498834051857" lon="87.61812553501093">
        <ele>830.7</ele>
        <time>2020-09-08T12:58:53Z</time>
      </trkpt>
      <trkpt lat="43.82497358681545" lon="87.61813545110913">
        <ele>830.7</ele>
        <time>2020-09-08T12:58:54Z</time>
      </trkpt>
      <trkpt lat="43.82495783368965" lon="87.61814365980854">
        <ele>830.7</ele>
        <time>2020-09-08T12:58:55Z</time>
      </trkpt>
      <trkpt lat="43.824941309597506" lon="87.61815035406987">
        <ele>830.7</ele>
        <time>2020-09-08T12:58:56Z</time>
      </trkpt>
      <trkpt lat="43.824923880751314" lon="87.6181556075035">
        <ele>830.7</ele>
        <time>2020-09-08T12:58:57Z</time>
      </trkpt>
      <trkpt lat="43.82490588918759" lon="87.618159056232">
        <ele>830.7</ele>
        <time>2020-09-08T12:58:58Z</time>
      </trkpt>
      <trkpt lat="43.82488749259083" lon="87.61816078089556">
        <ele>830.9</ele>
        <time>2020-09-08T12:58:59Z</time>
      </trkpt>
      <trkpt lat="43.82486899764908" lon="87.61816241631156">
        <ele>830.9</ele>
        <time>2020-09-08T12:59:00Z</time>
      </trkpt>
      <trkpt lat="43.82485038425977" lon="87.61816729926684">
        <ele>830.9</ele>
        <time>2020-09-08T12:59:01Z</time>
      </trkpt>
      <trkpt lat="43.82483163264358" lon="87.61817527856586">
        <ele>830.9</ele>
        <time>2020-09-08T12:59:02Z</time>
      </trkpt>
      <trkpt lat="43.8248137080716" lon="87.6181833571595">
        <ele>830.9</ele>
        <time>2020-09-08T12:59:03Z</time>
      </trkpt>
      <trkpt lat="43.82479664254299" lon="87.61819241091051">
        <ele>830.6</ele>
        <time>2020-09-08T12:59:04Z</time>
      </trkpt>
      <trkpt lat="43.82478030824276" lon="87.61820252140213">
        <ele>830.6</ele>
        <time>2020-09-08T12:59:05Z</time>
      </trkpt>
      <trkpt lat="43.82476509738776" lon="87.61821340174146">
        <ele>830.6</ele>
        <time>2020-09-08T12:59:06Z</time>
      </trkpt>
      <trkpt lat="43.824750965222" lon="87.61822561720918">
        <ele>830.6</ele>
        <time>2020-09-08T12:59:07Z</time>
      </trkpt>
      <trkpt lat="43.824738406677014" lon="87.61823924554642">
        <ele>830.6</ele>
        <time>2020-09-08T12:59:08Z</time>
      </trkpt>
      <trkpt lat="43.82472785238981" lon="87.61825474727732">
        <ele>831</ele>
        <time>2020-09-08T12:59:09Z</time>
      </trkpt>
      <trkpt lat="43.824720046510734" lon="87.61827159115278">
        <ele>831</ele>
        <time>2020-09-08T12:59:10Z</time>
      </trkpt>
      <trkpt lat="43.82471540441975" lon="87.61828872847198">
        <ele>831</ele>
        <time>2020-09-08T12:59:11Z</time>
      </trkpt>
      <trkpt lat="43.82471383254593" lon="87.6183047958573">
        <ele>831</ele>
        <time>2020-09-08T12:59:12Z</time>
      </trkpt>
      <trkpt lat="43.824715257001046" lon="87.61831962512706">
        <ele>831</ele>
        <time>2020-09-08T12:59:13Z</time>
      </trkpt>
      <trkpt lat="43.824719384578806" lon="87.61833338200024">
        <ele>830.9</ele>
        <time>2020-09-08T12:59:14Z</time>
      </trkpt>
      <trkpt lat="43.824726286387865" lon="87.61834529452368">
        <ele>830.9</ele>
        <time>2020-09-08T12:59:15Z</time>
      </trkpt>
      <trkpt lat="43.824735805281904" lon="87.61835540299302">
        <ele>830.9</ele>
        <time>2020-09-08T12:59:16Z</time>
      </trkpt>
      <trkpt lat="43.82474805186219" lon="87.61836394865551">
        <ele>830.9</ele>
        <time>2020-09-08T12:59:17Z</time>
      </trkpt>
      <trkpt lat="43.82476272208566" lon="87.61837033871431">
        <ele>830.9</ele>
        <time>2020-09-08T12:59:18Z</time>
      </trkpt>
      <trkpt lat="43.82477947741871" lon="87.61837478536191">
        <ele>830.9</ele>
        <time>2020-09-08T12:59:19Z</time>
      </trkpt>
      <trkpt lat="43.824797977555576" lon="87.61837692484998">
        <ele>830.9</ele>
        <time>2020-09-08T12:59:20Z</time>
      </trkpt>
      <trkpt lat="43.82481720678232" lon="87.61837749724774">
        <ele>830.9</ele>
        <time>2020-09-08T12:59:21Z</time>
      </trkpt>
      <trkpt lat="43.82483716413341" lon="87.61837728523088">
        <ele>830.9</ele>
        <time>2020-09-08T12:59:22Z</time>
      </trkpt>
      <trkpt lat="43.82485727794842" lon="87.61837677425886">
        <ele>830.9</ele>
        <time>2020-09-08T12:59:23Z</time>
      </trkpt>
      <trkpt lat="43.824877509406676" lon="87.61837599765921">
        <ele>831</ele>
        <time>2020-09-08T12:59:24Z</time>
      </trkpt>
      <trkpt lat="43.82489797095365" lon="87.61837383909895">
        <ele>831</ele>
        <time>2020-09-08T12:59:25Z</time>
      </trkpt>
      <trkpt lat="43.82491813331392" lon="87.61837028951267">
        <ele>831</ele>
        <time>2020-09-08T12:59:26Z</time>
      </trkpt>
      <trkpt lat="43.824938287596005" lon="87.61836508982992">
        <ele>831</ele>
        <time>2020-09-08T12:59:27Z</time>
      </trkpt>
      <trkpt lat="43.82495794370957" lon="87.61835831340443">
        <ele>831</ele>
        <time>2020-09-08T12:59:28Z</time>
      </trkpt>
      <trkpt lat="43.82497710778206" lon="87.61835012564266">
        <ele>830.9</ele>
        <time>2020-09-08T12:59:29Z</time>
      </trkpt>
      <trkpt lat="43.8249959917814" lon="87.6183402633533">
        <ele>830.9</ele>
        <time>2020-09-08T12:59:30Z</time>
      </trkpt>
      <trkpt lat="43.825014124584555" lon="87.6183289338497">
        <ele>830.9</ele>
        <time>2020-09-08T12:59:31Z</time>
      </trkpt>
      <trkpt lat="43.82503173910396" lon="87.61831602127943">
        <ele>830.9</ele>
        <time>2020-09-08T12:59:32Z</time>
      </trkpt>
      <trkpt lat="43.82504841425368" lon="87.61830186591943">
        <ele>830.9</ele>
        <time>2020-09-08T12:59:33Z</time>
      </trkpt>
      <trkpt lat="43.8250641885581" lon="87.61828658846409">
        <ele>830.9</ele>
        <time>2020-09-08T12:59:34Z</time>
      </trkpt>
      <trkpt lat="43.825079286548174" lon="87.61827000887452">
        <ele>830.9</ele>
        <time>2020-09-08T12:59:35Z</time>
      </trkpt>
      <trkpt lat="43.82509348380938" lon="87.61825326313736">
        <ele>830.9</ele>
        <time>2020-09-08T12:59:36Z</time>
      </trkpt>
      <trkpt lat="43.82510709100772" lon="87.61823601024875">
        <ele>830.9</ele>
        <time>2020-09-08T12:59:37Z</time>
      </trkpt>
      <trkpt lat="43.825119873734735" lon="87.61821861192065">
        <ele>830.9</ele>
        <time>2020-09-08T12:59:38Z</time>
      </trkpt>
      <trkpt lat="43.82513205306863" lon="87.6182011339614">
        <ele>830.7</ele>
        <time>2020-09-08T12:59:39Z</time>
      </trkpt>
      <trkpt lat="43.82514410825875" lon="87.6181833875949">
        <ele>830.7</ele>
        <time>2020-09-08T12:59:40Z</time>
      </trkpt>
      <trkpt lat="43.82515600987711" lon="87.61816589802073">
        <ele>830.7</ele>
        <time>2020-09-08T12:59:41Z</time>
      </trkpt>
      <trkpt lat="43.82516801642313" lon="87.61814885440478">
        <ele>830.7</ele>
        <time>2020-09-08T12:59:42Z</time>
      </trkpt>
      <trkpt lat="43.82518042986413" lon="87.6181326861301">
        <ele>830.7</ele>
        <time>2020-09-08T12:59:43Z</time>
      </trkpt>
      <trkpt lat="43.825193395709746" lon="87.61811764084761">
        <ele>830.5</ele>
        <time>2020-09-08T12:59:44Z</time>
      </trkpt>
      <trkpt lat="43.82520733106067" lon="87.618103761396">
        <ele>830.5</ele>
        <time>2020-09-08T12:59:45Z</time>
      </trkpt>
      <trkpt lat="43.82522202249859" lon="87.61809152047071">
        <ele>830.5</ele>
        <time>2020-09-08T12:59:46Z</time>
      </trkpt>
      <trkpt lat="43.82523756751571" lon="87.61808095231775">
        <ele>830.5</ele>
        <time>2020-09-08T12:59:47Z</time>
      </trkpt>
      <trkpt lat="43.82525419015611" lon="87.61807244063824">
        <ele>830.5</ele>
        <time>2020-09-08T12:59:48Z</time>
      </trkpt>
      <trkpt lat="43.82527188114125" lon="87.61806586183503">
        <ele>830.1</ele>
        <time>2020-09-08T12:59:49Z</time>
      </trkpt>
      <trkpt lat="43.825290856666626" lon="87.61806116062706">
        <ele>830.1</ele>
        <time>2020-09-08T12:59:50Z</time>
      </trkpt>
      <trkpt lat="43.82531062505913" lon="87.61805836497605">
        <ele>830.1</ele>
        <time>2020-09-08T12:59:51Z</time>
      </trkpt>
      <trkpt lat="43.825330994358715" lon="87.61805699165663">
        <ele>830.1</ele>
        <time>2020-09-08T12:59:52Z</time>
      </trkpt>
      <trkpt lat="43.82535213080898" lon="87.61805649249635">
        <ele>830.1</ele>
        <time>2020-09-08T12:59:53Z</time>
      </trkpt>
      <trkpt lat="43.825373504287626" lon="87.61805639135315">
        <ele>829.8</ele>
        <time>2020-09-08T12:59:54Z</time>
      </trkpt>
      <trkpt lat="43.8253953891748" lon="87.61805600486598">
        <ele>829.8</ele>
        <time>2020-09-08T12:59:55Z</time>
      </trkpt>
      <trkpt lat="43.82541738069773" lon="87.61805504821147">
        <ele>829.8</ele>
        <time>2020-09-08T12:59:56Z</time>
      </trkpt>
      <trkpt lat="43.82543949444996" lon="87.6180532269658">
        <ele>829.8</ele>
        <time>2020-09-08T12:59:57Z</time>
      </trkpt>
      <trkpt lat="43.825461999524734" lon="87.6180501431633">
        <ele>829.8</ele>
        <time>2020-09-08T12:59:58Z</time>
      </trkpt>
      <trkpt lat="43.82548434350986" lon="87.61804553598014">
        <ele>829.4</ele>
        <time>2020-09-08T12:59:59Z</time>
      </trkpt>
      <trkpt lat="43.82550659857895" lon="87.61803891124335">
        <ele>829.4</ele>
        <time>2020-09-08T13:00:00Z</time>
      </trkpt>
      <trkpt lat="43.82552804876372" lon="87.61802994405622">
        <ele>829.4</ele>
        <time>2020-09-08T13:00:01Z</time>
      </trkpt>
      <trkpt lat="43.825548387636005" lon="87.61801858269709">
        <ele>829.4</ele>
        <time>2020-09-08T13:00:02Z</time>
      </trkpt>
      <trkpt lat="43.82556734495939" lon="87.61800453741458">
        <ele>829.4</ele>
        <time>2020-09-08T13:00:03Z</time>
      </trkpt>
      <trkpt lat="43.82558411631183" lon="87.61798816494016">
        <ele>829.3</ele>
        <time>2020-09-08T13:00:04Z</time>
      </trkpt>
      <trkpt lat="43.82559835905775" lon="87.6179695525376">
        <ele>829.3</ele>
        <time>2020-09-08T13:00:05Z</time>
      </trkpt>
      <trkpt lat="43.825609543969954" lon="87.61794938920174">
        <ele>829.3</ele>
        <time>2020-09-08T13:00:06Z</time>
      </trkpt>
      <trkpt lat="43.82561764639776" lon="87.61792815240482">
        <ele>829.3</ele>
        <time>2020-09-08T13:00:07Z</time>
      </trkpt>
      <trkpt lat="43.8256226645633" lon="87.61790569716324">
        <ele>829.3</ele>
        <time>2020-09-08T13:00:08Z</time>
      </trkpt>
      <trkpt lat="43.82562436866028" lon="87.61788267413392">
        <ele>829.2</ele>
        <time>2020-09-08T13:00:09Z</time>
      </trkpt>
      <trkpt lat="43.82562272658493" lon="87.61785922522607">
        <ele>829.2</ele>
        <time>2020-09-08T13:00:10Z</time>
      </trkpt>
      <trkpt lat="43.82561783470814" lon="87.61783613241906">
        <ele>829.2</ele>
        <time>2020-09-08T13:00:11Z</time>
      </trkpt>
      <trkpt lat="43.825610259161955" lon="87.61781376530926">
        <ele>829.2</ele>
        <time>2020-09-08T13:00:12Z</time>
      </trkpt>
      <trkpt lat="43.82560025905571" lon="87.61779215400954">
        <ele>829.2</ele>
        <time>2020-09-08T13:00:13Z</time>
      </trkpt>
      <trkpt lat="43.825588292383216" lon="87.61777191829627">
        <ele>829.4</ele>
        <time>2020-09-08T13:00:14Z</time>
      </trkpt>
      <trkpt lat="43.82557493440051" lon="87.61775313186408">
        <ele>829.4</ele>
        <time>2020-09-08T13:00:15Z</time>
      </trkpt>
      <trkpt lat="43.82556052042323" lon="87.61773568306464">
        <ele>829.4</ele>
        <time>2020-09-08T13:00:16Z</time>
      </trkpt>
      <trkpt lat="43.82554546715159" lon="87.61771925509795">
        <ele>829.4</ele>
        <time>2020-09-08T13:00:17Z</time>
      </trkpt>
      <trkpt lat="43.82553005572578" lon="87.61770351593273">
        <ele>829.4</ele>
        <time>2020-09-08T13:00:18Z</time>
      </trkpt>
      <trkpt lat="43.825515817956024" lon="87.61768747724427">
        <ele>829.5</ele>
        <time>2020-09-08T13:00:19Z</time>
      </trkpt>
      <trkpt lat="43.82550303333927" lon="87.61767097605019">
        <ele>829.5</ele>
        <time>2020-09-08T13:00:20Z</time>
      </trkpt>
      <trkpt lat="43.825489825033635" lon="87.6176555106055">
        <ele>829.5</ele>
        <time>2020-09-08T13:00:21Z</time>
      </trkpt>
      <trkpt lat="43.82547647745622" lon="87.61764095116224">
        <ele>829.5</ele>
        <time>2020-09-08T13:00:22Z</time>
      </trkpt>
      <trkpt lat="43.82546329572478" lon="87.61762689076737">
        <ele>829.5</ele>
        <time>2020-09-08T13:00:23Z</time>
      </trkpt>
      <trkpt lat="43.82545161862437" lon="87.61761281918484">
        <ele>829.5</ele>
        <time>2020-09-08T13:00:24Z</time>
      </trkpt>
      <trkpt lat="43.82544132891122" lon="87.6175989031211">
        <ele>829.5</ele>
        <time>2020-09-08T13:00:25Z</time>
      </trkpt>
      <trkpt lat="43.825433264005945" lon="87.61758549801051">
        <ele>829.5</ele>
        <time>2020-09-08T13:00:26Z</time>
      </trkpt>
      <trkpt lat="43.82542757000902" lon="87.6175728197514">
        <ele>829.5</ele>
        <time>2020-09-08T13:00:27Z</time>
      </trkpt>
      <trkpt lat="43.82540331310953" lon="87.61756016991323">
        <ele>829.5</ele>
        <time>2020-09-08T13:00:28Z</time>
      </trkpt>
      <trkpt lat="43.82540286588879" lon="87.6175435723362">
        <ele>0</ele>
        <time>2020-09-08T13:00:29Z</time>
      </trkpt>
      <trkpt lat="43.82540195393412" lon="87.6175310450264">
        <ele>0</ele>
        <time>2020-09-08T13:00:30Z</time>
      </trkpt>
      <trkpt lat="43.82541034100896" lon="87.61752529462916">
        <ele>0</ele>
        <time>2020-09-08T13:00:31Z</time>
      </trkpt>
    </trkseg>
  </trk>
</gpx>