<?xml version="1.0" encoding="UTF-8"?>
<gpx xmlns="http://www.topografix.com/GPX/1/1" xmlns:gpxtpx="http://www.garmin.com/xmlschemas/TrackPointExtension/v1" xmlns:xsi="http://www.w3.org/2001/XMLSchema-instance" xsi:schemaLocation="http://www.topografix.com/GPX/1/1 http://www.topografix.com/GPX/1/1/gpx.xsd" version="1.1" creator="gpx.py -- https://github.com/tkrajina/gpxpy">
  <trk>
    <name>gpx from codoon</name>
    <type>Run</type>
    <trkseg>
      <trkpt lat="39.91718664963722" lon="116.6455017566057">
        <ele>34.25594711303711</ele>
        <time>2018-05-08T11:46:20Z</time>
      </trkpt>
      <trkpt lat="39.91713863060657" lon="116.64551373124813">
        <ele>30.857702255249023</ele>
        <time>2018-05-08T11:46:21Z</time>
      </trkpt>
      <trkpt lat="39.91712072785647" lon="116.64545887658285">
        <ele>14.007662773132324</ele>
        <time>2018-05-08T11:46:23Z</time>
      </trkpt>
      <trkpt lat="39.91709580782221" lon="116.64541399670061">
        <ele>39.05083084106445</ele>
        <time>2018-05-08T11:46:39Z</time>
      </trkpt>
      <trkpt lat="39.91706890010693" lon="116.6453621352157">
        <ele>32.513946533203125</ele>
        <time>2018-05-08T11:46:44Z</time>
      </trkpt>
      <trkpt lat="39.913317274527344" lon="116.64580843022277">
        <ele>28.67118263244629</ele>
        <time>2018-05-08T11:50:06Z</time>
      </trkpt>
      <trkpt lat="39.9131873064754" lon="116.64579348527558">
        <ele>5.353349208831787</ele>
        <time>2018-05-08T11:50:12Z</time>
      </trkpt>
      <trkpt lat="39.9131542251845" lon="116.64584036666743">
        <ele>9.921365737915039</ele>
        <time>2018-05-08T11:50:21Z</time>
      </trkpt>
      <trkpt lat="39.91318606183069" lon="116.64593212253277">
        <ele>10.01655387878418</ele>
        <time>2018-05-08T11:50:26Z</time>
      </trkpt>
      <trkpt lat="39.913262702410705" lon="116.64613358502577">
        <ele>5.567499160766602</ele>
        <time>2018-05-08T11:50:29Z</time>
      </trkpt>
      <trkpt lat="39.91330634907213" lon="116.646332058539">
        <ele>28.249889373779297</ele>
        <time>2018-05-08T11:50:35Z</time>
      </trkpt>
      <trkpt lat="39.913354927614535" lon="116.64656843082744">
        <ele>31.824174880981445</ele>
        <time>2018-05-08T11:50:37Z</time>
      </trkpt>
      <trkpt lat="39.91340458511485" lon="116.64675992016657">
        <ele>27.067424774169922</ele>
        <time>2018-05-08T11:50:42Z</time>
      </trkpt>
      <trkpt lat="39.91343634942617" lon="116.64689156892851">
        <ele>39.77572250366211</ele>
        <time>2018-05-08T11:50:50Z</time>
      </trkpt>
      <trkpt lat="39.9134612079957" lon="116.6469703578275">
        <ele>28.28485107421875</ele>
        <time>2018-05-08T11:50:52Z</time>
      </trkpt>
      <trkpt lat="39.9134470450168" lon="116.64706211710511">
        <ele>17.307764053344727</ele>
        <time>2018-05-08T11:50:54Z</time>
      </trkpt>
      <trkpt lat="39.91345674199848" lon="116.64723166743889">
        <ele>27.045570373535156</ele>
        <time>2018-05-08T11:51:03Z</time>
      </trkpt>
      <trkpt lat="39.91345543367488" lon="116.6474042105976">
        <ele>26.249404907226562</ele>
        <time>2018-05-08T11:51:06Z</time>
      </trkpt>
      <trkpt lat="39.913414155202844" lon="116.64756080039149">
        <ele>23.847457885742188</ele>
        <time>2018-05-08T11:51:16Z</time>
      </trkpt>
      <trkpt lat="39.91346675430327" lon="116.64778320326191">
        <ele>6.288257598876953</ele>
        <time>2018-05-08T11:51:22Z</time>
      </trkpt>
      <trkpt lat="39.91376459283874" lon="116.64952650309586">
        <ele>8.716599464416504</ele>
        <time>2018-05-08T11:52:14Z</time>
      </trkpt>
      <trkpt lat="39.91371748785862" lon="116.64958535045615">
        <ele>13.585173606872559</ele>
        <time>2018-05-08T11:52:17Z</time>
      </trkpt>
      <trkpt lat="39.913662363215714" lon="116.649655169183">
        <ele>-0.2578849196434021</ele>
        <time>2018-05-08T11:52:24Z</time>
      </trkpt>
      <trkpt lat="39.91364420969674" lon="116.6497399429666">
        <ele>-8.006246566772461</ele>
        <time>2018-05-08T11:52:27Z</time>
      </trkpt>
      <trkpt lat="39.913783869419035" lon="116.64992343089101">
        <ele>-3.4053051471710205</ele>
        <time>2018-05-08T11:52:31Z</time>
      </trkpt>
      <trkpt lat="39.9140234880435" lon="116.65012685205312">
        <ele>13.997576713562012</ele>
        <time>2018-05-08T11:52:40Z</time>
      </trkpt>
      <trkpt lat="39.91424910675454" lon="116.65033027419432">
        <ele>42.32819747924805</ele>
        <time>2018-05-08T11:52:44Z</time>
      </trkpt>
      <trkpt lat="39.914131933017764" lon="116.65042802399353">
        <ele>50.254173278808594</ele>
        <time>2018-05-08T11:52:47Z</time>
      </trkpt>
      <trkpt lat="39.91387888907185" lon="116.65045797399786">
        <ele>27.435108184814453</ele>
        <time>2018-05-08T11:52:58Z</time>
      </trkpt>
      <trkpt lat="39.913623887182155" lon="116.6504649863578">
        <ele>12.636576652526855</ele>
        <time>2018-05-08T11:53:00Z</time>
      </trkpt>
      <trkpt lat="39.913517831485436" lon="116.650497910215">
        <ele>0.6744349598884583</ele>
        <time>2018-05-08T11:53:02Z</time>
      </trkpt>
      <trkpt lat="39.9134108962801" lon="116.65046501247387">
        <ele>16.00771713256836</ele>
        <time>2018-05-08T11:53:10Z</time>
      </trkpt>
      <trkpt lat="39.912207208841366" lon="116.651412586377">
        <ele>61.00474166870117</ele>
        <time>2018-05-08T11:53:45Z</time>
      </trkpt>
      <trkpt lat="39.91219211216183" lon="116.65146544420234">
        <ele>49.13558578491211</ele>
        <time>2018-05-08T11:53:47Z</time>
      </trkpt>
      <trkpt lat="39.91215710631729" lon="116.65146943762404">
        <ele>34.503963470458984</ele>
        <time>2018-05-08T11:53:50Z</time>
      </trkpt>
      <trkpt lat="39.912050325717914" lon="116.65135276861112">
        <ele>30.84650993347168</ele>
        <time>2018-05-08T11:53:52Z</time>
      </trkpt>
      <trkpt lat="39.91193553063448" lon="116.65124407864222">
        <ele>27.17268180847168</ele>
        <time>2018-05-08T11:54:00Z</time>
      </trkpt>
      <trkpt lat="39.9118615998308" lon="116.65120818541159">
        <ele>27.11307716369629</ele>
        <time>2018-05-08T11:54:02Z</time>
      </trkpt>
      <trkpt lat="39.91177247160414" lon="116.65128000091572">
        <ele>26.30693817138672</ele>
        <time>2018-05-08T11:54:05Z</time>
      </trkpt>
      <trkpt lat="39.91164843290367" lon="116.65130395096679">
        <ele>65.86732482910156</ele>
        <time>2018-05-08T11:54:11Z</time>
      </trkpt>
      <trkpt lat="39.9115254932294" lon="116.65127404749364">
        <ele>79.01551818847656</ele>
        <time>2018-05-08T11:54:16Z</time>
      </trkpt>
      <trkpt lat="39.91151572286682" lon="116.65114938790519">
        <ele>75.35401153564453</ele>
        <time>2018-05-08T11:54:18Z</time>
      </trkpt>
      <trkpt lat="39.911480918597434" lon="116.6510436796231">
        <ele>40.578922271728516</ele>
        <time>2018-05-08T11:54:27Z</time>
      </trkpt>
      <trkpt lat="39.91143105992306" lon="116.65096789171771">
        <ele>29.462263107299805</ele>
        <time>2018-05-08T11:54:38Z</time>
      </trkpt>
      <trkpt lat="39.911322084751625" lon="116.65095693488568">
        <ele>31.072166442871094</ele>
        <time>2018-05-08T11:54:40Z</time>
      </trkpt>
      <trkpt lat="39.91132192360726" lon="116.65104469640944">
        <ele>41.96881103515625</ele>
        <time>2018-05-08T11:54:44Z</time>
      </trkpt>
      <trkpt lat="39.9112887747886" lon="116.65112647812325">
        <ele>39.70549392700195</ele>
        <time>2018-05-08T11:54:58Z</time>
      </trkpt>
      <trkpt lat="39.91137743722079" lon="116.65130797334048">
        <ele>19.27886199951172</ele>
        <time>2018-05-08T11:55:00Z</time>
      </trkpt>
      <trkpt lat="39.911516946417436" lon="116.65157123882341">
        <ele>14.680028915405273</ele>
        <time>2018-05-08T11:55:04Z</time>
      </trkpt>
      <trkpt lat="39.911663452685694" lon="116.65183549959484">
        <ele>17.280580520629883</ele>
        <time>2018-05-08T11:55:12Z</time>
      </trkpt>
      <trkpt lat="39.911630100472664" lon="116.65202698041493">
        <ele>3.398257255554199</ele>
        <time>2018-05-08T11:55:14Z</time>
      </trkpt>
      <trkpt lat="39.91158500287548" lon="116.6520808386726">
        <ele>15.802652359008789</ele>
        <time>2018-05-08T11:55:23Z</time>
      </trkpt>
      <trkpt lat="39.91164081422038" lon="116.65218155624586">
        <ele>14.135973930358887</ele>
        <time>2018-05-08T11:55:36Z</time>
      </trkpt>
      <trkpt lat="39.911831411023726" lon="116.65239494843719">
        <ele>33.701568603515625</ele>
        <time>2018-05-08T11:55:39Z</time>
      </trkpt>
      <trkpt lat="39.91198197762341" lon="116.65262529832263">
        <ele>23.845626831054688</ele>
        <time>2018-05-08T11:55:50Z</time>
      </trkpt>
      <trkpt lat="39.912103589349286" lon="116.65283171669886">
        <ele>28.722305297851562</ele>
        <time>2018-05-08T11:55:52Z</time>
      </trkpt>
      <trkpt lat="39.91220337206772" lon="116.65294638934374">
        <ele>32.26694869995117</ele>
        <time>2018-05-08T11:55:56Z</time>
      </trkpt>
      <trkpt lat="39.912369109180055" lon="116.65308399061396">
        <ele>24.6047420501709</ele>
        <time>2018-05-08T11:56:05Z</time>
      </trkpt>
      <trkpt lat="39.91254584377626" lon="116.65322258750902">
        <ele>25.876741409301758</ele>
        <time>2018-05-08T11:56:14Z</time>
      </trkpt>
      <trkpt lat="39.91275254904393" lon="116.65337613923678">
        <ele>26.1330623626709</ele>
        <time>2018-05-08T11:56:18Z</time>
      </trkpt>
      <trkpt lat="39.91296120195388" lon="116.65355761339293">
        <ele>31.102876663208008</ele>
        <time>2018-05-08T11:56:25Z</time>
      </trkpt>
      <trkpt lat="39.91315290922629" lon="116.65371016897119">
        <ele>51.021522521972656</ele>
        <time>2018-05-08T11:56:40Z</time>
      </trkpt>
      <trkpt lat="39.91338466855598" lon="116.65383379916703">
        <ele>61.57322692871094</ele>
        <time>2018-05-08T11:56:42Z</time>
      </trkpt>
      <trkpt lat="39.91360647101257" lon="116.65393449374126">
        <ele>38.38142013549805</ele>
        <time>2018-05-08T11:56:54Z</time>
      </trkpt>
      <trkpt lat="39.913851981548724" lon="116.65419075507783">
        <ele>49.587459564208984</ele>
        <time>2018-05-08T11:56:57Z</time>
      </trkpt>
      <trkpt lat="39.91410748171782" lon="116.65445200048033">
        <ele>86.76573181152344</ele>
        <time>2018-05-08T11:57:06Z</time>
      </trkpt>
      <trkpt lat="39.91432313812559" lon="116.65463047936174">
        <ele>76.42237091064453</ele>
        <time>2018-05-08T11:57:12Z</time>
      </trkpt>
      <trkpt lat="39.91450511168559" lon="116.65464042937094">
        <ele>71.7962875366211</ele>
        <time>2018-05-08T11:57:16Z</time>
      </trkpt>
      <trkpt lat="39.9145639727147" lon="116.65471322028816">
        <ele>68.9926986694336</ele>
        <time>2018-05-08T11:57:18Z</time>
      </trkpt>
      <trkpt lat="39.91460179344253" lon="116.65480795285228">
        <ele>79.20602416992188</ele>
        <time>2018-05-08T11:57:22Z</time>
      </trkpt>
      <trkpt lat="39.91461559078483" lon="116.65491565226435">
        <ele>73.30504608154297</ele>
        <time>2018-05-08T11:57:25Z</time>
      </trkpt>
      <trkpt lat="39.91509636707839" lon="116.65555581342593">
        <ele>36.87289810180664</ele>
        <time>2018-05-08T11:58:10Z</time>
      </trkpt>
      <trkpt lat="39.91523986143156" lon="116.65582105689839">
        <ele>34.90742874145508</ele>
        <time>2018-05-08T11:58:21Z</time>
      </trkpt>
      <trkpt lat="39.91544819254038" lon="116.65617105500846">
        <ele>70.79373931884766</ele>
        <time>2018-05-08T11:58:33Z</time>
      </trkpt>
      <trkpt lat="39.915640570490325" lon="116.65649612334305">
        <ele>81.39743041992188</ele>
        <time>2018-05-08T11:58:38Z</time>
      </trkpt>
      <trkpt lat="39.91575136224157" lon="116.6566038086466">
        <ele>65.36682891845703</ele>
        <time>2018-05-08T11:58:41Z</time>
      </trkpt>
      <trkpt lat="39.915779304499786" lon="116.656633721556">
        <ele>30.562894821166992</ele>
        <time>2018-05-08T11:58:48Z</time>
      </trkpt>
      <trkpt lat="39.91577621601138" lon="116.65668059085299">
        <ele>34.87933349609375</ele>
        <time>2018-05-08T11:58:50Z</time>
      </trkpt>
      <trkpt lat="39.91575916581798" lon="116.65670751763454">
        <ele>30.763790130615234</ele>
        <time>2018-05-08T11:58:52Z</time>
      </trkpt>
      <trkpt lat="39.91575912055649" lon="116.65673145068796">
        <ele>28.530630111694336</ele>
        <time>2018-05-08T11:58:54Z</time>
      </trkpt>
      <trkpt lat="39.91580594879601" lon="116.65682119380688">
        <ele>25.133338928222656</ele>
        <time>2018-05-08T11:58:56Z</time>
      </trkpt>
      <trkpt lat="39.915871779946656" lon="116.6569089400861">
        <ele>26.474912643432617</ele>
        <time>2018-05-08T11:58:58Z</time>
      </trkpt>
      <trkpt lat="39.915936618636444" lon="116.65699269757442">
        <ele>26.188434600830078</ele>
        <time>2018-05-08T11:59:01Z</time>
      </trkpt>
      <trkpt lat="39.91599143503854" lon="116.65708842269606">
        <ele>21.58466339111328</ele>
        <time>2018-05-08T11:59:04Z</time>
      </trkpt>
      <trkpt lat="39.91606423172163" lon="116.65719411756324">
        <ele>21.485769271850586</ele>
        <time>2018-05-08T11:59:14Z</time>
      </trkpt>
      <trkpt lat="39.91612199872191" lon="116.65731576942491">
        <ele>-8.345158576965332</ele>
        <time>2018-05-08T11:59:18Z</time>
      </trkpt>
      <trkpt lat="39.916222741108726" lon="116.65744938228225">
        <ele>0.5441247224807739</ele>
        <time>2018-05-08T11:59:22Z</time>
      </trkpt>
      <trkpt lat="39.91628848485764" lon="116.65758299925827">
        <ele>17.287813186645508</ele>
        <time>2018-05-08T11:59:30Z</time>
      </trkpt>
      <trkpt lat="39.91637921039507" lon="116.65772558778136">
        <ele>28.576335906982422</ele>
        <time>2018-05-08T11:59:32Z</time>
      </trkpt>
      <trkpt lat="39.916428085272564" lon="116.6577903997404">
        <ele>45.6092529296875</ele>
        <time>2018-05-08T11:59:34Z</time>
      </trkpt>
      <trkpt lat="39.91652582168809" lon="116.65792700392039">
        <ele>35.63336944580078</ele>
        <time>2018-05-08T11:59:40Z</time>
      </trkpt>
      <trkpt lat="39.916588557570805" lon="116.65806460941756">
        <ele>64.74181365966797</ele>
        <time>2018-05-08T11:59:45Z</time>
      </trkpt>
      <trkpt lat="39.91664520826863" lon="116.65824708925562">
        <ele>42.60930252075195</ele>
        <time>2018-05-08T11:59:48Z</time>
      </trkpt>
      <trkpt lat="39.91664500534627" lon="116.65835378906941">
        <ele>41.12980651855469</ele>
        <time>2018-05-08T11:59:51Z</time>
      </trkpt>
      <trkpt lat="39.91667283722153" lon="116.65844153866527">
        <ele>25.187044143676758</ele>
        <time>2018-05-08T11:59:53Z</time>
      </trkpt>
      <trkpt lat="39.9168056608175" lon="116.65853126966395">
        <ele>22.558584213256836</ele>
        <time>2018-05-08T11:59:57Z</time>
      </trkpt>
      <trkpt lat="39.91694947631015" lon="116.6586249880019">
        <ele>48.4661865234375</ele>
        <time>2018-05-08T12:00:03Z</time>
      </trkpt>
      <trkpt lat="39.917080286606414" lon="116.65872169943026">
        <ele>45.92920684814453</ele>
        <time>2018-05-08T12:00:05Z</time>
      </trkpt>
      <trkpt lat="39.917106177259015" lon="116.65877853608698">
        <ele>45.09136962890625</ele>
        <time>2018-05-08T12:00:07Z</time>
      </trkpt>
      <trkpt lat="39.917132073592065" lon="116.65883238114598">
        <ele>43.525413513183594</ele>
        <time>2018-05-08T12:00:09Z</time>
      </trkpt>
      <trkpt lat="39.91715698325009" lon="116.65887924597759">
        <ele>42.39965057373047</ele>
        <time>2018-05-08T12:00:11Z</time>
      </trkpt>
      <trkpt lat="39.917184888969" lon="116.65892810479872">
        <ele>42.07052993774414</ele>
        <time>2018-05-08T12:00:13Z</time>
      </trkpt>
      <trkpt lat="39.91721378893128" lon="116.65897995504127">
        <ele>41.214752197265625</ele>
        <time>2018-05-08T12:00:15Z</time>
      </trkpt>
      <trkpt lat="39.91724367743232" lon="116.65903778826515">
        <ele>40.933197021484375</ele>
        <time>2018-05-08T12:00:17Z</time>
      </trkpt>
      <trkpt lat="39.91726856802711" lon="116.65909462488774">
        <ele>40.86094284057617</ele>
        <time>2018-05-08T12:00:19Z</time>
      </trkpt>
      <trkpt lat="39.91729246054792" lon="116.65915046441876">
        <ele>41.202518463134766</ele>
        <time>2018-05-08T12:00:21Z</time>
      </trkpt>
      <trkpt lat="39.9173163663633" lon="116.6591993236177">
        <ele>42.01441955566406</ele>
        <time>2018-05-08T12:00:23Z</time>
      </trkpt>
      <trkpt lat="39.917348273730305" lon="116.65924718462637">
        <ele>41.92461013793945</ele>
        <time>2018-05-08T12:00:25Z</time>
      </trkpt>
      <trkpt lat="39.91738818074779" lon="116.6592950446318">
        <ele>41.84819412231445</ele>
        <time>2018-05-08T12:00:27Z</time>
      </trkpt>
      <trkpt lat="39.9174290820041" lon="116.65934589605104">
        <ele>41.809104919433594</ele>
        <time>2018-05-08T12:00:29Z</time>
      </trkpt>
      <trkpt lat="39.917467987136654" lon="116.65939475332495">
        <ele>41.782142639160156</ele>
        <time>2018-05-08T12:00:31Z</time>
      </trkpt>
      <trkpt lat="39.91750088109256" lon="116.65944959442412">
        <ele>41.7812385559082</ele>
        <time>2018-05-08T12:00:33Z</time>
      </trkpt>
      <trkpt lat="39.91753076183706" lon="116.65951141615565">
        <ele>41.823631286621094</ele>
        <time>2018-05-08T12:00:35Z</time>
      </trkpt>
      <trkpt lat="39.9175586350322" lon="116.65957722683599">
        <ele>41.80882263183594</ele>
        <time>2018-05-08T12:00:37Z</time>
      </trkpt>
      <trkpt lat="39.91758151603184" lon="116.65963904936483">
        <ele>41.828041076660156</ele>
        <time>2018-05-08T12:00:39Z</time>
      </trkpt>
      <trkpt lat="39.91760939870579" lon="116.65969987406562">
        <ele>41.83978271484375</ele>
        <time>2018-05-08T12:00:41Z</time>
      </trkpt>
      <trkpt lat="39.91763829465056" lon="116.65975371833996">
        <ele>41.78764343261719</ele>
        <time>2018-05-08T12:00:43Z</time>
      </trkpt>
      <trkpt lat="39.91767020569224" lon="116.65979958476915">
        <ele>41.7183723449707</ele>
        <time>2018-05-08T12:00:45Z</time>
      </trkpt>
      <trkpt lat="39.91770512040713" lon="116.6598434564501">
        <ele>41.523521423339844</ele>
        <time>2018-05-08T12:00:47Z</time>
      </trkpt>
      <trkpt lat="39.91774503490216" lon="116.65988732750091">
        <ele>41.26017379760742</ele>
        <time>2018-05-08T12:00:49Z</time>
      </trkpt>
      <trkpt lat="39.917786932155934" lon="116.65994017291642">
        <ele>40.94588851928711</ele>
        <time>2018-05-08T12:00:51Z</time>
      </trkpt>
      <trkpt lat="39.91781783176556" lon="116.65999202248354">
        <ele>40.599205017089844</ele>
        <time>2018-05-08T12:00:53Z</time>
      </trkpt>
      <trkpt lat="39.917831718737666" lon="116.66005085438022">
        <ele>39.95478057861328</ele>
        <time>2018-05-08T12:00:57Z</time>
      </trkpt>
      <trkpt lat="39.91781560886341" lon="116.6601086927625">
        <ele>39.65989685058594</ele>
        <time>2018-05-08T12:00:59Z</time>
      </trkpt>
      <trkpt lat="39.9178005065571" lon="116.6601625422812">
        <ele>39.296051025390625</ele>
        <time>2018-05-08T12:01:03Z</time>
      </trkpt>
      <trkpt lat="39.91778142156553" lon="116.66020741766353">
        <ele>39.02634048461914</ele>
        <time>2018-05-08T12:01:07Z</time>
      </trkpt>
      <trkpt lat="39.9177583577078" lon="116.66024132456177">
        <ele>38.87379837036133</ele>
        <time>2018-05-08T12:01:09Z</time>
      </trkpt>
      <trkpt lat="39.91771926972906" lon="116.66028819673517">
        <ele>38.788841247558594</ele>
        <time>2018-05-08T12:01:11Z</time>
      </trkpt>
      <trkpt lat="39.917672172541906" lon="116.66034005576539">
        <ele>38.52344512939453</ele>
        <time>2018-05-08T12:01:15Z</time>
      </trkpt>
      <trkpt lat="39.91761091951025" lon="116.66047368501181">
        <ele>38.2497673034668</ele>
        <time>2018-05-08T12:01:17Z</time>
      </trkpt>
      <trkpt lat="39.917539651556105" lon="116.6606152927689">
        <ele>37.005428314208984</ele>
        <time>2018-05-08T12:01:23Z</time>
      </trkpt>
      <trkpt lat="39.91747640417874" lon="116.66074593048073">
        <ele>36.09846878051758</ele>
        <time>2018-05-08T12:01:27Z</time>
      </trkpt>
      <trkpt lat="39.91743627223075" lon="116.66081573762393">
        <ele>35.69761276245117</ele>
        <time>2018-05-08T12:01:29Z</time>
      </trkpt>
      <trkpt lat="39.91740416474876" lon="116.66087258048901">
        <ele>35.2923698425293</ele>
        <time>2018-05-08T12:01:31Z</time>
      </trkpt>
      <trkpt lat="39.91737104774766" lon="116.66093440932366">
        <ele>34.95940399169922</ele>
        <time>2018-05-08T12:01:33Z</time>
      </trkpt>
      <trkpt lat="39.91733596901373" lon="116.6609762949149">
        <ele>34.589393615722656</ele>
        <time>2018-05-08T12:01:35Z</time>
      </trkpt>
      <trkpt lat="39.91729993806448" lon="116.66099325129036">
        <ele>34.072227478027344</ele>
        <time>2018-05-08T12:01:40Z</time>
      </trkpt>
      <trkpt lat="39.91726294344553" lon="116.66099126149754">
        <ele>33.89353942871094</ele>
        <time>2018-05-08T12:01:45Z</time>
      </trkpt>
      <trkpt lat="39.91722997730608" lon="116.66097431361355">
        <ele>33.557334899902344</ele>
        <time>2018-05-08T12:01:47Z</time>
      </trkpt>
      <trkpt lat="39.91720501846708" lon="116.66095337604936">
        <ele>33.23627471923828</ele>
        <time>2018-05-08T12:01:49Z</time>
      </trkpt>
      <trkpt lat="39.91717806543987" lon="116.6609294472076">
        <ele>32.94010925292969</ele>
        <time>2018-05-08T12:01:51Z</time>
      </trkpt>
      <trkpt lat="39.91714117966523" lon="116.66087061850688">
        <ele>32.65325164794922</ele>
        <time>2018-05-08T12:01:53Z</time>
      </trkpt>
      <trkpt lat="39.91709034601467" lon="116.66078486779477">
        <ele>32.128055572509766</ele>
        <time>2018-05-08T12:01:56Z</time>
      </trkpt>
      <trkpt lat="39.91703550295947" lon="116.6607041034005">
        <ele>31.628087997436523</ele>
        <time>2018-05-08T12:01:59Z</time>
      </trkpt>
      <trkpt lat="39.91699761526487" lon="116.66064627190806">
        <ele>31.32180404663086</ele>
        <time>2018-05-08T12:02:01Z</time>
      </trkpt>
      <trkpt lat="39.9169647158955" lon="116.66059442283247">
        <ele>30.961183547973633</ele>
        <time>2018-05-08T12:02:03Z</time>
      </trkpt>
      <trkpt lat="39.91693386222283" lon="116.66051864126017">
        <ele>30.444175720214844</ele>
        <time>2018-05-08T12:02:05Z</time>
      </trkpt>
      <trkpt lat="39.91686106561962" lon="116.66041394668069">
        <ele>29.478530883789062</ele>
        <time>2018-05-08T12:02:08Z</time>
      </trkpt>
      <trkpt lat="39.916726399351575" lon="116.6602424487145">
        <ele>28.11052703857422</ele>
        <time>2018-05-08T12:02:12Z</time>
      </trkpt>
      <trkpt lat="39.916581739093274" lon="116.66006796022212">
        <ele>25.686405181884766</ele>
        <time>2018-05-08T12:02:18Z</time>
      </trkpt>
      <trkpt lat="39.916479012141735" lon="116.6599273704824">
        <ele>24.947662353515625</ele>
        <time>2018-05-08T12:02:20Z</time>
      </trkpt>
      <trkpt lat="39.916435168315516" lon="116.65984660422887">
        <ele>24.172801971435547</ele>
        <time>2018-05-08T12:02:22Z</time>
      </trkpt>
      <trkpt lat="39.916402312565374" lon="116.65977181966338">
        <ele>23.35972023010254</ele>
        <time>2018-05-08T12:02:24Z</time>
      </trkpt>
      <trkpt lat="39.91636546457379" lon="116.65969304681579">
        <ele>22.476362228393555</ele>
        <time>2018-05-08T12:02:26Z</time>
      </trkpt>
      <trkpt lat="39.91633657813694" lon="116.65963421659733">
        <ele>21.662736892700195</ele>
        <time>2018-05-08T12:02:28Z</time>
      </trkpt>
      <trkpt lat="39.91629971105674" lon="116.65956541549974">
        <ele>21.01038360595703</ele>
        <time>2018-05-08T12:02:30Z</time>
      </trkpt>
      <trkpt lat="39.91625087871663" lon="116.65947866652404">
        <ele>20.375072479248047</ele>
        <time>2018-05-08T12:02:32Z</time>
      </trkpt>
      <trkpt lat="39.916202052045975" lon="116.65938892593188">
        <ele>19.417139053344727</ele>
        <time>2018-05-08T12:02:35Z</time>
      </trkpt>
      <trkpt lat="39.91616717718591" lon="116.65932411319284">
        <ele>18.136829376220703</ele>
        <time>2018-05-08T12:02:39Z</time>
      </trkpt>
      <trkpt lat="39.91613826971643" lon="116.65927625184335">
        <ele>17.616680145263672</ele>
        <time>2018-05-08T12:02:41Z</time>
      </trkpt>
      <trkpt lat="39.916107369926586" lon="116.65922440197517">
        <ele>17.083789825439453</ele>
        <time>2018-05-08T12:02:43Z</time>
      </trkpt>
      <trkpt lat="39.91607049319372" lon="116.65916058657976">
        <ele>16.628873825073242</ele>
        <time>2018-05-08T12:02:45Z</time>
      </trkpt>
      <trkpt lat="39.91603961428385" lon="116.65909776759933">
        <ele>15.502334594726562</ele>
        <time>2018-05-08T12:02:49Z</time>
      </trkpt>
      <trkpt lat="39.916009729608085" lon="116.65903794002611">
        <ele>14.91103744506836</ele>
        <time>2018-05-08T12:02:51Z</time>
      </trkpt>
      <trkpt lat="39.91597387367233" lon="116.65896315533176">
        <ele>14.421417236328125</ele>
        <time>2018-05-08T12:02:53Z</time>
      </trkpt>
      <trkpt lat="39.91593603298945" lon="116.6588803933204">
        <ele>13.717472076416016</ele>
        <time>2018-05-08T12:02:57Z</time>
      </trkpt>
      <trkpt lat="39.91589817897242" lon="116.65880461157914">
        <ele>13.434187889099121</ele>
        <time>2018-05-08T12:02:59Z</time>
      </trkpt>
      <trkpt lat="39.91585830601751" lon="116.65873880193914">
        <ele>13.171187400817871</ele>
        <time>2018-05-08T12:03:01Z</time>
      </trkpt>
      <trkpt lat="39.91581443890356" lon="116.65867000117879">
        <ele>13.018275260925293</ele>
        <time>2018-05-08T12:03:03Z</time>
      </trkpt>
      <trkpt lat="39.91577058125369" lon="116.65859621441665">
        <ele>12.82337760925293</ele>
        <time>2018-05-08T12:03:05Z</time>
      </trkpt>
      <trkpt lat="39.915735706110226" lon="116.6585314012308">
        <ele>12.70155143737793</ele>
        <time>2018-05-08T12:03:07Z</time>
      </trkpt>
      <trkpt lat="39.91570183089974" lon="116.65846658788358">
        <ele>12.593000411987305</ele>
        <time>2018-05-08T12:03:09Z</time>
      </trkpt>
      <trkpt lat="39.91566695001558" lon="116.65840476620149">
        <ele>12.415390014648438</ele>
        <time>2018-05-08T12:03:13Z</time>
      </trkpt>
      <trkpt lat="39.91563006729677" lon="116.65834394192402">
        <ele>12.420557022094727</ele>
        <time>2018-05-08T12:03:15Z</time>
      </trkpt>
      <trkpt lat="39.9155931826594" lon="116.6582841148067">
        <ele>12.346569061279297</ele>
        <time>2018-05-08T12:03:17Z</time>
      </trkpt>
      <trkpt lat="39.915553301919694" lon="116.65822229363398">
        <ele>12.318370819091797</ele>
        <time>2018-05-08T12:03:19Z</time>
      </trkpt>
      <trkpt lat="39.91551741150885" lon="116.6581654579126">
        <ele>12.281820297241211</ele>
        <time>2018-05-08T12:03:21Z</time>
      </trkpt>
      <trkpt lat="39.915471538559956" lon="116.65809964862206">
        <ele>12.189140319824219</ele>
        <time>2018-05-08T12:03:23Z</time>
      </trkpt>
      <trkpt lat="39.915425659899824" lon="116.65803683088116">
        <ele>12.180197715759277</ele>
        <time>2018-05-08T12:03:27Z</time>
      </trkpt>
      <trkpt lat="39.91537978689848" lon="116.65797102150904">
        <ele>12.180988311767578</ele>
        <time>2018-05-08T12:03:29Z</time>
      </trkpt>
      <trkpt lat="39.91534189648393" lon="116.65791418589598">
        <ele>12.187478065490723</ele>
        <time>2018-05-08T12:03:31Z</time>
      </trkpt>
      <trkpt lat="39.915304000367804" lon="116.65786034184764">
        <ele>12.22776985168457</ele>
        <time>2018-05-08T12:03:33Z</time>
      </trkpt>
      <trkpt lat="39.91526909463886" lon="116.65781148339838">
        <ele>12.28420639038086</ele>
        <time>2018-05-08T12:03:35Z</time>
      </trkpt>
      <trkpt lat="39.91523617745103" lon="116.65776860787786">
        <ele>12.33919620513916</ele>
        <time>2018-05-08T12:03:37Z</time>
      </trkpt>
      <trkpt lat="39.91518630829281" lon="116.65770080442304">
        <ele>12.435384750366211</ele>
        <time>2018-05-08T12:03:39Z</time>
      </trkpt>
      <trkpt lat="39.91512446799758" lon="116.65761804438064">
        <ele>12.570573806762695</ele>
        <time>2018-05-08T12:03:43Z</time>
      </trkpt>
      <trkpt lat="39.915062623874306" lon="116.65753727867305">
        <ele>12.489052772521973</ele>
        <time>2018-05-08T12:03:45Z</time>
      </trkpt>
      <trkpt lat="39.91501373944144" lon="116.65747745255797">
        <ele>12.461791038513184</ele>
        <time>2018-05-08T12:03:47Z</time>
      </trkpt>
      <trkpt lat="39.91497084527564" lon="116.65742261168467">
        <ele>12.495148658752441</ele>
        <time>2018-05-08T12:03:49Z</time>
      </trkpt>
      <trkpt lat="39.91493694314514" lon="116.65737175848903">
        <ele>12.533685684204102</ele>
        <time>2018-05-08T12:03:51Z</time>
      </trkpt>
      <trkpt lat="39.91490503902199" lon="116.65732190222502">
        <ele>12.564996719360352</ele>
        <time>2018-05-08T12:03:53Z</time>
      </trkpt>
      <trkpt lat="39.914875138576505" lon="116.65727005127992">
        <ele>12.537282943725586</ele>
        <time>2018-05-08T12:03:55Z</time>
      </trkpt>
      <trkpt lat="39.91483425936384" lon="116.65720723239997">
        <ele>12.541842460632324</ele>
        <time>2018-05-08T12:03:57Z</time>
      </trkpt>
      <trkpt lat="39.91458798439716" lon="116.65630079874504">
        <ele>18.33213233947754</ele>
        <time>2018-05-08T12:04:34Z</time>
      </trkpt>
      <trkpt lat="39.91447030749774" lon="116.65613228369669">
        <ele>18.620698928833008</ele>
        <time>2018-05-08T12:04:40Z</time>
      </trkpt>
      <trkpt lat="39.914459417077865" lon="116.6560744464303">
        <ele>18.653810501098633</ele>
        <time>2018-05-08T12:04:42Z</time>
      </trkpt>
      <trkpt lat="39.914422539022134" lon="116.65601062900733">
        <ele>21.27225685119629</ele>
        <time>2018-05-08T12:04:50Z</time>
      </trkpt>
      <trkpt lat="39.9143696879352" lon="116.65593285242959">
        <ele>21.93918228149414</ele>
        <time>2018-05-08T12:04:56Z</time>
      </trkpt>
      <trkpt lat="39.914250929808475" lon="116.65580721729177">
        <ele>22.258525848388672</ele>
        <time>2018-05-08T12:04:58Z</time>
      </trkpt>
      <trkpt lat="39.914190060154006" lon="116.6557394137272">
        <ele>22.431978225708008</ele>
        <time>2018-05-08T12:05:00Z</time>
      </trkpt>
      <trkpt lat="39.91413318278102" lon="116.6556755985064">
        <ele>22.5029354095459</ele>
        <time>2018-05-08T12:05:02Z</time>
      </trkpt>
      <trkpt lat="39.914068318857275" lon="116.65560480365492">
        <ele>22.588085174560547</ele>
        <time>2018-05-08T12:05:04Z</time>
      </trkpt>
      <trkpt lat="39.913965527820935" lon="116.65549611887654">
        <ele>22.661462783813477</ele>
        <time>2018-05-08T12:05:06Z</time>
      </trkpt>
      <trkpt lat="39.91386872330367" lon="116.65539441379836">
        <ele>23.532907485961914</ele>
        <time>2018-05-08T12:05:11Z</time>
      </trkpt>
      <trkpt lat="39.91376493024752" lon="116.65528672608741">
        <ele>23.72332763671875</ele>
        <time>2018-05-08T12:05:13Z</time>
      </trkpt>
      <trkpt lat="39.91370902823151" lon="116.65523587435281">
        <ele>24.089948654174805</ele>
        <time>2018-05-08T12:05:15Z</time>
      </trkpt>
      <trkpt lat="39.913652116867844" lon="116.65519000885149">
        <ele>24.602521896362305</ele>
        <time>2018-05-08T12:05:19Z</time>
      </trkpt>
      <trkpt lat="39.913614161585095" lon="116.65516707725749">
        <ele>24.841081619262695</ele>
        <time>2018-05-08T12:05:21Z</time>
      </trkpt>
      <trkpt lat="39.9135732120463" lon="116.6551411543377">
        <ele>25.211875915527344</ele>
        <time>2018-05-08T12:05:23Z</time>
      </trkpt>
      <trkpt lat="39.91353726603468" lon="116.65511323633626">
        <ele>25.604679107666016</ele>
        <time>2018-05-08T12:05:25Z</time>
      </trkpt>
      <trkpt lat="39.913504325507006" lon="116.65508232626674">
        <ele>25.912582397460938</ele>
        <time>2018-05-08T12:05:27Z</time>
      </trkpt>
      <trkpt lat="39.91346937943887" lon="116.65505440812156">
        <ele>26.229961395263672</ele>
        <time>2018-05-08T12:05:29Z</time>
      </trkpt>
      <trkpt lat="39.9134284354929" lon="116.65502549347254">
        <ele>26.504531860351562</ele>
        <time>2018-05-08T12:05:31Z</time>
      </trkpt>
      <trkpt lat="39.91337650698666" lon="116.65498860231493">
        <ele>26.688608169555664</ele>
        <time>2018-05-08T12:05:33Z</time>
      </trkpt>
      <trkpt lat="39.9133245859558" lon="116.65494772221327">
        <ele>26.820600509643555</ele>
        <time>2018-05-08T12:05:35Z</time>
      </trkpt>
      <trkpt lat="39.91327266303939" lon="116.6549078393222">
        <ele>26.930423736572266</ele>
        <time>2018-05-08T12:05:37Z</time>
      </trkpt>
      <trkpt lat="39.91322074198041" lon="116.65486695917785">
        <ele>27.095783233642578</ele>
        <time>2018-05-08T12:05:39Z</time>
      </trkpt>
      <trkpt lat="39.91316582851785" lon="116.65482209044718">
        <ele>27.253704071044922</ele>
        <time>2018-05-08T12:05:41Z</time>
      </trkpt>
      <trkpt lat="39.91311092251864" lon="116.65477323275478">
        <ele>27.378856658935547</ele>
        <time>2018-05-08T12:05:43Z</time>
      </trkpt>
      <trkpt lat="39.91305302410587" lon="116.65472038646125">
        <ele>27.505830764770508</ele>
        <time>2018-05-08T12:05:45Z</time>
      </trkpt>
      <trkpt lat="39.91299512006098" lon="116.65467053183684">
        <ele>27.60107421875</ele>
        <time>2018-05-08T12:05:47Z</time>
      </trkpt>
      <trkpt lat="39.91293720851903" lon="116.65462466612315">
        <ele>27.78236961364746</ele>
        <time>2018-05-08T12:05:49Z</time>
      </trkpt>
      <trkpt lat="39.912890270328965" lon="116.65459276034002">
        <ele>27.953292846679688</ele>
        <time>2018-05-08T12:05:51Z</time>
      </trkpt>
      <trkpt lat="39.912847320749044" lon="116.65456683747212">
        <ele>28.078994750976562</ele>
        <time>2018-05-08T12:05:53Z</time>
      </trkpt>
      <trkpt lat="39.91280336933805" lon="116.65454191195496">
        <ele>28.32326889038086</ele>
        <time>2018-05-08T12:05:55Z</time>
      </trkpt>
      <trkpt lat="39.912760414143136" lon="116.65451898078125">
        <ele>28.56605339050293</ele>
        <time>2018-05-08T12:05:57Z</time>
      </trkpt>
      <trkpt lat="39.912719460725725" lon="116.65449505211737">
        <ele>28.722803115844727</ele>
        <time>2018-05-08T12:05:59Z</time>
      </trkpt>
      <trkpt lat="39.91267651112391" lon="116.65446912921557">
        <ele>28.864160537719727</ele>
        <time>2018-05-08T12:06:01Z</time>
      </trkpt>
      <trkpt lat="39.912616605187715" lon="116.65442027190862">
        <ele>29.229360580444336</ele>
        <time>2018-05-08T12:06:05Z</time>
      </trkpt>
      <trkpt lat="39.91255470304897" lon="116.65436942033666">
        <ele>29.395137786865234</ele>
        <time>2018-05-08T12:06:07Z</time>
      </trkpt>
      <trkpt lat="39.91249183078557" lon="116.6543026130122">
        <ele>29.906875610351562</ele>
        <time>2018-05-08T12:06:11Z</time>
      </trkpt>
      <trkpt lat="39.912442941093275" lon="116.65424477907742">
        <ele>30.338237762451172</ele>
        <time>2018-05-08T12:06:17Z</time>
      </trkpt>
      <trkpt lat="39.91239804933388" lon="116.65418794184782">
        <ele>30.57723617553711</ele>
        <time>2018-05-08T12:06:21Z</time>
      </trkpt>
      <trkpt lat="39.91236012368526" lon="116.6541490540768">
        <ele>30.706710815429688</ele>
        <time>2018-05-08T12:06:23Z</time>
      </trkpt>
      <trkpt lat="39.91232018878776" lon="116.65411515274408">
        <ele>30.785985946655273</ele>
        <time>2018-05-08T12:06:25Z</time>
      </trkpt>
      <trkpt lat="39.912276254051285" lon="116.65408125188657">
        <ele>30.79981231689453</ele>
        <time>2018-05-08T12:06:27Z</time>
      </trkpt>
      <trkpt lat="39.912221340274456" lon="116.65403638268303">
        <ele>30.69977378845215</ele>
        <time>2018-05-08T12:06:29Z</time>
      </trkpt>
      <trkpt lat="39.91216043232547" lon="116.65398852245494">
        <ele>30.608482360839844</ele>
        <time>2018-05-08T12:06:31Z</time>
      </trkpt>
      <trkpt lat="39.91210350928315" lon="116.65394863966418">
        <ele>30.493940353393555</ele>
        <time>2018-05-08T12:06:33Z</time>
      </trkpt>
      <trkpt lat="39.91205656717424" lon="116.6539187280782">
        <ele>30.366575241088867</ele>
        <time>2018-05-08T12:06:35Z</time>
      </trkpt>
      <trkpt lat="39.91201261934218" lon="116.65389180784878">
        <ele>30.24830436706543</ele>
        <time>2018-05-08T12:06:37Z</time>
      </trkpt>
      <trkpt lat="39.91196068487936" lon="116.65385790786793">
        <ele>30.054170608520508</ele>
        <time>2018-05-08T12:06:39Z</time>
      </trkpt>
      <trkpt lat="39.91190474871632" lon="116.65382500560857">
        <ele>29.899490356445312</ele>
        <time>2018-05-08T12:06:41Z</time>
      </trkpt>
      <trkpt lat="39.91185181799768" lon="116.65378911122424">
        <ele>29.823129653930664</ele>
        <time>2018-05-08T12:06:43Z</time>
      </trkpt>
      <trkpt lat="39.91180388705219" lon="116.65375321620805">
        <ele>29.757314682006836</ele>
        <time>2018-05-08T12:06:45Z</time>
      </trkpt>
      <trkpt lat="39.91176595566482" lon="116.65371731994627">
        <ele>29.734115600585938</ele>
        <time>2018-05-08T12:06:47Z</time>
      </trkpt>
      <trkpt lat="39.911732007352605" lon="116.65369039841302">
        <ele>29.769474029541016</ele>
        <time>2018-05-08T12:06:49Z</time>
      </trkpt>
      <trkpt lat="39.911692068590554" lon="116.65365849136096">
        <ele>29.855356216430664</ele>
        <time>2018-05-08T12:06:51Z</time>
      </trkpt>
      <trkpt lat="39.91164912994779" lon="116.65362658466259">
        <ele>30.013879776000977</ele>
        <time>2018-05-08T12:06:53Z</time>
      </trkpt>
      <trkpt lat="39.91160518761996" lon="116.65359667257223">
        <ele>30.224746704101562</ele>
        <time>2018-05-08T12:06:55Z</time>
      </trkpt>
      <trkpt lat="39.91155526041264" lon="116.65355878320243">
        <ele>30.471532821655273</ele>
        <time>2018-05-08T12:06:57Z</time>
      </trkpt>
      <trkpt lat="39.91150234818795" lon="116.65351291617198">
        <ele>30.6629695892334</ele>
        <time>2018-05-08T12:06:59Z</time>
      </trkpt>
      <trkpt lat="39.911439445662666" lon="116.65346206407963">
        <ele>30.882244110107422</ele>
        <time>2018-05-08T12:07:03Z</time>
      </trkpt>
      <trkpt lat="39.91138751663478" lon="116.65342517213425">
        <ele>31.129968643188477</ele>
        <time>2018-05-08T12:07:07Z</time>
      </trkpt>
      <trkpt lat="39.911317601368296" lon="116.65338130160761">
        <ele>31.31514549255371</ele>
        <time>2018-05-08T12:07:11Z</time>
      </trkpt>
      <trkpt lat="39.91125369139491" lon="116.6533344385558">
        <ele>31.24903678894043</ele>
        <time>2018-05-08T12:07:13Z</time>
      </trkpt>
      <trkpt lat="39.911184809456465" lon="116.65327261726895">
        <ele>31.03692054748535</ele>
        <time>2018-05-08T12:07:15Z</time>
      </trkpt>
      <trkpt lat="39.91112293460018" lon="116.65320680604539">
        <ele>30.793262481689453</ele>
        <time>2018-05-08T12:07:17Z</time>
      </trkpt>
      <trkpt lat="39.91107005374892" lon="116.65314398542328">
        <ele>30.605308532714844</ele>
        <time>2018-05-08T12:07:19Z</time>
      </trkpt>
      <trkpt lat="39.91101715617108" lon="116.6530901400586">
        <ele>30.48870086669922</ele>
        <time>2018-05-08T12:07:21Z</time>
      </trkpt>
      <trkpt lat="39.910975208039176" lon="116.65306321926211">
        <ele>30.49746322631836</ele>
        <time>2018-05-08T12:07:23Z</time>
      </trkpt>
      <trkpt lat="39.91093220989238" lon="116.65306322453834">
        <ele>30.804893493652344</ele>
        <time>2018-05-08T12:07:27Z</time>
      </trkpt>
      <trkpt lat="39.91091213844567" lon="116.6531021200281">
        <ele>30.766332626342773</ele>
        <time>2018-05-08T12:07:31Z</time>
      </trkpt>
      <trkpt lat="39.91091102350467" lon="116.65316395005931">
        <ele>30.40141487121582</ele>
        <time>2018-05-08T12:07:35Z</time>
      </trkpt>
      <trkpt lat="39.91092390421037" lon="116.65322777282712">
        <ele>30.051433563232422</ele>
        <time>2018-05-08T12:07:37Z</time>
      </trkpt>
      <trkpt lat="39.91094080697604" lon="116.65327962799229">
        <ele>29.609359741210938</ele>
        <time>2018-05-08T12:07:39Z</time>
      </trkpt>
      <trkpt lat="39.91096273734681" lon="116.65331652369763">
        <ele>28.960256576538086</ele>
        <time>2018-05-08T12:07:41Z</time>
      </trkpt>
      <trkpt lat="39.910999667057624" lon="116.65335341754243">
        <ele>28.222122192382812</ele>
        <time>2018-05-08T12:07:43Z</time>
      </trkpt>
      <trkpt lat="39.91111248574878" lon="116.6534481426825">
        <ele>27.41237449645996</ele>
        <time>2018-05-08T12:07:45Z</time>
      </trkpt>
      <trkpt lat="39.911244279371246" lon="116.65355582961878">
        <ele>24.996965408325195</ele>
        <time>2018-05-08T12:07:51Z</time>
      </trkpt>
      <trkpt lat="39.911384066958426" lon="116.65366650715383">
        <ele>24.255020141601562</ele>
        <time>2018-05-08T12:07:53Z</time>
      </trkpt>
      <trkpt lat="39.91147294593749" lon="116.65372932288463">
        <ele>23.516672134399414</ele>
        <time>2018-05-08T12:07:55Z</time>
      </trkpt>
      <trkpt lat="39.91156183790691" lon="116.6537851578291">
        <ele>22.701824188232422</ele>
        <time>2018-05-08T12:07:57Z</time>
      </trkpt>
      <trkpt lat="39.911640745169564" lon="116.65383301598472">
        <ele>21.837528228759766</ele>
        <time>2018-05-08T12:07:59Z</time>
      </trkpt>
      <trkpt lat="39.91169767942307" lon="116.65386691536422">
        <ele>20.95883560180664</ele>
        <time>2018-05-08T12:08:01Z</time>
      </trkpt>
      <trkpt lat="39.91174461782005" lon="116.65389882146367">
        <ele>20.032752990722656</ele>
        <time>2018-05-08T12:08:03Z</time>
      </trkpt>
      <trkpt lat="39.91178455650842" lon="116.65393072840808">
        <ele>18.963592529296875</ele>
        <time>2018-05-08T12:08:05Z</time>
      </trkpt>
      <trkpt lat="39.91182948752152" lon="116.65396662370358">
        <ele>17.963966369628906</ele>
        <time>2018-05-08T12:08:07Z</time>
      </trkpt>
      <trkpt lat="39.91186841505419" lon="116.65400451420604">
        <ele>16.93465232849121</ele>
        <time>2018-05-08T12:08:09Z</time>
      </trkpt>
      <trkpt lat="39.91191333858877" lon="116.65404439843945">
        <ele>14.927566528320312</ele>
        <time>2018-05-08T12:08:13Z</time>
      </trkpt>
      <trkpt lat="39.91195227168555" lon="116.65407929717169">
        <ele>14.011131286621094</ele>
        <time>2018-05-08T12:08:15Z</time>
      </trkpt>
      <trkpt lat="39.91200719289896" lon="116.65412017737903">
        <ele>13.151276588439941</ele>
        <time>2018-05-08T12:08:17Z</time>
      </trkpt>
      <trkpt lat="39.912053116348076" lon="116.65416006142608">
        <ele>12.185494422912598</ele>
        <time>2018-05-08T12:08:19Z</time>
      </trkpt>
      <trkpt lat="39.91209804355544" lon="116.654197951091">
        <ele>10.078789710998535</ele>
        <time>2018-05-08T12:08:23Z</time>
      </trkpt>
      <trkpt lat="39.912128986272585" lon="116.65422786452613">
        <ele>9.200482368469238</ele>
        <time>2018-05-08T12:08:25Z</time>
      </trkpt>
      <trkpt lat="39.912172913499425" lon="116.65426575427875">
        <ele>8.396883010864258</ele>
        <time>2018-05-08T12:08:27Z</time>
      </trkpt>
      <trkpt lat="39.91222082934595" lon="116.65430962696132">
        <ele>6.718766212463379</ele>
        <time>2018-05-08T12:08:31Z</time>
      </trkpt>
      <trkpt lat="39.91226674899355" lon="116.65435150538438">
        <ele>5.856939315795898</ele>
        <time>2018-05-08T12:08:33Z</time>
      </trkpt>
      <trkpt lat="39.91230967435417" lon="116.65439039243525">
        <ele>4.942041397094727</ele>
        <time>2018-05-08T12:08:35Z</time>
      </trkpt>
      <trkpt lat="39.91235159040862" lon="116.65443426578057">
        <ele>4.225963115692139</ele>
        <time>2018-05-08T12:08:37Z</time>
      </trkpt>
      <trkpt lat="39.912411468321835" lon="116.65449808164345">
        <ele>3.6818339824676514</ele>
        <time>2018-05-08T12:08:39Z</time>
      </trkpt>
      <trkpt lat="39.91247533481727" lon="116.65456788038082">
        <ele>3.1128013134002686</ele>
        <time>2018-05-08T12:08:41Z</time>
      </trkpt>
      <trkpt lat="39.91253422764804" lon="116.65462371836651">
        <ele>2.737031936645508</ele>
        <time>2018-05-08T12:08:43Z</time>
      </trkpt>
      <trkpt lat="39.91258514135614" lon="116.65466858770587">
        <ele>2.1305932998657227</ele>
        <time>2018-05-08T12:08:45Z</time>
      </trkpt>
      <trkpt lat="39.91263806804808" lon="116.65470647612992">
        <ele>1.6699156761169434</ele>
        <time>2018-05-08T12:08:47Z</time>
      </trkpt>
      <trkpt lat="39.91270297738411" lon="116.65475333816981">
        <ele>1.6818702220916748</ele>
        <time>2018-05-08T12:08:49Z</time>
      </trkpt>
      <trkpt lat="39.91277690127872" lon="116.65479222120688">
        <ele>1.8546072244644165</ele>
        <time>2018-05-08T12:08:51Z</time>
      </trkpt>
      <trkpt lat="39.91284883085832" lon="116.65482811277009">
        <ele>2.3272078037261963</ele>
        <time>2018-05-08T12:08:53Z</time>
      </trkpt>
      <trkpt lat="39.91291377569433" lon="116.6548560273136">
        <ele>2.807164430618286</ele>
        <time>2018-05-08T12:08:55Z</time>
      </trkpt>
      <trkpt lat="39.91295973443493" lon="116.6548769635522">
        <ele>3.1030611991882324</ele>
        <time>2018-05-08T12:08:57Z</time>
      </trkpt>
      <trkpt lat="39.913005708141746" lon="116.65488992192624">
        <ele>3.315150022506714</ele>
        <time>2018-05-08T12:08:59Z</time>
      </trkpt>
      <trkpt lat="39.91305667227688" lon="116.65490786584512">
        <ele>3.4382169246673584</ele>
        <time>2018-05-08T12:09:03Z</time>
      </trkpt>
      <trkpt lat="39.9131086363668" lon="116.65492580963698">
        <ele>2.994081497192383</ele>
        <time>2018-05-08T12:09:09Z</time>
      </trkpt>
      <trkpt lat="39.91315558943802" lon="116.65494973742864">
        <ele>2.6791484355926514</ele>
        <time>2018-05-08T12:09:11Z</time>
      </trkpt>
      <trkpt lat="39.91320153131565" lon="116.65497964872337">
        <ele>2.3731021881103516</ele>
        <time>2018-05-08T12:09:13Z</time>
      </trkpt>
      <trkpt lat="39.913254457908394" lon="116.65501753699351">
        <ele>2.25392746925354</ele>
        <time>2018-05-08T12:09:15Z</time>
      </trkpt>
      <trkpt lat="39.91331637099579" lon="116.65506240475172">
        <ele>2.160019874572754</ele>
        <time>2018-05-08T12:09:17Z</time>
      </trkpt>
      <trkpt lat="39.913386276232075" lon="116.65511126042014">
        <ele>2.1243979930877686</ele>
        <time>2018-05-08T12:09:19Z</time>
      </trkpt>
      <trkpt lat="39.91344318762449" lon="116.65515712596763">
        <ele>2.2367804050445557</ele>
        <time>2018-05-08T12:09:21Z</time>
      </trkpt>
      <trkpt lat="39.91349510670842" lon="116.65519900318864">
        <ele>2.388620376586914</ele>
        <time>2018-05-08T12:09:23Z</time>
      </trkpt>
      <trkpt lat="39.913529045288286" lon="116.65523091031793">
        <ele>2.414020538330078</ele>
        <time>2018-05-08T12:09:25Z</time>
      </trkpt>
      <trkpt lat="39.913561982027964" lon="116.65526381478486">
        <ele>2.381528854370117</ele>
        <time>2018-05-08T12:09:29Z</time>
      </trkpt>
      <trkpt lat="39.91359790925696" lon="116.65530170500585">
        <ele>2.530006170272827</ele>
        <time>2018-05-08T12:09:31Z</time>
      </trkpt>
      <trkpt lat="39.91364581721073" lon="116.65534956600172">
        <ele>2.7822465896606445</ele>
        <time>2018-05-08T12:09:33Z</time>
      </trkpt>
      <trkpt lat="39.91371370178479" lon="116.65540939122387">
        <ele>3.027284860610962</ele>
        <time>2018-05-08T12:09:35Z</time>
      </trkpt>
      <trkpt lat="39.91379357456051" lon="116.65547519827824">
        <ele>3.1142029762268066</ele>
        <time>2018-05-08T12:09:37Z</time>
      </trkpt>
      <trkpt lat="39.91388442618735" lon="116.65555197339395">
        <ele>3.201486110687256</ele>
        <time>2018-05-08T12:09:39Z</time>
      </trkpt>
      <trkpt lat="39.91396430639657" lon="116.6556137914394">
        <ele>3.249011993408203</ele>
        <time>2018-05-08T12:09:41Z</time>
      </trkpt>
      <trkpt lat="39.914026226775434" lon="116.6556546699716">
        <ele>3.3050098419189453</ele>
        <time>2018-05-08T12:09:45Z</time>
      </trkpt>
      <trkpt lat="39.91408415294565" lon="116.65569255730757">
        <ele>3.304511785507202</ele>
        <time>2018-05-08T12:09:49Z</time>
      </trkpt>
      <trkpt lat="39.914138071761975" lon="116.65573443400508">
        <ele>3.247978687286377</ele>
        <time>2018-05-08T12:09:51Z</time>
      </trkpt>
      <trkpt lat="39.91419296609882" lon="116.6557892744357">
        <ele>3.0787508487701416</ele>
        <time>2018-05-08T12:09:53Z</time>
      </trkpt>
      <trkpt lat="39.914232892996026" lon="116.65582716392097">
        <ele>2.8282904624938965</ele>
        <time>2018-05-08T12:09:55Z</time>
      </trkpt>
      <trkpt lat="39.9142877910516" lon="116.65588000985028">
        <ele>2.6835906505584717</ele>
        <time>2018-05-08T12:09:57Z</time>
      </trkpt>
      <trkpt lat="39.91434469087996" lon="116.65593185828105">
        <ele>2.5574424266815186</ele>
        <time>2018-05-08T12:09:59Z</time>
      </trkpt>
      <trkpt lat="39.91441056209872" lon="116.6559986638571">
        <ele>2.4572696685791016</ele>
        <time>2018-05-08T12:10:01Z</time>
      </trkpt>
      <trkpt lat="39.91446743366602" lon="116.65606547048611">
        <ele>2.2622509002685547</ele>
        <time>2018-05-08T12:10:03Z</time>
      </trkpt>
      <trkpt lat="39.914527274966616" lon="116.65614823216816">
        <ele>1.8352811336517334</ele>
        <time>2018-05-08T12:10:07Z</time>
      </trkpt>
      <trkpt lat="39.91458011651229" lon="116.6562309946306">
        <ele>1.1492857933044434</ele>
        <time>2018-05-08T12:10:11Z</time>
      </trkpt>
      <trkpt lat="39.91462996189884" lon="116.65631176295238">
        <ele>1.0894482135772705</ele>
        <time>2018-05-08T12:10:13Z</time>
      </trkpt>
      <trkpt lat="39.91466983591233" lon="116.65637757421335">
        <ele>1.1895612478256226</ele>
        <time>2018-05-08T12:10:15Z</time>
      </trkpt>
      <trkpt lat="39.91469872354782" lon="116.65643640628063">
        <ele>1.319489598274231</ele>
        <time>2018-05-08T12:10:17Z</time>
      </trkpt>
      <trkpt lat="39.91472161329675" lon="116.6564942418329">
        <ele>1.3244577646255493</ele>
        <time>2018-05-08T12:10:19Z</time>
      </trkpt>
      <trkpt lat="39.914729514966545" lon="116.65654609591574">
        <ele>1.5222455263137817</ele>
        <time>2018-05-08T12:10:25Z</time>
      </trkpt>
      <trkpt lat="39.914972763371274" lon="116.65693796960456">
        <ele>-1.5661190748214722</ele>
        <time>2018-05-08T12:10:50Z</time>
      </trkpt>
      <trkpt lat="39.91498466092726" lon="116.65699181735867">
        <ele>0.7448290586471558</ele>
        <time>2018-05-08T12:10:53Z</time>
      </trkpt>
      <trkpt lat="39.91500045065161" lon="116.65710250537659">
        <ele>4.357495307922363</ele>
        <time>2018-05-08T12:10:55Z</time>
      </trkpt>
      <trkpt lat="39.9150471615008" lon="116.65725407486427">
        <ele>15.452067375183105</ele>
        <time>2018-05-08T12:10:59Z</time>
      </trkpt>
      <trkpt lat="39.915093855174696" lon="116.65741461894163">
        <ele>20.416202545166016</ele>
        <time>2018-05-08T12:11:03Z</time>
      </trkpt>
      <trkpt lat="39.91512566091974" lon="116.65751632968563">
        <ele>20.863677978515625</ele>
        <time>2018-05-08T12:11:05Z</time>
      </trkpt>
      <trkpt lat="39.915135548886475" lon="116.65757516336878">
        <ele>21.499435424804688</ele>
        <time>2018-05-08T12:11:09Z</time>
      </trkpt>
      <trkpt lat="39.91515945137323" lon="116.6576260176877">
        <ele>21.81075668334961</ele>
        <time>2018-05-08T12:11:13Z</time>
      </trkpt>
      <trkpt lat="39.915201341723034" lon="116.65768285297139">
        <ele>21.822172164916992</ele>
        <time>2018-05-08T12:11:15Z</time>
      </trkpt>
      <trkpt lat="39.91524923179704" lon="116.65773968748513">
        <ele>21.703109741210938</ele>
        <time>2018-05-08T12:11:17Z</time>
      </trkpt>
      <trkpt lat="39.915299114192045" lon="116.65780051051829">
        <ele>21.64690399169922</ele>
        <time>2018-05-08T12:11:19Z</time>
      </trkpt>
      <trkpt lat="39.9153460288833" lon="116.65784438150312">
        <ele>21.67051124572754</ele>
        <time>2018-05-08T12:11:21Z</time>
      </trkpt>
      <trkpt lat="39.915382926941575" lon="116.65789722848432">
        <ele>21.567350387573242</ele>
        <time>2018-05-08T12:11:23Z</time>
      </trkpt>
      <trkpt lat="39.91540484077303" lon="116.65794209969854">
        <ele>21.609582901000977</ele>
        <time>2018-05-08T12:11:25Z</time>
      </trkpt>
      <trkpt lat="39.91544770254582" lon="116.65801389264166">
        <ele>21.656810760498047</ele>
        <time>2018-05-08T12:11:27Z</time>
      </trkpt>
      <trkpt lat="39.91550156002924" lon="116.65808767857574">
        <ele>21.742321014404297</ele>
        <time>2018-05-08T12:11:29Z</time>
      </trkpt>
      <trkpt lat="39.91562327998986" lon="116.65823225698047">
        <ele>21.874778747558594</ele>
        <time>2018-05-08T12:11:31Z</time>
      </trkpt>
      <trkpt lat="39.91574400366052" lon="116.65837484092228">
        <ele>23.29770851135254</ele>
        <time>2018-05-08T12:11:35Z</time>
      </trkpt>
      <trkpt lat="39.9158687194501" lon="116.65852141295271">
        <ele>24.26331329345703</ele>
        <time>2018-05-08T12:11:37Z</time>
      </trkpt>
      <trkpt lat="39.915948524353155" lon="116.65862211951465">
        <ele>25.010873794555664</ele>
        <time>2018-05-08T12:11:39Z</time>
      </trkpt>
      <trkpt lat="39.91601534873805" lon="116.65871285567562">
        <ele>25.67059326171875</ele>
        <time>2018-05-08T12:11:41Z</time>
      </trkpt>
      <trkpt lat="39.916072205789064" lon="116.65878664076125">
        <ele>25.78976058959961</ele>
        <time>2018-05-08T12:11:43Z</time>
      </trkpt>
      <trkpt lat="39.91611609375521" lon="116.65884447236408">
        <ele>25.811309814453125</ele>
        <time>2018-05-08T12:11:45Z</time>
      </trkpt>
      <trkpt lat="39.916149003067915" lon="116.65889133620911">
        <ele>25.6850528717041</ele>
        <time>2018-05-08T12:11:49Z</time>
      </trkpt>
      <trkpt lat="39.916181912368444" lon="116.65893820003485">
        <ele>25.626066207885742</ele>
        <time>2018-05-08T12:11:51Z</time>
      </trkpt>
      <trkpt lat="39.91620583344043" lon="116.65897908181762">
        <ele>25.439393997192383</ele>
        <time>2018-05-08T12:11:53Z</time>
      </trkpt>
      <trkpt lat="39.916230754460905" lon="116.65901996346288">
        <ele>25.311527252197266</ele>
        <time>2018-05-08T12:11:55Z</time>
      </trkpt>
      <trkpt lat="39.916262650464404" lon="116.659073807673">
        <ele>25.170387268066406</ele>
        <time>2018-05-08T12:11:57Z</time>
      </trkpt>
      <trkpt lat="39.91629553500248" lon="116.65913363485822">
        <ele>25.021560668945312</ele>
        <time>2018-05-08T12:11:59Z</time>
      </trkpt>
      <trkpt lat="39.916330419436676" lon="116.65919346176699">
        <ele>24.984634399414062</ele>
        <time>2018-05-08T12:12:01Z</time>
      </trkpt>
      <trkpt lat="39.91636032118017" lon="116.65924431458488">
        <ele>24.99604034423828</ele>
        <time>2018-05-08T12:12:03Z</time>
      </trkpt>
      <trkpt lat="39.916394215132264" lon="116.65929915563216">
        <ele>25.054271697998047</ele>
        <time>2018-05-08T12:12:05Z</time>
      </trkpt>
      <trkpt lat="39.91643209938724" lon="116.65935898208869">
        <ele>25.07689094543457</ele>
        <time>2018-05-08T12:12:07Z</time>
      </trkpt>
      <trkpt lat="39.91647397584337" lon="116.65942279676258">
        <ele>25.070871353149414</ele>
        <time>2018-05-08T12:12:09Z</time>
      </trkpt>
      <trkpt lat="39.91651186386633" lon="116.65948062878951">
        <ele>25.048046112060547</ele>
        <time>2018-05-08T12:12:11Z</time>
      </trkpt>
      <trkpt lat="39.91654576346158" lon="116.65953247817822">
        <ele>25.03122901916504</ele>
        <time>2018-05-08T12:12:13Z</time>
      </trkpt>
      <trkpt lat="39.91658265720558" lon="116.65958731872635">
        <ele>24.90715217590332</ele>
        <time>2018-05-08T12:12:15Z</time>
      </trkpt>
      <trkpt lat="39.916633523687636" lon="116.65965611808886">
        <ele>24.778831481933594</ele>
        <time>2018-05-08T12:12:17Z</time>
      </trkpt>
      <trkpt lat="39.91669337072264" lon="116.65973488812914">
        <ele>24.687448501586914</ele>
        <time>2018-05-08T12:12:19Z</time>
      </trkpt>
      <trkpt lat="39.91674422191731" lon="116.65981166486421">
        <ele>24.687227249145508</ele>
        <time>2018-05-08T12:12:21Z</time>
      </trkpt>
      <trkpt lat="39.916779106145725" lon="116.65987149144269">
        <ele>24.680471420288086</ele>
        <time>2018-05-08T12:12:23Z</time>
      </trkpt>
      <trkpt lat="39.916805009790124" lon="116.65992134729308">
        <ele>24.516416549682617</ele>
        <time>2018-05-08T12:12:25Z</time>
      </trkpt>
      <trkpt lat="39.91682593078323" lon="116.6599622291155">
        <ele>24.334552764892578</ele>
        <time>2018-05-08T12:12:27Z</time>
      </trkpt>
      <trkpt lat="39.916856822760735" lon="116.66001806739648">
        <ele>24.04448127746582</ele>
        <time>2018-05-08T12:12:31Z</time>
      </trkpt>
      <trkpt lat="39.91689369541019" lon="116.66008387671154">
        <ele>23.460830688476562</ele>
        <time>2018-05-08T12:12:35Z</time>
      </trkpt>
      <trkpt lat="39.91693854482546" lon="116.66016165115795">
        <ele>23.09207534790039</ele>
        <time>2018-05-08T12:12:37Z</time>
      </trkpt>
      <trkpt lat="39.91697540217796" lon="116.66023543782991">
        <ele>22.72323226928711</ele>
        <time>2018-05-08T12:12:39Z</time>
      </trkpt>
      <trkpt lat="39.917019236325395" lon="116.66032118973466">
        <ele>22.145992279052734</ele>
        <time>2018-05-08T12:12:43Z</time>
      </trkpt>
      <trkpt lat="39.917065066540765" lon="116.66040893569414">
        <ele>21.85812759399414</ele>
        <time>2018-05-08T12:12:45Z</time>
      </trkpt>
      <trkpt lat="39.9171069159699" lon="116.66048671032452">
        <ele>21.580368041992188</ele>
        <time>2018-05-08T12:12:47Z</time>
      </trkpt>
      <trkpt lat="39.917135792635676" lon="116.66055052604574">
        <ele>21.325536727905273</ele>
        <time>2018-05-08T12:12:49Z</time>
      </trkpt>
      <trkpt lat="39.91712873186964" lon="116.66058243654115">
        <ele>21.09624671936035</ele>
        <time>2018-05-08T12:12:51Z</time>
      </trkpt>
      <trkpt lat="39.91711872656705" lon="116.6605854292995">
        <ele>20.688093185424805</ele>
        <time>2018-05-08T12:12:57Z</time>
      </trkpt>
      <trkpt lat="39.917105795810265" lon="116.66054953256102">
        <ele>20.246620178222656</ele>
        <time>2018-05-08T12:13:02Z</time>
      </trkpt>
      <trkpt lat="39.91711289663807" lon="116.66049668135213">
        <ele>20.082094192504883</ele>
        <time>2018-05-08T12:13:04Z</time>
      </trkpt>
      <trkpt lat="39.91711099783375" lon="116.66044383123096">
        <ele>19.76872444152832</ele>
        <time>2018-05-08T12:13:06Z</time>
      </trkpt>
      <trkpt lat="39.91709309206301" lon="116.66039497176776">
        <ele>19.426956176757812</ele>
        <time>2018-05-08T12:13:08Z</time>
      </trkpt>
      <trkpt lat="39.91705524815483" lon="116.66031420506042">
        <ele>19.019344329833984</ele>
        <time>2018-05-08T12:13:10Z</time>
      </trkpt>
      <trkpt lat="39.917014415784486" lon="116.66022745560382">
        <ele>18.189435958862305</ele>
        <time>2018-05-08T12:13:14Z</time>
      </trkpt>
      <trkpt lat="39.91697560426453" lon="116.66012973687477">
        <ele>17.85004425048828</ele>
        <time>2018-05-08T12:13:16Z</time>
      </trkpt>
      <trkpt lat="39.91694675225579" lon="116.66005295762123">
        <ele>17.450349807739258</ele>
        <time>2018-05-08T12:13:18Z</time>
      </trkpt>
      <trkpt lat="39.916909927234265" lon="116.65996221878153">
        <ele>17.004091262817383</ele>
        <time>2018-05-08T12:13:20Z</time>
      </trkpt>
      <trkpt lat="39.91686209882844" lon="116.6598734755944">
        <ele>16.265743255615234</ele>
        <time>2018-05-08T12:13:23Z</time>
      </trkpt>
      <trkpt lat="39.916807234492474" lon="116.6598036796609">
        <ele>15.995333671569824</ele>
        <time>2018-05-08T12:13:25Z</time>
      </trkpt>
      <trkpt lat="39.916741374406726" lon="116.6597318906778">
        <ele>16.052303314208984</ele>
        <time>2018-05-08T12:13:27Z</time>
      </trkpt>
      <trkpt lat="39.91667951793493" lon="116.65965810679614">
        <ele>15.898541450500488</ele>
        <time>2018-05-08T12:13:31Z</time>
      </trkpt>
      <trkpt lat="39.91662069938059" lon="116.65956437883177">
        <ele>15.829277992248535</ele>
        <time>2018-05-08T12:13:33Z</time>
      </trkpt>
      <trkpt lat="39.91656986521946" lon="116.65947862728692">
        <ele>15.71029281616211</ele>
        <time>2018-05-08T12:13:35Z</time>
      </trkpt>
      <trkpt lat="39.9165240174909" lon="116.65939985536166">
        <ele>15.710009574890137</ele>
        <time>2018-05-08T12:13:37Z</time>
      </trkpt>
      <trkpt lat="39.91647215096141" lon="116.65933105597847">
        <ele>15.670411109924316</ele>
        <time>2018-05-08T12:13:39Z</time>
      </trkpt>
      <trkpt lat="39.916423250044765" lon="116.65928020553457">
        <ele>15.758028984069824</ele>
        <time>2018-05-08T12:13:41Z</time>
      </trkpt>
      <trkpt lat="39.91637536428633" lon="116.65922137745503">
        <ele>15.64944076538086</ele>
        <time>2018-05-08T12:13:45Z</time>
      </trkpt>
      <trkpt lat="39.9163314840446" lon="116.65915955729353">
        <ele>15.64270305633545</ele>
        <time>2018-05-08T12:13:47Z</time>
      </trkpt>
      <trkpt lat="39.91627566322044" lon="116.65906682576046">
        <ele>15.702964782714844</ele>
        <time>2018-05-08T12:13:49Z</time>
      </trkpt>
      <trkpt lat="39.91621286735041" lon="116.65896113156305">
        <ele>16.080768585205078</ele>
        <time>2018-05-08T12:13:52Z</time>
      </trkpt>
      <trkpt lat="39.916116137445705" lon="116.6588215370002">
        <ele>16.379493713378906</ele>
        <time>2018-05-08T12:13:55Z</time>
      </trkpt>
      <trkpt lat="39.91603335177331" lon="116.65871085908063">
        <ele>17.06511878967285</ele>
        <time>2018-05-08T12:14:00Z</time>
      </trkpt>
    </trkseg>
  </trk>
</gpx>