<?xml version="1.0" encoding="UTF-8"?>
<gpx xmlns="http://www.topografix.com/GPX/1/1" xmlns:gpxtpx="http://www.garmin.com/xmlschemas/TrackPointExtension/v1" xmlns:xsi="http://www.w3.org/2001/XMLSchema-instance" xsi:schemaLocation="http://www.topografix.com/GPX/1/1 http://www.topografix.com/GPX/1/1/gpx.xsd" version="1.1" creator="gpx.py -- https://github.com/tkrajina/gpxpy">
  <trk>
    <name>gpx from codoon</name>
    <type>Run</type>
    <trkseg>
      <trkpt lat="39.917664034409455" lon="116.6452712988443">
        <ele>-43.980899810791016</ele>
        <time>2018-05-09T12:44:34Z</time>
      </trkpt>
      <trkpt lat="39.917661071301225" lon="116.64525035375594">
        <ele>-43.297908782958984</ele>
        <time>2018-05-09T12:44:35Z</time>
      </trkpt>
      <trkpt lat="39.91715124504711" lon="116.64516364205413">
        <ele>57.39885330200195</ele>
        <time>2018-05-09T12:45:03Z</time>
      </trkpt>
      <trkpt lat="39.91583467644042" lon="116.6449493606955">
        <ele>73.04668426513672</ele>
        <time>2018-05-09T12:46:02Z</time>
      </trkpt>
      <trkpt lat="39.915648640680175" lon="116.64497431870025">
        <ele>49.359249114990234</ele>
        <time>2018-05-09T12:46:04Z</time>
      </trkpt>
      <trkpt lat="39.91546665014711" lon="116.64497334356837">
        <ele>56.603797912597656</ele>
        <time>2018-05-09T12:46:15Z</time>
      </trkpt>
      <trkpt lat="39.91528370679756" lon="116.64494543849966">
        <ele>54.84281539916992</ele>
        <time>2018-05-09T12:46:17Z</time>
      </trkpt>
      <trkpt lat="39.915180650066596" lon="116.64498036043959">
        <ele>42.386199951171875</ele>
        <time>2018-05-09T12:46:19Z</time>
      </trkpt>
      <trkpt lat="39.91506363408216" lon="116.6449923436682">
        <ele>44.19609832763672</ele>
        <time>2018-05-09T12:46:29Z</time>
      </trkpt>
      <trkpt lat="39.91487157412318" lon="116.6450312660969">
        <ele>32.38350296020508</ele>
        <time>2018-05-09T12:46:31Z</time>
      </trkpt>
      <trkpt lat="39.91472956618579" lon="116.64503926274088">
        <ele>48.05957794189453</ele>
        <time>2018-05-09T12:46:42Z</time>
      </trkpt>
      <trkpt lat="39.91463257205976" lon="116.64503827720597">
        <ele>44.5301628112793</ele>
        <time>2018-05-09T12:46:44Z</time>
      </trkpt>
      <trkpt lat="39.914616647850636" lon="116.64499539060743">
        <ele>29.176288604736328</ele>
        <time>2018-05-09T12:46:46Z</time>
      </trkpt>
      <trkpt lat="39.91460368332843" lon="116.6449754440183">
        <ele>23.13018798828125</ele>
        <time>2018-05-09T12:46:48Z</time>
      </trkpt>
      <trkpt lat="39.91453968779836" lon="116.6449744544425">
        <ele>18.7183895111084</ele>
        <time>2018-05-09T12:46:50Z</time>
      </trkpt>
      <trkpt lat="39.91445667561663" lon="116.64498344128401">
        <ele>19.033754348754883</ele>
        <time>2018-05-09T12:46:52Z</time>
      </trkpt>
      <trkpt lat="39.91437965793992" lon="116.64499541961581">
        <ele>26.6055850982666</ele>
        <time>2018-05-09T12:46:54Z</time>
      </trkpt>
      <trkpt lat="39.914318636086925" lon="116.64500939080304">
        <ele>33.89032745361328</ele>
        <time>2018-05-09T12:46:56Z</time>
      </trkpt>
      <trkpt lat="39.91427460477254" lon="116.64502834694564">
        <ele>33.510398864746094</ele>
        <time>2018-05-09T12:46:58Z</time>
      </trkpt>
      <trkpt lat="39.91423754869125" lon="116.64506126592782">
        <ele>34.21695327758789</ele>
        <time>2018-05-09T12:47:00Z</time>
      </trkpt>
      <trkpt lat="39.91419848568545" lon="116.64509817475627">
        <ele>33.1236457824707</ele>
        <time>2018-05-09T12:47:02Z</time>
      </trkpt>
      <trkpt lat="39.91414843361815" lon="116.64512910046605">
        <ele>43.946128845214844</ele>
        <time>2018-05-09T12:47:06Z</time>
      </trkpt>
      <trkpt lat="39.91408943963015" lon="116.64512711287615">
        <ele>40.38056564331055</ele>
        <time>2018-05-09T12:47:10Z</time>
      </trkpt>
      <trkpt lat="39.91399650653242" lon="116.6450912176352">
        <ele>36.842281341552734</ele>
        <time>2018-05-09T12:47:12Z</time>
      </trkpt>
      <trkpt lat="39.91390859242165" lon="116.64504435026923">
        <ele>33.91354751586914</ele>
        <time>2018-05-09T12:47:18Z</time>
      </trkpt>
      <trkpt lat="39.91382064509087" lon="116.64501643361542">
        <ele>30.010934829711914</ele>
        <time>2018-05-09T12:47:20Z</time>
      </trkpt>
      <trkpt lat="39.913768647309794" lon="116.64501643997998">
        <ele>27.7710018157959</ele>
        <time>2018-05-09T12:47:22Z</time>
      </trkpt>
      <trkpt lat="39.91359462678759" lon="116.64503241980738">
        <ele>31.553245544433594</ele>
        <time>2018-05-09T12:47:24Z</time>
      </trkpt>
      <trkpt lat="39.91343059360714" lon="116.64505538025793">
        <ele>37.027034759521484</ele>
        <time>2018-05-09T12:47:41Z</time>
      </trkpt>
      <trkpt lat="39.91326554123849" lon="116.64508931229423">
        <ele>41.3609619140625</ele>
        <time>2018-05-09T12:47:43Z</time>
      </trkpt>
      <trkpt lat="39.91321951698431" lon="116.64510427902255">
        <ele>47.02295684814453</ele>
        <time>2018-05-09T12:47:45Z</time>
      </trkpt>
      <trkpt lat="39.913168358264336" lon="116.64519604655555">
        <ele>44.15399932861328</ele>
        <time>2018-05-09T12:47:47Z</time>
      </trkpt>
      <trkpt lat="39.91315017873242" lon="116.64529878128218">
        <ele>41.135066986083984</ele>
        <time>2018-05-09T12:47:53Z</time>
      </trkpt>
      <trkpt lat="39.91314595284734" lon="116.64542744644146">
        <ele>38.36232376098633</ele>
        <time>2018-05-09T12:47:55Z</time>
      </trkpt>
      <trkpt lat="39.91318780546305" lon="116.64551022534872">
        <ele>36.1765022277832</ele>
        <time>2018-05-09T12:47:58Z</time>
      </trkpt>
      <trkpt lat="39.91322563882227" lon="116.64560397594045">
        <ele>39.003719329833984</ele>
        <time>2018-05-09T12:48:00Z</time>
      </trkpt>
      <trkpt lat="39.913285455280445" lon="116.64570670018007">
        <ele>34.61662673950195</ele>
        <time>2018-05-09T12:48:02Z</time>
      </trkpt>
      <trkpt lat="39.91330829074675" lon="116.64579945480789">
        <ele>33.46453094482422</ele>
        <time>2018-05-09T12:48:04Z</time>
      </trkpt>
      <trkpt lat="39.91329915385481" lon="116.64587725232892">
        <ele>32.597900390625</ele>
        <time>2018-05-09T12:48:06Z</time>
      </trkpt>
      <trkpt lat="39.91329797776216" lon="116.64597699125589">
        <ele>28.749345779418945</ele>
        <time>2018-05-09T12:48:08Z</time>
      </trkpt>
      <trkpt lat="39.91330082250548" lon="116.6460647608566">
        <ele>25.59908103942871</ele>
        <time>2018-05-09T12:48:12Z</time>
      </trkpt>
      <trkpt lat="39.91331868060566" lon="116.64614454938709">
        <ele>27.802001953125</ele>
        <time>2018-05-09T12:48:14Z</time>
      </trkpt>
      <trkpt lat="39.91332357977595" lon="116.64620139958875">
        <ele>26.35579490661621</ele>
        <time>2018-05-09T12:48:16Z</time>
      </trkpt>
      <trkpt lat="39.913331462868555" lon="116.64626722577997">
        <ele>28.567302703857422</ele>
        <time>2018-05-09T12:48:20Z</time>
      </trkpt>
      <trkpt lat="39.9133363336482" lon="116.64634003389916">
        <ele>29.69002342224121</ele>
        <time>2018-05-09T12:48:22Z</time>
      </trkpt>
      <trkpt lat="39.91334621828302" lon="116.64640486227105">
        <ele>27.89488983154297</ele>
        <time>2018-05-09T12:48:24Z</time>
      </trkpt>
      <trkpt lat="39.91336508830996" lon="116.64647766846063">
        <ele>30.993087768554688</ele>
        <time>2018-05-09T12:48:26Z</time>
      </trkpt>
      <trkpt lat="39.91339196322677" lon="116.64654748143327">
        <ele>30.55782127380371</ele>
        <time>2018-05-09T12:48:30Z</time>
      </trkpt>
      <trkpt lat="39.913386832348365" lon="116.64662128771309">
        <ele>29.880455017089844</ele>
        <time>2018-05-09T12:48:32Z</time>
      </trkpt>
      <trkpt lat="39.91337173195649" lon="116.64667813978257">
        <ele>25.683940887451172</ele>
        <time>2018-05-09T12:48:34Z</time>
      </trkpt>
      <trkpt lat="39.91336162952812" lon="116.64673598854208">
        <ele>22.497127532958984</ele>
        <time>2018-05-09T12:48:36Z</time>
      </trkpt>
      <trkpt lat="39.91337449411951" lon="116.64681178706131">
        <ele>19.058469772338867</ele>
        <time>2018-05-09T12:48:38Z</time>
      </trkpt>
      <trkpt lat="39.913384333885766" lon="116.64690154896991">
        <ele>30.838716506958008</ele>
        <time>2018-05-09T12:48:41Z</time>
      </trkpt>
      <trkpt lat="39.91341915113018" lon="116.64700327603036">
        <ele>15.975467681884766</ele>
        <time>2018-05-09T12:48:47Z</time>
      </trkpt>
      <trkpt lat="39.913461916271764" lon="116.6471339254125">
        <ele>25.73159408569336</ele>
        <time>2018-05-09T12:48:49Z</time>
      </trkpt>
      <trkpt lat="39.91353466918877" lon="116.64727055492374">
        <ele>33.37355422973633</ele>
        <time>2018-05-09T12:48:53Z</time>
      </trkpt>
      <trkpt lat="39.91355847564732" lon="116.64737826669712">
        <ele>67.37417602539062</ele>
        <time>2018-05-09T12:48:55Z</time>
      </trkpt>
      <trkpt lat="39.913566378983674" lon="116.6474321229845">
        <ele>35.07613754272461</ele>
        <time>2018-05-09T12:48:57Z</time>
      </trkpt>
      <trkpt lat="39.913559300766714" lon="116.64747600749742">
        <ele>32.31059646606445</ele>
        <time>2018-05-09T12:48:59Z</time>
      </trkpt>
      <trkpt lat="39.91360413994314" lon="116.64756476653204">
        <ele>28.749465942382812</ele>
        <time>2018-05-09T12:49:01Z</time>
      </trkpt>
      <trkpt lat="39.913645984495666" lon="116.64765053371859">
        <ele>34.26321029663086</ele>
        <time>2018-05-09T12:49:03Z</time>
      </trkpt>
      <trkpt lat="39.913672818851175" lon="116.64774228669397">
        <ele>47.30391311645508</ele>
        <time>2018-05-09T12:49:05Z</time>
      </trkpt>
      <trkpt lat="39.91365568360117" lon="116.6478180873172">
        <ele>52.219844818115234</ele>
        <time>2018-05-09T12:49:08Z</time>
      </trkpt>
      <trkpt lat="39.91364653539171" lon="116.64790086827354">
        <ele>53.14363479614258</ele>
        <time>2018-05-09T12:49:11Z</time>
      </trkpt>
      <trkpt lat="39.913648402742915" lon="116.64797467163825">
        <ele>54.32902145385742</ele>
        <time>2018-05-09T12:49:13Z</time>
      </trkpt>
      <trkpt lat="39.91366327842649" lon="116.64804348658232">
        <ele>64.10688781738281</ele>
        <time>2018-05-09T12:49:16Z</time>
      </trkpt>
      <trkpt lat="39.913660133284296" lon="116.6481242717479">
        <ele>67.62097930908203</ele>
        <time>2018-05-09T12:49:18Z</time>
      </trkpt>
      <trkpt lat="39.91354690411262" lon="116.64880845778781">
        <ele>36.20587921142578</ele>
        <time>2018-05-09T12:49:46Z</time>
      </trkpt>
      <trkpt lat="39.91364980952528" lon="116.64885831160016">
        <ele>33.70970153808594</ele>
        <time>2018-05-09T12:49:50Z</time>
      </trkpt>
      <trkpt lat="39.91378174073861" lon="116.64889320189977">
        <ele>42.34287643432617</ele>
        <time>2018-05-09T12:49:54Z</time>
      </trkpt>
      <trkpt lat="39.913883685852824" lon="116.64892111456366">
        <ele>10.738203048706055</ele>
        <time>2018-05-09T12:50:00Z</time>
      </trkpt>
      <trkpt lat="39.913945605582406" lon="116.6489639920098">
        <ele>12.909867286682129</ele>
        <time>2018-05-09T12:50:02Z</time>
      </trkpt>
      <trkpt lat="39.91394948621728" lon="116.64902981500835">
        <ele>14.54519271850586</ele>
        <time>2018-05-09T12:50:04Z</time>
      </trkpt>
      <trkpt lat="39.91394734536165" lon="116.64910760654418">
        <ele>16.194477081298828</ele>
        <time>2018-05-09T12:50:06Z</time>
      </trkpt>
      <trkpt lat="39.91393221402222" lon="116.64918041294935">
        <ele>18.38390350341797</ele>
        <time>2018-05-09T12:50:08Z</time>
      </trkpt>
      <trkpt lat="39.9139111081985" lon="116.64923925749798">
        <ele>19.098331451416016</ele>
        <time>2018-05-09T12:50:10Z</time>
      </trkpt>
      <trkpt lat="39.91389801103752" lon="116.64929311440169">
        <ele>17.986684799194336</ele>
        <time>2018-05-09T12:50:12Z</time>
      </trkpt>
      <trkpt lat="39.91389391345445" lon="116.64934697014853">
        <ele>17.74993133544922</ele>
        <time>2018-05-09T12:50:14Z</time>
      </trkpt>
      <trkpt lat="39.91389179763425" lon="116.64941079877642">
        <ele>17.569900512695312</ele>
        <time>2018-05-09T12:50:16Z</time>
      </trkpt>
      <trkpt lat="39.91388868542796" lon="116.6494726328183">
        <ele>16.904333114624023</ele>
        <time>2018-05-09T12:50:18Z</time>
      </trkpt>
      <trkpt lat="39.91389656001099" lon="116.64954144665057">
        <ele>15.911812782287598</ele>
        <time>2018-05-09T12:50:20Z</time>
      </trkpt>
      <trkpt lat="39.91390243461791" lon="116.64961026064128">
        <ele>14.850959777832031</ele>
        <time>2018-05-09T12:50:23Z</time>
      </trkpt>
      <trkpt lat="39.91391329806069" lon="116.64968505781033">
        <ele>13.71972942352295</ele>
        <time>2018-05-09T12:50:25Z</time>
      </trkpt>
      <trkpt lat="39.91391718170474" lon="116.64974888530784">
        <ele>13.584676742553711</ele>
        <time>2018-05-09T12:50:27Z</time>
      </trkpt>
      <trkpt lat="39.91391905084855" lon="116.64982069146087">
        <ele>13.502821922302246</ele>
        <time>2018-05-09T12:50:29Z</time>
      </trkpt>
      <trkpt lat="39.9139149401757" lon="116.64988152785476">
        <ele>13.4041109085083</ele>
        <time>2018-05-09T12:50:31Z</time>
      </trkpt>
      <trkpt lat="39.91389785910095" lon="116.64992640884142">
        <ele>13.300024032592773</ele>
        <time>2018-05-09T12:50:33Z</time>
      </trkpt>
      <trkpt lat="39.91387178747764" lon="116.64996630435643">
        <ele>13.356350898742676</ele>
        <time>2018-05-09T12:50:35Z</time>
      </trkpt>
      <trkpt lat="39.913848588341004" lon="116.6500760109307">
        <ele>13.398002624511719</ele>
        <time>2018-05-09T12:50:37Z</time>
      </trkpt>
      <trkpt lat="39.913849358886765" lon="116.65020167120991">
        <ele>14.267160415649414</ele>
        <time>2018-05-09T12:50:41Z</time>
      </trkpt>
      <trkpt lat="39.91388115890356" lon="116.65031037328237">
        <ele>14.984414100646973</ele>
        <time>2018-05-09T12:50:45Z</time>
      </trkpt>
      <trkpt lat="39.91393409101197" lon="116.65034626963626">
        <ele>15.839476585388184</ele>
        <time>2018-05-09T12:50:50Z</time>
      </trkpt>
      <trkpt lat="39.91397599986431" lon="116.65039513222122">
        <ele>16.51606559753418</ele>
        <time>2018-05-09T12:50:53Z</time>
      </trkpt>
      <trkpt lat="39.91400588730436" lon="116.65045596382762">
        <ele>17.024118423461914</ele>
        <time>2018-05-09T12:50:55Z</time>
      </trkpt>
      <trkpt lat="39.91402773487883" lon="116.65053873690601">
        <ele>17.569913864135742</ele>
        <time>2018-05-09T12:50:57Z</time>
      </trkpt>
      <trkpt lat="39.91404959698267" lon="116.65061353149427">
        <ele>18.030759811401367</ele>
        <time>2018-05-09T12:50:59Z</time>
      </trkpt>
      <trkpt lat="39.91405044163875" lon="116.65069830151248">
        <ele>18.400047302246094</ele>
        <time>2018-05-09T12:51:01Z</time>
      </trkpt>
      <trkpt lat="39.91171155493044" lon="116.65123612782374">
        <ele>-57.626121520996094</ele>
        <time>2018-05-09T12:52:36Z</time>
      </trkpt>
      <trkpt lat="39.91158838961156" lon="116.6513288904445">
        <ele>-52.31306076049805</ele>
        <time>2018-05-09T12:52:40Z</time>
      </trkpt>
      <trkpt lat="39.91152026222068" lon="116.65139970594781">
        <ele>-47.809268951416016</ele>
        <time>2018-05-09T12:52:43Z</time>
      </trkpt>
      <trkpt lat="39.91150316747305" lon="116.6514515667485">
        <ele>-44.52759552001953</ele>
        <time>2018-05-09T12:52:45Z</time>
      </trkpt>
      <trkpt lat="39.91148508559647" lon="116.6514964466554">
        <ele>-39.62753677368164</ele>
        <time>2018-05-09T12:52:48Z</time>
      </trkpt>
      <trkpt lat="39.911468933779425" lon="116.65157922295487">
        <ele>-36.43019485473633</ele>
        <time>2018-05-09T12:52:50Z</time>
      </trkpt>
      <trkpt lat="39.91146777756145" lon="116.65166399186174">
        <ele>-29.73405647277832</ele>
        <time>2018-05-09T12:52:55Z</time>
      </trkpt>
      <trkpt lat="39.911513372607324" lon="116.6518823899656">
        <ele>-27.114721298217773</ele>
        <time>2018-05-09T12:52:57Z</time>
      </trkpt>
      <trkpt lat="39.91156201308182" lon="116.65207585513123">
        <ele>-7.020202159881592</ele>
        <time>2018-05-09T12:53:16Z</time>
      </trkpt>
      <trkpt lat="39.91162966893751" lon="116.65226034194973">
        <ele>-3.808928966522217</ele>
        <time>2018-05-09T12:53:19Z</time>
      </trkpt>
      <trkpt lat="39.9116725692656" lon="116.65231319194696">
        <ele>-1.632765769958496</ele>
        <time>2018-05-09T12:53:21Z</time>
      </trkpt>
      <trkpt lat="39.91172942464111" lon="116.65238997461229">
        <ele>0.49561241269111633</ele>
        <time>2018-05-09T12:53:23Z</time>
      </trkpt>
      <trkpt lat="39.9117832689965" lon="116.6524727411532">
        <ele>4.642190933227539</ele>
        <time>2018-05-09T12:53:28Z</time>
      </trkpt>
      <trkpt lat="39.91184710545503" lon="116.65255949542237">
        <ele>5.680299282073975</ele>
        <time>2018-05-09T12:53:30Z</time>
      </trkpt>
      <trkpt lat="39.911900018129685" lon="116.65260536309829">
        <ele>6.674578666687012</ele>
        <time>2018-05-09T12:53:32Z</time>
      </trkpt>
      <trkpt lat="39.91194492557719" lon="116.65265422351459">
        <ele>7.539772987365723</ele>
        <time>2018-05-09T12:53:34Z</time>
      </trkpt>
      <trkpt lat="39.911996795694094" lon="116.65272302829106">
        <ele>8.271775245666504</ele>
        <time>2018-05-09T12:53:36Z</time>
      </trkpt>
      <trkpt lat="39.91207766821895" lon="116.65278983491443">
        <ele>9.387357711791992</ele>
        <time>2018-05-09T12:53:40Z</time>
      </trkpt>
      <trkpt lat="39.91216953837437" lon="116.65285763738122">
        <ele>9.887454986572266</ele>
        <time>2018-05-09T12:53:42Z</time>
      </trkpt>
      <trkpt lat="39.91223946870068" lon="116.65289353016391">
        <ele>10.26919937133789</ele>
        <time>2018-05-09T12:53:46Z</time>
      </trkpt>
      <trkpt lat="39.912285403748825" lon="116.652927431353">
        <ele>10.34429931640625</ele>
        <time>2018-05-09T12:53:48Z</time>
      </trkpt>
      <trkpt lat="39.91234031431171" lon="116.65297429578695">
        <ele>10.128067970275879</ele>
        <time>2018-05-09T12:53:50Z</time>
      </trkpt>
      <trkpt lat="39.912424193952575" lon="116.6530371127583">
        <ele>10.07837200164795</ele>
        <time>2018-05-09T12:53:52Z</time>
      </trkpt>
      <trkpt lat="39.91252005635105" lon="116.65310890351084">
        <ele>10.328060150146484</ele>
        <time>2018-05-09T12:53:54Z</time>
      </trkpt>
      <trkpt lat="39.912607930171376" lon="116.65317471163362">
        <ele>10.558570861816406</ele>
        <time>2018-05-09T12:53:56Z</time>
      </trkpt>
      <trkpt lat="39.9126838026073" lon="116.6532415184202">
        <ele>12.283592224121094</ele>
        <time>2018-05-09T12:53:58Z</time>
      </trkpt>
      <trkpt lat="39.91277863334325" lon="116.65333026239337">
        <ele>15.173492431640625</ele>
        <time>2018-05-09T12:54:01Z</time>
      </trkpt>
      <trkpt lat="39.912872443611896" lon="116.65342997614987">
        <ele>16.802669525146484</ele>
        <time>2018-05-09T12:54:06Z</time>
      </trkpt>
      <trkpt lat="39.91294426773414" lon="116.65352271170711">
        <ele>17.953222274780273</ele>
        <time>2018-05-09T12:54:09Z</time>
      </trkpt>
      <trkpt lat="39.912987152508606" lon="116.65358353870712">
        <ele>18.648731231689453</ele>
        <time>2018-05-09T12:54:11Z</time>
      </trkpt>
      <trkpt lat="39.91301507693971" lon="116.65362342526001">
        <ele>19.416547775268555</ele>
        <time>2018-05-09T12:54:13Z</time>
      </trkpt>
      <trkpt lat="39.91305898393178" lon="116.65367228506591">
        <ele>20.3177547454834</ele>
        <time>2018-05-09T12:54:15Z</time>
      </trkpt>
      <trkpt lat="39.91312187148357" lon="116.65373111498594">
        <ele>21.988601684570312</ele>
        <time>2018-05-09T12:54:19Z</time>
      </trkpt>
      <trkpt lat="39.91318576268172" lon="116.65378795024003">
        <ele>22.78910255432129</ele>
        <time>2018-05-09T12:54:21Z</time>
      </trkpt>
      <trkpt lat="39.91324367830586" lon="116.65383182198143">
        <ele>23.476064682006836</ele>
        <time>2018-05-09T12:54:23Z</time>
      </trkpt>
      <trkpt lat="39.913308573131275" lon="116.65388666254073">
        <ele>24.27156639099121</ele>
        <time>2018-05-09T12:54:25Z</time>
      </trkpt>
      <trkpt lat="39.91337746962008" lon="116.65394050532197">
        <ele>25.090272903442383</ele>
        <time>2018-05-09T12:54:27Z</time>
      </trkpt>
      <trkpt lat="39.913450349143396" lon="116.65400332276964">
        <ele>25.98623275756836</ele>
        <time>2018-05-09T12:54:29Z</time>
      </trkpt>
      <trkpt lat="39.91350624799281" lon="116.65405616981595">
        <ele>27.071020126342773</ele>
        <time>2018-05-09T12:54:31Z</time>
      </trkpt>
      <trkpt lat="39.91358609545699" lon="116.65413593942537">
        <ele>29.65064811706543</ele>
        <time>2018-05-09T12:54:35Z</time>
      </trkpt>
      <trkpt lat="39.91367890500346" lon="116.65423565217382">
        <ele>40.17389678955078</ele>
        <time>2018-05-09T12:54:39Z</time>
      </trkpt>
      <trkpt lat="39.91377069023984" lon="116.65434832902389">
        <ele>58.87771987915039</ele>
        <time>2018-05-09T12:54:42Z</time>
      </trkpt>
      <trkpt lat="39.913819602287944" lon="116.65439419600916">
        <ele>64.26533508300781</ele>
        <time>2018-05-09T12:54:45Z</time>
      </trkpt>
      <trkpt lat="39.913810643738294" lon="116.65437225785625">
        <ele>65.14546966552734</ele>
        <time>2018-05-09T12:54:47Z</time>
      </trkpt>
      <trkpt lat="39.91377576467232" lon="116.65430843882088">
        <ele>66.09229278564453</ele>
        <time>2018-05-09T12:54:49Z</time>
      </trkpt>
      <trkpt lat="39.91374781811071" lon="116.65428051953327">
        <ele>67.144287109375</ele>
        <time>2018-05-09T12:54:51Z</time>
      </trkpt>
      <trkpt lat="39.91375981200139" lon="116.6542835097811">
        <ele>68.13705444335938</ele>
        <time>2018-05-09T12:54:55Z</time>
      </trkpt>
      <trkpt lat="39.91380177289247" lon="116.65430344942874">
        <ele>69.21864318847656</ele>
        <time>2018-05-09T12:54:59Z</time>
      </trkpt>
      <trkpt lat="39.91385870328135" lon="116.65433934306432">
        <ele>70.13307189941406</ele>
        <time>2018-05-09T12:55:03Z</time>
      </trkpt>
      <trkpt lat="39.91390860969114" lon="116.654388201649">
        <ele>70.58109283447266</ele>
        <time>2018-05-09T12:55:05Z</time>
      </trkpt>
      <trkpt lat="39.91395050148316" lon="116.6544450390895">
        <ele>70.86866760253906</ele>
        <time>2018-05-09T12:55:07Z</time>
      </trkpt>
      <trkpt lat="39.91398339736518" lon="116.65449988311694">
        <ele>71.1922378540039</ele>
        <time>2018-05-09T12:55:09Z</time>
      </trkpt>
      <trkpt lat="39.91402129861138" lon="116.65455173478027">
        <ele>71.66075134277344</ele>
        <time>2018-05-09T12:55:11Z</time>
      </trkpt>
      <trkpt lat="39.91405622051597" lon="116.65459261717871">
        <ele>72.43869018554688</ele>
        <time>2018-05-09T12:55:15Z</time>
      </trkpt>
      <trkpt lat="39.91409115922555" lon="116.65462452443342">
        <ele>72.72477722167969</ele>
        <time>2018-05-09T12:55:17Z</time>
      </trkpt>
      <trkpt lat="39.91412608671125" lon="116.65466241508669">
        <ele>72.68919372558594</ele>
        <time>2018-05-09T12:55:19Z</time>
      </trkpt>
      <trkpt lat="39.91419492485819" lon="116.6547471715676">
        <ele>72.4544677734375</ele>
        <time>2018-05-09T12:55:21Z</time>
      </trkpt>
      <trkpt lat="39.914280737898004" lon="116.65484488989627">
        <ele>71.15120697021484</ele>
        <time>2018-05-09T12:55:25Z</time>
      </trkpt>
      <trkpt lat="39.91437454864224" lon="116.6549436043503">
        <ele>70.4175033569336</ele>
        <time>2018-05-09T12:55:27Z</time>
      </trkpt>
      <trkpt lat="39.91443843921801" lon="116.65500043867489">
        <ele>69.72301483154297</ele>
        <time>2018-05-09T12:55:29Z</time>
      </trkpt>
      <trkpt lat="39.91448435300373" lon="116.65504530840505">
        <ele>69.07350158691406</ele>
        <time>2018-05-09T12:55:31Z</time>
      </trkpt>
      <trkpt lat="39.914524280138004" lon="116.65508319823746">
        <ele>68.32333374023438</ele>
        <time>2018-05-09T12:55:33Z</time>
      </trkpt>
      <trkpt lat="39.914562197979166" lon="116.65512607444404">
        <ele>67.52515411376953</ele>
        <time>2018-05-09T12:55:35Z</time>
      </trkpt>
      <trkpt lat="39.91460311192983" lon="116.65517094471643">
        <ele>66.75917053222656</ele>
        <time>2018-05-09T12:55:37Z</time>
      </trkpt>
      <trkpt lat="39.91464301653592" lon="116.65522080122709">
        <ele>65.95475006103516</ele>
        <time>2018-05-09T12:55:39Z</time>
      </trkpt>
      <trkpt lat="39.91469687741039" lon="116.65529359221689">
        <ele>65.20955657958984</ele>
        <time>2018-05-09T12:55:41Z</time>
      </trkpt>
      <trkpt lat="39.914751728821415" lon="116.6553713691492">
        <ele>63.82612609863281</ele>
        <time>2018-05-09T12:55:45Z</time>
      </trkpt>
      <trkpt lat="39.91481256679487" lon="116.65545612584637">
        <ele>63.179115295410156</ele>
        <time>2018-05-09T12:55:47Z</time>
      </trkpt>
      <trkpt lat="39.91485545614296" lon="116.65551395960802">
        <ele>62.652244567871094</ele>
        <time>2018-05-09T12:55:49Z</time>
      </trkpt>
      <trkpt lat="39.91489134388421" lon="116.65557279141223">
        <ele>62.18539810180664</ele>
        <time>2018-05-09T12:55:51Z</time>
      </trkpt>
      <trkpt lat="39.91491724516433" lon="116.65562464384051">
        <ele>61.62134552001953</ele>
        <time>2018-05-09T12:55:53Z</time>
      </trkpt>
      <trkpt lat="39.914943129521646" lon="116.65568547123871">
        <ele>61.09701156616211</ele>
        <time>2018-05-09T12:55:55Z</time>
      </trkpt>
      <trkpt lat="39.91497501171543" lon="116.65574729507695">
        <ele>60.656246185302734</ele>
        <time>2018-05-09T12:55:57Z</time>
      </trkpt>
      <trkpt lat="39.915006897636175" lon="116.6558071244273">
        <ele>60.307403564453125</ele>
        <time>2018-05-09T12:55:59Z</time>
      </trkpt>
      <trkpt lat="39.91503878352822" lon="116.65586695373486">
        <ele>59.957462310791016</ele>
        <time>2018-05-09T12:56:01Z</time>
      </trkpt>
      <trkpt lat="39.91506269416904" lon="116.65591382012707">
        <ele>59.631351470947266</ele>
        <time>2018-05-09T12:56:03Z</time>
      </trkpt>
      <trkpt lat="39.91509659496683" lon="116.65596567136056">
        <ele>59.327735900878906</ele>
        <time>2018-05-09T12:56:05Z</time>
      </trkpt>
      <trkpt lat="39.91513549176988" lon="116.6560195163851">
        <ele>59.006187438964844</ele>
        <time>2018-05-09T12:56:07Z</time>
      </trkpt>
      <trkpt lat="39.915180382652345" lon="116.65607635229199">
        <ele>58.74549102783203</ele>
        <time>2018-05-09T12:56:09Z</time>
      </trkpt>
      <trkpt lat="39.91521427209547" lon="116.65613418672966">
        <ele>58.5948486328125</ele>
        <time>2018-05-09T12:56:11Z</time>
      </trkpt>
      <trkpt lat="39.915246146541946" lon="116.65619999910572">
        <ele>58.30437469482422</ele>
        <time>2018-05-09T12:56:15Z</time>
      </trkpt>
      <trkpt lat="39.91527901149997" lon="116.65627079738701">
        <ele>58.10954666137695</ele>
        <time>2018-05-09T12:56:17Z</time>
      </trkpt>
      <trkpt lat="39.91530794625798" lon="116.65630469914751">
        <ele>57.69740676879883</ele>
        <time>2018-05-09T12:56:21Z</time>
      </trkpt>
      <trkpt lat="39.9153339093796" lon="116.65632364303991">
        <ele>57.20731735229492</ele>
        <time>2018-05-09T12:56:25Z</time>
      </trkpt>
      <trkpt lat="39.91535886124239" lon="116.65634857033945">
        <ele>56.92060852050781</ele>
        <time>2018-05-09T12:56:27Z</time>
      </trkpt>
      <trkpt lat="39.91539074876623" lon="116.65640740205559">
        <ele>56.65999984741211</ele>
        <time>2018-05-09T12:56:29Z</time>
      </trkpt>
      <trkpt lat="39.91542562671644" lon="116.65647121943066">
        <ele>56.418067932128906</ele>
        <time>2018-05-09T12:56:31Z</time>
      </trkpt>
      <trkpt lat="39.91545852356598" lon="116.65652506487892">
        <ele>56.17426300048828</ele>
        <time>2018-05-09T12:56:33Z</time>
      </trkpt>
      <trkpt lat="39.91549442403634" lon="116.65657691550179">
        <ele>55.90816879272461</ele>
        <time>2018-05-09T12:56:35Z</time>
      </trkpt>
      <trkpt lat="39.91553232063153" lon="116.65663076027195">
        <ele>55.67460250854492</ele>
        <time>2018-05-09T12:56:37Z</time>
      </trkpt>
      <trkpt lat="39.915570228519144" lon="116.656678621744">
        <ele>55.39745330810547</ele>
        <time>2018-05-09T12:56:41Z</time>
      </trkpt>
      <trkpt lat="39.91561011367337" lon="116.65673844946998">
        <ele>55.35124206542969</ele>
        <time>2018-05-09T12:56:43Z</time>
      </trkpt>
      <trkpt lat="39.91564400471545" lon="116.65679528626471">
        <ele>55.28389358520508</ele>
        <time>2018-05-09T12:56:47Z</time>
      </trkpt>
      <trkpt lat="39.91567488642704" lon="116.65685710943822">
        <ele>55.283748626708984</ele>
        <time>2018-05-09T12:56:49Z</time>
      </trkpt>
      <trkpt lat="39.915700792857976" lon="116.65690596947451">
        <ele>55.356414794921875</ele>
        <time>2018-05-09T12:56:51Z</time>
      </trkpt>
      <trkpt lat="39.91573470082021" lon="116.65695383129385">
        <ele>55.49946975708008</ele>
        <time>2018-05-09T12:56:53Z</time>
      </trkpt>
      <trkpt lat="39.91577761971209" lon="116.65699570873714">
        <ele>55.6903076171875</ele>
        <time>2018-05-09T12:56:55Z</time>
      </trkpt>
      <trkpt lat="39.91583153246088" lon="116.65704057643106">
        <ele>55.77521514892578</ele>
        <time>2018-05-09T12:56:57Z</time>
      </trkpt>
      <trkpt lat="39.915887437556904" lon="116.65708943268395">
        <ele>55.80333709716797</ele>
        <time>2018-05-09T12:56:59Z</time>
      </trkpt>
      <trkpt lat="39.91594531610667" lon="116.65715224954936">
        <ele>55.847450256347656</ele>
        <time>2018-05-09T12:57:01Z</time>
      </trkpt>
      <trkpt lat="39.91599520252586" lon="116.65721107853506">
        <ele>55.65757751464844</ele>
        <time>2018-05-09T12:57:03Z</time>
      </trkpt>
      <trkpt lat="39.91603410072601" lon="116.65726392560794">
        <ele>55.228973388671875</ele>
        <time>2018-05-09T12:57:07Z</time>
      </trkpt>
      <trkpt lat="39.916067001051324" lon="116.65731577618483">
        <ele>54.99687957763672</ele>
        <time>2018-05-09T12:57:09Z</time>
      </trkpt>
      <trkpt lat="39.916103876612254" lon="116.657380589889">
        <ele>54.7308235168457</ele>
        <time>2018-05-09T12:57:11Z</time>
      </trkpt>
      <trkpt lat="39.91615271948867" lon="116.6574623545222">
        <ele>54.288612365722656</ele>
        <time>2018-05-09T12:57:13Z</time>
      </trkpt>
      <trkpt lat="39.91619858136359" lon="116.6575341474364">
        <ele>53.720767974853516</ele>
        <time>2018-05-09T12:57:15Z</time>
      </trkpt>
      <trkpt lat="39.91624645447194" lon="116.65759995684459">
        <ele>53.115753173828125</ele>
        <time>2018-05-09T12:57:17Z</time>
      </trkpt>
      <trkpt lat="39.91628635249194" lon="116.65765280358306">
        <ele>51.9511604309082</ele>
        <time>2018-05-09T12:57:21Z</time>
      </trkpt>
      <trkpt lat="39.91633522929247" lon="116.65771661838924">
        <ele>51.38881301879883</ele>
        <time>2018-05-09T12:57:23Z</time>
      </trkpt>
      <trkpt lat="39.91637910627825" lon="116.65778043376932">
        <ele>50.77915573120117</ele>
        <time>2018-05-09T12:57:25Z</time>
      </trkpt>
      <trkpt lat="39.91643095070687" lon="116.6578612005051">
        <ele>50.116111755371094</ele>
        <time>2018-05-09T12:57:27Z</time>
      </trkpt>
      <trkpt lat="39.91648378558029" lon="116.65794695304325">
        <ele>48.89288330078125</ele>
        <time>2018-05-09T12:57:31Z</time>
      </trkpt>
      <trkpt lat="39.91653762604944" lon="116.65802971379554">
        <ele>48.364227294921875</ele>
        <time>2018-05-09T12:57:33Z</time>
      </trkpt>
      <trkpt lat="39.916594466349004" lon="116.65811247411277">
        <ele>47.85376739501953</ele>
        <time>2018-05-09T12:57:35Z</time>
      </trkpt>
      <trkpt lat="39.91664631819258" lon="116.65818925180587">
        <ele>46.84503173828125</ele>
        <time>2018-05-09T12:57:39Z</time>
      </trkpt>
      <trkpt lat="39.91670414509461" lon="116.65827899223734">
        <ele>46.01556396484375</ele>
        <time>2018-05-09T12:57:43Z</time>
      </trkpt>
      <trkpt lat="39.916751998926394" lon="116.65835477310729">
        <ele>45.47749328613281</ele>
        <time>2018-05-09T12:57:46Z</time>
      </trkpt>
      <trkpt lat="39.91679187013692" lon="116.65842158016714">
        <ele>45.1887092590332</ele>
        <time>2018-05-09T12:57:48Z</time>
      </trkpt>
      <trkpt lat="39.91682276447198" lon="116.65847642197828">
        <ele>44.82088851928711</ele>
        <time>2018-05-09T12:57:50Z</time>
      </trkpt>
      <trkpt lat="39.916854651155596" lon="116.65853525240827">
        <ele>44.37169647216797</ele>
        <time>2018-05-09T12:57:52Z</time>
      </trkpt>
      <trkpt lat="39.91689452229506" lon="116.65860205935721">
        <ele>43.89102554321289</ele>
        <time>2018-05-09T12:57:54Z</time>
      </trkpt>
      <trkpt lat="39.91694635302885" lon="116.65868980580218">
        <ele>43.5350341796875</ele>
        <time>2018-05-09T12:57:56Z</time>
      </trkpt>
      <trkpt lat="39.916996191400074" lon="116.65877356366317">
        <ele>42.86732482910156</ele>
        <time>2018-05-09T12:58:01Z</time>
      </trkpt>
      <trkpt lat="39.91704204129876" lon="116.6588513388166">
        <ele>42.630218505859375</ele>
        <time>2018-05-09T12:58:03Z</time>
      </trkpt>
      <trkpt lat="39.91706694335162" lon="116.65890219239705">
        <ele>42.4564208984375</ele>
        <time>2018-05-09T12:58:05Z</time>
      </trkpt>
      <trkpt lat="39.91708685320217" lon="116.6589490578151">
        <ele>42.25294494628906</ele>
        <time>2018-05-09T12:58:07Z</time>
      </trkpt>
      <trkpt lat="39.91710776489883" lon="116.65899492590279">
        <ele>42.040367126464844</ele>
        <time>2018-05-09T12:58:09Z</time>
      </trkpt>
      <trkpt lat="39.91713367637285" lon="116.65904079335733">
        <ele>41.7465705871582</ele>
        <time>2018-05-09T12:58:11Z</time>
      </trkpt>
      <trkpt lat="39.91716559518606" lon="116.65908267130575">
        <ele>41.327369689941406</ele>
        <time>2018-05-09T12:58:13Z</time>
      </trkpt>
      <trkpt lat="39.91720848690827" lon="116.65913850850589">
        <ele>40.44387435913086</ele>
        <time>2018-05-09T12:58:17Z</time>
      </trkpt>
      <trkpt lat="39.91728130888783" lon="116.65923024070139">
        <ele>39.92952346801758</ele>
        <time>2018-05-09T12:58:19Z</time>
      </trkpt>
      <trkpt lat="39.91735710786919" lon="116.65933393868255">
        <ele>38.745521545410156</ele>
        <time>2018-05-09T12:58:23Z</time>
      </trkpt>
      <trkpt lat="39.91741893973297" lon="116.65942068615729">
        <ele>37.87954330444336</ele>
        <time>2018-05-09T12:58:26Z</time>
      </trkpt>
      <trkpt lat="39.91745682585821" lon="116.65947951536691">
        <ele>37.24827194213867</ele>
        <time>2018-05-09T12:58:28Z</time>
      </trkpt>
      <trkpt lat="39.9174887331556" lon="116.65952737626449">
        <ele>36.37441635131836</ele>
        <time>2018-05-09T12:58:31Z</time>
      </trkpt>
      <trkpt lat="39.917521630881424" lon="116.65958022293768">
        <ele>35.799171447753906</ele>
        <time>2018-05-09T12:58:33Z</time>
      </trkpt>
      <trkpt lat="39.91755352673155" lon="116.65963406689434">
        <ele>35.3033447265625</ele>
        <time>2018-05-09T12:58:35Z</time>
      </trkpt>
      <trkpt lat="39.91758442260942" lon="116.65968791095082">
        <ele>34.88068771362305</ele>
        <time>2018-05-09T12:58:37Z</time>
      </trkpt>
      <trkpt lat="39.91762132012446" lon="116.65974075706401">
        <ele>34.44404602050781</ele>
        <time>2018-05-09T12:58:39Z</time>
      </trkpt>
      <trkpt lat="39.91765721385876" lon="116.6597955976416">
        <ele>34.06266784667969</ele>
        <time>2018-05-09T12:58:41Z</time>
      </trkpt>
      <trkpt lat="39.9177010920019" lon="116.65985841466151">
        <ele>33.84286117553711</ele>
        <time>2018-05-09T12:58:43Z</time>
      </trkpt>
      <trkpt lat="39.91774195882096" lon="116.65992721510416">
        <ele>33.59467315673828</ele>
        <time>2018-05-09T12:58:45Z</time>
      </trkpt>
      <trkpt lat="39.917777831545045" lon="116.65999302458492">
        <ele>33.36740493774414</ele>
        <time>2018-05-09T12:58:47Z</time>
      </trkpt>
      <trkpt lat="39.91780371991715" lon="116.66005085782511">
        <ele>33.18861770629883</ele>
        <time>2018-05-09T12:58:49Z</time>
      </trkpt>
      <trkpt lat="39.917812618520415" lon="116.66010370723485">
        <ele>32.99369430541992</ele>
        <time>2018-05-09T12:58:51Z</time>
      </trkpt>
      <trkpt lat="39.91780350643072" lon="116.6601625419121">
        <ele>32.51231002807617</ele>
        <time>2018-05-09T12:58:55Z</time>
      </trkpt>
      <trkpt lat="39.91778540042423" lon="116.66021838613555">
        <ele>32.214019775390625</ele>
        <time>2018-05-09T12:58:57Z</time>
      </trkpt>
      <trkpt lat="39.9177632926652" lon="116.66027522800651">
        <ele>31.87272834777832</ele>
        <time>2018-05-09T12:58:59Z</time>
      </trkpt>
      <trkpt lat="39.91774020591222" lon="116.6603211010219">
        <ele>31.53643226623535</ele>
        <time>2018-05-09T12:59:01Z</time>
      </trkpt>
      <trkpt lat="39.91769708375303" lon="116.66038592285334">
        <ele>31.205102920532227</ele>
        <time>2018-05-09T12:59:03Z</time>
      </trkpt>
      <trkpt lat="39.91764997319008" lon="116.66044476208582">
        <ele>30.23166847229004</ele>
        <time>2018-05-09T12:59:08Z</time>
      </trkpt>
      <trkpt lat="39.917596843785944" lon="116.66051357379669">
        <ele>29.704471588134766</ele>
        <time>2018-05-09T12:59:10Z</time>
      </trkpt>
      <trkpt lat="39.917555744387144" lon="116.66056642918204">
        <ele>29.162723541259766</ele>
        <time>2018-05-09T12:59:12Z</time>
      </trkpt>
      <trkpt lat="39.91751362975146" lon="116.66062726207633">
        <ele>28.658349990844727</ele>
        <time>2018-05-09T12:59:14Z</time>
      </trkpt>
      <trkpt lat="39.91747754729442" lon="116.66067114222733">
        <ele>28.131982803344727</ele>
        <time>2018-05-09T12:59:16Z</time>
      </trkpt>
      <trkpt lat="39.91743745736295" lon="116.6607190115575">
        <ele>27.709653854370117</ele>
        <time>2018-05-09T12:59:18Z</time>
      </trkpt>
      <trkpt lat="39.91739636937336" lon="116.66076588382056">
        <ele>27.37010955810547</ele>
        <time>2018-05-09T12:59:20Z</time>
      </trkpt>
      <trkpt lat="39.91735026440291" lon="116.66082173125328">
        <ele>27.125986099243164</ele>
        <time>2018-05-09T12:59:22Z</time>
      </trkpt>
      <trkpt lat="39.91731016680471" lon="116.66087358923104">
        <ele>26.929597854614258</ele>
        <time>2018-05-09T12:59:24Z</time>
      </trkpt>
      <trkpt lat="39.91726907496701" lon="116.66092245579321">
        <ele>26.643518447875977</ele>
        <time>2018-05-09T12:59:26Z</time>
      </trkpt>
      <trkpt lat="39.91723416237381" lon="116.66087758727974">
        <ele>25.970897674560547</ele>
        <time>2018-05-09T12:59:30Z</time>
      </trkpt>
      <trkpt lat="39.91720532206915" lon="116.66079482538824">
        <ele>21.036907196044922</ele>
        <time>2018-05-09T12:59:45Z</time>
      </trkpt>
      <trkpt lat="39.91718854803502" lon="116.66067716084237">
        <ele>19.93045425415039</ele>
        <time>2018-05-09T12:59:47Z</time>
      </trkpt>
      <trkpt lat="39.91717267085479" lon="116.6606133435781">
        <ele>18.816041946411133</ele>
        <time>2018-05-09T12:59:49Z</time>
      </trkpt>
      <trkpt lat="39.9171507824619" lon="116.66055551008078">
        <ele>17.6466121673584</ele>
        <time>2018-05-09T12:59:51Z</time>
      </trkpt>
      <trkpt lat="39.91712290575523" lon="116.6604916942388">
        <ele>16.496788024902344</ele>
        <time>2018-05-09T12:59:53Z</time>
      </trkpt>
      <trkpt lat="39.91709901741659" lon="116.66043386093786">
        <ele>15.259564399719238</ele>
        <time>2018-05-09T12:59:55Z</time>
      </trkpt>
      <trkpt lat="39.91707313868449" lon="116.66037104197191">
        <ele>14.057504653930664</ele>
        <time>2018-05-09T12:59:57Z</time>
      </trkpt>
      <trkpt lat="39.91705027697154" lon="116.66029924800692">
        <ele>13.061037063598633</ele>
        <time>2018-05-09T12:59:59Z</time>
      </trkpt>
      <trkpt lat="39.91702041934446" lon="116.66022546050861">
        <ele>12.174956321716309</ele>
        <time>2018-05-09T13:00:01Z</time>
      </trkpt>
      <trkpt lat="39.916991536867755" lon="116.66016463617414">
        <ele>11.169963836669922</ele>
        <time>2018-05-09T13:00:03Z</time>
      </trkpt>
      <trkpt lat="39.91696062967874" lon="116.66011677538982">
        <ele>10.069267272949219</ele>
        <time>2018-05-09T13:00:05Z</time>
      </trkpt>
      <trkpt lat="39.916930709095205" lon="116.66007589472278">
        <ele>8.93610954284668</ele>
        <time>2018-05-09T13:00:07Z</time>
      </trkpt>
      <trkpt lat="39.91690381124645" lon="116.66002304751443">
        <ele>7.755722522735596</ele>
        <time>2018-05-09T13:00:09Z</time>
      </trkpt>
      <trkpt lat="39.916882903603636" lon="116.65997518544867">
        <ele>6.670770645141602</ele>
        <time>2018-05-09T13:00:11Z</time>
      </trkpt>
      <trkpt lat="39.916864016823354" lon="116.6599163541308">
        <ele>5.67588996887207</ele>
        <time>2018-05-09T13:00:13Z</time>
      </trkpt>
      <trkpt lat="39.91684611474452" lon="116.65986550011326">
        <ele>4.706297397613525</ele>
        <time>2018-05-09T13:00:15Z</time>
      </trkpt>
      <trkpt lat="39.91682122247266" lon="116.65980966102867">
        <ele>3.812446355819702</ele>
        <time>2018-05-09T13:00:17Z</time>
      </trkpt>
      <trkpt lat="39.91678431545707" lon="116.65976180085231">
        <ele>3.1307904720306396</ele>
        <time>2018-05-09T13:00:19Z</time>
      </trkpt>
      <trkpt lat="39.91671247465137" lon="116.65968004075731">
        <ele>2.4915266036987305</ele>
        <time>2018-05-09T13:00:21Z</time>
      </trkpt>
      <trkpt lat="39.91664060906489" lon="116.65961124399134">
        <ele>1.184236764907837</ele>
        <time>2018-05-09T13:00:25Z</time>
      </trkpt>
      <trkpt lat="39.91656477407798" lon="116.65952649273795">
        <ele>0.49109864234924316</ele>
        <time>2018-05-09T13:00:27Z</time>
      </trkpt>
      <trkpt lat="39.91651189621784" lon="116.65946367665588">
        <ele>-0.20242828130722046</ele>
        <time>2018-05-09T13:00:29Z</time>
      </trkpt>
      <trkpt lat="39.91645404328342" lon="116.65938789775183">
        <ele>-1.22038733959198</ele>
        <time>2018-05-09T13:00:32Z</time>
      </trkpt>
      <trkpt lat="39.91640916504043" lon="116.65932508061402">
        <ele>-1.7776787281036377</ele>
        <time>2018-05-09T13:00:34Z</time>
      </trkpt>
      <trkpt lat="39.9163692770556" lon="116.6592672487586">
        <ele>-2.2350411415100098</ele>
        <time>2018-05-09T13:00:36Z</time>
      </trkpt>
      <trkpt lat="39.91633738681299" lon="116.65921041307769">
        <ele>-2.6397576332092285</ele>
        <time>2018-05-09T13:00:38Z</time>
      </trkpt>
      <trkpt lat="39.91630848311664" lon="116.65916055730915">
        <ele>-3.012634515762329</ele>
        <time>2018-05-09T13:00:40Z</time>
      </trkpt>
      <trkpt lat="39.91628258688443" lon="116.65910671240113">
        <ele>-3.2817153930664062</ele>
        <time>2018-05-09T13:00:42Z</time>
      </trkpt>
      <trkpt lat="39.916256694438154" lon="116.65905087309268">
        <ele>-3.477834463119507</ele>
        <time>2018-05-09T13:00:44Z</time>
      </trkpt>
      <trkpt lat="39.916216834875115" lon="116.65897808327638">
        <ele>-3.666872978210449</ele>
        <time>2018-05-09T13:00:46Z</time>
      </trkpt>
      <trkpt lat="39.916175962025186" lon="116.65891227386058">
        <ele>-4.004417419433594</ele>
        <time>2018-05-09T13:00:50Z</time>
      </trkpt>
      <trkpt lat="39.916134077795526" lon="116.65885244766736">
        <ele>-4.321013450622559</ele>
        <time>2018-05-09T13:00:52Z</time>
      </trkpt>
      <trkpt lat="39.91609915906008" lon="116.65881057000198">
        <ele>-4.466407775878906</ele>
        <time>2018-05-09T13:00:54Z</time>
      </trkpt>
      <trkpt lat="39.916058251964216" lon="116.65876270991684">
        <ele>-4.381231784820557</ele>
        <time>2018-05-09T13:00:56Z</time>
      </trkpt>
      <trkpt lat="39.91601634489786" lon="116.65871484993424">
        <ele>-4.185373306274414</ele>
        <time>2018-05-09T13:00:58Z</time>
      </trkpt>
      <trkpt lat="39.91597147401879" lon="116.65864804366537">
        <ele>-4.050707817077637</ele>
        <time>2018-05-09T13:01:00Z</time>
      </trkpt>
      <trkpt lat="39.9159266220952" lon="116.65857126543594">
        <ele>-4.095234394073486</ele>
        <time>2018-05-09T13:01:03Z</time>
      </trkpt>
      <trkpt lat="39.91587178194683" lon="116.65848850522565">
        <ele>-4.255906105041504</ele>
        <time>2018-05-09T13:01:06Z</time>
      </trkpt>
      <trkpt lat="39.91580195187957" lon="116.65840076082861">
        <ele>-4.535315036773682</ele>
        <time>2018-05-09T13:01:09Z</time>
      </trkpt>
      <trkpt lat="39.91574210048038" lon="116.6583239842688">
        <ele>-4.6982741355896</ele>
        <time>2018-05-09T13:01:13Z</time>
      </trkpt>
      <trkpt lat="39.915694239056236" lon="116.65825219215355">
        <ele>-4.70246696472168</ele>
        <time>2018-05-09T13:01:18Z</time>
      </trkpt>
      <trkpt lat="39.915659346716915" lon="116.6581963535212">
        <ele>-4.765807151794434</ele>
        <time>2018-05-09T13:01:20Z</time>
      </trkpt>
      <trkpt lat="39.91562144121722" lon="116.6581474956003">
        <ele>-4.823920249938965</ele>
        <time>2018-05-09T13:01:22Z</time>
      </trkpt>
      <trkpt lat="39.91556256312645" lon="116.65808467948682">
        <ele>-4.944860935211182</ele>
        <time>2018-05-09T13:01:24Z</time>
      </trkpt>
      <trkpt lat="39.91551068660919" lon="116.65802086527756">
        <ele>-4.948835372924805</ele>
        <time>2018-05-09T13:01:27Z</time>
      </trkpt>
      <trkpt lat="39.915447829476584" lon="116.65794708040228">
        <ele>-5.046577453613281</ele>
        <time>2018-05-09T13:01:29Z</time>
      </trkpt>
      <trkpt lat="39.91540493926525" lon="116.65789024539079">
        <ele>-5.1848297119140625</ele>
        <time>2018-05-09T13:01:31Z</time>
      </trkpt>
      <trkpt lat="39.915365060267305" lon="116.65782742678438">
        <ele>-5.200942039489746</ele>
        <time>2018-05-09T13:01:33Z</time>
      </trkpt>
      <trkpt lat="39.915335173247044" lon="116.65776859570855">
        <ele>-5.295772075653076</ele>
        <time>2018-05-09T13:01:38Z</time>
      </trkpt>
      <trkpt lat="39.915268389974564" lon="116.65765592031809">
        <ele>-5.340224266052246</ele>
        <time>2018-05-09T13:01:40Z</time>
      </trkpt>
      <trkpt lat="39.915172664597414" lon="116.65751333230219">
        <ele>-5.217657089233398</ele>
        <time>2018-05-09T13:01:46Z</time>
      </trkpt>
      <trkpt lat="39.91508195021554" lon="116.65736476024196">
        <ele>-4.952943801879883</ele>
        <time>2018-05-09T13:01:52Z</time>
      </trkpt>
      <trkpt lat="39.91434548212127" lon="116.65604254945649">
        <ele>1.3247349262237549</ele>
        <time>2018-05-09T13:02:32Z</time>
      </trkpt>
      <trkpt lat="39.914352500630315" lon="116.65603257641342">
        <ele>0.9203762412071228</ele>
        <time>2018-05-09T13:02:34Z</time>
      </trkpt>
      <trkpt lat="39.91432854114525" lon="116.65601163777326">
        <ele>0.9602630138397217</ele>
        <time>2018-05-09T13:02:36Z</time>
      </trkpt>
      <trkpt lat="39.91427362058302" lon="116.65597075855642">
        <ele>1.5197678804397583</ele>
        <time>2018-05-09T13:02:38Z</time>
      </trkpt>
      <trkpt lat="39.91424768185305" lon="116.65593885073314">
        <ele>1.8842499256134033</ele>
        <time>2018-05-09T13:02:40Z</time>
      </trkpt>
      <trkpt lat="39.914214756571006" lon="116.65589996321842">
        <ele>2.2974443435668945</ele>
        <time>2018-05-09T13:02:42Z</time>
      </trkpt>
      <trkpt lat="39.91417483157538" lon="116.65586107654558">
        <ele>2.7405130863189697</ele>
        <time>2018-05-09T13:02:44Z</time>
      </trkpt>
      <trkpt lat="39.91412392206859" lon="116.65581421343865">
        <ele>3.138075828552246</ele>
        <time>2018-05-09T13:02:46Z</time>
      </trkpt>
      <trkpt lat="39.91408303090345" lon="116.65575737686136">
        <ele>3.5666966438293457</ele>
        <time>2018-05-09T13:02:48Z</time>
      </trkpt>
      <trkpt lat="39.91404414901716" lon="116.65569555388788">
        <ele>3.9481875896453857</ele>
        <time>2018-05-09T13:02:50Z</time>
      </trkpt>
      <trkpt lat="39.91400827260443" lon="116.65563073883037">
        <ele>4.375685214996338</ele>
        <time>2018-05-09T13:02:52Z</time>
      </trkpt>
      <trkpt lat="39.91395939295802" lon="116.65556791976641">
        <ele>4.853061676025391</ele>
        <time>2018-05-09T13:02:54Z</time>
      </trkpt>
      <trkpt lat="39.91390750965451" lon="116.655507095472">
        <ele>5.349140167236328</ele>
        <time>2018-05-09T13:02:56Z</time>
      </trkpt>
      <trkpt lat="39.91385661877419" lon="116.6554502599108">
        <ele>5.889307498931885</ele>
        <time>2018-05-09T13:02:58Z</time>
      </trkpt>
      <trkpt lat="39.9138097258211" lon="116.65539442104445">
        <ele>6.343115329742432</ele>
        <time>2018-05-09T13:03:00Z</time>
      </trkpt>
      <trkpt lat="39.913762830967144" lon="116.65533957936614">
        <ele>6.742424964904785</ele>
        <time>2018-05-09T13:03:02Z</time>
      </trkpt>
      <trkpt lat="39.91371891908849" lon="116.65529371232795">
        <ele>7.094235897064209</ele>
        <time>2018-05-09T13:03:04Z</time>
      </trkpt>
      <trkpt lat="39.91367799581842" lon="116.65525382826189">
        <ele>7.405953884124756</ele>
        <time>2018-05-09T13:03:06Z</time>
      </trkpt>
      <trkpt lat="39.91362907662462" lon="116.6552119507017">
        <ele>7.646459102630615</ele>
        <time>2018-05-09T13:03:08Z</time>
      </trkpt>
      <trkpt lat="39.91357817249024" lon="116.65516209553397">
        <ele>7.869559288024902</ele>
        <time>2018-05-09T13:03:10Z</time>
      </trkpt>
      <trkpt lat="39.91352926075697" lon="116.65511622900725">
        <ele>8.14261531829834</ele>
        <time>2018-05-09T13:03:12Z</time>
      </trkpt>
      <trkpt lat="39.9134953240186" lon="116.65508332460188">
        <ele>8.338502883911133</ele>
        <time>2018-05-09T13:03:14Z</time>
      </trkpt>
      <trkpt lat="39.91345538939997" lon="116.65504942368912">
        <ele>8.563027381896973</ele>
        <time>2018-05-09T13:03:16Z</time>
      </trkpt>
      <trkpt lat="39.91341445106977" lon="116.65501751734604">
        <ele>8.83526611328125</ele>
        <time>2018-05-09T13:03:18Z</time>
      </trkpt>
      <trkpt lat="39.9133635374939" lon="116.65497264821158">
        <ele>9.263954162597656</ele>
        <time>2018-05-09T13:03:20Z</time>
      </trkpt>
      <trkpt lat="39.913310622114814" lon="116.65492877652869">
        <ele>9.685667991638184</ele>
        <time>2018-05-09T13:03:22Z</time>
      </trkpt>
      <trkpt lat="39.91325171820251" lon="116.65487892216271">
        <ele>10.030241966247559</ele>
        <time>2018-05-09T13:03:24Z</time>
      </trkpt>
      <trkpt lat="39.91319979900402" lon="116.65483704476998">
        <ele>10.4196195602417</ele>
        <time>2018-05-09T13:03:26Z</time>
      </trkpt>
      <trkpt lat="39.91315687005365" lon="116.65480015241724">
        <ele>10.83932876586914</ele>
        <time>2018-05-09T13:03:28Z</time>
      </trkpt>
      <trkpt lat="39.91311494478884" lon="116.65476126545589">
        <ele>11.22358512878418</ele>
        <time>2018-05-09T13:03:30Z</time>
      </trkpt>
      <trkpt lat="39.91307002524828" lon="116.65471938713935">
        <ele>11.581255912780762</ele>
        <time>2018-05-09T13:03:32Z</time>
      </trkpt>
      <trkpt lat="39.91301812094607" lon="116.65466953177766">
        <ele>12.03523063659668</ele>
        <time>2018-05-09T13:03:34Z</time>
      </trkpt>
      <trkpt lat="39.91296820719233" lon="116.65462466231702">
        <ele>12.45130729675293</ele>
        <time>2018-05-09T13:03:36Z</time>
      </trkpt>
      <trkpt lat="39.91292228203887" lon="116.65458577575701">
        <ele>12.91816234588623</ele>
        <time>2018-05-09T13:03:38Z</time>
      </trkpt>
      <trkpt lat="39.91288234353805" lon="116.65455386909802">
        <ele>13.337555885314941</ele>
        <time>2018-05-09T13:03:40Z</time>
      </trkpt>
      <trkpt lat="39.912840401378034" lon="116.6545239571454">
        <ele>13.77573299407959</ele>
        <time>2018-05-09T13:03:42Z</time>
      </trkpt>
      <trkpt lat="39.91279845173945" lon="116.65449803413098">
        <ele>14.275603294372559</ele>
        <time>2018-05-09T13:03:44Z</time>
      </trkpt>
      <trkpt lat="39.91275848333432" lon="116.65448208323993">
        <ele>14.845141410827637</ele>
        <time>2018-05-09T13:03:46Z</time>
      </trkpt>
      <trkpt lat="39.9127175261742" lon="116.65446014904033">
        <ele>15.209389686584473</ele>
        <time>2018-05-09T13:03:48Z</time>
      </trkpt>
      <trkpt lat="39.9126735803412" lon="116.65443223177249">
        <ele>15.511341094970703</ele>
        <time>2018-05-09T13:03:50Z</time>
      </trkpt>
      <trkpt lat="39.91262366462671" lon="116.65438835940878">
        <ele>15.730340003967285</ele>
        <time>2018-05-09T13:03:52Z</time>
      </trkpt>
      <trkpt lat="39.91257972997441" lon="116.65435445867756">
        <ele>15.897650718688965</ele>
        <time>2018-05-09T13:03:54Z</time>
      </trkpt>
      <trkpt lat="39.91253779522611" lon="116.65432055768525">
        <ele>15.977179527282715</ele>
        <time>2018-05-09T13:03:56Z</time>
      </trkpt>
      <trkpt lat="39.91249786038172" lon="116.65428665643186">
        <ele>16.029579162597656</ele>
        <time>2018-05-09T13:03:58Z</time>
      </trkpt>
      <trkpt lat="39.91245296491361" lon="116.65423181371688">
        <ele>16.06490707397461</ele>
        <time>2018-05-09T13:04:00Z</time>
      </trkpt>
      <trkpt lat="39.91240707132544" lon="116.6541759738419">
        <ele>16.072996139526367</ele>
        <time>2018-05-09T13:04:02Z</time>
      </trkpt>
      <trkpt lat="39.912362168344366" lon="116.65412512001441">
        <ele>15.990973472595215</ele>
        <time>2018-05-09T13:04:04Z</time>
      </trkpt>
      <trkpt lat="39.91230626394734" lon="116.65407526474496">
        <ele>15.991479873657227</ele>
        <time>2018-05-09T13:04:06Z</time>
      </trkpt>
      <trkpt lat="39.91224935770693" lon="116.65402640680786">
        <ele>16.192983627319336</ele>
        <time>2018-05-09T13:04:09Z</time>
      </trkpt>
      <trkpt lat="39.9121864647417" lon="116.65397056886195">
        <ele>16.3306827545166</ele>
        <time>2018-05-09T13:04:11Z</time>
      </trkpt>
      <trkpt lat="39.91212755481491" lon="116.65392370559003">
        <ele>16.521926879882812</ele>
        <time>2018-05-09T13:04:13Z</time>
      </trkpt>
      <trkpt lat="39.91206365811545" lon="116.65386986217914">
        <ele>16.79096031188965</ele>
        <time>2018-05-09T13:04:15Z</time>
      </trkpt>
      <trkpt lat="39.91200874797283" lon="116.65382299835024">
        <ele>17.047550201416016</ele>
        <time>2018-05-09T13:04:17Z</time>
      </trkpt>
      <trkpt lat="39.91196382993622" lon="116.65378012225241">
        <ele>17.490188598632812</ele>
        <time>2018-05-09T13:04:21Z</time>
      </trkpt>
      <trkpt lat="39.91192390236444" lon="116.65374223175435">
        <ele>17.717769622802734</ele>
        <time>2018-05-09T13:04:23Z</time>
      </trkpt>
      <trkpt lat="39.91186999026208" lon="116.6536963649669">
        <ele>17.936330795288086</ele>
        <time>2018-05-09T13:04:25Z</time>
      </trkpt>
      <trkpt lat="39.91181407078664" lon="116.65365448739149">
        <ele>18.17310333251953</ele>
        <time>2018-05-09T13:04:27Z</time>
      </trkpt>
      <trkpt lat="39.91175515328283" lon="116.6536116129096">
        <ele>18.44248390197754</ele>
        <time>2018-05-09T13:04:29Z</time>
      </trkpt>
      <trkpt lat="39.91170622789592" lon="116.6535727261752">
        <ele>18.708477020263672</ele>
        <time>2018-05-09T13:04:31Z</time>
      </trkpt>
      <trkpt lat="39.91165730249452" lon="116.65353383941914">
        <ele>19.023040771484375</ele>
        <time>2018-05-09T13:04:33Z</time>
      </trkpt>
      <trkpt lat="39.91159538135393" lon="116.65349295973408">
        <ele>19.456310272216797</ele>
        <time>2018-05-09T13:04:35Z</time>
      </trkpt>
      <trkpt lat="39.911529458511666" lon="116.65345307776775">
        <ele>19.887178421020508</ele>
        <time>2018-05-09T13:04:37Z</time>
      </trkpt>
      <trkpt lat="39.91146253755469" lon="116.6534121986486">
        <ele>20.37033462524414</ele>
        <time>2018-05-09T13:04:39Z</time>
      </trkpt>
      <trkpt lat="39.91140759563806" lon="116.65338228781592">
        <ele>20.787132263183594</ele>
        <time>2018-05-09T13:04:41Z</time>
      </trkpt>
      <trkpt lat="39.91134764650092" lon="116.65335636659725">
        <ele>21.139575958251953</ele>
        <time>2018-05-09T13:04:43Z</time>
      </trkpt>
      <trkpt lat="39.9112886898882" lon="116.65333443426074">
        <ele>21.470474243164062</ele>
        <time>2018-05-09T13:04:45Z</time>
      </trkpt>
      <trkpt lat="39.91122674268219" lon="116.65330751601526">
        <ele>21.71660041809082</ele>
        <time>2018-05-09T13:04:47Z</time>
      </trkpt>
      <trkpt lat="39.911177794909655" lon="116.65328059616385">
        <ele>21.872478485107422</ele>
        <time>2018-05-09T13:04:49Z</time>
      </trkpt>
      <trkpt lat="39.911131861847075" lon="116.65324569789463">
        <ele>22.01277732849121</ele>
        <time>2018-05-09T13:04:51Z</time>
      </trkpt>
      <trkpt lat="39.91109093968919" lon="116.65320481546107">
        <ele>22.13677978515625</ele>
        <time>2018-05-09T13:04:53Z</time>
      </trkpt>
      <trkpt lat="39.91104903239658" lon="116.65315595507616">
        <ele>22.36478614807129</ele>
        <time>2018-05-09T13:04:55Z</time>
      </trkpt>
      <trkpt lat="39.9110091231395" lon="116.6531080916677">
        <ele>22.517663955688477</ele>
        <time>2018-05-09T13:04:57Z</time>
      </trkpt>
      <trkpt lat="39.91097022308531" lon="116.65305524181427">
        <ele>22.661136627197266</ele>
        <time>2018-05-09T13:04:59Z</time>
      </trkpt>
      <trkpt lat="39.91092932679547" lon="116.65300039764789">
        <ele>22.797794342041016</ele>
        <time>2018-05-09T13:05:01Z</time>
      </trkpt>
      <trkpt lat="39.91088843232764" lon="116.65294455617746">
        <ele>22.953842163085938</ele>
        <time>2018-05-09T13:05:03Z</time>
      </trkpt>
      <trkpt lat="39.91085552266601" lon="116.65289669176003">
        <ele>23.114351272583008</ele>
        <time>2018-05-09T13:05:05Z</time>
      </trkpt>
      <trkpt lat="39.91082760535848" lon="116.6528528157379">
        <ele>23.259593963623047</ele>
        <time>2018-05-09T13:05:07Z</time>
      </trkpt>
      <trkpt lat="39.91080068798794" lon="116.6528089395642">
        <ele>23.508037567138672</ele>
        <time>2018-05-09T13:05:09Z</time>
      </trkpt>
      <trkpt lat="39.91076778381153" lon="116.65275808326304">
        <ele>23.745412826538086</ele>
        <time>2018-05-09T13:05:11Z</time>
      </trkpt>
      <trkpt lat="39.91073088533129" lon="116.6527042356248">
        <ele>23.96462059020996</ele>
        <time>2018-05-09T13:05:13Z</time>
      </trkpt>
      <trkpt lat="39.910698975507344" lon="116.65265637091153">
        <ele>24.120243072509766</ele>
        <time>2018-05-09T13:05:15Z</time>
      </trkpt>
      <trkpt lat="39.91067304136063" lon="116.65262146986332">
        <ele>24.289134979248047</ele>
        <time>2018-05-09T13:05:17Z</time>
      </trkpt>
      <trkpt lat="39.91064712384104" lon="116.65257759341328">
        <ele>24.494726181030273</ele>
        <time>2018-05-09T13:05:19Z</time>
      </trkpt>
      <trkpt lat="39.91061923226349" lon="116.65251975546015">
        <ele>24.876611709594727</ele>
        <time>2018-05-09T13:05:21Z</time>
      </trkpt>
      <trkpt lat="39.91059036655897" lon="116.652447955844">
        <ele>25.767799377441406</ele>
        <time>2018-05-09T13:05:25Z</time>
      </trkpt>
      <trkpt lat="39.91056748946015" lon="116.65238213901992">
        <ele>26.149484634399414</ele>
        <time>2018-05-09T13:05:27Z</time>
      </trkpt>
      <trkpt lat="39.91054360866586" lon="116.65231831678932">
        <ele>26.49213409423828</ele>
        <time>2018-05-09T13:05:29Z</time>
      </trkpt>
      <trkpt lat="39.91051971675522" lon="116.65226047811426">
        <ele>26.798154830932617</ele>
        <time>2018-05-09T13:05:31Z</time>
      </trkpt>
      <trkpt lat="39.910497811808085" lon="116.65220962003586">
        <ele>27.001697540283203</ele>
        <time>2018-05-09T13:05:33Z</time>
      </trkpt>
      <trkpt lat="39.91049184711795" lon="116.65219067262889">
        <ele>27.219816207885742</ele>
        <time>2018-05-09T13:05:35Z</time>
      </trkpt>
      <trkpt lat="39.910503820773364" lon="116.652204632947">
        <ele>27.86037826538086</ele>
        <time>2018-05-09T13:05:45Z</time>
      </trkpt>
      <trkpt lat="39.91053872516216" lon="116.65225548943467">
        <ele>28.21881675720215</ele>
        <time>2018-05-09T13:05:49Z</time>
      </trkpt>
      <trkpt lat="39.910572620336424" lon="116.65231133234958">
        <ele>28.347503662109375</ele>
        <time>2018-05-09T13:05:51Z</time>
      </trkpt>
      <trkpt lat="39.91060450817701" lon="116.6523711645336">
        <ele>28.49658203125</ele>
        <time>2018-05-09T13:05:53Z</time>
      </trkpt>
      <trkpt lat="39.91063141281995" lon="116.65242202187099">
        <ele>28.582496643066406</ele>
        <time>2018-05-09T13:05:55Z</time>
      </trkpt>
      <trkpt lat="39.91066730041708" lon="116.65248185346198">
        <ele>28.641761779785156</ele>
        <time>2018-05-09T13:05:57Z</time>
      </trkpt>
      <trkpt lat="39.91071218758796" lon="116.65254168389383">
        <ele>28.690078735351562</ele>
        <time>2018-05-09T13:05:59Z</time>
      </trkpt>
      <trkpt lat="39.91075607846236" lon="116.65259951986444">
        <ele>28.69243621826172</ele>
        <time>2018-05-09T13:06:01Z</time>
      </trkpt>
      <trkpt lat="39.910794978765466" lon="116.65265237007893">
        <ele>28.823062896728516</ele>
        <time>2018-05-09T13:06:03Z</time>
      </trkpt>
      <trkpt lat="39.910830892119655" lon="116.65269823977808">
        <ele>28.919620513916016</ele>
        <time>2018-05-09T13:06:05Z</time>
      </trkpt>
      <trkpt lat="39.91087178302866" lon="116.652756075979">
        <ele>28.89678382873535</ele>
        <time>2018-05-09T13:06:07Z</time>
      </trkpt>
      <trkpt lat="39.91091267020029" lon="116.65281590665198">
        <ele>28.870134353637695</ele>
        <time>2018-05-09T13:06:09Z</time>
      </trkpt>
      <trkpt lat="39.9109515463092" lon="116.65288172107851">
        <ele>28.74274444580078</ele>
        <time>2018-05-09T13:06:11Z</time>
      </trkpt>
      <trkpt lat="39.910985435557464" lon="116.6529405552382">
        <ele>28.58135986328125</ele>
        <time>2018-05-09T13:06:13Z</time>
      </trkpt>
      <trkpt lat="39.91101633787175" lon="116.65299240890421">
        <ele>28.528955459594727</ele>
        <time>2018-05-09T13:06:15Z</time>
      </trkpt>
      <trkpt lat="39.91104524951297" lon="116.6530392764861">
        <ele>28.5296573638916</ele>
        <time>2018-05-09T13:06:17Z</time>
      </trkpt>
      <trkpt lat="39.91107316302901" lon="116.6530851469009">
        <ele>28.472749710083008</ele>
        <time>2018-05-09T13:06:19Z</time>
      </trkpt>
      <trkpt lat="39.91111105940148" lon="116.6531399913665">
        <ele>28.416372299194336</ele>
        <time>2018-05-09T13:06:21Z</time>
      </trkpt>
      <trkpt lat="39.911148961309166" lon="116.65319184402074">
        <ele>28.380672454833984</ele>
        <time>2018-05-09T13:06:23Z</time>
      </trkpt>
      <trkpt lat="39.911185868799976" lon="116.65324070499334">
        <ele>28.401384353637695</ele>
        <time>2018-05-09T13:06:25Z</time>
      </trkpt>
      <trkpt lat="39.911217791331175" lon="116.65328158850974">
        <ele>28.361547470092773</ele>
        <time>2018-05-09T13:06:27Z</time>
      </trkpt>
      <trkpt lat="39.91125370624747" lon="116.65332646052612">
        <ele>28.287227630615234</ele>
        <time>2018-05-09T13:06:29Z</time>
      </trkpt>
      <trkpt lat="39.91129362654251" lon="116.65336834026296">
        <ele>28.233325958251953</ele>
        <time>2018-05-09T13:06:31Z</time>
      </trkpt>
      <trkpt lat="39.911336552263194" lon="116.65340722784846">
        <ele>28.260255813598633</ele>
        <time>2018-05-09T13:06:33Z</time>
      </trkpt>
      <trkpt lat="39.911379485399905" lon="116.65344212640379">
        <ele>28.36684226989746</ele>
        <time>2018-05-09T13:06:35Z</time>
      </trkpt>
      <trkpt lat="39.91142142599986" lon="116.65347303605773">
        <ele>28.472923278808594</ele>
        <time>2018-05-09T13:06:37Z</time>
      </trkpt>
      <trkpt lat="39.911474356825835" lon="116.6535089306038">
        <ele>28.562171936035156</ele>
        <time>2018-05-09T13:06:39Z</time>
      </trkpt>
      <trkpt lat="39.91152728392211" lon="116.65354681963255">
        <ele>28.60126495361328</ele>
        <time>2018-05-09T13:06:41Z</time>
      </trkpt>
      <trkpt lat="39.91159120495437" lon="116.65358769904081">
        <ele>28.58188247680664</ele>
        <time>2018-05-09T13:06:43Z</time>
      </trkpt>
      <trkpt lat="39.91165212795932" lon="116.65362758154386">
        <ele>28.62530517578125</ele>
        <time>2018-05-09T13:06:45Z</time>
      </trkpt>
      <trkpt lat="39.91171904883149" lon="116.65366846053665">
        <ele>28.775671005249023</ele>
        <time>2018-05-09T13:06:47Z</time>
      </trkpt>
      <trkpt lat="39.91177797003183" lon="116.65370934048751">
        <ele>28.97231101989746</ele>
        <time>2018-05-09T13:06:49Z</time>
      </trkpt>
      <trkpt lat="39.911830895195585" lon="116.65374822665558">
        <ele>29.159208297729492</ele>
        <time>2018-05-09T13:06:51Z</time>
      </trkpt>
      <trkpt lat="39.91188481471898" lon="116.65379010442106">
        <ele>29.364845275878906</ele>
        <time>2018-05-09T13:06:53Z</time>
      </trkpt>
      <trkpt lat="39.911945715309976" lon="116.65384195376774">
        <ele>29.528663635253906</ele>
        <time>2018-05-09T13:06:55Z</time>
      </trkpt>
      <trkpt lat="39.91200261604744" lon="116.65389380356768">
        <ele>29.684362411499023</ele>
        <time>2018-05-09T13:06:57Z</time>
      </trkpt>
      <trkpt lat="39.91205852239023" lon="116.65394266171772">
        <ele>29.87171173095703</ele>
        <time>2018-05-09T13:06:59Z</time>
      </trkpt>
      <trkpt lat="39.9121044403178" lon="116.65398553759553">
        <ele>30.05206298828125</ele>
        <time>2018-05-09T13:07:01Z</time>
      </trkpt>
      <trkpt lat="39.91214736208364" lon="116.65402641932832">
        <ele>30.281925201416016</ele>
        <time>2018-05-09T13:07:03Z</time>
      </trkpt>
      <trkpt lat="39.91218927828566" lon="116.65407029289065">
        <ele>30.418106079101562</ele>
        <time>2018-05-09T13:07:05Z</time>
      </trkpt>
      <trkpt lat="39.91222820205505" lon="116.65411017782388">
        <ele>30.42566680908203</ele>
        <time>2018-05-09T13:07:07Z</time>
      </trkpt>
      <trkpt lat="39.912276114236505" lon="116.65415604508338">
        <ele>30.34332847595215</ele>
        <time>2018-05-09T13:07:09Z</time>
      </trkpt>
      <trkpt lat="39.91232104144678" lon="116.65419393474997">
        <ele>30.261476516723633</ele>
        <time>2018-05-09T13:07:11Z</time>
      </trkpt>
      <trkpt lat="39.91236797042343" lon="116.65423082691031">
        <ele>30.17278289794922</ele>
        <time>2018-05-09T13:07:13Z</time>
      </trkpt>
      <trkpt lat="39.912411905113096" lon="116.65426472769849">
        <ele>30.055559158325195</ele>
        <time>2018-05-09T13:07:15Z</time>
      </trkpt>
      <trkpt lat="39.91245881727265" lon="116.65431059498398">
        <ele>30.054920196533203</ele>
        <time>2018-05-09T13:07:17Z</time>
      </trkpt>
      <trkpt lat="39.91249973526945" lon="116.6543534712593">
        <ele>30.032590866088867</ele>
        <time>2018-05-09T13:07:19Z</time>
      </trkpt>
      <trkpt lat="39.91254763801512" lon="116.65440432456103">
        <ele>29.983692169189453</ele>
        <time>2018-05-09T13:07:21Z</time>
      </trkpt>
      <trkpt lat="39.912599534964066" lon="116.65445816905113">
        <ele>29.977611541748047</ele>
        <time>2018-05-09T13:07:23Z</time>
      </trkpt>
      <trkpt lat="39.912662416472855" lon="116.6545199900502">
        <ele>30.107099533081055</ele>
        <time>2018-05-09T13:07:25Z</time>
      </trkpt>
      <trkpt lat="39.9127213242763" lon="116.6545678501784">
        <ele>31.376588821411133</ele>
        <time>2018-05-09T13:07:27Z</time>
      </trkpt>
      <trkpt lat="39.912778262044135" lon="116.65459975474452">
        <ele>31.51836585998535</ele>
        <time>2018-05-09T13:07:29Z</time>
      </trkpt>
      <trkpt lat="39.91283822023218" lon="116.65462068933469">
        <ele>31.6202449798584</ele>
        <time>2018-05-09T13:07:31Z</time>
      </trkpt>
      <trkpt lat="39.91290317820279" lon="116.65464162330507">
        <ele>31.658287048339844</ele>
        <time>2018-05-09T13:07:33Z</time>
      </trkpt>
      <trkpt lat="39.91297412282887" lon="116.65466953718">
        <ele>31.604595184326172</ele>
        <time>2018-05-09T13:07:35Z</time>
      </trkpt>
      <trkpt lat="39.9130450637097" lon="116.65469944551427">
        <ele>31.476408004760742</ele>
        <time>2018-05-09T13:07:39Z</time>
      </trkpt>
      <trkpt lat="39.91310599940167" lon="116.65473234676786">
        <ele>31.291412353515625</ele>
        <time>2018-05-09T13:07:41Z</time>
      </trkpt>
      <trkpt lat="39.913167940651995" lon="116.65476225618232">
        <ele>31.146286010742188</ele>
        <time>2018-05-09T13:07:43Z</time>
      </trkpt>
      <trkpt lat="39.91322387654044" lon="116.65479515802261">
        <ele>30.751834869384766</ele>
        <time>2018-05-09T13:07:47Z</time>
      </trkpt>
      <trkpt lat="39.913279814290405" lon="116.65482706261551">
        <ele>30.469234466552734</ele>
        <time>2018-05-09T13:07:49Z</time>
      </trkpt>
      <trkpt lat="39.91332775424467" lon="116.65485797094462">
        <ele>30.2137451171875</ele>
        <time>2018-05-09T13:07:51Z</time>
      </trkpt>
      <trkpt lat="39.913377688491806" lon="116.65489187071285">
        <ele>29.904428482055664</ele>
        <time>2018-05-09T13:07:53Z</time>
      </trkpt>
      <trkpt lat="39.91343461120095" lon="116.65493175299794">
        <ele>29.631372451782227</ele>
        <time>2018-05-09T13:07:55Z</time>
      </trkpt>
      <trkpt lat="39.913500518536694" lon="116.65497961200758">
        <ele>29.43256187438965</ele>
        <time>2018-05-09T13:07:57Z</time>
      </trkpt>
      <trkpt lat="39.91356542776819" lon="116.65502647387986">
        <ele>29.322021484375</ele>
        <time>2018-05-09T13:07:59Z</time>
      </trkpt>
      <trkpt lat="39.91362834081218" lon="116.65507134150944">
        <ele>29.0610294342041</ele>
        <time>2018-05-09T13:08:03Z</time>
      </trkpt>
      <trkpt lat="39.91368625967221" lon="116.65511321803872">
        <ele>28.913625717163086</ele>
        <time>2018-05-09T13:08:05Z</time>
      </trkpt>
      <trkpt lat="39.91374317293982" lon="116.65515808635541">
        <ele>28.768924713134766</ele>
        <time>2018-05-09T13:08:07Z</time>
      </trkpt>
      <trkpt lat="39.91379608823522" lon="116.65520195790938">
        <ele>28.660869598388672</ele>
        <time>2018-05-09T13:08:09Z</time>
      </trkpt>
      <trkpt lat="39.91384401122488" lon="116.65524184114146">
        <ele>28.579946517944336</ele>
        <time>2018-05-09T13:08:11Z</time>
      </trkpt>
      <trkpt lat="39.9139069185647" lon="116.65528970033031">
        <ele>28.50653076171875</ele>
        <time>2018-05-09T13:08:13Z</time>
      </trkpt>
      <trkpt lat="39.91397383321514" lon="116.65533357009214">
        <ele>28.40034294128418</ele>
        <time>2018-05-09T13:08:15Z</time>
      </trkpt>
      <trkpt lat="39.91403775172862" lon="116.6553754457458">
        <ele>28.24534034729004</ele>
        <time>2018-05-09T13:08:17Z</time>
      </trkpt>
      <trkpt lat="39.91409266873593" lon="116.65541831970862">
        <ele>28.064456939697266</ele>
        <time>2018-05-09T13:08:19Z</time>
      </trkpt>
      <trkpt lat="39.914146563257546" lon="116.65547316047297">
        <ele>27.863636016845703</ele>
        <time>2018-05-09T13:08:21Z</time>
      </trkpt>
      <trkpt lat="39.91419846159299" lon="116.65552600699705">
        <ele>27.73301124572754</ele>
        <time>2018-05-09T13:08:23Z</time>
      </trkpt>
      <trkpt lat="39.91424636007613" lon="116.65557885397814">
        <ele>27.694555282592773</ele>
        <time>2018-05-09T13:08:25Z</time>
      </trkpt>
      <trkpt lat="39.91428627201951" lon="116.65562472134552">
        <ele>27.589052200317383</ele>
        <time>2018-05-09T13:08:27Z</time>
      </trkpt>
      <trkpt lat="39.91433315923574" lon="116.65568355172098">
        <ele>27.52179527282715</ele>
        <time>2018-05-09T13:08:29Z</time>
      </trkpt>
      <trkpt lat="39.914380059572444" lon="116.65573540150173">
        <ele>27.426494598388672</ele>
        <time>2018-05-09T13:08:31Z</time>
      </trkpt>
      <trkpt lat="39.91443395207457" lon="116.65579123927512">
        <ele>27.35601043701172</ele>
        <time>2018-05-09T13:08:33Z</time>
      </trkpt>
      <trkpt lat="39.914478865605965" lon="116.6558361086899">
        <ele>27.25204849243164</ele>
        <time>2018-05-09T13:08:35Z</time>
      </trkpt>
      <trkpt lat="39.91451777749741" lon="116.65588197603773">
        <ele>27.217880249023438</ele>
        <time>2018-05-09T13:08:37Z</time>
      </trkpt>
      <trkpt lat="39.91455569505433" lon="116.65592485182454">
        <ele>27.26363754272461</ele>
        <time>2018-05-09T13:08:39Z</time>
      </trkpt>
      <trkpt lat="39.91459860486327" lon="116.65597171585172">
        <ele>27.262937545776367</ele>
        <time>2018-05-09T13:08:41Z</time>
      </trkpt>
      <trkpt lat="39.91464050905585" lon="116.6560215716313">
        <ele>27.316326141357422</ele>
        <time>2018-05-09T13:08:43Z</time>
      </trkpt>
      <trkpt lat="39.914682407586064" lon="116.6560744190353">
        <ele>27.38518714904785</ele>
        <time>2018-05-09T13:08:45Z</time>
      </trkpt>
      <trkpt lat="39.914721300577924" lon="116.65613025842691">
        <ele>27.4561767578125</ele>
        <time>2018-05-09T13:08:47Z</time>
      </trkpt>
      <trkpt lat="39.914757203082594" lon="116.65618111206776">
        <ele>27.50798988342285</ele>
        <time>2018-05-09T13:08:49Z</time>
      </trkpt>
      <trkpt lat="39.91478510402539" lon="116.65623296387753">
        <ele>27.486642837524414</ele>
        <time>2018-05-09T13:08:51Z</time>
      </trkpt>
      <trkpt lat="39.914819980174876" lon="116.65629777859623">
        <ele>27.45045280456543</ele>
        <time>2018-05-09T13:08:53Z</time>
      </trkpt>
      <trkpt lat="39.914855843066945" lon="116.65636957364565">
        <ele>27.411439895629883</ele>
        <time>2018-05-09T13:08:57Z</time>
      </trkpt>
      <trkpt lat="39.91498745498144" lon="116.65710051256121">
        <ele>26.481077194213867</ele>
        <time>2018-05-09T13:09:21Z</time>
      </trkpt>
      <trkpt lat="39.91499711449155" lon="116.65728000833296">
        <ele>26.52480125427246</ele>
        <time>2018-05-09T13:09:25Z</time>
      </trkpt>
      <trkpt lat="39.915011907817636" lon="116.65738870173229">
        <ele>26.554208755493164</ele>
        <time>2018-05-09T13:09:27Z</time>
      </trkpt>
      <trkpt lat="39.91503381990731" lon="116.65743457037871">
        <ele>26.605981826782227</ele>
        <time>2018-05-09T13:09:29Z</time>
      </trkpt>
      <trkpt lat="39.915051711348845" lon="116.6574914087228">
        <ele>26.59624481201172</ele>
        <time>2018-05-09T13:09:33Z</time>
      </trkpt>
      <trkpt lat="39.91507662327938" lon="116.65753727695228">
        <ele>26.638996124267578</ele>
        <time>2018-05-09T13:09:35Z</time>
      </trkpt>
      <trkpt lat="39.91510856138469" lon="116.6575691834776">
        <ele>26.692899703979492</ele>
        <time>2018-05-09T13:09:37Z</time>
      </trkpt>
      <trkpt lat="39.91514750297003" lon="116.65759909472946">
        <ele>26.676651000976562</ele>
        <time>2018-05-09T13:09:39Z</time>
      </trkpt>
      <trkpt lat="39.91517942403217" lon="116.65763997604373">
        <ele>26.798044204711914</ele>
        <time>2018-05-09T13:09:41Z</time>
      </trkpt>
      <trkpt lat="39.91521532598758" lon="116.65769082885441">
        <ele>26.84947395324707</ele>
        <time>2018-05-09T13:09:43Z</time>
      </trkpt>
      <trkpt lat="39.915251226033234" lon="116.65774267883913">
        <ele>26.85525894165039</ele>
        <time>2018-05-09T13:09:45Z</time>
      </trkpt>
      <trkpt lat="39.91530609685449" lon="116.65780948445165">
        <ele>26.536235809326172</ele>
        <time>2018-05-09T13:09:47Z</time>
      </trkpt>
      <trkpt lat="39.91536993696317" lon="116.65789224409019">
        <ele>25.38475799560547</ele>
        <time>2018-05-09T13:09:49Z</time>
      </trkpt>
      <trkpt lat="39.915445729155884" lon="116.65799993212465">
        <ele>25.335561752319336</ele>
        <time>2018-05-09T13:09:51Z</time>
      </trkpt>
      <trkpt lat="39.915508533199336" lon="116.65810163846628">
        <ele>25.503093719482422</ele>
        <time>2018-05-09T13:09:53Z</time>
      </trkpt>
      <trkpt lat="39.91556335647666" lon="116.65819337373699">
        <ele>25.653963088989258</ele>
        <time>2018-05-09T13:09:55Z</time>
      </trkpt>
      <trkpt lat="39.91560822184553" lon="116.6582631718714">
        <ele>25.621137619018555</ele>
        <time>2018-05-09T13:09:57Z</time>
      </trkpt>
      <trkpt lat="39.91566307727737" lon="116.6583379547016">
        <ele>25.558473587036133</ele>
        <time>2018-05-09T13:09:59Z</time>
      </trkpt>
      <trkpt lat="39.915714940391524" lon="116.65840874907414">
        <ele>25.55129623413086</ele>
        <time>2018-05-09T13:10:01Z</time>
      </trkpt>
      <trkpt lat="39.91576481494596" lon="116.65847356048846">
        <ele>25.49246597290039</ele>
        <time>2018-05-09T13:10:03Z</time>
      </trkpt>
      <trkpt lat="39.915803716511974" lon="116.65852441252245">
        <ele>25.40245819091797</ele>
        <time>2018-05-09T13:10:05Z</time>
      </trkpt>
      <trkpt lat="39.91583962578246" lon="116.6585712761334">
        <ele>25.41504669189453</ele>
        <time>2018-05-09T13:10:07Z</time>
      </trkpt>
      <trkpt lat="39.915878529218006" lon="116.65862113093034">
        <ele>25.400390625</ele>
        <time>2018-05-09T13:10:09Z</time>
      </trkpt>
      <trkpt lat="39.9159224077443" lon="116.65868394857445">
        <ele>25.418474197387695</ele>
        <time>2018-05-09T13:10:11Z</time>
      </trkpt>
      <trkpt lat="39.915961282661705" lon="116.65874876117886">
        <ele>25.537853240966797</ele>
        <time>2018-05-09T13:10:13Z</time>
      </trkpt>
      <trkpt lat="39.91600314983023" lon="116.65881756213645">
        <ele>25.714662551879883</ele>
        <time>2018-05-09T13:10:15Z</time>
      </trkpt>
      <trkpt lat="39.91603903812473" lon="116.65887539470747">
        <ele>25.83440399169922</ele>
        <time>2018-05-09T13:10:17Z</time>
      </trkpt>
      <trkpt lat="39.91608091664564" lon="116.65893821245544">
        <ele>25.890398025512695</ele>
        <time>2018-05-09T13:10:19Z</time>
      </trkpt>
      <trkpt lat="39.916120793328986" lon="116.6590020276032">
        <ele>25.93984603881836</ele>
        <time>2018-05-09T13:10:21Z</time>
      </trkpt>
      <trkpt lat="39.916158679579056" lon="116.65906085702292">
        <ele>25.980627059936523</ele>
        <time>2018-05-09T13:10:23Z</time>
      </trkpt>
      <trkpt lat="39.916191579330146" lon="116.65911270671674">
        <ele>26.060352325439453</ele>
        <time>2018-05-09T13:10:25Z</time>
      </trkpt>
      <trkpt lat="39.91621650602472" lon="116.65915059675427">
        <ele>26.138736724853516</ele>
        <time>2018-05-09T13:10:27Z</time>
      </trkpt>
      <trkpt lat="39.91624442687996" lon="116.65919147797065">
        <ele>26.28709602355957</ele>
        <time>2018-05-09T13:10:29Z</time>
      </trkpt>
      <trkpt lat="39.91627135727747" lon="116.65922737336416">
        <ele>26.536678314208984</ele>
        <time>2018-05-09T13:10:31Z</time>
      </trkpt>
      <trkpt lat="39.91630028377967" lon="116.65926526287292">
        <ele>26.842363357543945</ele>
        <time>2018-05-09T13:10:33Z</time>
      </trkpt>
      <trkpt lat="39.91632920456786" lon="116.65930614392676">
        <ele>27.210826873779297</ele>
        <time>2018-05-09T13:10:35Z</time>
      </trkpt>
      <trkpt lat="39.91636411177663" lon="116.65935400452597">
        <ele>27.47426414489746</ele>
        <time>2018-05-09T13:10:37Z</time>
      </trkpt>
      <trkpt lat="39.91640300548552" lon="116.65940884490833">
        <ele>27.700210571289062</ele>
        <time>2018-05-09T13:10:39Z</time>
      </trkpt>
      <trkpt lat="39.91644390099735" lon="116.65946268783547">
        <ele>27.97765350341797</ele>
        <time>2018-05-09T13:10:41Z</time>
      </trkpt>
      <trkpt lat="39.91647980051246" lon="116.6595145369859">
        <ele>28.27605628967285</ele>
        <time>2018-05-09T13:10:43Z</time>
      </trkpt>
      <trkpt lat="39.91651171160415" lon="116.65956040350488">
        <ele>28.543413162231445</ele>
        <time>2018-05-09T13:10:45Z</time>
      </trkpt>
      <trkpt lat="39.916538628607874" lon="116.65960327907209">
        <ele>28.76470947265625</ele>
        <time>2018-05-09T13:10:47Z</time>
      </trkpt>
      <trkpt lat="39.9165625476332" lon="116.65964515781057">
        <ele>28.89067268371582</ele>
        <time>2018-05-09T13:10:49Z</time>
      </trkpt>
      <trkpt lat="39.91658246872307" lon="116.6596860398445">
        <ele>28.9247989654541</ele>
        <time>2018-05-09T13:10:51Z</time>
      </trkpt>
      <trkpt lat="39.91660238790036" lon="116.65972791904744">
        <ele>28.972814559936523</ele>
        <time>2018-05-09T13:10:53Z</time>
      </trkpt>
      <trkpt lat="39.916622301355446" lon="116.65977278978238">
        <ele>29.028913497924805</ele>
        <time>2018-05-09T13:10:55Z</time>
      </trkpt>
      <trkpt lat="39.9166491897425" lon="116.65983062300045">
        <ele>29.054216384887695</ele>
        <time>2018-05-09T13:10:57Z</time>
      </trkpt>
      <trkpt lat="39.916681053135314" lon="116.6599014189303">
        <ele>29.061128616333008</ele>
        <time>2018-05-09T13:10:59Z</time>
      </trkpt>
      <trkpt lat="39.9167188952898" lon="116.65998318306734">
        <ele>29.11477279663086</ele>
        <time>2018-05-09T13:11:01Z</time>
      </trkpt>
      <trkpt lat="39.91675474130915" lon="116.66006295304">
        <ele>29.305553436279297</ele>
        <time>2018-05-09T13:11:03Z</time>
      </trkpt>
      <trkpt lat="39.91679157963143" lon="116.66014671155804">
        <ele>29.431684494018555</ele>
        <time>2018-05-09T13:11:05Z</time>
      </trkpt>
      <trkpt lat="39.91682342575955" lon="116.66022648192497">
        <ele>29.605342864990234</ele>
        <time>2018-05-09T13:11:09Z</time>
      </trkpt>
      <trkpt lat="39.916850296861234" lon="116.66029328954654">
        <ele>29.62603187561035</ele>
        <time>2018-05-09T13:11:11Z</time>
      </trkpt>
      <trkpt lat="39.916871185361735" lon="116.66035112327565">
        <ele>29.601367950439453</ele>
        <time>2018-05-09T13:11:13Z</time>
      </trkpt>
      <trkpt lat="39.9168950412927" lon="116.66042590862253">
        <ele>29.577804565429688</ele>
        <time>2018-05-09T13:11:15Z</time>
      </trkpt>
      <trkpt lat="39.91691787053053" lon="116.66051465452324">
        <ele>29.561792373657227</ele>
        <time>2018-05-09T13:11:17Z</time>
      </trkpt>
      <trkpt lat="39.91694269774161" lon="116.66060439729803">
        <ele>29.45867156982422</ele>
        <time>2018-05-09T13:11:21Z</time>
      </trkpt>
      <trkpt lat="39.91696356516953" lon="116.66067319982841">
        <ele>29.90274429321289</ele>
        <time>2018-05-09T13:11:27Z</time>
      </trkpt>
      <trkpt lat="39.9169864668529" lon="116.66072405293133">
        <ele>30.073572158813477</ele>
        <time>2018-05-09T13:11:31Z</time>
      </trkpt>
      <trkpt lat="39.917011377986306" lon="116.66076991989709">
        <ele>30.143672943115234</ele>
        <time>2018-05-09T13:11:33Z</time>
      </trkpt>
      <trkpt lat="39.91703430637834" lon="116.66080681252507">
        <ele>30.271533966064453</ele>
        <time>2018-05-09T13:11:35Z</time>
      </trkpt>
      <trkpt lat="39.91705623289777" lon="116.66084470244105">
        <ele>30.361270904541016</ele>
        <time>2018-05-09T13:11:37Z</time>
      </trkpt>
      <trkpt lat="39.917076176681064" lon="116.66087361802794">
        <ele>30.456707000732422</ele>
        <time>2018-05-09T13:11:39Z</time>
      </trkpt>
      <trkpt lat="39.917099171891095" lon="116.66087560954543">
        <ele>30.638059616088867</ele>
        <time>2018-05-09T13:11:43Z</time>
      </trkpt>
      <trkpt lat="39.917127231809474" lon="116.66084369652948">
        <ele>30.457427978515625</ele>
        <time>2018-05-09T13:11:47Z</time>
      </trkpt>
      <trkpt lat="39.917155343270636" lon="116.66078485979591">
        <ele>30.382232666015625</ele>
        <time>2018-05-09T13:11:49Z</time>
      </trkpt>
      <trkpt lat="39.917188469777265" lon="116.66071804502387">
        <ele>30.277976989746094</ele>
        <time>2018-05-09T13:11:51Z</time>
      </trkpt>
      <trkpt lat="39.91722260958292" lon="116.66064424986997">
        <ele>30.321462631225586</ele>
        <time>2018-05-09T13:11:53Z</time>
      </trkpt>
      <trkpt lat="39.917256739824765" lon="116.66057544055877">
        <ele>30.364967346191406</ele>
        <time>2018-05-09T13:11:55Z</time>
      </trkpt>
      <trkpt lat="39.91728484549645" lon="116.66051959524665">
        <ele>30.35137367248535</ele>
        <time>2018-05-09T13:11:57Z</time>
      </trkpt>
      <trkpt lat="39.91730892461488" lon="116.66047771087912">
        <ele>30.282649993896484</ele>
        <time>2018-05-09T13:11:59Z</time>
      </trkpt>
      <trkpt lat="39.9173360055068" lon="116.66043482895314">
        <ele>30.15765953063965</ele>
        <time>2018-05-09T13:12:03Z</time>
      </trkpt>
      <trkpt lat="39.917363092113" lon="116.66038895548228">
        <ele>30.165163040161133</ele>
        <time>2018-05-09T13:12:05Z</time>
      </trkpt>
      <trkpt lat="39.917393174769046" lon="116.66034507598255">
        <ele>30.15279769897461</ele>
        <time>2018-05-09T13:12:07Z</time>
      </trkpt>
      <trkpt lat="39.917426261104126" lon="116.66029920174404">
        <ele>29.84428596496582</ele>
        <time>2018-05-09T13:12:11Z</time>
      </trkpt>
      <trkpt lat="39.91746939849015" lon="116.66022640244371">
        <ele>29.702791213989258</ele>
        <time>2018-05-09T13:12:13Z</time>
      </trkpt>
      <trkpt lat="39.91751452814256" lon="116.66015759157469">
        <ele>29.438339233398438</ele>
        <time>2018-05-09T13:12:18Z</time>
      </trkpt>
      <trkpt lat="39.917557655951725" lon="116.6600897780964">
        <ele>29.42079734802246</ele>
        <time>2018-05-09T13:12:20Z</time>
      </trkpt>
      <trkpt lat="39.91758972512341" lon="116.6600528785134">
        <ele>29.30265235900879</ele>
        <time>2018-05-09T13:12:22Z</time>
      </trkpt>
      <trkpt lat="39.917624826558736" lon="116.65999902648949">
        <ele>29.30208396911621</ele>
        <time>2018-05-09T13:12:24Z</time>
      </trkpt>
      <trkpt lat="39.91763595376145" lon="116.6599322140484">
        <ele>29.42869758605957</ele>
        <time>2018-05-09T13:12:26Z</time>
      </trkpt>
      <trkpt lat="39.917622099141234" lon="116.65985643001787">
        <ele>29.642770767211914</ele>
        <time>2018-05-09T13:12:30Z</time>
      </trkpt>
      <trkpt lat="39.917584256932294" lon="116.65977466580422">
        <ele>29.63658905029297</ele>
        <time>2018-05-09T13:12:32Z</time>
      </trkpt>
      <trkpt lat="39.91754442429572" lon="116.65968791587144">
        <ele>29.587411880493164</ele>
        <time>2018-05-09T13:12:34Z</time>
      </trkpt>
      <trkpt lat="39.91750460685123" lon="116.65959318841266">
        <ele>29.509483337402344</ele>
        <time>2018-05-09T13:12:36Z</time>
      </trkpt>
      <trkpt lat="39.917470770076676" lon="116.65950843198415">
        <ele>29.498035430908203</ele>
        <time>2018-05-09T13:12:38Z</time>
      </trkpt>
      <trkpt lat="39.9174209567733" lon="116.65941171124857">
        <ele>29.50710678100586</ele>
        <time>2018-05-09T13:12:40Z</time>
      </trkpt>
      <trkpt lat="39.91737911455037" lon="116.6593299472348">
        <ele>29.95062828063965</ele>
        <time>2018-05-09T13:12:45Z</time>
      </trkpt>
      <trkpt lat="39.91733726278312" lon="116.65925316909605">
        <ele>30.298261642456055</ele>
        <time>2018-05-09T13:12:49Z</time>
      </trkpt>
      <trkpt lat="39.91731934722045" lon="116.65920929511375">
        <ele>30.481874465942383</ele>
        <time>2018-05-09T13:12:51Z</time>
      </trkpt>
      <trkpt lat="39.917297435619105" lon="116.65916342723354">
        <ele>30.67507553100586</ele>
        <time>2018-05-09T13:12:53Z</time>
      </trkpt>
      <trkpt lat="39.91726155691617" lon="116.65910060887309">
        <ele>30.818620681762695</ele>
        <time>2018-05-09T13:12:55Z</time>
      </trkpt>
      <trkpt lat="39.917216714684564" lon="116.65901884501385">
        <ele>30.939481735229492</ele>
        <time>2018-05-09T13:12:57Z</time>
      </trkpt>
      <trkpt lat="39.91716987440097" lon="116.65893608415404">
        <ele>31.252866744995117</ele>
        <time>2018-05-09T13:13:02Z</time>
      </trkpt>
      <trkpt lat="39.91712900343025" lon="116.6588692775277">
        <ele>31.267091751098633</ele>
        <time>2018-05-09T13:13:04Z</time>
      </trkpt>
      <trkpt lat="39.91708811723911" lon="116.6588104483815">
        <ele>31.300859451293945</ele>
        <time>2018-05-09T13:13:06Z</time>
      </trkpt>
      <trkpt lat="39.917049232843226" lon="116.65875062176825">
        <ele>31.076932907104492</ele>
        <time>2018-05-09T13:13:10Z</time>
      </trkpt>
      <trkpt lat="39.9170133577942" lon="116.65868580879928">
        <ele>30.859012603759766</ele>
        <time>2018-05-09T13:13:12Z</time>
      </trkpt>
      <trkpt lat="39.91698346728049" lon="116.6586289725871">
        <ele>30.65544891357422</ele>
        <time>2018-05-09T13:13:14Z</time>
      </trkpt>
      <trkpt lat="39.91695556527498" lon="116.65857811925173">
        <ele>30.418081283569336</ele>
        <time>2018-05-09T13:13:16Z</time>
      </trkpt>
      <trkpt lat="39.91692565574756" lon="116.65853125490841">
        <ele>30.156169891357422</ele>
        <time>2018-05-09T13:13:18Z</time>
      </trkpt>
      <trkpt lat="39.916887761725675" lon="116.65847641398585">
        <ele>29.84219741821289</ele>
        <time>2018-05-09T13:13:20Z</time>
      </trkpt>
      <trkpt lat="39.91684488686907" lon="116.658411601716">
        <ele>29.525501251220703</ele>
        <time>2018-05-09T13:13:22Z</time>
      </trkpt>
      <trkpt lat="39.91679603689834" lon="116.65833382662103">
        <ele>29.17486572265625</ele>
        <time>2018-05-09T13:13:24Z</time>
      </trkpt>
      <trkpt lat="39.9167531809491" lon="116.65825904231653">
        <ele>28.863466262817383</ele>
        <time>2018-05-09T13:13:26Z</time>
      </trkpt>
      <trkpt lat="39.916712321089825" lon="116.65818625210461">
        <ele>28.6329345703125</ele>
        <time>2018-05-09T13:13:28Z</time>
      </trkpt>
      <trkpt lat="39.91668243798874" lon="116.65812542684463">
        <ele>28.41977882385254</ele>
        <time>2018-05-09T13:13:30Z</time>
      </trkpt>
      <trkpt lat="39.916659529933035" lon="116.65807756424554">
        <ele>28.124818801879883</ele>
        <time>2018-05-09T13:13:32Z</time>
      </trkpt>
      <trkpt lat="39.91663760855703" lon="116.65803668188083">
        <ele>27.72201919555664</ele>
        <time>2018-05-09T13:13:34Z</time>
      </trkpt>
      <trkpt lat="39.91661967752843" lon="116.65800078499512">
        <ele>27.166479110717773</ele>
        <time>2018-05-09T13:13:37Z</time>
      </trkpt>
      <trkpt lat="39.91659575811168" lon="116.65795890564819">
        <ele>26.814943313598633</ele>
        <time>2018-05-09T13:13:39Z</time>
      </trkpt>
      <trkpt lat="39.916568853963234" lon="116.65790904906731">
        <ele>26.385997772216797</ele>
        <time>2018-05-09T13:13:41Z</time>
      </trkpt>
      <trkpt lat="39.91653595384018" lon="116.65785719880225">
        <ele>25.972503662109375</ele>
        <time>2018-05-09T13:13:43Z</time>
      </trkpt>
      <trkpt lat="39.91649806905825" lon="116.65779737153095">
        <ele>25.53176498413086</ele>
        <time>2018-05-09T13:13:45Z</time>
      </trkpt>
      <trkpt lat="39.91646217091802" lon="116.6577445243776">
        <ele>25.026737213134766</ele>
        <time>2018-05-09T13:13:47Z</time>
      </trkpt>
      <trkpt lat="39.916425272802044" lon="116.65769167731933">
        <ele>24.40825653076172</ele>
        <time>2018-05-09T13:13:49Z</time>
      </trkpt>
    </trkseg>
  </trk>
</gpx>