<?xml version="1.0" encoding="UTF-8"?>
<gpx xmlns="http://www.topografix.com/GPX/1/1" xmlns:gpxtpx="http://www.garmin.com/xmlschemas/TrackPointExtension/v1" xmlns:xsi="http://www.w3.org/2001/XMLSchema-instance" xsi:schemaLocation="http://www.topografix.com/GPX/1/1 http://www.topografix.com/GPX/1/1/gpx.xsd" version="1.1" creator="gpx.py -- https://github.com/tkrajina/gpxpy">
  <trk>
    <name>gpx from codoon</name>
    <type>Run</type>
    <trkseg>
      <trkpt lat="36.68658974285934" lon="117.2209536361808">
        <ele>98.5</ele>
        <time>2023-02-22T22:25:01Z</time>
      </trkpt>
      <trkpt lat="36.686598370470385" lon="117.2209354850068">
        <ele>98.5</ele>
        <time>2023-02-22T22:25:02Z</time>
      </trkpt>
      <trkpt lat="36.686611149178994" lon="117.22091377222189">
        <ele>98.5</ele>
        <time>2023-02-22T22:25:03Z</time>
      </trkpt>
      <trkpt lat="36.68662894044876" lon="117.22088631764825">
        <ele>98.5</ele>
        <time>2023-02-22T22:25:04Z</time>
      </trkpt>
      <trkpt lat="36.6866467325271" lon="117.22085883765739">
        <ele>98.5</ele>
        <time>2023-02-22T22:25:05Z</time>
      </trkpt>
      <trkpt lat="36.686675321461735" lon="117.22085487226926">
        <ele>98.5</ele>
        <time>2023-02-22T22:25:06Z</time>
      </trkpt>
      <trkpt lat="36.68669493130275" lon="117.22083746618259">
        <ele>98.5</ele>
        <time>2023-02-22T22:25:07Z</time>
      </trkpt>
      <trkpt lat="36.68671572671781" lon="117.22082007084572">
        <ele>98.5</ele>
        <time>2023-02-22T22:25:08Z</time>
      </trkpt>
      <trkpt lat="36.68673737368873" lon="117.22080345538986">
        <ele>98.5</ele>
        <time>2023-02-22T22:25:09Z</time>
      </trkpt>
      <trkpt lat="36.68675937280128" lon="117.22078853466712">
        <ele>98.5</ele>
        <time>2023-02-22T22:25:10Z</time>
      </trkpt>
      <trkpt lat="36.68678156300412" lon="117.22077525350211">
        <ele>98.5</ele>
        <time>2023-02-22T22:25:11Z</time>
      </trkpt>
      <trkpt lat="36.68680325131165" lon="117.22076277323147">
        <ele>98.5</ele>
        <time>2023-02-22T22:25:12Z</time>
      </trkpt>
      <trkpt lat="36.68682499586231" lon="117.22075229356224">
        <ele>98.5</ele>
        <time>2023-02-22T22:25:13Z</time>
      </trkpt>
      <trkpt lat="36.686846845731765" lon="117.22074365929329">
        <ele>98.5</ele>
        <time>2023-02-22T22:25:14Z</time>
      </trkpt>
      <trkpt lat="36.686868569745776" lon="117.22073652443383">
        <ele>98.5</ele>
        <time>2023-02-22T22:25:15Z</time>
      </trkpt>
      <trkpt lat="36.68689042946988" lon="117.22073071729157">
        <ele>98.1</ele>
        <time>2023-02-22T22:25:16Z</time>
      </trkpt>
      <trkpt lat="36.68691220637722" lon="117.22072574905293">
        <ele>98.1</ele>
        <time>2023-02-22T22:25:17Z</time>
      </trkpt>
      <trkpt lat="36.68693398025613" lon="117.22072178139236">
        <ele>98.1</ele>
        <time>2023-02-22T22:25:18Z</time>
      </trkpt>
      <trkpt lat="36.68695596325504" lon="117.22071920603715">
        <ele>98.1</ele>
        <time>2023-02-22T22:25:19Z</time>
      </trkpt>
      <trkpt lat="36.68697844821182" lon="117.22071766603963">
        <ele>98.1</ele>
        <time>2023-02-22T22:25:20Z</time>
      </trkpt>
      <trkpt lat="36.68700143819598" lon="117.2207169027251">
        <ele>98.1</ele>
        <time>2023-02-22T22:25:21Z</time>
      </trkpt>
      <trkpt lat="36.68702536004913" lon="117.2207171590726">
        <ele>98.1</ele>
        <time>2023-02-22T22:25:22Z</time>
      </trkpt>
      <trkpt lat="36.687050056262535" lon="117.22071799793987">
        <ele>98.1</ele>
        <time>2023-02-22T22:25:23Z</time>
      </trkpt>
      <trkpt lat="36.68707506254654" lon="117.2207184999005">
        <ele>98.1</ele>
        <time>2023-02-22T22:25:24Z</time>
      </trkpt>
      <trkpt lat="36.687100450135716" lon="117.22071888162742">
        <ele>98.1</ele>
        <time>2023-02-22T22:25:25Z</time>
      </trkpt>
      <trkpt lat="36.68712614063773" lon="117.22071928839645">
        <ele>97.9</ele>
        <time>2023-02-22T22:25:26Z</time>
      </trkpt>
      <trkpt lat="36.68715167053254" lon="117.22071985962413">
        <ele>97.9</ele>
        <time>2023-02-22T22:25:27Z</time>
      </trkpt>
      <trkpt lat="36.687177337005416" lon="117.22072074559236">
        <ele>97.9</ele>
        <time>2023-02-22T22:25:28Z</time>
      </trkpt>
      <trkpt lat="36.68720294434632" lon="117.22072196783664">
        <ele>97.9</ele>
        <time>2023-02-22T22:25:29Z</time>
      </trkpt>
      <trkpt lat="36.687228359225436" lon="117.22072362801813">
        <ele>97.9</ele>
        <time>2023-02-22T22:25:30Z</time>
      </trkpt>
      <trkpt lat="36.687253464569885" lon="117.22072561623965">
        <ele>97.9</ele>
        <time>2023-02-22T22:25:31Z</time>
      </trkpt>
      <trkpt lat="36.68727811376381" lon="117.2207278200539">
        <ele>97.9</ele>
        <time>2023-02-22T22:25:32Z</time>
      </trkpt>
      <trkpt lat="36.687301856855235" lon="117.22073009086624">
        <ele>97.9</ele>
        <time>2023-02-22T22:25:33Z</time>
      </trkpt>
      <trkpt lat="36.68732474784334" lon="117.22073243628246">
        <ele>97.9</ele>
        <time>2023-02-22T22:25:34Z</time>
      </trkpt>
      <trkpt lat="36.68734687439049" lon="117.22073490234068">
        <ele>97.9</ele>
        <time>2023-02-22T22:25:35Z</time>
      </trkpt>
      <trkpt lat="36.68736826827624" lon="117.22073765621546">
        <ele>97.7</ele>
        <time>2023-02-22T22:25:36Z</time>
      </trkpt>
      <trkpt lat="36.687389033209215" lon="117.22074079143583">
        <ele>97.7</ele>
        <time>2023-02-22T22:25:37Z</time>
      </trkpt>
      <trkpt lat="36.68740927839783" lon="117.22074442441631">
        <ele>97.7</ele>
        <time>2023-02-22T22:25:38Z</time>
      </trkpt>
      <trkpt lat="36.68742905892442" lon="117.22074872093431">
        <ele>97.7</ele>
        <time>2023-02-22T22:25:39Z</time>
      </trkpt>
      <trkpt lat="36.68744853345617" lon="117.22075349969192">
        <ele>97.7</ele>
        <time>2023-02-22T22:25:40Z</time>
      </trkpt>
      <trkpt lat="36.68746807488875" lon="117.22075878776">
        <ele>97.7</ele>
        <time>2023-02-22T22:25:41Z</time>
      </trkpt>
      <trkpt lat="36.68748740616355" lon="117.2207645750587">
        <ele>97.7</ele>
        <time>2023-02-22T22:25:42Z</time>
      </trkpt>
      <trkpt lat="36.687506698381064" lon="117.22077083426055">
        <ele>97.7</ele>
        <time>2023-02-22T22:25:43Z</time>
      </trkpt>
      <trkpt lat="36.68752638734022" lon="117.22077766966842">
        <ele>97.7</ele>
        <time>2023-02-22T22:25:44Z</time>
      </trkpt>
      <trkpt lat="36.687546497762504" lon="117.22078496804448">
        <ele>97.7</ele>
        <time>2023-02-22T22:25:45Z</time>
      </trkpt>
      <trkpt lat="36.687567073352724" lon="117.2207926643814">
        <ele>97.6</ele>
        <time>2023-02-22T22:25:46Z</time>
      </trkpt>
      <trkpt lat="36.687588445729126" lon="117.22080075535756">
        <ele>97.6</ele>
        <time>2023-02-22T22:25:47Z</time>
      </trkpt>
      <trkpt lat="36.68761057199906" lon="117.22080907100349">
        <ele>97.6</ele>
        <time>2023-02-22T22:25:48Z</time>
      </trkpt>
      <trkpt lat="36.68763341727566" lon="117.22081742525339">
        <ele>97.6</ele>
        <time>2023-02-22T22:25:49Z</time>
      </trkpt>
      <trkpt lat="36.68765663413168" lon="117.22082553518221">
        <ele>97.6</ele>
        <time>2023-02-22T22:25:50Z</time>
      </trkpt>
      <trkpt lat="36.687680521850815" lon="117.22083353525329">
        <ele>97.6</ele>
        <time>2023-02-22T22:25:51Z</time>
      </trkpt>
      <trkpt lat="36.68770469609241" lon="117.22084116027861">
        <ele>97.6</ele>
        <time>2023-02-22T22:25:52Z</time>
      </trkpt>
      <trkpt lat="36.687729128359685" lon="117.22084833726556">
        <ele>97.6</ele>
        <time>2023-02-22T22:25:53Z</time>
      </trkpt>
      <trkpt lat="36.68775407810464" lon="117.2208549624968">
        <ele>97.6</ele>
        <time>2023-02-22T22:25:54Z</time>
      </trkpt>
      <trkpt lat="36.68777913640766" lon="117.22086084605377">
        <ele>97.6</ele>
        <time>2023-02-22T22:25:55Z</time>
      </trkpt>
      <trkpt lat="36.68780426446024" lon="117.22086591056461">
        <ele>97.7</ele>
        <time>2023-02-22T22:25:56Z</time>
      </trkpt>
      <trkpt lat="36.687829788738256" lon="117.22087016238999">
        <ele>97.7</ele>
        <time>2023-02-22T22:25:57Z</time>
      </trkpt>
      <trkpt lat="36.687855333134614" lon="117.2208735649342">
        <ele>97.7</ele>
        <time>2023-02-22T22:25:58Z</time>
      </trkpt>
      <trkpt lat="36.68788123414463" lon="117.22087627181982">
        <ele>97.7</ele>
        <time>2023-02-22T22:25:59Z</time>
      </trkpt>
      <trkpt lat="36.68790742292854" lon="117.22087839151116">
        <ele>97.7</ele>
        <time>2023-02-22T22:26:00Z</time>
      </trkpt>
      <trkpt lat="36.68793386195889" lon="117.22088002691736">
        <ele>97.7</ele>
        <time>2023-02-22T22:26:01Z</time>
      </trkpt>
      <trkpt lat="36.68796045592105" lon="117.22088116880927">
        <ele>97.7</ele>
        <time>2023-02-22T22:26:02Z</time>
      </trkpt>
      <trkpt lat="36.687987125741316" lon="117.22088193300384">
        <ele>97.7</ele>
        <time>2023-02-22T22:26:03Z</time>
      </trkpt>
      <trkpt lat="36.68801412770033" lon="117.22088234565132">
        <ele>97.7</ele>
        <time>2023-02-22T22:26:04Z</time>
      </trkpt>
      <trkpt lat="36.68804103386894" lon="117.22088246030859">
        <ele>97.7</ele>
        <time>2023-02-22T22:26:05Z</time>
      </trkpt>
      <trkpt lat="36.688068180998876" lon="117.22088229720978">
        <ele>96.7</ele>
        <time>2023-02-22T22:26:06Z</time>
      </trkpt>
      <trkpt lat="36.68809555635844" lon="117.22088194262656">
        <ele>96.7</ele>
        <time>2023-02-22T22:26:07Z</time>
      </trkpt>
      <trkpt lat="36.6881228099476" lon="117.22088140950002">
        <ele>96.7</ele>
        <time>2023-02-22T22:26:08Z</time>
      </trkpt>
      <trkpt lat="36.68815029765112" lon="117.22088059413451">
        <ele>96.7</ele>
        <time>2023-02-22T22:26:09Z</time>
      </trkpt>
      <trkpt lat="36.688177616082505" lon="117.22087943778301">
        <ele>96.7</ele>
        <time>2023-02-22T22:26:10Z</time>
      </trkpt>
      <trkpt lat="36.68820514272763" lon="117.22087795897394">
        <ele>96.7</ele>
        <time>2023-02-22T22:26:11Z</time>
      </trkpt>
      <trkpt lat="36.68823281269626" lon="117.22087621271709">
        <ele>96.7</ele>
        <time>2023-02-22T22:26:12Z</time>
      </trkpt>
      <trkpt lat="36.68826030797791" lon="117.22087425798698">
        <ele>96.7</ele>
        <time>2023-02-22T22:26:13Z</time>
      </trkpt>
      <trkpt lat="36.688288050619654" lon="117.22087216544043">
        <ele>96.7</ele>
        <time>2023-02-22T22:26:14Z</time>
      </trkpt>
      <trkpt lat="36.688315705701534" lon="117.2208700233926">
        <ele>96.7</ele>
        <time>2023-02-22T22:26:15Z</time>
      </trkpt>
      <trkpt lat="36.68834341189486" lon="117.22086789602461">
        <ele>96.8</ele>
        <time>2023-02-22T22:26:16Z</time>
      </trkpt>
      <trkpt lat="36.68837126215154" lon="117.22086577904035">
        <ele>96.8</ele>
        <time>2023-02-22T22:26:17Z</time>
      </trkpt>
      <trkpt lat="36.68839931021136" lon="117.22086365990815">
        <ele>96.8</ele>
        <time>2023-02-22T22:26:18Z</time>
      </trkpt>
      <trkpt lat="36.68842788391666" lon="117.22086152800111">
        <ele>96.8</ele>
        <time>2023-02-22T22:26:19Z</time>
      </trkpt>
      <trkpt lat="36.68845648559664" lon="117.22085941766315">
        <ele>96.8</ele>
        <time>2023-02-22T22:26:20Z</time>
      </trkpt>
      <trkpt lat="36.68848539859199" lon="117.22085729299896">
        <ele>96.8</ele>
        <time>2023-02-22T22:26:21Z</time>
      </trkpt>
      <trkpt lat="36.688514147501614" lon="117.22085517115814">
        <ele>96.8</ele>
        <time>2023-02-22T22:26:22Z</time>
      </trkpt>
      <trkpt lat="36.68854302027804" lon="117.22085304121741">
        <ele>96.8</ele>
        <time>2023-02-22T22:26:23Z</time>
      </trkpt>
      <trkpt lat="36.68857194133812" lon="117.22085096695798">
        <ele>96.8</ele>
        <time>2023-02-22T22:26:24Z</time>
      </trkpt>
      <trkpt lat="36.68860054021758" lon="117.22084904005266">
        <ele>96.8</ele>
        <time>2023-02-22T22:26:25Z</time>
      </trkpt>
      <trkpt lat="36.68862920343254" lon="117.22084730573847">
        <ele>96.9</ele>
        <time>2023-02-22T22:26:26Z</time>
      </trkpt>
      <trkpt lat="36.68865780442222" lon="117.22084578013803">
        <ele>96.9</ele>
        <time>2023-02-22T22:26:27Z</time>
      </trkpt>
      <trkpt lat="36.688686285214764" lon="117.22084454876813">
        <ele>96.9</ele>
        <time>2023-02-22T22:26:28Z</time>
      </trkpt>
      <trkpt lat="36.68871457930237" lon="117.2208435611563">
        <ele>96.9</ele>
        <time>2023-02-22T22:26:29Z</time>
      </trkpt>
      <trkpt lat="36.688742318365634" lon="117.22084274946194">
        <ele>96.9</ele>
        <time>2023-02-22T22:26:30Z</time>
      </trkpt>
      <trkpt lat="36.688769925028765" lon="117.22084202489476">
        <ele>96.9</ele>
        <time>2023-02-22T22:26:31Z</time>
      </trkpt>
      <trkpt lat="36.68879705084292" lon="117.22084135017388">
        <ele>96.9</ele>
        <time>2023-02-22T22:26:32Z</time>
      </trkpt>
      <trkpt lat="36.688824150912914" lon="117.22084067448402">
        <ele>96.9</ele>
        <time>2023-02-22T22:26:33Z</time>
      </trkpt>
      <trkpt lat="36.68885093559411" lon="117.22083981341795">
        <ele>96.9</ele>
        <time>2023-02-22T22:26:34Z</time>
      </trkpt>
      <trkpt lat="36.68887783719807" lon="117.22083867214519">
        <ele>96.9</ele>
        <time>2023-02-22T22:26:35Z</time>
      </trkpt>
      <trkpt lat="36.68890484965365" lon="117.22083723644758">
        <ele>96.8</ele>
        <time>2023-02-22T22:26:36Z</time>
      </trkpt>
      <trkpt lat="36.68893167722653" lon="117.22083549558066">
        <ele>96.8</ele>
        <time>2023-02-22T22:26:37Z</time>
      </trkpt>
      <trkpt lat="36.688958671882" lon="117.22083349627268">
        <ele>96.8</ele>
        <time>2023-02-22T22:26:38Z</time>
      </trkpt>
      <trkpt lat="36.688985421201615" lon="117.2208312559962">
        <ele>96.8</ele>
        <time>2023-02-22T22:26:39Z</time>
      </trkpt>
      <trkpt lat="36.6890122657061" lon="117.22082880913676">
        <ele>96.8</ele>
        <time>2023-02-22T22:26:40Z</time>
      </trkpt>
      <trkpt lat="36.689039145462004" lon="117.22082623136832">
        <ele>96.8</ele>
        <time>2023-02-22T22:26:41Z</time>
      </trkpt>
      <trkpt lat="36.68906573631795" lon="117.22082363300466">
        <ele>96.8</ele>
        <time>2023-02-22T22:26:42Z</time>
      </trkpt>
      <trkpt lat="36.68909246702146" lon="117.22082109270416">
        <ele>96.8</ele>
        <time>2023-02-22T22:26:43Z</time>
      </trkpt>
      <trkpt lat="36.689118944950536" lon="117.22081864396877">
        <ele>96.8</ele>
        <time>2023-02-22T22:26:44Z</time>
      </trkpt>
      <trkpt lat="36.68914519340589" lon="117.2208164476452">
        <ele>96.8</ele>
        <time>2023-02-22T22:26:45Z</time>
      </trkpt>
      <trkpt lat="36.68917117296249" lon="117.22081422361136">
        <ele>95.2</ele>
        <time>2023-02-22T22:26:46Z</time>
      </trkpt>
      <trkpt lat="36.68919677498902" lon="117.22081141823614">
        <ele>95.2</ele>
        <time>2023-02-22T22:26:47Z</time>
      </trkpt>
      <trkpt lat="36.68922173734471" lon="117.22080748047262">
        <ele>95.2</ele>
        <time>2023-02-22T22:26:48Z</time>
      </trkpt>
      <trkpt lat="36.68924573362186" lon="117.22080175098816">
        <ele>95.2</ele>
        <time>2023-02-22T22:26:49Z</time>
      </trkpt>
      <trkpt lat="36.689268499274576" lon="117.2207939903306">
        <ele>95.2</ele>
        <time>2023-02-22T22:26:50Z</time>
      </trkpt>
      <trkpt lat="36.689289983253886" lon="117.2207839470689">
        <ele>95.2</ele>
        <time>2023-02-22T22:26:51Z</time>
      </trkpt>
      <trkpt lat="36.6893098982672" lon="117.22077147044374">
        <ele>95.2</ele>
        <time>2023-02-22T22:26:52Z</time>
      </trkpt>
      <trkpt lat="36.689328484617384" lon="117.22075622874169">
        <ele>95.2</ele>
        <time>2023-02-22T22:26:53Z</time>
      </trkpt>
      <trkpt lat="36.68934548584895" lon="117.22073837942486">
        <ele>95.2</ele>
        <time>2023-02-22T22:26:54Z</time>
      </trkpt>
      <trkpt lat="36.689361070952124" lon="117.2207180187317">
        <ele>95.2</ele>
        <time>2023-02-22T22:26:55Z</time>
      </trkpt>
      <trkpt lat="36.689375497120935" lon="117.2206949911379">
        <ele>94.7</ele>
        <time>2023-02-22T22:26:56Z</time>
      </trkpt>
      <trkpt lat="36.68938858288058" lon="117.22066987873333">
        <ele>94.7</ele>
        <time>2023-02-22T22:26:57Z</time>
      </trkpt>
      <trkpt lat="36.68940062226139" lon="117.22064339965178">
        <ele>94.7</ele>
        <time>2023-02-22T22:26:58Z</time>
      </trkpt>
      <trkpt lat="36.689412172837535" lon="117.2206159644389">
        <ele>94.7</ele>
        <time>2023-02-22T22:26:59Z</time>
      </trkpt>
      <trkpt lat="36.689423390383" lon="117.2205884957424">
        <ele>94.7</ele>
        <time>2023-02-22T22:27:00Z</time>
      </trkpt>
      <trkpt lat="36.68943482497557" lon="117.22056151034734">
        <ele>94.7</ele>
        <time>2023-02-22T22:27:01Z</time>
      </trkpt>
      <trkpt lat="36.6894463670584" lon="117.22053555125494">
        <ele>94.7</ele>
        <time>2023-02-22T22:27:02Z</time>
      </trkpt>
      <trkpt lat="36.68945845453797" lon="117.22051099130032">
        <ele>94.7</ele>
        <time>2023-02-22T22:27:03Z</time>
      </trkpt>
      <trkpt lat="36.68947088752962" lon="117.22048834294006">
        <ele>94.7</ele>
        <time>2023-02-22T22:27:04Z</time>
      </trkpt>
      <trkpt lat="36.68948363890821" lon="117.22046759950267">
        <ele>94.7</ele>
        <time>2023-02-22T22:27:05Z</time>
      </trkpt>
      <trkpt lat="36.689496637632615" lon="117.22044876053502">
        <ele>94.8</ele>
        <time>2023-02-22T22:27:06Z</time>
      </trkpt>
      <trkpt lat="36.68950963879452" lon="117.2204321504684">
        <ele>94.8</ele>
        <time>2023-02-22T22:27:07Z</time>
      </trkpt>
      <trkpt lat="36.689522672006085" lon="117.22041746935635">
        <ele>94.8</ele>
        <time>2023-02-22T22:27:08Z</time>
      </trkpt>
      <trkpt lat="36.68953560083359" lon="117.22040460403204">
        <ele>94.8</ele>
        <time>2023-02-22T22:27:09Z</time>
      </trkpt>
      <trkpt lat="36.68954820470915" lon="117.22039364816662">
        <ele>94.8</ele>
        <time>2023-02-22T22:27:10Z</time>
      </trkpt>
      <trkpt lat="36.68956034181709" lon="117.22038409796095">
        <ele>94.8</ele>
        <time>2023-02-22T22:27:11Z</time>
      </trkpt>
      <trkpt lat="36.68957198906625" lon="117.22037557030602">
        <ele>94.8</ele>
        <time>2023-02-22T22:27:12Z</time>
      </trkpt>
      <trkpt lat="36.689583274483674" lon="117.2203683850444">
        <ele>94.8</ele>
        <time>2023-02-22T22:27:13Z</time>
      </trkpt>
      <trkpt lat="36.689594233521994" lon="117.22036238476761">
        <ele>94.8</ele>
        <time>2023-02-22T22:27:14Z</time>
      </trkpt>
      <trkpt lat="36.689605084937206" lon="117.22035744839737">
        <ele>94.8</ele>
        <time>2023-02-22T22:27:15Z</time>
      </trkpt>
      <trkpt lat="36.68961635543478" lon="117.22035343274132">
        <ele>95.2</ele>
        <time>2023-02-22T22:27:16Z</time>
      </trkpt>
      <trkpt lat="36.68962815165851" lon="117.22034982441932">
        <ele>95.2</ele>
        <time>2023-02-22T22:27:17Z</time>
      </trkpt>
      <trkpt lat="36.68964060492769" lon="117.22034612830917">
        <ele>95.2</ele>
        <time>2023-02-22T22:27:18Z</time>
      </trkpt>
      <trkpt lat="36.68965380730659" lon="117.22034236481687">
        <ele>95.2</ele>
        <time>2023-02-22T22:27:19Z</time>
      </trkpt>
      <trkpt lat="36.68966786823766" lon="117.22033824107297">
        <ele>95.2</ele>
        <time>2023-02-22T22:27:20Z</time>
      </trkpt>
      <trkpt lat="36.68968276819604" lon="117.22033356230877">
        <ele>95.2</ele>
        <time>2023-02-22T22:27:21Z</time>
      </trkpt>
      <trkpt lat="36.68969875222772" lon="117.22032804657545">
        <ele>95.2</ele>
        <time>2023-02-22T22:27:22Z</time>
      </trkpt>
      <trkpt lat="36.68971538108043" lon="117.22032140704214">
        <ele>95.2</ele>
        <time>2023-02-22T22:27:23Z</time>
      </trkpt>
      <trkpt lat="36.68973217358985" lon="117.22031240811269">
        <ele>95.2</ele>
        <time>2023-02-22T22:27:24Z</time>
      </trkpt>
      <trkpt lat="36.689748607426324" lon="117.22030095486815">
        <ele>95.2</ele>
        <time>2023-02-22T22:27:25Z</time>
      </trkpt>
      <trkpt lat="36.68976405635825" lon="117.22028702961998">
        <ele>95.2</ele>
        <time>2023-02-22T22:27:26Z</time>
      </trkpt>
      <trkpt lat="36.68977806949755" lon="117.22027030269722">
        <ele>95.2</ele>
        <time>2023-02-22T22:27:27Z</time>
      </trkpt>
      <trkpt lat="36.68979031701574" lon="117.22025132309241">
        <ele>95.2</ele>
        <time>2023-02-22T22:27:28Z</time>
      </trkpt>
      <trkpt lat="36.68980087585314" lon="117.22023053314516">
        <ele>95.2</ele>
        <time>2023-02-22T22:27:29Z</time>
      </trkpt>
      <trkpt lat="36.68980967765516" lon="117.22020761829405">
        <ele>95.2</ele>
        <time>2023-02-22T22:27:30Z</time>
      </trkpt>
      <trkpt lat="36.68981673832002" lon="117.22018290268902">
        <ele>95.2</ele>
        <time>2023-02-22T22:27:31Z</time>
      </trkpt>
      <trkpt lat="36.68982209148034" lon="117.22015640792195">
        <ele>95.2</ele>
        <time>2023-02-22T22:27:32Z</time>
      </trkpt>
      <trkpt lat="36.68982576507224" lon="117.2201288296666">
        <ele>95.2</ele>
        <time>2023-02-22T22:27:33Z</time>
      </trkpt>
      <trkpt lat="36.689828232412935" lon="117.22010030861163">
        <ele>95.2</ele>
        <time>2023-02-22T22:27:34Z</time>
      </trkpt>
      <trkpt lat="36.689829830709" lon="117.22007172085318">
        <ele>95.2</ele>
        <time>2023-02-22T22:27:35Z</time>
      </trkpt>
      <trkpt lat="36.68983109608582" lon="117.220043261876">
        <ele>94.2</ele>
        <time>2023-02-22T22:27:36Z</time>
      </trkpt>
      <trkpt lat="36.68983265712102" lon="117.22001461138733">
        <ele>94.2</ele>
        <time>2023-02-22T22:27:37Z</time>
      </trkpt>
      <trkpt lat="36.68983436221401" lon="117.21998619920177">
        <ele>94.2</ele>
        <time>2023-02-22T22:27:38Z</time>
      </trkpt>
      <trkpt lat="36.68983645020363" lon="117.21995796560762">
        <ele>94.2</ele>
        <time>2023-02-22T22:27:39Z</time>
      </trkpt>
      <trkpt lat="36.68983886143837" lon="117.21992947108835">
        <ele>94.2</ele>
        <time>2023-02-22T22:27:40Z</time>
      </trkpt>
      <trkpt lat="36.68984197006743" lon="117.21990125303445">
        <ele>94.2</ele>
        <time>2023-02-22T22:27:41Z</time>
      </trkpt>
      <trkpt lat="36.68984602978609" lon="117.21987290557307">
        <ele>94.2</ele>
        <time>2023-02-22T22:27:42Z</time>
      </trkpt>
      <trkpt lat="36.68985112390171" lon="117.21984479824988">
        <ele>94.2</ele>
        <time>2023-02-22T22:27:43Z</time>
      </trkpt>
      <trkpt lat="36.689857212185274" lon="117.21981685408626">
        <ele>94.2</ele>
        <time>2023-02-22T22:27:44Z</time>
      </trkpt>
      <trkpt lat="36.68986436378068" lon="117.2197889174366">
        <ele>94.2</ele>
        <time>2023-02-22T22:27:45Z</time>
      </trkpt>
      <trkpt lat="36.68987273429721" lon="117.21976096835178">
        <ele>94.5</ele>
        <time>2023-02-22T22:27:46Z</time>
      </trkpt>
      <trkpt lat="36.68988224815824" lon="117.219732859746">
        <ele>94.5</ele>
        <time>2023-02-22T22:27:47Z</time>
      </trkpt>
      <trkpt lat="36.68989287703658" lon="117.21970449581681">
        <ele>94.5</ele>
        <time>2023-02-22T22:27:48Z</time>
      </trkpt>
      <trkpt lat="36.68990464231012" lon="117.21967579400699">
        <ele>94.5</ele>
        <time>2023-02-22T22:27:49Z</time>
      </trkpt>
      <trkpt lat="36.68991720179502" lon="117.21964669854417">
        <ele>94.5</ele>
        <time>2023-02-22T22:27:50Z</time>
      </trkpt>
      <trkpt lat="36.68993041830519" lon="117.21961775576875">
        <ele>94.5</ele>
        <time>2023-02-22T22:27:51Z</time>
      </trkpt>
      <trkpt lat="36.689943994609145" lon="117.21958843542052">
        <ele>94.5</ele>
        <time>2023-02-22T22:27:52Z</time>
      </trkpt>
      <trkpt lat="36.689957583386764" lon="117.21955907019358">
        <ele>94.5</ele>
        <time>2023-02-22T22:27:53Z</time>
      </trkpt>
      <trkpt lat="36.689971008486246" lon="117.21952952248097">
        <ele>94.5</ele>
        <time>2023-02-22T22:27:54Z</time>
      </trkpt>
      <trkpt lat="36.68998418544915" lon="117.21949925038261">
        <ele>94.5</ele>
        <time>2023-02-22T22:27:55Z</time>
      </trkpt>
      <trkpt lat="36.689996760140076" lon="117.21946864701779">
        <ele>94.1</ele>
        <time>2023-02-22T22:27:56Z</time>
      </trkpt>
      <trkpt lat="36.6900084408354" lon="117.21943753745195">
        <ele>94.1</ele>
        <time>2023-02-22T22:27:57Z</time>
      </trkpt>
      <trkpt lat="36.69001933477906" lon="117.21940565951238">
        <ele>94.1</ele>
        <time>2023-02-22T22:27:58Z</time>
      </trkpt>
      <trkpt lat="36.690029205260664" lon="117.21937337216723">
        <ele>94.1</ele>
        <time>2023-02-22T22:27:59Z</time>
      </trkpt>
      <trkpt lat="36.69003818688266" lon="117.21934034076779">
        <ele>94.1</ele>
        <time>2023-02-22T22:28:00Z</time>
      </trkpt>
      <trkpt lat="36.690046620886356" lon="117.21930676914322">
        <ele>94.1</ele>
        <time>2023-02-22T22:28:01Z</time>
      </trkpt>
      <trkpt lat="36.69005455910478" lon="117.21927262998976">
        <ele>94.1</ele>
        <time>2023-02-22T22:28:02Z</time>
      </trkpt>
      <trkpt lat="36.6900618839396" lon="117.21923804385784">
        <ele>94.1</ele>
        <time>2023-02-22T22:28:03Z</time>
      </trkpt>
      <trkpt lat="36.69006867622573" lon="117.21920296823141">
        <ele>94.1</ele>
        <time>2023-02-22T22:28:04Z</time>
      </trkpt>
      <trkpt lat="36.69007507509161" lon="117.21916706775934">
        <ele>94.1</ele>
        <time>2023-02-22T22:28:05Z</time>
      </trkpt>
      <trkpt lat="36.690081033587816" lon="117.21913088769284">
        <ele>94.7</ele>
        <time>2023-02-22T22:28:06Z</time>
      </trkpt>
      <trkpt lat="36.690086739234644" lon="117.21909411170613">
        <ele>94.7</ele>
        <time>2023-02-22T22:28:07Z</time>
      </trkpt>
      <trkpt lat="36.690092216736645" lon="117.21905704411964">
        <ele>94.7</ele>
        <time>2023-02-22T22:28:08Z</time>
      </trkpt>
      <trkpt lat="36.69009734659712" lon="117.21902013118935">
        <ele>94.7</ele>
        <time>2023-02-22T22:28:09Z</time>
      </trkpt>
      <trkpt lat="36.690102247808795" lon="117.21898311628559">
        <ele>94.7</ele>
        <time>2023-02-22T22:28:10Z</time>
      </trkpt>
      <trkpt lat="36.690106917585375" lon="117.2189465307107">
        <ele>94.7</ele>
        <time>2023-02-22T22:28:11Z</time>
      </trkpt>
      <trkpt lat="36.69011154626737" lon="117.21890995524687">
        <ele>94.7</ele>
        <time>2023-02-22T22:28:12Z</time>
      </trkpt>
      <trkpt lat="36.690116326561174" lon="117.21887353154197">
        <ele>94.7</ele>
        <time>2023-02-22T22:28:13Z</time>
      </trkpt>
      <trkpt lat="36.690121521500735" lon="117.21883779444487">
        <ele>94.7</ele>
        <time>2023-02-22T22:28:14Z</time>
      </trkpt>
      <trkpt lat="36.69012759191001" lon="117.21880281493546">
        <ele>94.7</ele>
        <time>2023-02-22T22:28:15Z</time>
      </trkpt>
      <trkpt lat="36.69013477739365" lon="117.2187695529889">
        <ele>93.2</ele>
        <time>2023-02-22T22:28:16Z</time>
      </trkpt>
      <trkpt lat="36.690143239389954" lon="117.21873848824443">
        <ele>93.2</ele>
        <time>2023-02-22T22:28:17Z</time>
      </trkpt>
      <trkpt lat="36.69015332511718" lon="117.21871036814304">
        <ele>93.2</ele>
        <time>2023-02-22T22:28:18Z</time>
      </trkpt>
      <trkpt lat="36.69016502983295" lon="117.21868530579572">
        <ele>93.2</ele>
        <time>2023-02-22T22:28:19Z</time>
      </trkpt>
      <trkpt lat="36.690178274653334" lon="117.21866343005901">
        <ele>93.2</ele>
        <time>2023-02-22T22:28:20Z</time>
      </trkpt>
      <trkpt lat="36.69019302824737" lon="117.21864497979236">
        <ele>93.2</ele>
        <time>2023-02-22T22:28:21Z</time>
      </trkpt>
      <trkpt lat="36.69020943451073" lon="117.21863040541685">
        <ele>93.2</ele>
        <time>2023-02-22T22:28:22Z</time>
      </trkpt>
      <trkpt lat="36.69022718882761" lon="117.21861991356924">
        <ele>93.2</ele>
        <time>2023-02-22T22:28:23Z</time>
      </trkpt>
      <trkpt lat="36.69024604775149" lon="117.21861313760584">
        <ele>93.2</ele>
        <time>2023-02-22T22:28:24Z</time>
      </trkpt>
      <trkpt lat="36.690266003944174" lon="117.21860991249345">
        <ele>93.2</ele>
        <time>2023-02-22T22:28:25Z</time>
      </trkpt>
      <trkpt lat="36.690286459381824" lon="117.21861001192886">
        <ele>93.1</ele>
        <time>2023-02-22T22:28:26Z</time>
      </trkpt>
      <trkpt lat="36.6903073537807" lon="117.2186127867544">
        <ele>93.1</ele>
        <time>2023-02-22T22:28:27Z</time>
      </trkpt>
      <trkpt lat="36.69032843646287" lon="117.21861747334998">
        <ele>93.1</ele>
        <time>2023-02-22T22:28:28Z</time>
      </trkpt>
      <trkpt lat="36.69034929905627" lon="117.21862352614293">
        <ele>93.1</ele>
        <time>2023-02-22T22:28:29Z</time>
      </trkpt>
      <trkpt lat="36.690370342120225" lon="117.21863047355929">
        <ele>93.1</ele>
        <time>2023-02-22T22:28:30Z</time>
      </trkpt>
      <trkpt lat="36.69039160974171" lon="117.21863789370288">
        <ele>93.1</ele>
        <time>2023-02-22T22:28:31Z</time>
      </trkpt>
      <trkpt lat="36.69041338884682" lon="117.218645853298">
        <ele>93.1</ele>
        <time>2023-02-22T22:28:32Z</time>
      </trkpt>
      <trkpt lat="36.6904353860812" lon="117.21865364276432">
        <ele>93.1</ele>
        <time>2023-02-22T22:28:33Z</time>
      </trkpt>
      <trkpt lat="36.690457677321405" lon="117.21866123914704">
        <ele>93.1</ele>
        <time>2023-02-22T22:28:34Z</time>
      </trkpt>
      <trkpt lat="36.69048029009714" lon="117.2186686784085">
        <ele>93.1</ele>
        <time>2023-02-22T22:28:35Z</time>
      </trkpt>
      <trkpt lat="36.69050321422653" lon="117.21867592815794">
        <ele>92.6</ele>
        <time>2023-02-22T22:28:36Z</time>
      </trkpt>
      <trkpt lat="36.69052631131917" lon="117.21868303374463">
        <ele>92.6</ele>
        <time>2023-02-22T22:28:37Z</time>
      </trkpt>
      <trkpt lat="36.69054920279238" lon="117.21868992004964">
        <ele>92.6</ele>
        <time>2023-02-22T22:28:38Z</time>
      </trkpt>
      <trkpt lat="36.69057197710424" lon="117.21869669119936">
        <ele>92.6</ele>
        <time>2023-02-22T22:28:39Z</time>
      </trkpt>
      <trkpt lat="36.690595023059714" lon="117.2187034717466">
        <ele>92.6</ele>
        <time>2023-02-22T22:28:40Z</time>
      </trkpt>
      <trkpt lat="36.690617969397664" lon="117.21871013749401">
        <ele>92.6</ele>
        <time>2023-02-22T22:28:41Z</time>
      </trkpt>
      <trkpt lat="36.69064120581007" lon="117.21871672026124">
        <ele>92.6</ele>
        <time>2023-02-22T22:28:42Z</time>
      </trkpt>
      <trkpt lat="36.690664379028384" lon="117.21872304175358">
        <ele>92.6</ele>
        <time>2023-02-22T22:28:43Z</time>
      </trkpt>
      <trkpt lat="36.69068752727761" lon="117.21872896641742">
        <ele>92.6</ele>
        <time>2023-02-22T22:28:44Z</time>
      </trkpt>
      <trkpt lat="36.690710966442786" lon="117.21873441512467">
        <ele>92.6</ele>
        <time>2023-02-22T22:28:45Z</time>
      </trkpt>
      <trkpt lat="36.690734598141454" lon="117.21873937112375">
        <ele>92.1</ele>
        <time>2023-02-22T22:28:46Z</time>
      </trkpt>
      <trkpt lat="36.69075802928794" lon="117.21874376397396">
        <ele>92.1</ele>
        <time>2023-02-22T22:28:47Z</time>
      </trkpt>
      <trkpt lat="36.69078171186827" lon="117.21874777346598">
        <ele>92.1</ele>
        <time>2023-02-22T22:28:48Z</time>
      </trkpt>
      <trkpt lat="36.69080561165109" lon="117.21875143768195">
        <ele>92.1</ele>
        <time>2023-02-22T22:28:49Z</time>
      </trkpt>
      <trkpt lat="36.69082964541423" lon="117.21875474636236">
        <ele>92.1</ele>
        <time>2023-02-22T22:28:50Z</time>
      </trkpt>
      <trkpt lat="36.690853404803605" lon="117.21875761317509">
        <ele>92.1</ele>
        <time>2023-02-22T22:28:51Z</time>
      </trkpt>
      <trkpt lat="36.69087725293262" lon="117.21876015075968">
        <ele>92.1</ele>
        <time>2023-02-22T22:28:52Z</time>
      </trkpt>
      <trkpt lat="36.69090078679295" lon="117.21876235105239">
        <ele>92.1</ele>
        <time>2023-02-22T22:28:53Z</time>
      </trkpt>
      <trkpt lat="36.69092434367363" lon="117.21876433290993">
        <ele>92.1</ele>
        <time>2023-02-22T22:28:54Z</time>
      </trkpt>
      <trkpt lat="36.69094781756978" lon="117.21876629274706">
        <ele>92.1</ele>
        <time>2023-02-22T22:28:55Z</time>
      </trkpt>
      <trkpt lat="36.69097085614883" lon="117.21876831831857">
        <ele>92.8</ele>
        <time>2023-02-22T22:28:56Z</time>
      </trkpt>
      <trkpt lat="36.69099388383308" lon="117.21877046036249">
        <ele>92.8</ele>
        <time>2023-02-22T22:28:57Z</time>
      </trkpt>
      <trkpt lat="36.69101688788569" lon="117.21877269553003">
        <ele>92.8</ele>
        <time>2023-02-22T22:28:58Z</time>
      </trkpt>
      <trkpt lat="36.69103957014104" lon="117.21877496617093">
        <ele>92.8</ele>
        <time>2023-02-22T22:28:59Z</time>
      </trkpt>
      <trkpt lat="36.69106235758077" lon="117.21877734659061">
        <ele>92.8</ele>
        <time>2023-02-22T22:29:00Z</time>
      </trkpt>
      <trkpt lat="36.691085252682306" lon="117.21877982456218">
        <ele>92.8</ele>
        <time>2023-02-22T22:29:01Z</time>
      </trkpt>
      <trkpt lat="36.69110854566073" lon="117.21878238852506">
        <ele>92.8</ele>
        <time>2023-02-22T22:29:02Z</time>
      </trkpt>
      <trkpt lat="36.691131800696596" lon="117.21878493207807">
        <ele>92.8</ele>
        <time>2023-02-22T22:29:03Z</time>
      </trkpt>
      <trkpt lat="36.69115536840966" lon="117.21878745533671">
        <ele>92.8</ele>
        <time>2023-02-22T22:29:04Z</time>
      </trkpt>
      <trkpt lat="36.69117888380439" lon="117.2187898554339">
        <ele>92.8</ele>
        <time>2023-02-22T22:29:05Z</time>
      </trkpt>
      <trkpt lat="36.691202740008" lon="117.21879205491054">
        <ele>92</ele>
        <time>2023-02-22T22:29:06Z</time>
      </trkpt>
      <trkpt lat="36.69122690636024" lon="117.21879399512285">
        <ele>92</ele>
        <time>2023-02-22T22:29:07Z</time>
      </trkpt>
      <trkpt lat="36.69125099787127" lon="117.21879567047519">
        <ele>92</ele>
        <time>2023-02-22T22:29:08Z</time>
      </trkpt>
      <trkpt lat="36.69127539135771" lon="117.21879699078659">
        <ele>92</ele>
        <time>2023-02-22T22:29:09Z</time>
      </trkpt>
      <trkpt lat="36.691300050703084" lon="117.21879789009661">
        <ele>92</ele>
        <time>2023-02-22T22:29:10Z</time>
      </trkpt>
      <trkpt lat="36.691324925672575" lon="117.21879826471012">
        <ele>92</ele>
        <time>2023-02-22T22:29:11Z</time>
      </trkpt>
      <trkpt lat="36.69134996483795" lon="117.21879820632476">
        <ele>92</ele>
        <time>2023-02-22T22:29:12Z</time>
      </trkpt>
      <trkpt lat="36.69137480087115" lon="117.21879778579404">
        <ele>92</ele>
        <time>2023-02-22T22:29:13Z</time>
      </trkpt>
      <trkpt lat="36.69139977533723" lon="117.2187971733194">
        <ele>92</ele>
        <time>2023-02-22T22:29:14Z</time>
      </trkpt>
      <trkpt lat="36.691424520901045" lon="117.21879643186223">
        <ele>92</ele>
        <time>2023-02-22T22:29:15Z</time>
      </trkpt>
      <trkpt lat="36.691449113430416" lon="117.21879569525403">
        <ele>91.2</ele>
        <time>2023-02-22T22:29:16Z</time>
      </trkpt>
      <trkpt lat="36.69147360830489" lon="117.21879506012063">
        <ele>91.2</ele>
        <time>2023-02-22T22:29:17Z</time>
      </trkpt>
      <trkpt lat="36.69149806496544" lon="117.21879460119759">
        <ele>91.2</ele>
        <time>2023-02-22T22:29:18Z</time>
      </trkpt>
      <trkpt lat="36.69152285418686" lon="117.21879431732421">
        <ele>91.2</ele>
        <time>2023-02-22T22:29:19Z</time>
      </trkpt>
      <trkpt lat="36.69154773109798" lon="117.21879425302262">
        <ele>91.2</ele>
        <time>2023-02-22T22:29:20Z</time>
      </trkpt>
      <trkpt lat="36.69157252981148" lon="117.21879445414201">
        <ele>91.2</ele>
        <time>2023-02-22T22:29:21Z</time>
      </trkpt>
      <trkpt lat="36.691596970152936" lon="117.21879489037295">
        <ele>91.2</ele>
        <time>2023-02-22T22:29:22Z</time>
      </trkpt>
      <trkpt lat="36.69162117754272" lon="117.21879545475336">
        <ele>91.2</ele>
        <time>2023-02-22T22:29:23Z</time>
      </trkpt>
      <trkpt lat="36.6916455896745" lon="117.21879612400761">
        <ele>91.2</ele>
        <time>2023-02-22T22:29:24Z</time>
      </trkpt>
      <trkpt lat="36.69166990226915" lon="117.21879690471081">
        <ele>91.2</ele>
        <time>2023-02-22T22:29:25Z</time>
      </trkpt>
      <trkpt lat="36.69169445278775" lon="117.21879783055262">
        <ele>90.9</ele>
        <time>2023-02-22T22:29:26Z</time>
      </trkpt>
      <trkpt lat="36.69171913560188" lon="117.218798879795">
        <ele>90.9</ele>
        <time>2023-02-22T22:29:27Z</time>
      </trkpt>
      <trkpt lat="36.691743573383796" lon="117.21879996097555">
        <ele>90.9</ele>
        <time>2023-02-22T22:29:28Z</time>
      </trkpt>
      <trkpt lat="36.69176807336768" lon="117.21880097742721">
        <ele>90.9</ele>
        <time>2023-02-22T22:29:29Z</time>
      </trkpt>
      <trkpt lat="36.691792221729706" lon="117.21880182010528">
        <ele>90.9</ele>
        <time>2023-02-22T22:29:30Z</time>
      </trkpt>
      <trkpt lat="36.69181621612662" lon="117.21880246223488">
        <ele>90.9</ele>
        <time>2023-02-22T22:29:31Z</time>
      </trkpt>
      <trkpt lat="36.69184014568543" lon="117.21880289436011">
        <ele>90.9</ele>
        <time>2023-02-22T22:29:32Z</time>
      </trkpt>
      <trkpt lat="36.69186432001546" lon="117.21880317096067">
        <ele>90.9</ele>
        <time>2023-02-22T22:29:33Z</time>
      </trkpt>
      <trkpt lat="36.691888637234165" lon="117.21880350703118">
        <ele>90.9</ele>
        <time>2023-02-22T22:29:34Z</time>
      </trkpt>
      <trkpt lat="36.691912711861285" lon="117.21880393266153">
        <ele>90.9</ele>
        <time>2023-02-22T22:29:35Z</time>
      </trkpt>
      <trkpt lat="36.691936623314334" lon="117.21880437771449">
        <ele>90.5</ele>
        <time>2023-02-22T22:29:36Z</time>
      </trkpt>
      <trkpt lat="36.69196049375628" lon="117.21880482120301">
        <ele>90.5</ele>
        <time>2023-02-22T22:29:37Z</time>
      </trkpt>
      <trkpt lat="36.69198436098581" lon="117.21880517927659">
        <ele>90.5</ele>
        <time>2023-02-22T22:29:38Z</time>
      </trkpt>
      <trkpt lat="36.692008246583185" lon="117.21880548589381">
        <ele>90.5</ele>
        <time>2023-02-22T22:29:39Z</time>
      </trkpt>
      <trkpt lat="36.692032206460404" lon="117.21880576551706">
        <ele>90.5</ele>
        <time>2023-02-22T22:29:40Z</time>
      </trkpt>
      <trkpt lat="36.69205625664347" lon="117.21880607424397">
        <ele>90.5</ele>
        <time>2023-02-22T22:29:41Z</time>
      </trkpt>
      <trkpt lat="36.69208041291586" lon="117.21880636420723">
        <ele>90.5</ele>
        <time>2023-02-22T22:29:42Z</time>
      </trkpt>
      <trkpt lat="36.692104747669276" lon="117.21880661139592">
        <ele>90.5</ele>
        <time>2023-02-22T22:29:43Z</time>
      </trkpt>
      <trkpt lat="36.692128924154304" lon="117.21880685412832">
        <ele>90.5</ele>
        <time>2023-02-22T22:29:44Z</time>
      </trkpt>
      <trkpt lat="36.69215331591392" lon="117.21880695936079">
        <ele>90.5</ele>
        <time>2023-02-22T22:29:45Z</time>
      </trkpt>
      <trkpt lat="36.69217787821505" lon="117.21880693696365">
        <ele>90.2</ele>
        <time>2023-02-22T22:29:46Z</time>
      </trkpt>
      <trkpt lat="36.69220254156039" lon="117.2188068752186">
        <ele>90.2</ele>
        <time>2023-02-22T22:29:47Z</time>
      </trkpt>
      <trkpt lat="36.69222720786236" lon="117.21880683655927">
        <ele>90.2</ele>
        <time>2023-02-22T22:29:48Z</time>
      </trkpt>
      <trkpt lat="36.69225183492045" lon="117.21880693559733">
        <ele>90.2</ele>
        <time>2023-02-22T22:29:49Z</time>
      </trkpt>
      <trkpt lat="36.69227655711688" lon="117.21880718030286">
        <ele>90.2</ele>
        <time>2023-02-22T22:29:50Z</time>
      </trkpt>
      <trkpt lat="36.692300851604195" lon="117.21880759396116">
        <ele>90.2</ele>
        <time>2023-02-22T22:29:51Z</time>
      </trkpt>
      <trkpt lat="36.69232510111154" lon="117.21880846420333">
        <ele>90.2</ele>
        <time>2023-02-22T22:29:52Z</time>
      </trkpt>
      <trkpt lat="36.69234898981502" lon="117.21880985466841">
        <ele>90.2</ele>
        <time>2023-02-22T22:29:53Z</time>
      </trkpt>
      <trkpt lat="36.692372931972635" lon="117.21881180386877">
        <ele>90.2</ele>
        <time>2023-02-22T22:29:54Z</time>
      </trkpt>
      <trkpt lat="36.692396919856314" lon="117.21881424082261">
        <ele>90.2</ele>
        <time>2023-02-22T22:29:55Z</time>
      </trkpt>
      <trkpt lat="36.6924206448255" lon="117.21881708131474">
        <ele>90.2</ele>
        <time>2023-02-22T22:29:56Z</time>
      </trkpt>
      <trkpt lat="36.6924444748013" lon="117.21882030568165">
        <ele>90.2</ele>
        <time>2023-02-22T22:29:57Z</time>
      </trkpt>
      <trkpt lat="36.692468349004606" lon="117.21882384547983">
        <ele>90.2</ele>
        <time>2023-02-22T22:29:58Z</time>
      </trkpt>
      <trkpt lat="36.6924919215393" lon="117.2188276399107">
        <ele>90.2</ele>
        <time>2023-02-22T22:29:59Z</time>
      </trkpt>
      <trkpt lat="36.69251533998457" lon="117.21883165080169">
        <ele>90.2</ele>
        <time>2023-02-22T22:30:00Z</time>
      </trkpt>
      <trkpt lat="36.69253850946115" lon="117.21883579986367">
        <ele>90.2</ele>
        <time>2023-02-22T22:30:01Z</time>
      </trkpt>
      <trkpt lat="36.692561689733026" lon="117.21884011169107">
        <ele>90.2</ele>
        <time>2023-02-22T22:30:02Z</time>
      </trkpt>
      <trkpt lat="36.69258466085584" lon="117.21884423364885">
        <ele>90.2</ele>
        <time>2023-02-22T22:30:03Z</time>
      </trkpt>
      <trkpt lat="36.692607552642" lon="117.21884818360391">
        <ele>90.2</ele>
        <time>2023-02-22T22:30:04Z</time>
      </trkpt>
      <trkpt lat="36.69263012581321" lon="117.21885197129336">
        <ele>90.2</ele>
        <time>2023-02-22T22:30:05Z</time>
      </trkpt>
      <trkpt lat="36.69265246867368" lon="117.21885572444155">
        <ele>89.7</ele>
        <time>2023-02-22T22:30:06Z</time>
      </trkpt>
      <trkpt lat="36.6926749021549" lon="117.21885958107752">
        <ele>89.7</ele>
        <time>2023-02-22T22:30:07Z</time>
      </trkpt>
      <trkpt lat="36.692697156636434" lon="117.21886345845782">
        <ele>89.7</ele>
        <time>2023-02-22T22:30:08Z</time>
      </trkpt>
      <trkpt lat="36.69271934959566" lon="117.21886727174432">
        <ele>89.7</ele>
        <time>2023-02-22T22:30:09Z</time>
      </trkpt>
      <trkpt lat="36.69274185730296" lon="117.218871043623">
        <ele>89.7</ele>
        <time>2023-02-22T22:30:10Z</time>
      </trkpt>
      <trkpt lat="36.69276466306967" lon="117.21887453335513">
        <ele>89.7</ele>
        <time>2023-02-22T22:30:11Z</time>
      </trkpt>
      <trkpt lat="36.692787784293614" lon="117.21887777288023">
        <ele>89.7</ele>
        <time>2023-02-22T22:30:12Z</time>
      </trkpt>
      <trkpt lat="36.69281149637701" lon="117.21888074330678">
        <ele>89.7</ele>
        <time>2023-02-22T22:30:13Z</time>
      </trkpt>
      <trkpt lat="36.69283564139096" lon="117.2188835966226">
        <ele>89.7</ele>
        <time>2023-02-22T22:30:14Z</time>
      </trkpt>
      <trkpt lat="36.692858038674146" lon="117.21889044870295">
        <ele>89.7</ele>
        <time>2023-02-22T22:30:15Z</time>
      </trkpt>
      <trkpt lat="36.69288328250038" lon="117.21889188167027">
        <ele>89.5</ele>
        <time>2023-02-22T22:30:16Z</time>
      </trkpt>
      <trkpt lat="36.6929079526891" lon="117.21889280783658">
        <ele>89.5</ele>
        <time>2023-02-22T22:30:17Z</time>
      </trkpt>
      <trkpt lat="36.69293567037712" lon="117.21889353798502">
        <ele>89.5</ele>
        <time>2023-02-22T22:30:18Z</time>
      </trkpt>
      <trkpt lat="36.692961778500944" lon="117.21889482508296">
        <ele>89.5</ele>
        <time>2023-02-22T22:30:19Z</time>
      </trkpt>
      <trkpt lat="36.69301236726151" lon="117.21889873020042">
        <ele>89.5</ele>
        <time>2023-02-22T22:30:22Z</time>
      </trkpt>
      <trkpt lat="36.693037514639336" lon="117.2189006712404">
        <ele>89.5</ele>
        <time>2023-02-22T22:30:23Z</time>
      </trkpt>
      <trkpt lat="36.69306013785484" lon="117.21890400260324">
        <ele>89.5</ele>
        <time>2023-02-22T22:30:24Z</time>
      </trkpt>
      <trkpt lat="36.69308190263361" lon="117.21890791475434">
        <ele>89.5</ele>
        <time>2023-02-22T22:30:25Z</time>
      </trkpt>
      <trkpt lat="36.69310650775383" lon="117.21891322379518">
        <ele>89.6</ele>
        <time>2023-02-22T22:30:26Z</time>
      </trkpt>
      <trkpt lat="36.69313163288532" lon="117.21892196801493">
        <ele>89.6</ele>
        <time>2023-02-22T22:30:27Z</time>
      </trkpt>
      <trkpt lat="36.693155325624396" lon="117.218927531832">
        <ele>89.6</ele>
        <time>2023-02-22T22:30:28Z</time>
      </trkpt>
      <trkpt lat="36.69317870308228" lon="117.21893354599925">
        <ele>89.6</ele>
        <time>2023-02-22T22:30:29Z</time>
      </trkpt>
      <trkpt lat="36.693202310234426" lon="117.2189399665197">
        <ele>89.6</ele>
        <time>2023-02-22T22:30:30Z</time>
      </trkpt>
      <trkpt lat="36.69322611998999" lon="117.21894671908927">
        <ele>89.6</ele>
        <time>2023-02-22T22:30:31Z</time>
      </trkpt>
      <trkpt lat="36.69325008120329" lon="117.2189537106707">
        <ele>89.6</ele>
        <time>2023-02-22T22:30:32Z</time>
      </trkpt>
      <trkpt lat="36.69327412420009" lon="117.21896077586415">
        <ele>89.6</ele>
        <time>2023-02-22T22:30:33Z</time>
      </trkpt>
      <trkpt lat="36.69329787960619" lon="117.21896769999388">
        <ele>89.6</ele>
        <time>2023-02-22T22:30:34Z</time>
      </trkpt>
      <trkpt lat="36.693321725696244" lon="117.21897452106374">
        <ele>89.6</ele>
        <time>2023-02-22T22:30:35Z</time>
      </trkpt>
      <trkpt lat="36.69334593763357" lon="117.21898128729615">
        <ele>88.6</ele>
        <time>2023-02-22T22:30:36Z</time>
      </trkpt>
      <trkpt lat="36.693370128912434" lon="117.21898788294824">
        <ele>88.6</ele>
        <time>2023-02-22T22:30:37Z</time>
      </trkpt>
      <trkpt lat="36.69339438978707" lon="117.21899433479331">
        <ele>88.6</ele>
        <time>2023-02-22T22:30:38Z</time>
      </trkpt>
      <trkpt lat="36.693418955114815" lon="117.21900064244741">
        <ele>88.6</ele>
        <time>2023-02-22T22:30:39Z</time>
      </trkpt>
      <trkpt lat="36.69344370276494" lon="117.21900680713632">
        <ele>88.6</ele>
        <time>2023-02-22T22:30:40Z</time>
      </trkpt>
      <trkpt lat="36.693468502534294" lon="117.21901276303521">
        <ele>88.6</ele>
        <time>2023-02-22T22:30:41Z</time>
      </trkpt>
      <trkpt lat="36.69349331352672" lon="117.21901852523388">
        <ele>88.6</ele>
        <time>2023-02-22T22:30:42Z</time>
      </trkpt>
      <trkpt lat="36.693517816737995" lon="117.21902405099931">
        <ele>88.6</ele>
        <time>2023-02-22T22:30:43Z</time>
      </trkpt>
      <trkpt lat="36.693542381803134" lon="117.21902951296742">
        <ele>88.6</ele>
        <time>2023-02-22T22:30:44Z</time>
      </trkpt>
      <trkpt lat="36.69356704521488" lon="117.2190349810908">
        <ele>88.6</ele>
        <time>2023-02-22T22:30:45Z</time>
      </trkpt>
      <trkpt lat="36.69359183674866" lon="117.21904041495804">
        <ele>88.8</ele>
        <time>2023-02-22T22:30:46Z</time>
      </trkpt>
      <trkpt lat="36.693616481449844" lon="117.21904572093653">
        <ele>88.8</ele>
        <time>2023-02-22T22:30:47Z</time>
      </trkpt>
      <trkpt lat="36.69364111173453" lon="117.21905093482077">
        <ele>88.8</ele>
        <time>2023-02-22T22:30:48Z</time>
      </trkpt>
      <trkpt lat="36.69366616947975" lon="117.21905614898161">
        <ele>88.8</ele>
        <time>2023-02-22T22:30:49Z</time>
      </trkpt>
      <trkpt lat="36.6936913036617" lon="117.21906129996515">
        <ele>88.8</ele>
        <time>2023-02-22T22:30:50Z</time>
      </trkpt>
      <trkpt lat="36.69371657078862" lon="117.21906641137902">
        <ele>88.8</ele>
        <time>2023-02-22T22:30:51Z</time>
      </trkpt>
      <trkpt lat="36.69374171566416" lon="117.21907150180165">
        <ele>88.8</ele>
        <time>2023-02-22T22:30:52Z</time>
      </trkpt>
      <trkpt lat="36.693767145978185" lon="117.21907666797313">
        <ele>88.8</ele>
        <time>2023-02-22T22:30:53Z</time>
      </trkpt>
      <trkpt lat="36.693792871507256" lon="117.21908187860375">
        <ele>88.8</ele>
        <time>2023-02-22T22:30:54Z</time>
      </trkpt>
      <trkpt lat="36.693818604872" lon="117.2190870033986">
        <ele>88.8</ele>
        <time>2023-02-22T22:30:55Z</time>
      </trkpt>
      <trkpt lat="36.69384434897518" lon="117.21909200446626">
        <ele>87.7</ele>
        <time>2023-02-22T22:30:56Z</time>
      </trkpt>
      <trkpt lat="36.69386981820887" lon="117.21909689686208">
        <ele>87.7</ele>
        <time>2023-02-22T22:30:57Z</time>
      </trkpt>
      <trkpt lat="36.693895433968684" lon="117.21910179935392">
        <ele>87.7</ele>
        <time>2023-02-22T22:30:58Z</time>
      </trkpt>
      <trkpt lat="36.69392115875172" lon="117.21910673736211">
        <ele>87.7</ele>
        <time>2023-02-22T22:30:59Z</time>
      </trkpt>
      <trkpt lat="36.693946917805924" lon="117.21911182341886">
        <ele>87.7</ele>
        <time>2023-02-22T22:31:00Z</time>
      </trkpt>
      <trkpt lat="36.693972665017675" lon="117.2191170821997">
        <ele>87.7</ele>
        <time>2023-02-22T22:31:01Z</time>
      </trkpt>
      <trkpt lat="36.69399833722189" lon="117.21912250376899">
        <ele>87.7</ele>
        <time>2023-02-22T22:31:02Z</time>
      </trkpt>
      <trkpt lat="36.69402423206157" lon="117.21912811922593">
        <ele>87.7</ele>
        <time>2023-02-22T22:31:03Z</time>
      </trkpt>
      <trkpt lat="36.69404998299032" lon="117.21913381462808">
        <ele>87.7</ele>
        <time>2023-02-22T22:31:04Z</time>
      </trkpt>
      <trkpt lat="36.69407592905872" lon="117.21913962125643">
        <ele>87.7</ele>
        <time>2023-02-22T22:31:05Z</time>
      </trkpt>
      <trkpt lat="36.69410202896315" lon="117.21914554397821">
        <ele>86.6</ele>
        <time>2023-02-22T22:31:06Z</time>
      </trkpt>
      <trkpt lat="36.69412859877768" lon="117.2191516890512">
        <ele>86.6</ele>
        <time>2023-02-22T22:31:07Z</time>
      </trkpt>
      <trkpt lat="36.69415544931876" lon="117.21915804134967">
        <ele>86.6</ele>
        <time>2023-02-22T22:31:08Z</time>
      </trkpt>
      <trkpt lat="36.6941824106202" lon="117.2191646495654">
        <ele>86.6</ele>
        <time>2023-02-22T22:31:09Z</time>
      </trkpt>
      <trkpt lat="36.69420936004287" lon="117.21917150303929">
        <ele>86.6</ele>
        <time>2023-02-22T22:31:10Z</time>
      </trkpt>
      <trkpt lat="36.69423588639078" lon="117.21917847939832">
        <ele>86.6</ele>
        <time>2023-02-22T22:31:11Z</time>
      </trkpt>
      <trkpt lat="36.6942623627577" lon="117.21918566813088">
        <ele>86.6</ele>
        <time>2023-02-22T22:31:12Z</time>
      </trkpt>
      <trkpt lat="36.6942887552051" lon="117.21919307345077">
        <ele>86.6</ele>
        <time>2023-02-22T22:31:13Z</time>
      </trkpt>
      <trkpt lat="36.69431500428681" lon="117.21920072626455">
        <ele>86.6</ele>
        <time>2023-02-22T22:31:14Z</time>
      </trkpt>
      <trkpt lat="36.69434102601904" lon="117.21920865553963">
        <ele>86.6</ele>
        <time>2023-02-22T22:31:15Z</time>
      </trkpt>
      <trkpt lat="36.69436645609877" lon="117.21921686398927">
        <ele>86</ele>
        <time>2023-02-22T22:31:16Z</time>
      </trkpt>
      <trkpt lat="36.694391614327216" lon="117.21922556494057">
        <ele>86</ele>
        <time>2023-02-22T22:31:17Z</time>
      </trkpt>
      <trkpt lat="36.69441614918215" lon="117.21923463753622">
        <ele>86</ele>
        <time>2023-02-22T22:31:18Z</time>
      </trkpt>
      <trkpt lat="36.69444015940631" lon="117.21924408448325">
        <ele>86</ele>
        <time>2023-02-22T22:31:19Z</time>
      </trkpt>
      <trkpt lat="36.694463415855516" lon="117.21925378175695">
        <ele>86</ele>
        <time>2023-02-22T22:31:20Z</time>
      </trkpt>
      <trkpt lat="36.694486401953355" lon="117.2192638680178">
        <ele>86</ele>
        <time>2023-02-22T22:31:21Z</time>
      </trkpt>
      <trkpt lat="36.69450922058675" lon="117.21927424830123">
        <ele>86</ele>
        <time>2023-02-22T22:31:22Z</time>
      </trkpt>
      <trkpt lat="36.69453162080082" lon="117.21928478463443">
        <ele>86</ele>
        <time>2023-02-22T22:31:23Z</time>
      </trkpt>
      <trkpt lat="36.694554099365476" lon="117.21929556877485">
        <ele>86</ele>
        <time>2023-02-22T22:31:24Z</time>
      </trkpt>
      <trkpt lat="36.69457643592757" lon="117.21930645591083">
        <ele>86</ele>
        <time>2023-02-22T22:31:25Z</time>
      </trkpt>
      <trkpt lat="36.69459903733757" lon="117.21931749508778">
        <ele>85.5</ele>
        <time>2023-02-22T22:31:26Z</time>
      </trkpt>
      <trkpt lat="36.69462189888611" lon="117.21932859452305">
        <ele>85.5</ele>
        <time>2023-02-22T22:31:27Z</time>
      </trkpt>
      <trkpt lat="36.69464472745194" lon="117.21933954483306">
        <ele>85.5</ele>
        <time>2023-02-22T22:31:28Z</time>
      </trkpt>
      <trkpt lat="36.69466785998459" lon="117.21935053520043">
        <ele>85.5</ele>
        <time>2023-02-22T22:31:29Z</time>
      </trkpt>
      <trkpt lat="36.69469127874643" lon="117.2193614861638">
        <ele>85.5</ele>
        <time>2023-02-22T22:31:30Z</time>
      </trkpt>
      <trkpt lat="36.69471527393122" lon="117.21937250409185">
        <ele>85.5</ele>
        <time>2023-02-22T22:31:31Z</time>
      </trkpt>
      <trkpt lat="36.69473940762321" lon="117.21938341545784">
        <ele>85.5</ele>
        <time>2023-02-22T22:31:32Z</time>
      </trkpt>
      <trkpt lat="36.694763639591734" lon="117.21939425661924">
        <ele>85.5</ele>
        <time>2023-02-22T22:31:33Z</time>
      </trkpt>
      <trkpt lat="36.6947882667904" lon="117.2194051241876">
        <ele>85.5</ele>
        <time>2023-02-22T22:31:34Z</time>
      </trkpt>
      <trkpt lat="36.69481313705946" lon="117.21941605496785">
        <ele>85.5</ele>
        <time>2023-02-22T22:31:35Z</time>
      </trkpt>
      <trkpt lat="36.69483812776205" lon="117.21942704058479">
        <ele>85</ele>
        <time>2023-02-22T22:31:36Z</time>
      </trkpt>
      <trkpt lat="36.694862884002646" lon="117.21943797127508">
        <ele>85</ele>
        <time>2023-02-22T22:31:37Z</time>
      </trkpt>
      <trkpt lat="36.694887729014575" lon="117.21944900291437">
        <ele>85</ele>
        <time>2023-02-22T22:31:38Z</time>
      </trkpt>
      <trkpt lat="36.694912629861875" lon="117.21946014795003">
        <ele>85</ele>
        <time>2023-02-22T22:31:39Z</time>
      </trkpt>
      <trkpt lat="36.694937650118895" lon="117.2194713725233">
        <ele>85</ele>
        <time>2023-02-22T22:31:40Z</time>
      </trkpt>
      <trkpt lat="36.69496279528062" lon="117.21948270012277">
        <ele>85</ele>
        <time>2023-02-22T22:31:41Z</time>
      </trkpt>
      <trkpt lat="36.69498780788878" lon="117.21949401005297">
        <ele>85</ele>
        <time>2023-02-22T22:31:42Z</time>
      </trkpt>
      <trkpt lat="36.69501313013628" lon="117.21950541649447">
        <ele>85</ele>
        <time>2023-02-22T22:31:43Z</time>
      </trkpt>
      <trkpt lat="36.69503870686961" lon="117.21951685105165">
        <ele>85</ele>
        <time>2023-02-22T22:31:44Z</time>
      </trkpt>
      <trkpt lat="36.695064474503305" lon="117.2195283350927">
        <ele>85</ele>
        <time>2023-02-22T22:31:45Z</time>
      </trkpt>
      <trkpt lat="36.69509009893309" lon="117.21953968758447">
        <ele>85.8</ele>
        <time>2023-02-22T22:31:46Z</time>
      </trkpt>
      <trkpt lat="36.695115613941276" lon="117.21955095338127">
        <ele>85.8</ele>
        <time>2023-02-22T22:31:47Z</time>
      </trkpt>
      <trkpt lat="36.695141362278584" lon="117.2195622984926">
        <ele>85.8</ele>
        <time>2023-02-22T22:31:48Z</time>
      </trkpt>
      <trkpt lat="36.6951669992497" lon="117.21957355269923">
        <ele>85.8</ele>
        <time>2023-02-22T22:31:49Z</time>
      </trkpt>
      <trkpt lat="36.69519253842168" lon="117.21958463604777">
        <ele>85.8</ele>
        <time>2023-02-22T22:31:50Z</time>
      </trkpt>
      <trkpt lat="36.695217647399026" lon="117.21959532869865">
        <ele>85.8</ele>
        <time>2023-02-22T22:31:51Z</time>
      </trkpt>
      <trkpt lat="36.69524271613069" lon="117.21960564531989">
        <ele>85.8</ele>
        <time>2023-02-22T22:31:52Z</time>
      </trkpt>
      <trkpt lat="36.69526767970247" lon="117.21961556688093">
        <ele>85.8</ele>
        <time>2023-02-22T22:31:53Z</time>
      </trkpt>
      <trkpt lat="36.69529216601653" lon="117.21962500234955">
        <ele>85.8</ele>
        <time>2023-02-22T22:31:54Z</time>
      </trkpt>
      <trkpt lat="36.69531656129304" lon="117.2196340853626">
        <ele>85.8</ele>
        <time>2023-02-22T22:31:55Z</time>
      </trkpt>
      <trkpt lat="36.695340521108434" lon="117.21964267106304">
        <ele>86.3</ele>
        <time>2023-02-22T22:31:56Z</time>
      </trkpt>
      <trkpt lat="36.695364420448506" lon="117.2196508512294">
        <ele>86.3</ele>
        <time>2023-02-22T22:31:57Z</time>
      </trkpt>
      <trkpt lat="36.6953882245137" lon="117.2196587843015">
        <ele>86.3</ele>
        <time>2023-02-22T22:31:58Z</time>
      </trkpt>
      <trkpt lat="36.695411620394665" lon="117.21966639518705">
        <ele>86.3</ele>
        <time>2023-02-22T22:31:59Z</time>
      </trkpt>
      <trkpt lat="36.69543498434404" lon="117.21967403149716">
        <ele>86.3</ele>
        <time>2023-02-22T22:32:00Z</time>
      </trkpt>
      <trkpt lat="36.69545835642238" lon="117.21968191926373">
        <ele>86.3</ele>
        <time>2023-02-22T22:32:01Z</time>
      </trkpt>
      <trkpt lat="36.69548170118976" lon="117.21969028276376">
        <ele>86.3</ele>
        <time>2023-02-22T22:32:02Z</time>
      </trkpt>
      <trkpt lat="36.69550499963144" lon="117.21969929098246">
        <ele>86.3</ele>
        <time>2023-02-22T22:32:03Z</time>
      </trkpt>
      <trkpt lat="36.69552828492199" lon="117.21970880555162">
        <ele>86.3</ele>
        <time>2023-02-22T22:32:04Z</time>
      </trkpt>
      <trkpt lat="36.69555161577105" lon="117.21971846251469">
        <ele>86.3</ele>
        <time>2023-02-22T22:32:05Z</time>
      </trkpt>
      <trkpt lat="36.69557472445278" lon="117.21972760499143">
        <ele>85.8</ele>
        <time>2023-02-22T22:32:06Z</time>
      </trkpt>
      <trkpt lat="36.69559758592162" lon="117.21973552856073">
        <ele>85.8</ele>
        <time>2023-02-22T22:32:07Z</time>
      </trkpt>
      <trkpt lat="36.69561986976009" lon="117.21974130632752">
        <ele>85.8</ele>
        <time>2023-02-22T22:32:08Z</time>
      </trkpt>
      <trkpt lat="36.69564118947437" lon="117.2197443706686">
        <ele>85.8</ele>
        <time>2023-02-22T22:32:09Z</time>
      </trkpt>
      <trkpt lat="36.695661334112316" lon="117.2197441641624">
        <ele>85.8</ele>
        <time>2023-02-22T22:32:10Z</time>
      </trkpt>
      <trkpt lat="36.69567975507871" lon="117.21974051681609">
        <ele>85.8</ele>
        <time>2023-02-22T22:32:11Z</time>
      </trkpt>
      <trkpt lat="36.695696449897035" lon="117.21973344374406">
        <ele>85.8</ele>
        <time>2023-02-22T22:32:12Z</time>
      </trkpt>
      <trkpt lat="36.69571155989538" lon="117.21972258645421">
        <ele>85.8</ele>
        <time>2023-02-22T22:32:13Z</time>
      </trkpt>
      <trkpt lat="36.69572486030388" lon="117.21970804647363">
        <ele>85.8</ele>
        <time>2023-02-22T22:32:14Z</time>
      </trkpt>
      <trkpt lat="36.69573642601706" lon="117.21969016629076">
        <ele>85.8</ele>
        <time>2023-02-22T22:32:15Z</time>
      </trkpt>
      <trkpt lat="36.69574653250432" lon="117.21966906879678">
        <ele>85.8</ele>
        <time>2023-02-22T22:32:16Z</time>
      </trkpt>
      <trkpt lat="36.69575524985175" lon="117.21964552064416">
        <ele>85.8</ele>
        <time>2023-02-22T22:32:17Z</time>
      </trkpt>
      <trkpt lat="36.695762950488856" lon="117.21962000060938">
        <ele>85.8</ele>
        <time>2023-02-22T22:32:18Z</time>
      </trkpt>
      <trkpt lat="36.69576973361474" lon="117.21959349876502">
        <ele>85.8</ele>
        <time>2023-02-22T22:32:19Z</time>
      </trkpt>
      <trkpt lat="36.695776248827514" lon="117.2195662131238">
        <ele>85.8</ele>
        <time>2023-02-22T22:32:20Z</time>
      </trkpt>
      <trkpt lat="36.69578277352635" lon="117.21953887644135">
        <ele>85.8</ele>
        <time>2023-02-22T22:32:21Z</time>
      </trkpt>
      <trkpt lat="36.695789576632556" lon="117.2195115716219">
        <ele>85.8</ele>
        <time>2023-02-22T22:32:22Z</time>
      </trkpt>
      <trkpt lat="36.69579673823084" lon="117.21948390837143">
        <ele>85.8</ele>
        <time>2023-02-22T22:32:23Z</time>
      </trkpt>
      <trkpt lat="36.69580418097669" lon="117.21945633784254">
        <ele>86.3</ele>
        <time>2023-02-22T22:32:24Z</time>
      </trkpt>
      <trkpt lat="36.69581194208419" lon="117.21942839070176">
        <ele>86.3</ele>
        <time>2023-02-22T22:32:25Z</time>
      </trkpt>
      <trkpt lat="36.69581993839002" lon="117.21940012456226">
        <ele>86.3</ele>
        <time>2023-02-22T22:32:26Z</time>
      </trkpt>
      <trkpt lat="36.69582782376079" lon="117.21937194414258">
        <ele>86.3</ele>
        <time>2023-02-22T22:32:27Z</time>
      </trkpt>
      <trkpt lat="36.69583552853463" lon="117.21934341192843">
        <ele>86.3</ele>
        <time>2023-02-22T22:32:28Z</time>
      </trkpt>
      <trkpt lat="36.695842700951424" lon="117.21931498516498">
        <ele>86.3</ele>
        <time>2023-02-22T22:32:29Z</time>
      </trkpt>
      <trkpt lat="36.69584929611973" lon="117.21928632402073">
        <ele>86.3</ele>
        <time>2023-02-22T22:32:30Z</time>
      </trkpt>
      <trkpt lat="36.69585511431405" lon="117.21925793186524">
        <ele>86.3</ele>
        <time>2023-02-22T22:32:31Z</time>
      </trkpt>
      <trkpt lat="36.6958601689911" lon="117.21922982960862">
        <ele>86.3</ele>
        <time>2023-02-22T22:32:32Z</time>
      </trkpt>
      <trkpt lat="36.69586451473639" lon="117.21920161013904">
        <ele>86.3</ele>
        <time>2023-02-22T22:32:33Z</time>
      </trkpt>
      <trkpt lat="36.69586846867899" lon="117.21917384186305">
        <ele>85.6</ele>
        <time>2023-02-22T22:32:34Z</time>
      </trkpt>
      <trkpt lat="36.6958722489236" lon="117.21914654535746">
        <ele>85.6</ele>
        <time>2023-02-22T22:32:35Z</time>
      </trkpt>
      <trkpt lat="36.69587591312227" lon="117.21912007892826">
        <ele>85.6</ele>
        <time>2023-02-22T22:32:36Z</time>
      </trkpt>
      <trkpt lat="36.69587977355556" lon="117.21909391678938">
        <ele>85.6</ele>
        <time>2023-02-22T22:32:37Z</time>
      </trkpt>
      <trkpt lat="36.695884057477954" lon="117.21906818351101">
        <ele>85.6</ele>
        <time>2023-02-22T22:32:38Z</time>
      </trkpt>
      <trkpt lat="36.69588895519867" lon="117.21904298398451">
        <ele>85.6</ele>
        <time>2023-02-22T22:32:39Z</time>
      </trkpt>
      <trkpt lat="36.69589454638174" lon="117.21901835551887">
        <ele>85.6</ele>
        <time>2023-02-22T22:32:40Z</time>
      </trkpt>
      <trkpt lat="36.695900659031636" lon="117.21899463659365">
        <ele>85.6</ele>
        <time>2023-02-22T22:32:41Z</time>
      </trkpt>
      <trkpt lat="36.69590726009965" lon="117.21897126350594">
        <ele>85.6</ele>
        <time>2023-02-22T22:32:42Z</time>
      </trkpt>
      <trkpt lat="36.69591404790821" lon="117.21894814459979">
        <ele>85.6</ele>
        <time>2023-02-22T22:32:43Z</time>
      </trkpt>
      <trkpt lat="36.69592075753931" lon="117.2189256687007">
        <ele>85.5</ele>
        <time>2023-02-22T22:32:44Z</time>
      </trkpt>
      <trkpt lat="36.69592679746454" lon="117.21890329839101">
        <ele>85.5</ele>
        <time>2023-02-22T22:32:45Z</time>
      </trkpt>
      <trkpt lat="36.69593203138084" lon="117.21888099188003">
        <ele>85.5</ele>
        <time>2023-02-22T22:32:46Z</time>
      </trkpt>
      <trkpt lat="36.69593634353623" lon="117.21885875946572">
        <ele>85.5</ele>
        <time>2023-02-22T22:32:47Z</time>
      </trkpt>
      <trkpt lat="36.69593960631912" lon="117.21883659494851">
        <ele>85.5</ele>
        <time>2023-02-22T22:32:48Z</time>
      </trkpt>
      <trkpt lat="36.69594176383192" lon="117.21881443407929">
        <ele>85.5</ele>
        <time>2023-02-22T22:32:49Z</time>
      </trkpt>
      <trkpt lat="36.695942744786024" lon="117.21879225430833">
        <ele>85.5</ele>
        <time>2023-02-22T22:32:50Z</time>
      </trkpt>
      <trkpt lat="36.69594266549409" lon="117.21877000454086">
        <ele>85.5</ele>
        <time>2023-02-22T22:32:51Z</time>
      </trkpt>
      <trkpt lat="36.69594202977827" lon="117.218747758623">
        <ele>85.5</ele>
        <time>2023-02-22T22:32:52Z</time>
      </trkpt>
      <trkpt lat="36.695940947621935" lon="117.21872551116688">
        <ele>85.5</ele>
        <time>2023-02-22T22:32:53Z</time>
      </trkpt>
      <trkpt lat="36.69593973804648" lon="117.21870326866126">
        <ele>85.8</ele>
        <time>2023-02-22T22:32:54Z</time>
      </trkpt>
      <trkpt lat="36.69593874157302" lon="117.21868059528875">
        <ele>85.8</ele>
        <time>2023-02-22T22:32:55Z</time>
      </trkpt>
      <trkpt lat="36.6959381851441" lon="117.21865793213027">
        <ele>85.8</ele>
        <time>2023-02-22T22:32:56Z</time>
      </trkpt>
      <trkpt lat="36.69593801592159" lon="117.21863529684055">
        <ele>85.8</ele>
        <time>2023-02-22T22:32:57Z</time>
      </trkpt>
      <trkpt lat="36.69593812281068" lon="117.21861223547548">
        <ele>85.8</ele>
        <time>2023-02-22T22:32:58Z</time>
      </trkpt>
      <trkpt lat="36.69593844526064" lon="117.21858926397047">
        <ele>85.8</ele>
        <time>2023-02-22T22:32:59Z</time>
      </trkpt>
      <trkpt lat="36.69593887612589" lon="117.21856589339357">
        <ele>85.8</ele>
        <time>2023-02-22T22:33:00Z</time>
      </trkpt>
      <trkpt lat="36.69593942153181" lon="117.21854251383306">
        <ele>85.8</ele>
        <time>2023-02-22T22:33:01Z</time>
      </trkpt>
      <trkpt lat="36.69594009872913" lon="117.21851904948741">
        <ele>85.8</ele>
        <time>2023-02-22T22:33:02Z</time>
      </trkpt>
      <trkpt lat="36.69594079175483" lon="117.21849505868398">
        <ele>85.8</ele>
        <time>2023-02-22T22:33:03Z</time>
      </trkpt>
      <trkpt lat="36.69594155267011" lon="117.21847065625681">
        <ele>85.8</ele>
        <time>2023-02-22T22:33:04Z</time>
      </trkpt>
      <trkpt lat="36.69594235262018" lon="117.21844596481755">
        <ele>85.8</ele>
        <time>2023-02-22T22:33:05Z</time>
      </trkpt>
      <trkpt lat="36.69594307890135" lon="117.21842150167845">
        <ele>85.8</ele>
        <time>2023-02-22T22:33:06Z</time>
      </trkpt>
      <trkpt lat="36.6959438082143" lon="117.2183968917313">
        <ele>85.8</ele>
        <time>2023-02-22T22:33:07Z</time>
      </trkpt>
      <trkpt lat="36.695944570716826" lon="117.21837224257439">
        <ele>85.8</ele>
        <time>2023-02-22T22:33:08Z</time>
      </trkpt>
      <trkpt lat="36.6959455083866" lon="117.21834759613868">
        <ele>85.8</ele>
        <time>2023-02-22T22:33:09Z</time>
      </trkpt>
      <trkpt lat="36.69594666348594" lon="117.21832312581671">
        <ele>85.8</ele>
        <time>2023-02-22T22:33:10Z</time>
      </trkpt>
      <trkpt lat="36.6959480537451" lon="117.21829928090868">
        <ele>85.8</ele>
        <time>2023-02-22T22:33:11Z</time>
      </trkpt>
      <trkpt lat="36.695949583576265" lon="117.2182755887745">
        <ele>85.8</ele>
        <time>2023-02-22T22:33:12Z</time>
      </trkpt>
      <trkpt lat="36.6959511718684" lon="117.21825206158854">
        <ele>85.8</ele>
        <time>2023-02-22T22:33:13Z</time>
      </trkpt>
      <trkpt lat="36.695952515533584" lon="117.21822870081502">
        <ele>85.7</ele>
        <time>2023-02-22T22:33:14Z</time>
      </trkpt>
      <trkpt lat="36.69595364494706" lon="117.21820584987601">
        <ele>85.7</ele>
        <time>2023-02-22T22:33:15Z</time>
      </trkpt>
      <trkpt lat="36.695954662350886" lon="117.21818330977501">
        <ele>85.7</ele>
        <time>2023-02-22T22:33:16Z</time>
      </trkpt>
      <trkpt lat="36.69595566456809" lon="117.21816050894402">
        <ele>85.7</ele>
        <time>2023-02-22T22:33:17Z</time>
      </trkpt>
      <trkpt lat="36.695956784557666" lon="117.21813774886124">
        <ele>85.7</ele>
        <time>2023-02-22T22:33:18Z</time>
      </trkpt>
      <trkpt lat="36.69595821707767" lon="117.2181144494785">
        <ele>85.7</ele>
        <time>2023-02-22T22:33:19Z</time>
      </trkpt>
      <trkpt lat="36.69596001412329" lon="117.21809108498285">
        <ele>85.7</ele>
        <time>2023-02-22T22:33:20Z</time>
      </trkpt>
      <trkpt lat="36.69596218933996" lon="117.21806701674294">
        <ele>85.7</ele>
        <time>2023-02-22T22:33:21Z</time>
      </trkpt>
      <trkpt lat="36.69596477965865" lon="117.21804224963094">
        <ele>85.7</ele>
        <time>2023-02-22T22:33:22Z</time>
      </trkpt>
      <trkpt lat="36.69596783674172" lon="117.2180167884396">
        <ele>85.7</ele>
        <time>2023-02-22T22:33:23Z</time>
      </trkpt>
      <trkpt lat="36.69597123401976" lon="117.21799067992963">
        <ele>85.8</ele>
        <time>2023-02-22T22:33:24Z</time>
      </trkpt>
      <trkpt lat="36.69597505387853" lon="117.21796432335522">
        <ele>85.8</ele>
        <time>2023-02-22T22:33:25Z</time>
      </trkpt>
      <trkpt lat="36.69597926703386" lon="117.21793726714242">
        <ele>85.8</ele>
        <time>2023-02-22T22:33:26Z</time>
      </trkpt>
      <trkpt lat="36.69598379351698" lon="117.21790957682998">
        <ele>85.8</ele>
        <time>2023-02-22T22:33:27Z</time>
      </trkpt>
      <trkpt lat="36.69598849566811" lon="117.217881253923">
        <ele>85.8</ele>
        <time>2023-02-22T22:33:28Z</time>
      </trkpt>
      <trkpt lat="36.69599319041272" lon="117.21785237922889">
        <ele>85.8</ele>
        <time>2023-02-22T22:33:29Z</time>
      </trkpt>
      <trkpt lat="36.695997648808984" lon="117.21782294677477">
        <ele>85.8</ele>
        <time>2023-02-22T22:33:30Z</time>
      </trkpt>
      <trkpt lat="36.69600170892809" lon="117.2177929772404">
        <ele>85.8</ele>
        <time>2023-02-22T22:33:31Z</time>
      </trkpt>
      <trkpt lat="36.696005050271125" lon="117.21776301726027">
        <ele>85.8</ele>
        <time>2023-02-22T22:33:32Z</time>
      </trkpt>
      <trkpt lat="36.69600756141243" lon="117.21773269925652">
        <ele>85.8</ele>
        <time>2023-02-22T22:33:33Z</time>
      </trkpt>
      <trkpt lat="36.69600921238822" lon="117.21770255432727">
        <ele>86.3</ele>
        <time>2023-02-22T22:33:34Z</time>
      </trkpt>
      <trkpt lat="36.696010148279626" lon="117.21767264183681">
        <ele>86.3</ele>
        <time>2023-02-22T22:33:35Z</time>
      </trkpt>
      <trkpt lat="36.69601058188124" lon="117.21764294482705">
        <ele>86.3</ele>
        <time>2023-02-22T22:33:36Z</time>
      </trkpt>
      <trkpt lat="36.696010630310916" lon="117.21761342307718">
        <ele>86.3</ele>
        <time>2023-02-22T22:33:37Z</time>
      </trkpt>
      <trkpt lat="36.69601033374023" lon="117.21758413820085">
        <ele>86.3</ele>
        <time>2023-02-22T22:33:38Z</time>
      </trkpt>
      <trkpt lat="36.69600978671219" lon="117.21755517747211">
        <ele>86.3</ele>
        <time>2023-02-22T22:33:39Z</time>
      </trkpt>
      <trkpt lat="36.69600902764378" lon="117.21752653538779">
        <ele>86.3</ele>
        <time>2023-02-22T22:33:40Z</time>
      </trkpt>
      <trkpt lat="36.696008003597136" lon="117.21749865142087">
        <ele>86.3</ele>
        <time>2023-02-22T22:33:41Z</time>
      </trkpt>
      <trkpt lat="36.69600678161882" lon="117.21747105620764">
        <ele>86.3</ele>
        <time>2023-02-22T22:33:42Z</time>
      </trkpt>
      <trkpt lat="36.69600568567967" lon="117.21744372600345">
        <ele>86.3</ele>
        <time>2023-02-22T22:33:43Z</time>
      </trkpt>
      <trkpt lat="36.69600486029728" lon="117.21741664954428">
        <ele>86.7</ele>
        <time>2023-02-22T22:33:44Z</time>
      </trkpt>
      <trkpt lat="36.69600431395145" lon="117.21738974091268">
        <ele>86.7</ele>
        <time>2023-02-22T22:33:45Z</time>
      </trkpt>
      <trkpt lat="36.69600426226541" lon="117.21736260595225">
        <ele>86.7</ele>
        <time>2023-02-22T22:33:46Z</time>
      </trkpt>
      <trkpt lat="36.696004653392755" lon="117.21733536358543">
        <ele>86.7</ele>
        <time>2023-02-22T22:33:47Z</time>
      </trkpt>
      <trkpt lat="36.69600539910028" lon="117.21730849421456">
        <ele>86.7</ele>
        <time>2023-02-22T22:33:48Z</time>
      </trkpt>
      <trkpt lat="36.696006415439314" lon="117.21728142979947">
        <ele>86.7</ele>
        <time>2023-02-22T22:33:49Z</time>
      </trkpt>
      <trkpt lat="36.69600764789796" lon="117.21725420707438">
        <ele>86.7</ele>
        <time>2023-02-22T22:33:50Z</time>
      </trkpt>
      <trkpt lat="36.69600896451143" lon="117.21722684867521">
        <ele>86.7</ele>
        <time>2023-02-22T22:33:51Z</time>
      </trkpt>
      <trkpt lat="36.69601029880345" lon="117.21719937005257">
        <ele>86.7</ele>
        <time>2023-02-22T22:33:52Z</time>
      </trkpt>
      <trkpt lat="36.696011523565346" lon="117.2171717709098">
        <ele>86.7</ele>
        <time>2023-02-22T22:33:53Z</time>
      </trkpt>
      <trkpt lat="36.6960125183512" lon="117.2171440449212">
        <ele>86.3</ele>
        <time>2023-02-22T22:33:54Z</time>
      </trkpt>
      <trkpt lat="36.696013215136574" lon="117.21711614958558">
        <ele>86.3</ele>
        <time>2023-02-22T22:33:55Z</time>
      </trkpt>
      <trkpt lat="36.69601367615525" lon="117.21708810981629">
        <ele>86.3</ele>
        <time>2023-02-22T22:33:56Z</time>
      </trkpt>
      <trkpt lat="36.69601379209867" lon="117.21706022104168">
        <ele>86.3</ele>
        <time>2023-02-22T22:33:57Z</time>
      </trkpt>
      <trkpt lat="36.69601354620148" lon="117.21703191648164">
        <ele>86.3</ele>
        <time>2023-02-22T22:33:58Z</time>
      </trkpt>
      <trkpt lat="36.69601294920639" lon="117.21700318970139">
        <ele>86.3</ele>
        <time>2023-02-22T22:33:59Z</time>
      </trkpt>
      <trkpt lat="36.696012055234306" lon="117.21697411760059">
        <ele>86.3</ele>
        <time>2023-02-22T22:34:00Z</time>
      </trkpt>
      <trkpt lat="36.696010929708024" lon="117.21694514520838">
        <ele>86.3</ele>
        <time>2023-02-22T22:34:01Z</time>
      </trkpt>
      <trkpt lat="36.69600969562581" lon="117.216916241686">
        <ele>86.3</ele>
        <time>2023-02-22T22:34:02Z</time>
      </trkpt>
      <trkpt lat="36.6960084845298" lon="117.21688694445439">
        <ele>86.3</ele>
        <time>2023-02-22T22:34:03Z</time>
      </trkpt>
      <trkpt lat="36.696007608992545" lon="117.21685769714867">
        <ele>86.1</ele>
        <time>2023-02-22T22:34:04Z</time>
      </trkpt>
      <trkpt lat="36.6960071695765" lon="117.21682842754193">
        <ele>86.1</ele>
        <time>2023-02-22T22:34:05Z</time>
      </trkpt>
      <trkpt lat="36.69600719506767" lon="117.21679946659883">
        <ele>86.1</ele>
        <time>2023-02-22T22:34:06Z</time>
      </trkpt>
      <trkpt lat="36.69600774062905" lon="117.21677031713139">
        <ele>86.1</ele>
        <time>2023-02-22T22:34:07Z</time>
      </trkpt>
      <trkpt lat="36.69600886793757" lon="117.216741148889">
        <ele>86.1</ele>
        <time>2023-02-22T22:34:08Z</time>
      </trkpt>
      <trkpt lat="36.69601078910981" lon="117.21671258432177">
        <ele>86.1</ele>
        <time>2023-02-22T22:34:09Z</time>
      </trkpt>
      <trkpt lat="36.69601391273867" lon="117.21668451266848">
        <ele>86.1</ele>
        <time>2023-02-22T22:34:10Z</time>
      </trkpt>
      <trkpt lat="36.6960185026496" lon="117.21665781056224">
        <ele>86.1</ele>
        <time>2023-02-22T22:34:11Z</time>
      </trkpt>
      <trkpt lat="36.696024666248015" lon="117.2166327882078">
        <ele>86.1</ele>
        <time>2023-02-22T22:34:12Z</time>
      </trkpt>
      <trkpt lat="36.69603271999874" lon="117.2166094798489">
        <ele>86.1</ele>
        <time>2023-02-22T22:34:13Z</time>
      </trkpt>
      <trkpt lat="36.696042586608975" lon="117.21658854644609">
        <ele>86.9</ele>
        <time>2023-02-22T22:34:14Z</time>
      </trkpt>
      <trkpt lat="36.69605431973359" lon="117.21656988511255">
        <ele>86.9</ele>
        <time>2023-02-22T22:34:15Z</time>
      </trkpt>
      <trkpt lat="36.696067698746454" lon="117.21655333494513">
        <ele>86.9</ele>
        <time>2023-02-22T22:34:16Z</time>
      </trkpt>
      <trkpt lat="36.6960825919982" lon="117.21653872645312">
        <ele>86.9</ele>
        <time>2023-02-22T22:34:17Z</time>
      </trkpt>
      <trkpt lat="36.69609911689482" lon="117.2165262129467">
        <ele>86.9</ele>
        <time>2023-02-22T22:34:18Z</time>
      </trkpt>
      <trkpt lat="36.696116993648786" lon="117.2165154953402">
        <ele>86.9</ele>
        <time>2023-02-22T22:34:19Z</time>
      </trkpt>
      <trkpt lat="36.696135818048084" lon="117.21650627176443">
        <ele>86.9</ele>
        <time>2023-02-22T22:34:20Z</time>
      </trkpt>
      <trkpt lat="36.69615507905128" lon="117.21649852096222">
        <ele>86.9</ele>
        <time>2023-02-22T22:34:21Z</time>
      </trkpt>
      <trkpt lat="36.6961747695071" lon="117.21649154112343">
        <ele>86.9</ele>
        <time>2023-02-22T22:34:22Z</time>
      </trkpt>
      <trkpt lat="36.6961946607859" lon="117.21648492899287">
        <ele>86.9</ele>
        <time>2023-02-22T22:34:23Z</time>
      </trkpt>
      <trkpt lat="36.69621437201115" lon="117.21647853200827">
        <ele>85.1</ele>
        <time>2023-02-22T22:34:24Z</time>
      </trkpt>
      <trkpt lat="36.69623425600877" lon="117.21647190788046">
        <ele>85.1</ele>
        <time>2023-02-22T22:34:25Z</time>
      </trkpt>
      <trkpt lat="36.6962539628583" lon="117.21646510913352">
        <ele>85.1</ele>
        <time>2023-02-22T22:34:26Z</time>
      </trkpt>
      <trkpt lat="36.696273546215636" lon="117.2164581416032">
        <ele>85.1</ele>
        <time>2023-02-22T22:34:27Z</time>
      </trkpt>
      <trkpt lat="36.69629330885327" lon="117.21645078195495">
        <ele>85.1</ele>
        <time>2023-02-22T22:34:28Z</time>
      </trkpt>
      <trkpt lat="36.69631281861009" lon="117.21644305895018">
        <ele>85.1</ele>
        <time>2023-02-22T22:34:29Z</time>
      </trkpt>
      <trkpt lat="36.69633208030292" lon="117.21643491081225">
        <ele>85.1</ele>
        <time>2023-02-22T22:34:30Z</time>
      </trkpt>
      <trkpt lat="36.69635140260984" lon="117.21642614835619">
        <ele>85.1</ele>
        <time>2023-02-22T22:34:31Z</time>
      </trkpt>
      <trkpt lat="36.69637073279833" lon="117.21641689681697">
        <ele>85.1</ele>
        <time>2023-02-22T22:34:32Z</time>
      </trkpt>
      <trkpt lat="36.69639011510517" lon="117.21640750636604">
        <ele>85.1</ele>
        <time>2023-02-22T22:34:33Z</time>
      </trkpt>
      <trkpt lat="36.69640958687574" lon="117.2163983028139">
        <ele>84.2</ele>
        <time>2023-02-22T22:34:34Z</time>
      </trkpt>
      <trkpt lat="36.69642944394527" lon="117.21638960417341">
        <ele>84.2</ele>
        <time>2023-02-22T22:34:35Z</time>
      </trkpt>
      <trkpt lat="36.69644923937772" lon="117.21638180178475">
        <ele>84.2</ele>
        <time>2023-02-22T22:34:36Z</time>
      </trkpt>
      <trkpt lat="36.69646896512652" lon="117.21637491124895">
        <ele>84.2</ele>
        <time>2023-02-22T22:34:37Z</time>
      </trkpt>
      <trkpt lat="36.69648893127241" lon="117.2163690580722">
        <ele>84.2</ele>
        <time>2023-02-22T22:34:38Z</time>
      </trkpt>
      <trkpt lat="36.696508865460004" lon="117.21636452416212">
        <ele>84.2</ele>
        <time>2023-02-22T22:34:39Z</time>
      </trkpt>
      <trkpt lat="36.69652917995386" lon="117.21636139362214">
        <ele>84.2</ele>
        <time>2023-02-22T22:34:40Z</time>
      </trkpt>
      <trkpt lat="36.69654987522264" lon="117.21635963627946">
        <ele>84.2</ele>
        <time>2023-02-22T22:34:41Z</time>
      </trkpt>
      <trkpt lat="36.69657067457489" lon="117.21635937518944">
        <ele>84.2</ele>
        <time>2023-02-22T22:34:42Z</time>
      </trkpt>
      <trkpt lat="36.696591967003684" lon="117.21636040981574">
        <ele>84.2</ele>
        <time>2023-02-22T22:34:43Z</time>
      </trkpt>
      <trkpt lat="36.69661329053748" lon="117.21636231085549">
        <ele>83.4</ele>
        <time>2023-02-22T22:34:44Z</time>
      </trkpt>
      <trkpt lat="36.69663492852528" lon="117.21636443388601">
        <ele>83.4</ele>
        <time>2023-02-22T22:34:45Z</time>
      </trkpt>
      <trkpt lat="36.696656508655934" lon="117.21636642855455">
        <ele>83.4</ele>
        <time>2023-02-22T22:34:46Z</time>
      </trkpt>
      <trkpt lat="36.696678140852164" lon="117.21636802394188">
        <ele>83.4</ele>
        <time>2023-02-22T22:34:47Z</time>
      </trkpt>
      <trkpt lat="36.696700270376525" lon="117.21636915337392">
        <ele>83.4</ele>
        <time>2023-02-22T22:34:48Z</time>
      </trkpt>
      <trkpt lat="36.6967226085624" lon="117.21636980666007">
        <ele>83.4</ele>
        <time>2023-02-22T22:34:49Z</time>
      </trkpt>
      <trkpt lat="36.69674518509405" lon="117.21637010856074">
        <ele>83.4</ele>
        <time>2023-02-22T22:34:50Z</time>
      </trkpt>
      <trkpt lat="36.69676771506674" lon="117.21637012980264">
        <ele>83.4</ele>
        <time>2023-02-22T22:34:51Z</time>
      </trkpt>
      <trkpt lat="36.69679056683765" lon="117.2163700451685">
        <ele>83.4</ele>
        <time>2023-02-22T22:34:52Z</time>
      </trkpt>
      <trkpt lat="36.69681366751226" lon="117.21636992219133">
        <ele>83.4</ele>
        <time>2023-02-22T22:34:53Z</time>
      </trkpt>
      <trkpt lat="36.69683689162853" lon="117.21636981604244">
        <ele>83</ele>
        <time>2023-02-22T22:34:54Z</time>
      </trkpt>
      <trkpt lat="36.69686016741454" lon="117.2163699245497">
        <ele>83</ele>
        <time>2023-02-22T22:34:55Z</time>
      </trkpt>
      <trkpt lat="36.69688308324736" lon="117.21637041232998">
        <ele>83</ele>
        <time>2023-02-22T22:34:56Z</time>
      </trkpt>
      <trkpt lat="36.69690598192089" lon="117.21637126837501">
        <ele>83</ele>
        <time>2023-02-22T22:34:57Z</time>
      </trkpt>
      <trkpt lat="36.69692873056912" lon="117.21637230476186">
        <ele>83</ele>
        <time>2023-02-22T22:34:58Z</time>
      </trkpt>
      <trkpt lat="36.69695090802209" lon="117.21637349089906">
        <ele>83</ele>
        <time>2023-02-22T22:34:59Z</time>
      </trkpt>
      <trkpt lat="36.69697286532109" lon="117.2163748012656">
        <ele>83</ele>
        <time>2023-02-22T22:35:00Z</time>
      </trkpt>
      <trkpt lat="36.69699455788705" lon="117.21637614764632">
        <ele>83</ele>
        <time>2023-02-22T22:35:01Z</time>
      </trkpt>
      <trkpt lat="36.69701594982636" lon="117.21637757013129">
        <ele>83</ele>
        <time>2023-02-22T22:35:02Z</time>
      </trkpt>
      <trkpt lat="36.69703704812292" lon="117.21637908546877">
        <ele>83</ele>
        <time>2023-02-22T22:35:03Z</time>
      </trkpt>
      <trkpt lat="36.69705789523177" lon="117.21638064533326">
        <ele>83.2</ele>
        <time>2023-02-22T22:35:04Z</time>
      </trkpt>
      <trkpt lat="36.697078213805206" lon="117.21638210849206">
        <ele>83.2</ele>
        <time>2023-02-22T22:35:05Z</time>
      </trkpt>
      <trkpt lat="36.69709815419429" lon="117.21638342474296">
        <ele>83.2</ele>
        <time>2023-02-22T22:35:06Z</time>
      </trkpt>
      <trkpt lat="36.69711810200166" lon="117.2163845911833">
        <ele>83.2</ele>
        <time>2023-02-22T22:35:07Z</time>
      </trkpt>
      <trkpt lat="36.69713785514903" lon="117.21638558869427">
        <ele>83.2</ele>
        <time>2023-02-22T22:35:08Z</time>
      </trkpt>
      <trkpt lat="36.6971573802251" lon="117.2163865531058">
        <ele>83.2</ele>
        <time>2023-02-22T22:35:09Z</time>
      </trkpt>
      <trkpt lat="36.69717663575236" lon="117.21638751447156">
        <ele>83.2</ele>
        <time>2023-02-22T22:35:10Z</time>
      </trkpt>
      <trkpt lat="36.69719558325681" lon="117.21638831661606">
        <ele>83.2</ele>
        <time>2023-02-22T22:35:11Z</time>
      </trkpt>
      <trkpt lat="36.69721416980408" lon="117.21638857114658">
        <ele>83.2</ele>
        <time>2023-02-22T22:35:12Z</time>
      </trkpt>
      <trkpt lat="36.697232308408246" lon="117.2163878794507">
        <ele>83.2</ele>
        <time>2023-02-22T22:35:13Z</time>
      </trkpt>
      <trkpt lat="36.69724975221648" lon="117.21638562780613">
        <ele>82.9</ele>
        <time>2023-02-22T22:35:14Z</time>
      </trkpt>
      <trkpt lat="36.69726660060545" lon="117.21638195852191">
        <ele>82.9</ele>
        <time>2023-02-22T22:35:15Z</time>
      </trkpt>
      <trkpt lat="36.697282257787066" lon="117.21637640203771">
        <ele>82.9</ele>
        <time>2023-02-22T22:35:16Z</time>
      </trkpt>
      <trkpt lat="36.69729685004028" lon="117.21636872151981">
        <ele>82.9</ele>
        <time>2023-02-22T22:35:17Z</time>
      </trkpt>
      <trkpt lat="36.69731013662455" lon="117.21635906021572">
        <ele>82.9</ele>
        <time>2023-02-22T22:35:18Z</time>
      </trkpt>
      <trkpt lat="36.69732215370608" lon="117.2163474551598">
        <ele>82.9</ele>
        <time>2023-02-22T22:35:19Z</time>
      </trkpt>
      <trkpt lat="36.697333160980286" lon="117.21633401452117">
        <ele>82.9</ele>
        <time>2023-02-22T22:35:20Z</time>
      </trkpt>
      <trkpt lat="36.697343247387536" lon="117.21631869422319">
        <ele>82.9</ele>
        <time>2023-02-22T22:35:21Z</time>
      </trkpt>
      <trkpt lat="36.69735207818453" lon="117.21630159752999">
        <ele>82.9</ele>
        <time>2023-02-22T22:35:22Z</time>
      </trkpt>
      <trkpt lat="36.69735972684439" lon="117.21628314937372">
        <ele>82.9</ele>
        <time>2023-02-22T22:35:23Z</time>
      </trkpt>
      <trkpt lat="36.697366189091774" lon="117.21626376338514">
        <ele>83.6</ele>
        <time>2023-02-22T22:35:24Z</time>
      </trkpt>
      <trkpt lat="36.69737149132694" lon="117.21624397242576">
        <ele>83.6</ele>
        <time>2023-02-22T22:35:25Z</time>
      </trkpt>
      <trkpt lat="36.69737551796152" lon="117.21622385201901">
        <ele>83.6</ele>
        <time>2023-02-22T22:35:26Z</time>
      </trkpt>
      <trkpt lat="36.69737903155839" lon="117.21620412465542">
        <ele>83.6</ele>
        <time>2023-02-22T22:35:27Z</time>
      </trkpt>
      <trkpt lat="36.69738199973343" lon="117.216185058234">
        <ele>83.6</ele>
        <time>2023-02-22T22:35:28Z</time>
      </trkpt>
      <trkpt lat="36.697384890457336" lon="117.2161665995654">
        <ele>83.6</ele>
        <time>2023-02-22T22:35:29Z</time>
      </trkpt>
      <trkpt lat="36.697387868985906" lon="117.21614897519758">
        <ele>83.6</ele>
        <time>2023-02-22T22:35:30Z</time>
      </trkpt>
      <trkpt lat="36.697390945154886" lon="117.2161322661429">
        <ele>83.6</ele>
        <time>2023-02-22T22:35:31Z</time>
      </trkpt>
      <trkpt lat="36.69739419557863" lon="117.21611644150619">
        <ele>83.6</ele>
        <time>2023-02-22T22:35:32Z</time>
      </trkpt>
      <trkpt lat="36.697389065806895" lon="117.21609618108516">
        <ele>83.6</ele>
        <time>2023-02-22T22:35:33Z</time>
      </trkpt>
      <trkpt lat="36.697393787349746" lon="117.21608094655517">
        <ele>0</ele>
        <time>2023-02-22T22:35:34Z</time>
      </trkpt>
      <trkpt lat="36.697400819776256" lon="117.21606858511383">
        <ele>0</ele>
        <time>2023-02-22T22:35:35Z</time>
      </trkpt>
      <trkpt lat="36.697408301783106" lon="117.21605801750094">
        <ele>0</ele>
        <time>2023-02-22T22:35:36Z</time>
      </trkpt>
    </trkseg>
  </trk>
</gpx>