<?xml version="1.0" encoding="UTF-8"?>
<gpx xmlns="http://www.topografix.com/GPX/1/1" xmlns:gpxtpx="http://www.garmin.com/xmlschemas/TrackPointExtension/v1" xmlns:xsi="http://www.w3.org/2001/XMLSchema-instance" xsi:schemaLocation="http://www.topografix.com/GPX/1/1 http://www.topografix.com/GPX/1/1/gpx.xsd" version="1.1" creator="gpx.py -- https://github.com/tkrajina/gpxpy">
  <trk>
    <name>gpx from codoon</name>
    <type>Run</type>
    <trkseg>
      <trkpt lat="36.68703335544834" lon="117.22209485825826">
        <ele>90.5</ele>
        <time>2023-03-02T12:14:09Z</time>
      </trkpt>
      <trkpt lat="36.68703274399088" lon="117.22209072577654">
        <ele>90.5</ele>
        <time>2023-03-02T12:14:10Z</time>
      </trkpt>
      <trkpt lat="36.68703118868972" lon="117.2220828973518">
        <ele>90.5</ele>
        <time>2023-03-02T12:14:11Z</time>
      </trkpt>
      <trkpt lat="36.68702784602309" lon="117.22206769895193">
        <ele>90.5</ele>
        <time>2023-03-02T12:14:12Z</time>
      </trkpt>
      <trkpt lat="36.6870248154874" lon="117.22205153628126">
        <ele>90.5</ele>
        <time>2023-03-02T12:14:13Z</time>
      </trkpt>
      <trkpt lat="36.68701697073219" lon="117.22202090582486">
        <ele>90.5</ele>
        <time>2023-03-02T12:14:14Z</time>
      </trkpt>
      <trkpt lat="36.6870127574656" lon="117.22200162116735">
        <ele>90.5</ele>
        <time>2023-03-02T12:14:15Z</time>
      </trkpt>
      <trkpt lat="36.687008136256345" lon="117.22198045301282">
        <ele>90.8</ele>
        <time>2023-03-02T12:14:16Z</time>
      </trkpt>
      <trkpt lat="36.6870031921269" lon="117.22195793560306">
        <ele>90.8</ele>
        <time>2023-03-02T12:14:17Z</time>
      </trkpt>
      <trkpt lat="36.68699808904113" lon="117.22193486811072">
        <ele>90.8</ele>
        <time>2023-03-02T12:14:18Z</time>
      </trkpt>
      <trkpt lat="36.68699281547597" lon="117.22191141818445">
        <ele>90.8</ele>
        <time>2023-03-02T12:14:19Z</time>
      </trkpt>
      <trkpt lat="36.68698732607527" lon="117.22188728950073">
        <ele>90.8</ele>
        <time>2023-03-02T12:14:20Z</time>
      </trkpt>
      <trkpt lat="36.68698185424208" lon="117.22186322004572">
        <ele>90.8</ele>
        <time>2023-03-02T12:14:21Z</time>
      </trkpt>
      <trkpt lat="36.68697644911116" lon="117.22183935051305">
        <ele>90.8</ele>
        <time>2023-03-02T12:14:22Z</time>
      </trkpt>
      <trkpt lat="36.68697110986363" lon="117.22181582593757">
        <ele>90.8</ele>
        <time>2023-03-02T12:14:23Z</time>
      </trkpt>
      <trkpt lat="36.68696578124458" lon="117.22179274498916">
        <ele>90.8</ele>
        <time>2023-03-02T12:14:24Z</time>
      </trkpt>
      <trkpt lat="36.68696049733373" lon="117.22177009729542">
        <ele>90.8</ele>
        <time>2023-03-02T12:14:25Z</time>
      </trkpt>
      <trkpt lat="36.68695518505979" lon="117.22174784710285">
        <ele>91.1</ele>
        <time>2023-03-02T12:14:26Z</time>
      </trkpt>
      <trkpt lat="36.686949935672835" lon="117.22172589035578">
        <ele>91.1</ele>
        <time>2023-03-02T12:14:27Z</time>
      </trkpt>
      <trkpt lat="36.68694474274073" lon="117.22170415184812">
        <ele>91.1</ele>
        <time>2023-03-02T12:14:28Z</time>
      </trkpt>
      <trkpt lat="36.68693949179118" lon="117.22168219687504">
        <ele>91.1</ele>
        <time>2023-03-02T12:14:29Z</time>
      </trkpt>
      <trkpt lat="36.68693408947636" lon="117.22166014023118">
        <ele>91.1</ele>
        <time>2023-03-02T12:14:30Z</time>
      </trkpt>
      <trkpt lat="36.686928617817436" lon="117.2216384572591">
        <ele>91.1</ele>
        <time>2023-03-02T12:14:31Z</time>
      </trkpt>
      <trkpt lat="36.68692284022745" lon="117.22161667172729">
        <ele>91.1</ele>
        <time>2023-03-02T12:14:32Z</time>
      </trkpt>
      <trkpt lat="36.68691674436599" lon="117.22159480607579">
        <ele>91.1</ele>
        <time>2023-03-02T12:14:33Z</time>
      </trkpt>
      <trkpt lat="36.686910276888426" lon="117.22157284853562">
        <ele>91.1</ele>
        <time>2023-03-02T12:14:34Z</time>
      </trkpt>
      <trkpt lat="36.68690342972711" lon="117.2215507620393">
        <ele>91.1</ele>
        <time>2023-03-02T12:14:35Z</time>
      </trkpt>
      <trkpt lat="36.686896119717005" lon="117.22152856538828">
        <ele>90.9</ele>
        <time>2023-03-02T12:14:36Z</time>
      </trkpt>
      <trkpt lat="36.68688828954562" lon="117.22150630340461">
        <ele>90.9</ele>
        <time>2023-03-02T12:14:37Z</time>
      </trkpt>
      <trkpt lat="36.686879918524234" lon="117.2214839853294">
        <ele>90.9</ele>
        <time>2023-03-02T12:14:38Z</time>
      </trkpt>
      <trkpt lat="36.68687108888623" lon="117.22146157843052">
        <ele>90.9</ele>
        <time>2023-03-02T12:14:39Z</time>
      </trkpt>
      <trkpt lat="36.68686184578142" lon="117.22143908135502">
        <ele>90.9</ele>
        <time>2023-03-02T12:14:40Z</time>
      </trkpt>
      <trkpt lat="36.68685240873767" lon="117.22141643995285">
        <ele>90.9</ele>
        <time>2023-03-02T12:14:41Z</time>
      </trkpt>
      <trkpt lat="36.686842919112664" lon="117.22139365427357">
        <ele>90.9</ele>
        <time>2023-03-02T12:14:42Z</time>
      </trkpt>
      <trkpt lat="36.68683359819133" lon="117.22137073328595">
        <ele>90.9</ele>
        <time>2023-03-02T12:14:43Z</time>
      </trkpt>
      <trkpt lat="36.68682452261565" lon="117.22134769424328">
        <ele>90.9</ele>
        <time>2023-03-02T12:14:44Z</time>
      </trkpt>
      <trkpt lat="36.68681585494844" lon="117.22132494675212">
        <ele>90.9</ele>
        <time>2023-03-02T12:14:45Z</time>
      </trkpt>
      <trkpt lat="36.68680753823166" lon="117.2213020009442">
        <ele>91.6</ele>
        <time>2023-03-02T12:14:46Z</time>
      </trkpt>
      <trkpt lat="36.68679957964664" lon="117.22127891740172">
        <ele>91.6</ele>
        <time>2023-03-02T12:14:47Z</time>
      </trkpt>
      <trkpt lat="36.686791869848655" lon="117.22125576374951">
        <ele>91.6</ele>
        <time>2023-03-02T12:14:48Z</time>
      </trkpt>
      <trkpt lat="36.68678427556479" lon="117.22123264125486">
        <ele>91.6</ele>
        <time>2023-03-02T12:14:49Z</time>
      </trkpt>
      <trkpt lat="36.68677665905222" lon="117.22120967558251">
        <ele>91.6</ele>
        <time>2023-03-02T12:14:50Z</time>
      </trkpt>
      <trkpt lat="36.68676878790656" lon="117.22118706627411">
        <ele>91.6</ele>
        <time>2023-03-02T12:14:51Z</time>
      </trkpt>
      <trkpt lat="36.686760578273834" lon="117.22116487338798">
        <ele>91.6</ele>
        <time>2023-03-02T12:14:52Z</time>
      </trkpt>
      <trkpt lat="36.68675206477565" lon="117.22114303643848">
        <ele>91.6</ele>
        <time>2023-03-02T12:14:53Z</time>
      </trkpt>
      <trkpt lat="36.686743162673054" lon="117.22112150897297">
        <ele>91.6</ele>
        <time>2023-03-02T12:14:54Z</time>
      </trkpt>
      <trkpt lat="36.686733842574775" lon="117.22110020134694">
        <ele>91.6</ele>
        <time>2023-03-02T12:14:55Z</time>
      </trkpt>
      <trkpt lat="36.68672433934392" lon="117.22107896668788">
        <ele>91</ele>
        <time>2023-03-02T12:14:56Z</time>
      </trkpt>
      <trkpt lat="36.686714747401425" lon="117.22105817460252">
        <ele>91</ele>
        <time>2023-03-02T12:14:57Z</time>
      </trkpt>
      <trkpt lat="36.6867051342277" lon="117.22103729613833">
        <ele>91</ele>
        <time>2023-03-02T12:14:58Z</time>
      </trkpt>
      <trkpt lat="36.68669608299273" lon="117.2210166494045">
        <ele>91</ele>
        <time>2023-03-02T12:14:59Z</time>
      </trkpt>
      <trkpt lat="36.6866881280374" lon="117.2209960698703">
        <ele>91.8</ele>
        <time>2023-03-02T12:15:00Z</time>
      </trkpt>
      <trkpt lat="36.68668193610013" lon="117.22097527116058">
        <ele>91.8</ele>
        <time>2023-03-02T12:15:01Z</time>
      </trkpt>
      <trkpt lat="36.686678207469406" lon="117.22095485597053">
        <ele>91.8</ele>
        <time>2023-03-02T12:15:02Z</time>
      </trkpt>
      <trkpt lat="36.6866772998056" lon="117.22093477110157">
        <ele>91.8</ele>
        <time>2023-03-02T12:15:03Z</time>
      </trkpt>
      <trkpt lat="36.686679151430866" lon="117.22091534856419">
        <ele>91.8</ele>
        <time>2023-03-02T12:15:04Z</time>
      </trkpt>
      <trkpt lat="36.6866838477416" lon="117.22089712811136">
        <ele>91.8</ele>
        <time>2023-03-02T12:15:05Z</time>
      </trkpt>
      <trkpt lat="36.68669169146602" lon="117.22088019798612">
        <ele>91.8</ele>
        <time>2023-03-02T12:15:06Z</time>
      </trkpt>
      <trkpt lat="36.68670233855856" lon="117.22086471469376">
        <ele>91.8</ele>
        <time>2023-03-02T12:15:07Z</time>
      </trkpt>
      <trkpt lat="36.686715673339634" lon="117.22085072259347">
        <ele>91.8</ele>
        <time>2023-03-02T12:15:08Z</time>
      </trkpt>
      <trkpt lat="36.686731920678625" lon="117.22083861373018">
        <ele>91.8</ele>
        <time>2023-03-02T12:15:09Z</time>
      </trkpt>
      <trkpt lat="36.68675061833292" lon="117.22082841177945">
        <ele>91.8</ele>
        <time>2023-03-02T12:15:10Z</time>
      </trkpt>
      <trkpt lat="36.686771302930346" lon="117.22082007273262">
        <ele>91.8</ele>
        <time>2023-03-02T12:15:11Z</time>
      </trkpt>
      <trkpt lat="36.686793672560796" lon="117.22081370105685">
        <ele>91.8</ele>
        <time>2023-03-02T12:15:12Z</time>
      </trkpt>
      <trkpt lat="36.68681720053368" lon="117.22080883435032">
        <ele>91.8</ele>
        <time>2023-03-02T12:15:13Z</time>
      </trkpt>
      <trkpt lat="36.686841687548146" lon="117.22080532831295">
        <ele>91.8</ele>
        <time>2023-03-02T12:15:14Z</time>
      </trkpt>
      <trkpt lat="36.68686690701906" lon="117.22080277219894">
        <ele>91.8</ele>
        <time>2023-03-02T12:15:15Z</time>
      </trkpt>
      <trkpt lat="36.68689267912917" lon="117.22080090271078">
        <ele>91.3</ele>
        <time>2023-03-02T12:15:16Z</time>
      </trkpt>
      <trkpt lat="36.68691889117473" lon="117.22079947919252">
        <ele>91.3</ele>
        <time>2023-03-02T12:15:17Z</time>
      </trkpt>
      <trkpt lat="36.6869454801342" lon="117.2207983245654">
        <ele>91.3</ele>
        <time>2023-03-02T12:15:18Z</time>
      </trkpt>
      <trkpt lat="36.686972734947155" lon="117.2207973224118">
        <ele>91.3</ele>
        <time>2023-03-02T12:15:19Z</time>
      </trkpt>
      <trkpt lat="36.68700017931043" lon="117.22079645200064">
        <ele>91.3</ele>
        <time>2023-03-02T12:15:20Z</time>
      </trkpt>
      <trkpt lat="36.68702780377925" lon="117.22079566414286">
        <ele>91.3</ele>
        <time>2023-03-02T12:15:21Z</time>
      </trkpt>
      <trkpt lat="36.68705587579525" lon="117.22079492706325">
        <ele>91.3</ele>
        <time>2023-03-02T12:15:22Z</time>
      </trkpt>
      <trkpt lat="36.68708392474824" lon="117.22079424702906">
        <ele>91.3</ele>
        <time>2023-03-02T12:15:23Z</time>
      </trkpt>
      <trkpt lat="36.68711229174633" lon="117.22079364127603">
        <ele>91.3</ele>
        <time>2023-03-02T12:15:24Z</time>
      </trkpt>
      <trkpt lat="36.68714056145934" lon="117.22079315605102">
        <ele>91.3</ele>
        <time>2023-03-02T12:15:25Z</time>
      </trkpt>
      <trkpt lat="36.68716874782375" lon="117.22079282002926">
        <ele>91</ele>
        <time>2023-03-02T12:15:26Z</time>
      </trkpt>
      <trkpt lat="36.68719721835352" lon="117.2207927502529">
        <ele>91</ele>
        <time>2023-03-02T12:15:27Z</time>
      </trkpt>
      <trkpt lat="36.687225525495364" lon="117.22079300212236">
        <ele>91</ele>
        <time>2023-03-02T12:15:28Z</time>
      </trkpt>
      <trkpt lat="36.687254026717895" lon="117.22079361187018">
        <ele>91</ele>
        <time>2023-03-02T12:15:29Z</time>
      </trkpt>
      <trkpt lat="36.687282304350596" lon="117.22079455963627">
        <ele>91</ele>
        <time>2023-03-02T12:15:30Z</time>
      </trkpt>
      <trkpt lat="36.68731038916433" lon="117.22079580491854">
        <ele>91</ele>
        <time>2023-03-02T12:15:31Z</time>
      </trkpt>
      <trkpt lat="36.68733865031531" lon="117.22079738416564">
        <ele>91</ele>
        <time>2023-03-02T12:15:32Z</time>
      </trkpt>
      <trkpt lat="36.68736665604124" lon="117.22079936299785">
        <ele>91</ele>
        <time>2023-03-02T12:15:33Z</time>
      </trkpt>
      <trkpt lat="36.68739476872584" lon="117.22080188561993">
        <ele>91</ele>
        <time>2023-03-02T12:15:34Z</time>
      </trkpt>
      <trkpt lat="36.6874225414107" lon="117.22080499206061">
        <ele>91</ele>
        <time>2023-03-02T12:15:35Z</time>
      </trkpt>
      <trkpt lat="36.68745033526589" lon="117.22080871452832">
        <ele>90.8</ele>
        <time>2023-03-02T12:15:36Z</time>
      </trkpt>
      <trkpt lat="36.68747806187178" lon="117.2208130316107">
        <ele>90.8</ele>
        <time>2023-03-02T12:15:37Z</time>
      </trkpt>
      <trkpt lat="36.687505360376676" lon="117.22081782667635">
        <ele>90.8</ele>
        <time>2023-03-02T12:15:38Z</time>
      </trkpt>
      <trkpt lat="36.68753266313128" lon="117.22082311945128">
        <ele>90.8</ele>
        <time>2023-03-02T12:15:39Z</time>
      </trkpt>
      <trkpt lat="36.68755960562801" lon="117.22082880327775">
        <ele>90.8</ele>
        <time>2023-03-02T12:15:40Z</time>
      </trkpt>
      <trkpt lat="36.68758626292576" lon="117.22083485765688">
        <ele>90.8</ele>
        <time>2023-03-02T12:15:41Z</time>
      </trkpt>
      <trkpt lat="36.6876130566914" lon="117.2208413146892">
        <ele>90.8</ele>
        <time>2023-03-02T12:15:42Z</time>
      </trkpt>
      <trkpt lat="36.687639596955925" lon="117.22084798681615">
        <ele>90.8</ele>
        <time>2023-03-02T12:15:43Z</time>
      </trkpt>
      <trkpt lat="36.68766631871257" lon="117.2208548318819">
        <ele>90.8</ele>
        <time>2023-03-02T12:15:44Z</time>
      </trkpt>
      <trkpt lat="36.68769289045313" lon="117.22086157330874">
        <ele>90.8</ele>
        <time>2023-03-02T12:15:45Z</time>
      </trkpt>
      <trkpt lat="36.687719430100685" lon="117.22086807852756">
        <ele>91.5</ele>
        <time>2023-03-02T12:15:46Z</time>
      </trkpt>
      <trkpt lat="36.68774603427146" lon="117.22087430553779">
        <ele>91.5</ele>
        <time>2023-03-02T12:15:47Z</time>
      </trkpt>
      <trkpt lat="36.68777309039145" lon="117.22088029360567">
        <ele>91.5</ele>
        <time>2023-03-02T12:15:48Z</time>
      </trkpt>
      <trkpt lat="36.68780050521241" lon="117.22088605719682">
        <ele>91.5</ele>
        <time>2023-03-02T12:15:49Z</time>
      </trkpt>
      <trkpt lat="36.68782791509438" lon="117.22089165037386">
        <ele>91.5</ele>
        <time>2023-03-02T12:15:50Z</time>
      </trkpt>
      <trkpt lat="36.687855693571855" lon="117.2208972256897">
        <ele>91.5</ele>
        <time>2023-03-02T12:15:51Z</time>
      </trkpt>
      <trkpt lat="36.6878837943037" lon="117.22090270002462">
        <ele>91.5</ele>
        <time>2023-03-02T12:15:52Z</time>
      </trkpt>
      <trkpt lat="36.68791183789299" lon="117.22090791041855">
        <ele>91.5</ele>
        <time>2023-03-02T12:15:53Z</time>
      </trkpt>
      <trkpt lat="36.687940244069395" lon="117.22091276531819">
        <ele>91.5</ele>
        <time>2023-03-02T12:15:54Z</time>
      </trkpt>
      <trkpt lat="36.68796861552657" lon="117.22091705763229">
        <ele>91.5</ele>
        <time>2023-03-02T12:15:55Z</time>
      </trkpt>
      <trkpt lat="36.6879969847317" lon="117.22092083147533">
        <ele>90</ele>
        <time>2023-03-02T12:15:56Z</time>
      </trkpt>
      <trkpt lat="36.6880257349421" lon="117.22092414818846">
        <ele>90</ele>
        <time>2023-03-02T12:15:57Z</time>
      </trkpt>
      <trkpt lat="36.68805441443594" lon="117.22092696684327">
        <ele>90</ele>
        <time>2023-03-02T12:15:58Z</time>
      </trkpt>
      <trkpt lat="36.688083146197314" lon="117.22092938458621">
        <ele>90</ele>
        <time>2023-03-02T12:15:59Z</time>
      </trkpt>
      <trkpt lat="36.68811201104926" lon="117.22093146000427">
        <ele>90.1</ele>
        <time>2023-03-02T12:16:00Z</time>
      </trkpt>
      <trkpt lat="36.68814103185517" lon="117.22093309609772">
        <ele>90.1</ele>
        <time>2023-03-02T12:16:01Z</time>
      </trkpt>
      <trkpt lat="36.68817024149861" lon="117.22093422364917">
        <ele>90.1</ele>
        <time>2023-03-02T12:16:02Z</time>
      </trkpt>
      <trkpt lat="36.68819964385779" lon="117.22093495866956">
        <ele>90.1</ele>
        <time>2023-03-02T12:16:03Z</time>
      </trkpt>
      <trkpt lat="36.68822954834636" lon="117.22093539370913">
        <ele>90.1</ele>
        <time>2023-03-02T12:16:04Z</time>
      </trkpt>
      <trkpt lat="36.68825949196778" lon="117.22093563620243">
        <ele>90.1</ele>
        <time>2023-03-02T12:16:05Z</time>
      </trkpt>
      <trkpt lat="36.68828973387272" lon="117.22093579037951">
        <ele>90.4</ele>
        <time>2023-03-02T12:16:06Z</time>
      </trkpt>
      <trkpt lat="36.688320236181234" lon="117.2209359017762">
        <ele>90.4</ele>
        <time>2023-03-02T12:16:07Z</time>
      </trkpt>
      <trkpt lat="36.68835064010193" lon="117.22093596707003">
        <ele>90.4</ele>
        <time>2023-03-02T12:16:08Z</time>
      </trkpt>
      <trkpt lat="36.68838141868829" lon="117.22093603416211">
        <ele>90.4</ele>
        <time>2023-03-02T12:16:09Z</time>
      </trkpt>
      <trkpt lat="36.688412126872706" lon="117.22093606686894">
        <ele>90.4</ele>
        <time>2023-03-02T12:16:10Z</time>
      </trkpt>
      <trkpt lat="36.68844313789131" lon="117.22093607533866">
        <ele>90.4</ele>
        <time>2023-03-02T12:16:11Z</time>
      </trkpt>
      <trkpt lat="36.68847436201981" lon="117.22093602483868">
        <ele>90.4</ele>
        <time>2023-03-02T12:16:12Z</time>
      </trkpt>
      <trkpt lat="36.688505378320976" lon="117.22093584750792">
        <ele>90.4</ele>
        <time>2023-03-02T12:16:13Z</time>
      </trkpt>
      <trkpt lat="36.68853657526892" lon="117.22093544353999">
        <ele>90.4</ele>
        <time>2023-03-02T12:16:14Z</time>
      </trkpt>
      <trkpt lat="36.68856757060058" lon="117.22093471963952">
        <ele>90.4</ele>
        <time>2023-03-02T12:16:15Z</time>
      </trkpt>
      <trkpt lat="36.68859842313634" lon="117.2209336381676">
        <ele>89.2</ele>
        <time>2023-03-02T12:16:16Z</time>
      </trkpt>
      <trkpt lat="36.68862929356198" lon="117.22093214810624">
        <ele>89.2</ele>
        <time>2023-03-02T12:16:17Z</time>
      </trkpt>
      <trkpt lat="36.688660544234445" lon="117.22093019373878">
        <ele>89.2</ele>
        <time>2023-03-02T12:16:18Z</time>
      </trkpt>
      <trkpt lat="36.68869206994546" lon="117.22092785382895">
        <ele>89.2</ele>
        <time>2023-03-02T12:16:19Z</time>
      </trkpt>
      <trkpt lat="36.68872345484977" lon="117.22092515480918">
        <ele>89.2</ele>
        <time>2023-03-02T12:16:20Z</time>
      </trkpt>
      <trkpt lat="36.688755099127455" lon="117.2209220397622">
        <ele>89.2</ele>
        <time>2023-03-02T12:16:21Z</time>
      </trkpt>
      <trkpt lat="36.6887866126524" lon="117.22091856672235">
        <ele>89.2</ele>
        <time>2023-03-02T12:16:22Z</time>
      </trkpt>
      <trkpt lat="36.68881840526309" lon="117.22091481841834">
        <ele>89.2</ele>
        <time>2023-03-02T12:16:23Z</time>
      </trkpt>
      <trkpt lat="36.68885045184716" lon="117.22091086535609">
        <ele>89.2</ele>
        <time>2023-03-02T12:16:24Z</time>
      </trkpt>
      <trkpt lat="36.68888225528803" lon="117.22090685550349">
        <ele>89.2</ele>
        <time>2023-03-02T12:16:25Z</time>
      </trkpt>
      <trkpt lat="36.688914316013594" lon="117.22090288406105">
        <ele>89</ele>
        <time>2023-03-02T12:16:26Z</time>
      </trkpt>
      <trkpt lat="36.68894655699035" lon="117.22089906657526">
        <ele>89</ele>
        <time>2023-03-02T12:16:27Z</time>
      </trkpt>
      <trkpt lat="36.68897889876425" lon="117.22089548019939">
        <ele>89</ele>
        <time>2023-03-02T12:16:28Z</time>
      </trkpt>
      <trkpt lat="36.68901083666088" lon="117.22089225087464">
        <ele>89</ele>
        <time>2023-03-02T12:16:29Z</time>
      </trkpt>
      <trkpt lat="36.68904233682728" lon="117.22088939611231">
        <ele>89</ele>
        <time>2023-03-02T12:16:30Z</time>
      </trkpt>
      <trkpt lat="36.689073339407656" lon="117.22088690485103">
        <ele>89</ele>
        <time>2023-03-02T12:16:31Z</time>
      </trkpt>
      <trkpt lat="36.68910372178043" lon="117.22088483224454">
        <ele>89</ele>
        <time>2023-03-02T12:16:32Z</time>
      </trkpt>
      <trkpt lat="36.68913336041606" lon="117.22088318863734">
        <ele>89</ele>
        <time>2023-03-02T12:16:33Z</time>
      </trkpt>
      <trkpt lat="36.68916179274752" lon="117.22088199825383">
        <ele>89</ele>
        <time>2023-03-02T12:16:34Z</time>
      </trkpt>
      <trkpt lat="36.6891892453817" lon="117.22088130338422">
        <ele>89</ele>
        <time>2023-03-02T12:16:35Z</time>
      </trkpt>
      <trkpt lat="36.68921597417229" lon="117.22088108051133">
        <ele>88.7</ele>
        <time>2023-03-02T12:16:36Z</time>
      </trkpt>
      <trkpt lat="36.68924133971272" lon="117.22088132488439">
        <ele>88.7</ele>
        <time>2023-03-02T12:16:37Z</time>
      </trkpt>
      <trkpt lat="36.689265274058855" lon="117.22088182882271">
        <ele>88.7</ele>
        <time>2023-03-02T12:16:38Z</time>
      </trkpt>
      <trkpt lat="36.689287436443784" lon="117.22088259108344">
        <ele>88.7</ele>
        <time>2023-03-02T12:16:39Z</time>
      </trkpt>
      <trkpt lat="36.68930799426401" lon="117.22088353594792">
        <ele>88.7</ele>
        <time>2023-03-02T12:16:40Z</time>
      </trkpt>
      <trkpt lat="36.68932708678872" lon="117.22088454788589">
        <ele>88.7</ele>
        <time>2023-03-02T12:16:41Z</time>
      </trkpt>
      <trkpt lat="36.68934496513822" lon="117.22088555180613">
        <ele>88.7</ele>
        <time>2023-03-02T12:16:42Z</time>
      </trkpt>
      <trkpt lat="36.689361372907996" lon="117.22088659709863">
        <ele>88.7</ele>
        <time>2023-03-02T12:16:43Z</time>
      </trkpt>
      <trkpt lat="36.6893765475937" lon="117.22088754787954">
        <ele>88.7</ele>
        <time>2023-03-02T12:16:44Z</time>
      </trkpt>
      <trkpt lat="36.689390679546754" lon="117.22088831233397">
        <ele>88.7</ele>
        <time>2023-03-02T12:16:45Z</time>
      </trkpt>
      <trkpt lat="36.68940367542779" lon="117.22088881725072">
        <ele>87.8</ele>
        <time>2023-03-02T12:16:46Z</time>
      </trkpt>
      <trkpt lat="36.68941556225129" lon="117.22088900545211">
        <ele>87.8</ele>
        <time>2023-03-02T12:16:47Z</time>
      </trkpt>
      <trkpt lat="36.689426696013136" lon="117.2208889079511">
        <ele>87.8</ele>
        <time>2023-03-02T12:16:48Z</time>
      </trkpt>
      <trkpt lat="36.68943727770604" lon="117.2208886175279">
        <ele>87.8</ele>
        <time>2023-03-02T12:16:49Z</time>
      </trkpt>
      <trkpt lat="36.689447540985086" lon="117.22088812364687">
        <ele>87.8</ele>
        <time>2023-03-02T12:16:50Z</time>
      </trkpt>
      <trkpt lat="36.689457462662986" lon="117.22088758274289">
        <ele>87.8</ele>
        <time>2023-03-02T12:16:51Z</time>
      </trkpt>
      <trkpt lat="36.6894671237093" lon="117.22088692975615">
        <ele>87.8</ele>
        <time>2023-03-02T12:16:52Z</time>
      </trkpt>
      <trkpt lat="36.689476135123115" lon="117.22088594285168">
        <ele>87.8</ele>
        <time>2023-03-02T12:16:53Z</time>
      </trkpt>
      <trkpt lat="36.68948437161367" lon="117.22088444366118">
        <ele>87.8</ele>
        <time>2023-03-02T12:16:54Z</time>
      </trkpt>
      <trkpt lat="36.689491917643274" lon="117.22088243822564">
        <ele>87.8</ele>
        <time>2023-03-02T12:16:55Z</time>
      </trkpt>
      <trkpt lat="36.68949837669009" lon="117.22088048009165">
        <ele>87</ele>
        <time>2023-03-02T12:16:56Z</time>
      </trkpt>
      <trkpt lat="36.68950382570208" lon="117.22087875658873">
        <ele>87</ele>
        <time>2023-03-02T12:16:57Z</time>
      </trkpt>
      <trkpt lat="36.68950852254958" lon="117.22087738087968">
        <ele>87</ele>
        <time>2023-03-02T12:16:58Z</time>
      </trkpt>
      <trkpt lat="36.6895124161791" lon="117.2208763338863">
        <ele>87</ele>
        <time>2023-03-02T12:16:59Z</time>
      </trkpt>
      <trkpt lat="36.68951557487707" lon="117.22087540962895">
        <ele>87.9</ele>
        <time>2023-03-02T12:17:00Z</time>
      </trkpt>
      <trkpt lat="36.689517952511295" lon="117.22087461210525">
        <ele>87.9</ele>
        <time>2023-03-02T12:17:01Z</time>
      </trkpt>
      <trkpt lat="36.689519469719734" lon="117.22087378371126">
        <ele>87.9</ele>
        <time>2023-03-02T12:17:02Z</time>
      </trkpt>
      <trkpt lat="36.689520011771236" lon="117.22087311756157">
        <ele>87.9</ele>
        <time>2023-03-02T12:17:03Z</time>
      </trkpt>
      <trkpt lat="36.68951971414517" lon="117.22087298562982">
        <ele>87.9</ele>
        <time>2023-03-02T12:17:04Z</time>
      </trkpt>
      <trkpt lat="36.68951858918642" lon="117.2208735109634">
        <ele>87.9</ele>
        <time>2023-03-02T12:17:05Z</time>
      </trkpt>
      <trkpt lat="36.68951639809345" lon="117.22087482999">
        <ele>87.7</ele>
        <time>2023-03-02T12:17:07Z</time>
      </trkpt>
      <trkpt lat="36.689513461138425" lon="117.2208765349237">
        <ele>87.7</ele>
        <time>2023-03-02T12:17:08Z</time>
      </trkpt>
      <trkpt lat="36.68950974531767" lon="117.22087798549857">
        <ele>87.7</ele>
        <time>2023-03-02T12:17:09Z</time>
      </trkpt>
      <trkpt lat="36.68950491372279" lon="117.22087909190141">
        <ele>87.7</ele>
        <time>2023-03-02T12:17:10Z</time>
      </trkpt>
      <trkpt lat="36.68949924916145" lon="117.22087985091552">
        <ele>87.7</ele>
        <time>2023-03-02T12:17:11Z</time>
      </trkpt>
      <trkpt lat="36.68949271258242" lon="117.22088052398313">
        <ele>87.7</ele>
        <time>2023-03-02T12:17:12Z</time>
      </trkpt>
      <trkpt lat="36.6894863433949" lon="117.22088061897779">
        <ele>87.7</ele>
        <time>2023-03-02T12:17:13Z</time>
      </trkpt>
      <trkpt lat="36.689480508879214" lon="117.220880542341">
        <ele>87.7</ele>
        <time>2023-03-02T12:17:14Z</time>
      </trkpt>
      <trkpt lat="36.68947535429356" lon="117.2208801538109">
        <ele>87.7</ele>
        <time>2023-03-02T12:17:15Z</time>
      </trkpt>
      <trkpt lat="36.689471454322884" lon="117.22087907003962">
        <ele>87.4</ele>
        <time>2023-03-02T12:17:16Z</time>
      </trkpt>
      <trkpt lat="36.68946905155871" lon="117.22087719396336">
        <ele>87.4</ele>
        <time>2023-03-02T12:17:17Z</time>
      </trkpt>
      <trkpt lat="36.68946836464345" lon="117.22087441603887">
        <ele>87.4</ele>
        <time>2023-03-02T12:17:18Z</time>
      </trkpt>
      <trkpt lat="36.68946949824442" lon="117.22087065099286">
        <ele>87.4</ele>
        <time>2023-03-02T12:17:19Z</time>
      </trkpt>
      <trkpt lat="36.68947282231695" lon="117.22086692192386">
        <ele>87.4</ele>
        <time>2023-03-02T12:17:20Z</time>
      </trkpt>
      <trkpt lat="36.689478526474645" lon="117.22086328301023">
        <ele>87.4</ele>
        <time>2023-03-02T12:17:21Z</time>
      </trkpt>
      <trkpt lat="36.68948650359644" lon="117.22085977150819">
        <ele>87.4</ele>
        <time>2023-03-02T12:17:22Z</time>
      </trkpt>
      <trkpt lat="36.68949735629585" lon="117.2208564654024">
        <ele>87.4</ele>
        <time>2023-03-02T12:17:23Z</time>
      </trkpt>
      <trkpt lat="36.689510113359816" lon="117.22085384203893">
        <ele>87.4</ele>
        <time>2023-03-02T12:17:24Z</time>
      </trkpt>
      <trkpt lat="36.689524773263614" lon="117.22085147230071">
        <ele>87.4</ele>
        <time>2023-03-02T12:17:25Z</time>
      </trkpt>
      <trkpt lat="36.6895418013161" lon="117.22084935255417">
        <ele>86.7</ele>
        <time>2023-03-02T12:17:26Z</time>
      </trkpt>
      <trkpt lat="36.68956083219079" lon="117.22084766335193">
        <ele>86.7</ele>
        <time>2023-03-02T12:17:27Z</time>
      </trkpt>
      <trkpt lat="36.689582227160734" lon="117.22084628755387">
        <ele>86.7</ele>
        <time>2023-03-02T12:17:28Z</time>
      </trkpt>
      <trkpt lat="36.6896058567848" lon="117.22084511362144">
        <ele>86.7</ele>
        <time>2023-03-02T12:17:29Z</time>
      </trkpt>
      <trkpt lat="36.689631923617625" lon="117.22084395690392">
        <ele>86.7</ele>
        <time>2023-03-02T12:17:30Z</time>
      </trkpt>
      <trkpt lat="36.6896598570967" lon="117.22084222878567">
        <ele>86.7</ele>
        <time>2023-03-02T12:17:31Z</time>
      </trkpt>
      <trkpt lat="36.68968931725558" lon="117.22083996326366">
        <ele>86.7</ele>
        <time>2023-03-02T12:17:32Z</time>
      </trkpt>
      <trkpt lat="36.68972025929946" lon="117.22083721704382">
        <ele>86.7</ele>
        <time>2023-03-02T12:17:33Z</time>
      </trkpt>
      <trkpt lat="36.68975191943227" lon="117.22083396407592">
        <ele>86.7</ele>
        <time>2023-03-02T12:17:34Z</time>
      </trkpt>
      <trkpt lat="36.6897841652646" lon="117.22083049906469">
        <ele>86.7</ele>
        <time>2023-03-02T12:17:35Z</time>
      </trkpt>
      <trkpt lat="36.68981717376843" lon="117.22082687582487">
        <ele>86.5</ele>
        <time>2023-03-02T12:17:36Z</time>
      </trkpt>
      <trkpt lat="36.68985028204761" lon="117.22082312098792">
        <ele>86.5</ele>
        <time>2023-03-02T12:17:37Z</time>
      </trkpt>
      <trkpt lat="36.6898838300051" lon="117.22081933449543">
        <ele>86.5</ele>
        <time>2023-03-02T12:17:38Z</time>
      </trkpt>
      <trkpt lat="36.689917328131756" lon="117.22081559452617">
        <ele>86.5</ele>
        <time>2023-03-02T12:17:39Z</time>
      </trkpt>
      <trkpt lat="36.68995110744114" lon="117.22081193403791">
        <ele>86.5</ele>
        <time>2023-03-02T12:17:40Z</time>
      </trkpt>
      <trkpt lat="36.689984754771345" lon="117.22080846374567">
        <ele>86.5</ele>
        <time>2023-03-02T12:17:41Z</time>
      </trkpt>
      <trkpt lat="36.69001831024761" lon="117.22080519768818">
        <ele>86.5</ele>
        <time>2023-03-02T12:17:42Z</time>
      </trkpt>
      <trkpt lat="36.69005217679468" lon="117.22080198341813">
        <ele>86.5</ele>
        <time>2023-03-02T12:17:43Z</time>
      </trkpt>
      <trkpt lat="36.690086047787126" lon="117.22079878976149">
        <ele>86.5</ele>
        <time>2023-03-02T12:17:44Z</time>
      </trkpt>
      <trkpt lat="36.69012032776271" lon="117.22079557897771">
        <ele>86.5</ele>
        <time>2023-03-02T12:17:45Z</time>
      </trkpt>
      <trkpt lat="36.69015488556666" lon="117.22079215376192">
        <ele>86.5</ele>
        <time>2023-03-02T12:17:46Z</time>
      </trkpt>
      <trkpt lat="36.69018930420894" lon="117.22078850982717">
        <ele>86.5</ele>
        <time>2023-03-02T12:17:47Z</time>
      </trkpt>
      <trkpt lat="36.690223742743726" lon="117.22078463960558">
        <ele>86.5</ele>
        <time>2023-03-02T12:17:48Z</time>
      </trkpt>
      <trkpt lat="36.69025769008099" lon="117.22078067363759">
        <ele>86.5</ele>
        <time>2023-03-02T12:17:49Z</time>
      </trkpt>
      <trkpt lat="36.690291267410736" lon="117.22077673589843">
        <ele>86.5</ele>
        <time>2023-03-02T12:17:50Z</time>
      </trkpt>
      <trkpt lat="36.69032424866253" lon="117.22077295035628">
        <ele>86.5</ele>
        <time>2023-03-02T12:17:51Z</time>
      </trkpt>
      <trkpt lat="36.690357164647445" lon="117.2207694115331">
        <ele>86.5</ele>
        <time>2023-03-02T12:17:52Z</time>
      </trkpt>
      <trkpt lat="36.69039006643875" lon="117.22076613216154">
        <ele>86.5</ele>
        <time>2023-03-02T12:17:53Z</time>
      </trkpt>
      <trkpt lat="36.6904230294544" lon="117.22076316435162">
        <ele>86.5</ele>
        <time>2023-03-02T12:17:54Z</time>
      </trkpt>
      <trkpt lat="36.69045602501607" lon="117.22076049404012">
        <ele>86.5</ele>
        <time>2023-03-02T12:17:55Z</time>
      </trkpt>
      <trkpt lat="36.69048917989365" lon="117.2207579825745">
        <ele>86</ele>
        <time>2023-03-02T12:17:56Z</time>
      </trkpt>
      <trkpt lat="36.690522493944975" lon="117.22075551874283">
        <ele>86</ele>
        <time>2023-03-02T12:17:57Z</time>
      </trkpt>
      <trkpt lat="36.69055595340307" lon="117.22075300561097">
        <ele>86</ele>
        <time>2023-03-02T12:17:58Z</time>
      </trkpt>
      <trkpt lat="36.69058974634266" lon="117.22075035240454">
        <ele>86</ele>
        <time>2023-03-02T12:17:59Z</time>
      </trkpt>
      <trkpt lat="36.690623832528836" lon="117.22074741319624">
        <ele>85.7</ele>
        <time>2023-03-02T12:18:00Z</time>
      </trkpt>
      <trkpt lat="36.69065806836854" lon="117.22074423514974">
        <ele>85.7</ele>
        <time>2023-03-02T12:18:01Z</time>
      </trkpt>
      <trkpt lat="36.690692695703326" lon="117.22074086742771">
        <ele>85.7</ele>
        <time>2023-03-02T12:18:02Z</time>
      </trkpt>
      <trkpt lat="36.690727253612074" lon="117.22073741282041">
        <ele>85.7</ele>
        <time>2023-03-02T12:18:03Z</time>
      </trkpt>
      <trkpt lat="36.69076207977431" lon="117.22073396059776">
        <ele>85.7</ele>
        <time>2023-03-02T12:18:04Z</time>
      </trkpt>
      <trkpt lat="36.6907970204336" lon="117.22073069459802">
        <ele>85.7</ele>
        <time>2023-03-02T12:18:05Z</time>
      </trkpt>
      <trkpt lat="36.690832057126194" lon="117.22072764512355">
        <ele>84.9</ele>
        <time>2023-03-02T12:18:06Z</time>
      </trkpt>
      <trkpt lat="36.690866742549574" lon="117.22072495285215">
        <ele>84.9</ele>
        <time>2023-03-02T12:18:07Z</time>
      </trkpt>
      <trkpt lat="36.69090147555809" lon="117.22072262826329">
        <ele>84.9</ele>
        <time>2023-03-02T12:18:08Z</time>
      </trkpt>
      <trkpt lat="36.690936196315164" lon="117.22072068345757">
        <ele>84.9</ele>
        <time>2023-03-02T12:18:09Z</time>
      </trkpt>
      <trkpt lat="36.69097094059393" lon="117.22071904596216">
        <ele>84.9</ele>
        <time>2023-03-02T12:18:10Z</time>
      </trkpt>
      <trkpt lat="36.691005724971745" lon="117.22071751181372">
        <ele>84.9</ele>
        <time>2023-03-02T12:18:11Z</time>
      </trkpt>
      <trkpt lat="36.69104058227481" lon="117.22071581657865">
        <ele>84.9</ele>
        <time>2023-03-02T12:18:12Z</time>
      </trkpt>
      <trkpt lat="36.69107544451016" lon="117.22071382985172">
        <ele>84.9</ele>
        <time>2023-03-02T12:18:13Z</time>
      </trkpt>
      <trkpt lat="36.691110409729205" lon="117.22071117201044">
        <ele>84.9</ele>
        <time>2023-03-02T12:18:14Z</time>
      </trkpt>
      <trkpt lat="36.69114546800365" lon="117.22070757499847">
        <ele>84.9</ele>
        <time>2023-03-02T12:18:15Z</time>
      </trkpt>
      <trkpt lat="36.69118028819542" lon="117.2207028865284">
        <ele>84.5</ele>
        <time>2023-03-02T12:18:16Z</time>
      </trkpt>
      <trkpt lat="36.69121518570743" lon="117.22069692143785">
        <ele>84.5</ele>
        <time>2023-03-02T12:18:17Z</time>
      </trkpt>
      <trkpt lat="36.69125016322486" lon="117.22068970773451">
        <ele>84.5</ele>
        <time>2023-03-02T12:18:18Z</time>
      </trkpt>
      <trkpt lat="36.69128461393408" lon="117.22068132376508">
        <ele>84.5</ele>
        <time>2023-03-02T12:18:19Z</time>
      </trkpt>
      <trkpt lat="36.691318530212165" lon="117.2206718800271">
        <ele>84.5</ele>
        <time>2023-03-02T12:18:20Z</time>
      </trkpt>
      <trkpt lat="36.69135152980968" lon="117.22066161399401">
        <ele>84.5</ele>
        <time>2023-03-02T12:18:21Z</time>
      </trkpt>
      <trkpt lat="36.69138392363251" lon="117.22065067759705">
        <ele>84.5</ele>
        <time>2023-03-02T12:18:22Z</time>
      </trkpt>
      <trkpt lat="36.69141560015815" lon="117.22063938024374">
        <ele>84.5</ele>
        <time>2023-03-02T12:18:23Z</time>
      </trkpt>
      <trkpt lat="36.691446215729236" lon="117.22062792438919">
        <ele>84.5</ele>
        <time>2023-03-02T12:18:24Z</time>
      </trkpt>
      <trkpt lat="36.69147568599153" lon="117.2206167013375">
        <ele>84.5</ele>
        <time>2023-03-02T12:18:25Z</time>
      </trkpt>
      <trkpt lat="36.691503910334795" lon="117.22060597481696">
        <ele>84.2</ele>
        <time>2023-03-02T12:18:26Z</time>
      </trkpt>
      <trkpt lat="36.69153085241927" lon="117.22059588239182">
        <ele>84.2</ele>
        <time>2023-03-02T12:18:27Z</time>
      </trkpt>
      <trkpt lat="36.69155618379237" lon="117.22058671462982">
        <ele>84.2</ele>
        <time>2023-03-02T12:18:28Z</time>
      </trkpt>
      <trkpt lat="36.69157985525107" lon="117.22057858119686">
        <ele>84.2</ele>
        <time>2023-03-02T12:18:29Z</time>
      </trkpt>
      <trkpt lat="36.69160226694984" lon="117.22057143966992">
        <ele>84.2</ele>
        <time>2023-03-02T12:18:30Z</time>
      </trkpt>
      <trkpt lat="36.69162347976359" lon="117.2205653580383">
        <ele>84.2</ele>
        <time>2023-03-02T12:18:31Z</time>
      </trkpt>
      <trkpt lat="36.69164353768167" lon="117.22056023912828">
        <ele>84.2</ele>
        <time>2023-03-02T12:18:32Z</time>
      </trkpt>
      <trkpt lat="36.69166225361275" lon="117.2205560390917">
        <ele>84.2</ele>
        <time>2023-03-02T12:18:33Z</time>
      </trkpt>
      <trkpt lat="36.691679801507306" lon="117.22055250135378">
        <ele>84.2</ele>
        <time>2023-03-02T12:18:34Z</time>
      </trkpt>
      <trkpt lat="36.69169639104206" lon="117.22054936049602">
        <ele>84.2</ele>
        <time>2023-03-02T12:18:35Z</time>
      </trkpt>
      <trkpt lat="36.69171220658961" lon="117.2205464144378">
        <ele>84.7</ele>
        <time>2023-03-02T12:18:36Z</time>
      </trkpt>
      <trkpt lat="36.69172716078292" lon="117.22054360574175">
        <ele>84.7</ele>
        <time>2023-03-02T12:18:37Z</time>
      </trkpt>
      <trkpt lat="36.69174153211001" lon="117.22054076584024">
        <ele>84.7</ele>
        <time>2023-03-02T12:18:38Z</time>
      </trkpt>
      <trkpt lat="36.69175562658874" lon="117.22053776526327">
        <ele>84.7</ele>
        <time>2023-03-02T12:18:39Z</time>
      </trkpt>
      <trkpt lat="36.69176994070971" lon="117.22053442538287">
        <ele>84.7</ele>
        <time>2023-03-02T12:18:40Z</time>
      </trkpt>
      <trkpt lat="36.69178450111951" lon="117.22053077064751">
        <ele>84.7</ele>
        <time>2023-03-02T12:18:41Z</time>
      </trkpt>
      <trkpt lat="36.69179949189888" lon="117.22052672622095">
        <ele>84.7</ele>
        <time>2023-03-02T12:18:42Z</time>
      </trkpt>
      <trkpt lat="36.6918154036254" lon="117.2205222435789">
        <ele>84.7</ele>
        <time>2023-03-02T12:18:43Z</time>
      </trkpt>
      <trkpt lat="36.691832237654765" lon="117.22051739654202">
        <ele>84.7</ele>
        <time>2023-03-02T12:18:44Z</time>
      </trkpt>
      <trkpt lat="36.69185031680612" lon="117.22051220947841">
        <ele>84.7</ele>
        <time>2023-03-02T12:18:45Z</time>
      </trkpt>
      <trkpt lat="36.691869513397044" lon="117.22050682945414">
        <ele>84.2</ele>
        <time>2023-03-02T12:18:46Z</time>
      </trkpt>
      <trkpt lat="36.69188970392122" lon="117.22050127955218">
        <ele>84.2</ele>
        <time>2023-03-02T12:18:47Z</time>
      </trkpt>
      <trkpt lat="36.69191114268111" lon="117.2204954829864">
        <ele>84.2</ele>
        <time>2023-03-02T12:18:48Z</time>
      </trkpt>
      <trkpt lat="36.69193392991552" lon="117.220489445897">
        <ele>84.2</ele>
        <time>2023-03-02T12:18:49Z</time>
      </trkpt>
      <trkpt lat="36.691957821994016" lon="117.22048315260584">
        <ele>84.2</ele>
        <time>2023-03-02T12:18:50Z</time>
      </trkpt>
      <trkpt lat="36.69198235304295" lon="117.22047667423712">
        <ele>84.2</ele>
        <time>2023-03-02T12:18:51Z</time>
      </trkpt>
      <trkpt lat="36.69200769062835" lon="117.22047000538112">
        <ele>84.2</ele>
        <time>2023-03-02T12:18:52Z</time>
      </trkpt>
      <trkpt lat="36.692033615433246" lon="117.22046322090904">
        <ele>84.2</ele>
        <time>2023-03-02T12:18:53Z</time>
      </trkpt>
      <trkpt lat="36.69205968250635" lon="117.22045653327815">
        <ele>84.2</ele>
        <time>2023-03-02T12:18:54Z</time>
      </trkpt>
      <trkpt lat="36.69208617499604" lon="117.22045001949323">
        <ele>84.2</ele>
        <time>2023-03-02T12:18:55Z</time>
      </trkpt>
      <trkpt lat="36.69211268420467" lon="117.22044385881001">
        <ele>84</ele>
        <time>2023-03-02T12:18:56Z</time>
      </trkpt>
      <trkpt lat="36.692139520352725" lon="117.22043806654185">
        <ele>84</ele>
        <time>2023-03-02T12:18:57Z</time>
      </trkpt>
      <trkpt lat="36.692166605117045" lon="117.22043277553574">
        <ele>84</ele>
        <time>2023-03-02T12:18:58Z</time>
      </trkpt>
      <trkpt lat="36.69219352335472" lon="117.2204281348799">
        <ele>84</ele>
        <time>2023-03-02T12:18:59Z</time>
      </trkpt>
      <trkpt lat="36.6922203427638" lon="117.22042421852811">
        <ele>83.1</ele>
        <time>2023-03-02T12:19:00Z</time>
      </trkpt>
      <trkpt lat="36.69224707410819" lon="117.22042104260457">
        <ele>83.1</ele>
        <time>2023-03-02T12:19:01Z</time>
      </trkpt>
      <trkpt lat="36.692273752123306" lon="117.22041860323748">
        <ele>83.1</ele>
        <time>2023-03-02T12:19:02Z</time>
      </trkpt>
      <trkpt lat="36.692300380850725" lon="117.22041697151377">
        <ele>83.1</ele>
        <time>2023-03-02T12:19:03Z</time>
      </trkpt>
      <trkpt lat="36.69232729308287" lon="117.22041601750948">
        <ele>83.1</ele>
        <time>2023-03-02T12:19:04Z</time>
      </trkpt>
      <trkpt lat="36.692354412981196" lon="117.22041557434302">
        <ele>83.1</ele>
        <time>2023-03-02T12:19:05Z</time>
      </trkpt>
      <trkpt lat="36.692381397978046" lon="117.22041557014286">
        <ele>82.3</ele>
        <time>2023-03-02T12:19:06Z</time>
      </trkpt>
      <trkpt lat="36.69240864748807" lon="117.22041591302192">
        <ele>82.3</ele>
        <time>2023-03-02T12:19:07Z</time>
      </trkpt>
      <trkpt lat="36.692435830574134" lon="117.2204164538994">
        <ele>82.3</ele>
        <time>2023-03-02T12:19:08Z</time>
      </trkpt>
      <trkpt lat="36.69246332430863" lon="117.22041710547353">
        <ele>82.3</ele>
        <time>2023-03-02T12:19:09Z</time>
      </trkpt>
      <trkpt lat="36.692491100734145" lon="117.22041788259871">
        <ele>82.3</ele>
        <time>2023-03-02T12:19:10Z</time>
      </trkpt>
      <trkpt lat="36.69251881259094" lon="117.22041881511014">
        <ele>82.3</ele>
        <time>2023-03-02T12:19:11Z</time>
      </trkpt>
      <trkpt lat="36.69254682253456" lon="117.22041995286428">
        <ele>82.3</ele>
        <time>2023-03-02T12:19:12Z</time>
      </trkpt>
      <trkpt lat="36.69257506591549" lon="117.22042135474533">
        <ele>82.3</ele>
        <time>2023-03-02T12:19:13Z</time>
      </trkpt>
      <trkpt lat="36.69260351078371" lon="117.22042308154447">
        <ele>82.3</ele>
        <time>2023-03-02T12:19:14Z</time>
      </trkpt>
      <trkpt lat="36.6926317920328" lon="117.22042518708449">
        <ele>82.3</ele>
        <time>2023-03-02T12:19:15Z</time>
      </trkpt>
      <trkpt lat="36.69265997081536" lon="117.22042771521306">
        <ele>81.7</ele>
        <time>2023-03-02T12:19:16Z</time>
      </trkpt>
      <trkpt lat="36.692688431027065" lon="117.2204307619535">
        <ele>81.7</ele>
        <time>2023-03-02T12:19:17Z</time>
      </trkpt>
      <trkpt lat="36.69271679881646" lon="117.22043433906131">
        <ele>81.7</ele>
        <time>2023-03-02T12:19:18Z</time>
      </trkpt>
      <trkpt lat="36.69274512217337" lon="117.22043852126858">
        <ele>81.7</ele>
        <time>2023-03-02T12:19:19Z</time>
      </trkpt>
      <trkpt lat="36.69277349276792" lon="117.22044336385282">
        <ele>81.7</ele>
        <time>2023-03-02T12:19:20Z</time>
      </trkpt>
      <trkpt lat="36.69280195871361" lon="117.22044879300255">
        <ele>81.7</ele>
        <time>2023-03-02T12:19:21Z</time>
      </trkpt>
      <trkpt lat="36.69283059255843" lon="117.22045479186941">
        <ele>81.7</ele>
        <time>2023-03-02T12:19:22Z</time>
      </trkpt>
      <trkpt lat="36.69285948534747" lon="117.2204613828127">
        <ele>81.7</ele>
        <time>2023-03-02T12:19:23Z</time>
      </trkpt>
      <trkpt lat="36.69288870185179" lon="117.220468474387">
        <ele>81.7</ele>
        <time>2023-03-02T12:19:24Z</time>
      </trkpt>
      <trkpt lat="36.69291820481737" lon="117.22047597550038">
        <ele>81.7</ele>
        <time>2023-03-02T12:19:25Z</time>
      </trkpt>
      <trkpt lat="36.69294813377388" lon="117.22048380206252">
        <ele>81.5</ele>
        <time>2023-03-02T12:19:26Z</time>
      </trkpt>
      <trkpt lat="36.69297850710071" lon="117.22049185353022">
        <ele>81.5</ele>
        <time>2023-03-02T12:19:27Z</time>
      </trkpt>
      <trkpt lat="36.69300929547011" lon="117.2205000541437">
        <ele>81.5</ele>
        <time>2023-03-02T12:19:28Z</time>
      </trkpt>
      <trkpt lat="36.693040398388035" lon="117.22050827193114">
        <ele>81.5</ele>
        <time>2023-03-02T12:19:29Z</time>
      </trkpt>
      <trkpt lat="36.69307206405651" lon="117.22051651460065">
        <ele>81.5</ele>
        <time>2023-03-02T12:19:30Z</time>
      </trkpt>
      <trkpt lat="36.69310375777892" lon="117.22052462371221">
        <ele>81.5</ele>
        <time>2023-03-02T12:19:31Z</time>
      </trkpt>
      <trkpt lat="36.69313542996051" lon="117.22053256897888">
        <ele>81.5</ele>
        <time>2023-03-02T12:19:32Z</time>
      </trkpt>
      <trkpt lat="36.69316701549862" lon="117.22054028437022">
        <ele>81.5</ele>
        <time>2023-03-02T12:19:33Z</time>
      </trkpt>
      <trkpt lat="36.693198408569586" lon="117.22054781019547">
        <ele>81.5</ele>
        <time>2023-03-02T12:19:34Z</time>
      </trkpt>
      <trkpt lat="36.693229530180304" lon="117.22055519312998">
        <ele>81.5</ele>
        <time>2023-03-02T12:19:35Z</time>
      </trkpt>
      <trkpt lat="36.69326006445621" lon="117.22056244041791">
        <ele>80.5</ele>
        <time>2023-03-02T12:19:36Z</time>
      </trkpt>
      <trkpt lat="36.693290285086675" lon="117.22056974487592">
        <ele>80.5</ele>
        <time>2023-03-02T12:19:37Z</time>
      </trkpt>
      <trkpt lat="36.693320124054026" lon="117.22057718496185">
        <ele>80.5</ele>
        <time>2023-03-02T12:19:38Z</time>
      </trkpt>
      <trkpt lat="36.6933495425839" lon="117.22058481460084">
        <ele>80.5</ele>
        <time>2023-03-02T12:19:39Z</time>
      </trkpt>
      <trkpt lat="36.69337856732447" lon="117.22059271972748">
        <ele>80.5</ele>
        <time>2023-03-02T12:19:40Z</time>
      </trkpt>
      <trkpt lat="36.693406922231674" lon="117.22060086719087">
        <ele>80.5</ele>
        <time>2023-03-02T12:19:41Z</time>
      </trkpt>
      <trkpt lat="36.693435072975895" lon="117.22060941960127">
        <ele>80.5</ele>
        <time>2023-03-02T12:19:42Z</time>
      </trkpt>
      <trkpt lat="36.69346301359794" lon="117.22061833338425">
        <ele>80.5</ele>
        <time>2023-03-02T12:19:43Z</time>
      </trkpt>
      <trkpt lat="36.69349110674334" lon="117.22062758793031">
        <ele>80.5</ele>
        <time>2023-03-02T12:19:44Z</time>
      </trkpt>
      <trkpt lat="36.69351899920131" lon="117.2206370004209">
        <ele>80.5</ele>
        <time>2023-03-02T12:19:45Z</time>
      </trkpt>
      <trkpt lat="36.6935470737555" lon="117.22064652830178">
        <ele>80.4</ele>
        <time>2023-03-02T12:19:46Z</time>
      </trkpt>
      <trkpt lat="36.69357529129046" lon="117.22065599594266">
        <ele>80.4</ele>
        <time>2023-03-02T12:19:47Z</time>
      </trkpt>
      <trkpt lat="36.69360357952357" lon="117.22066538078778">
        <ele>80.4</ele>
        <time>2023-03-02T12:19:48Z</time>
      </trkpt>
      <trkpt lat="36.69363191757758" lon="117.22067465368113">
        <ele>80.4</ele>
        <time>2023-03-02T12:19:49Z</time>
      </trkpt>
      <trkpt lat="36.693660311358855" lon="117.22068379519612">
        <ele>80.4</ele>
        <time>2023-03-02T12:19:50Z</time>
      </trkpt>
      <trkpt lat="36.69368877976105" lon="117.22069284287019">
        <ele>80.4</ele>
        <time>2023-03-02T12:19:51Z</time>
      </trkpt>
      <trkpt lat="36.69371729942497" lon="117.22070189473715">
        <ele>80.4</ele>
        <time>2023-03-02T12:19:52Z</time>
      </trkpt>
      <trkpt lat="36.69374585434288" lon="117.22071097212009">
        <ele>80.4</ele>
        <time>2023-03-02T12:19:53Z</time>
      </trkpt>
      <trkpt lat="36.693774468835834" lon="117.22072011590326">
        <ele>80.4</ele>
        <time>2023-03-02T12:19:54Z</time>
      </trkpt>
      <trkpt lat="36.693803141339004" lon="117.22072941934867">
        <ele>80.4</ele>
        <time>2023-03-02T12:19:55Z</time>
      </trkpt>
      <trkpt lat="36.69383187127549" lon="117.22073890707075">
        <ele>81</ele>
        <time>2023-03-02T12:19:56Z</time>
      </trkpt>
      <trkpt lat="36.6938603424423" lon="117.22074855068468">
        <ele>81</ele>
        <time>2023-03-02T12:19:57Z</time>
      </trkpt>
      <trkpt lat="36.69388896540875" lon="117.2207585649712">
        <ele>81</ele>
        <time>2023-03-02T12:19:58Z</time>
      </trkpt>
      <trkpt lat="36.69391742356854" lon="117.22076879572317">
        <ele>81</ele>
        <time>2023-03-02T12:19:59Z</time>
      </trkpt>
      <trkpt lat="36.69394575487249" lon="117.22077927597799">
        <ele>79.6</ele>
        <time>2023-03-02T12:20:00Z</time>
      </trkpt>
      <trkpt lat="36.69397390881343" lon="117.22079001554339">
        <ele>79.6</ele>
        <time>2023-03-02T12:20:01Z</time>
      </trkpt>
      <trkpt lat="36.694001909340436" lon="117.22080102727888">
        <ele>79.6</ele>
        <time>2023-03-02T12:20:02Z</time>
      </trkpt>
      <trkpt lat="36.6940297482966" lon="117.22081225772291">
        <ele>79.6</ele>
        <time>2023-03-02T12:20:03Z</time>
      </trkpt>
      <trkpt lat="36.694057122685585" lon="117.22082364013448">
        <ele>79.6</ele>
        <time>2023-03-02T12:20:04Z</time>
      </trkpt>
      <trkpt lat="36.69408435302307" lon="117.22083536289512">
        <ele>79.6</ele>
        <time>2023-03-02T12:20:05Z</time>
      </trkpt>
      <trkpt lat="36.69411106478736" lon="117.22084728955289">
        <ele>79</ele>
        <time>2023-03-02T12:20:06Z</time>
      </trkpt>
      <trkpt lat="36.694137316794844" lon="117.22085940836453">
        <ele>79</ele>
        <time>2023-03-02T12:20:07Z</time>
      </trkpt>
      <trkpt lat="36.69416342144586" lon="117.22087190437223">
        <ele>79</ele>
        <time>2023-03-02T12:20:08Z</time>
      </trkpt>
      <trkpt lat="36.69418901249362" lon="117.22088459693536">
        <ele>79</ele>
        <time>2023-03-02T12:20:09Z</time>
      </trkpt>
      <trkpt lat="36.69421445557473" lon="117.22089759174757">
        <ele>79</ele>
        <time>2023-03-02T12:20:10Z</time>
      </trkpt>
      <trkpt lat="36.69423973741192" lon="117.22091078200255">
        <ele>79</ele>
        <time>2023-03-02T12:20:11Z</time>
      </trkpt>
      <trkpt lat="36.69426459598571" lon="117.22092400112268">
        <ele>79</ele>
        <time>2023-03-02T12:20:12Z</time>
      </trkpt>
      <trkpt lat="36.69428939229976" lon="117.22093722870896">
        <ele>79</ele>
        <time>2023-03-02T12:20:13Z</time>
      </trkpt>
      <trkpt lat="36.69431409116429" lon="117.22095040019647">
        <ele>79</ele>
        <time>2023-03-02T12:20:14Z</time>
      </trkpt>
      <trkpt lat="36.69433893576929" lon="117.22096360164952">
        <ele>79</ele>
        <time>2023-03-02T12:20:15Z</time>
      </trkpt>
      <trkpt lat="36.69436357952759" lon="117.22097659201307">
        <ele>79</ele>
        <time>2023-03-02T12:20:16Z</time>
      </trkpt>
      <trkpt lat="36.69438804012601" lon="117.22098939403563">
        <ele>79</ele>
        <time>2023-03-02T12:20:17Z</time>
      </trkpt>
      <trkpt lat="36.69441232764317" lon="117.22100203827252">
        <ele>79</ele>
        <time>2023-03-02T12:20:18Z</time>
      </trkpt>
      <trkpt lat="36.69443646146721" lon="117.22101449822013">
        <ele>79</ele>
        <time>2023-03-02T12:20:19Z</time>
      </trkpt>
      <trkpt lat="36.6944604727141" lon="117.2210267260525">
        <ele>79</ele>
        <time>2023-03-02T12:20:20Z</time>
      </trkpt>
      <trkpt lat="36.694484056418396" lon="117.22103861940197">
        <ele>79</ele>
        <time>2023-03-02T12:20:21Z</time>
      </trkpt>
      <trkpt lat="36.69450757947649" lon="117.22105042412885">
        <ele>79</ele>
        <time>2023-03-02T12:20:22Z</time>
      </trkpt>
      <trkpt lat="36.6945310408569" lon="117.2210621567076">
        <ele>79</ele>
        <time>2023-03-02T12:20:23Z</time>
      </trkpt>
      <trkpt lat="36.69455444606408" lon="117.22107391419641">
        <ele>79</ele>
        <time>2023-03-02T12:20:24Z</time>
      </trkpt>
      <trkpt lat="36.69457782572982" lon="117.22108578679203">
        <ele>79</ele>
        <time>2023-03-02T12:20:25Z</time>
      </trkpt>
      <trkpt lat="36.69460093435564" lon="117.22109766463997">
        <ele>78.5</ele>
        <time>2023-03-02T12:20:26Z</time>
      </trkpt>
      <trkpt lat="36.69462416910542" lon="117.22110974408024">
        <ele>78.5</ele>
        <time>2023-03-02T12:20:27Z</time>
      </trkpt>
      <trkpt lat="36.69464755466404" lon="117.22112214664266">
        <ele>78.5</ele>
        <time>2023-03-02T12:20:28Z</time>
      </trkpt>
      <trkpt lat="36.694671403948185" lon="117.22113508263368">
        <ele>78.5</ele>
        <time>2023-03-02T12:20:29Z</time>
      </trkpt>
      <trkpt lat="36.69469537647199" lon="117.2211483461372">
        <ele>78.5</ele>
        <time>2023-03-02T12:20:30Z</time>
      </trkpt>
      <trkpt lat="36.69471945534939" lon="117.22116198079046">
        <ele>78.5</ele>
        <time>2023-03-02T12:20:31Z</time>
      </trkpt>
      <trkpt lat="36.69474369372133" lon="117.22117603373339">
        <ele>78.5</ele>
        <time>2023-03-02T12:20:32Z</time>
      </trkpt>
      <trkpt lat="36.69476807265184" lon="117.22119059829743">
        <ele>78.5</ele>
        <time>2023-03-02T12:20:33Z</time>
      </trkpt>
      <trkpt lat="36.694792473141604" lon="117.2212056718233">
        <ele>78.5</ele>
        <time>2023-03-02T12:20:34Z</time>
      </trkpt>
      <trkpt lat="36.69481663549013" lon="117.22122112253902">
        <ele>78.5</ele>
        <time>2023-03-02T12:20:35Z</time>
      </trkpt>
      <trkpt lat="36.69484078218214" lon="117.22123697539767">
        <ele>79.2</ele>
        <time>2023-03-02T12:20:36Z</time>
      </trkpt>
      <trkpt lat="36.694864876107246" lon="117.2212531296786">
        <ele>79.2</ele>
        <time>2023-03-02T12:20:37Z</time>
      </trkpt>
      <trkpt lat="36.694888955166164" lon="117.22126955792012">
        <ele>79.2</ele>
        <time>2023-03-02T12:20:38Z</time>
      </trkpt>
      <trkpt lat="36.69491300136838" lon="117.22128604744452">
        <ele>79.2</ele>
        <time>2023-03-02T12:20:39Z</time>
      </trkpt>
      <trkpt lat="36.6949369452225" lon="117.22130251913606">
        <ele>79.2</ele>
        <time>2023-03-02T12:20:40Z</time>
      </trkpt>
      <trkpt lat="36.69496071887906" lon="117.22131895439246">
        <ele>79.2</ele>
        <time>2023-03-02T12:20:41Z</time>
      </trkpt>
      <trkpt lat="36.69498430255627" lon="117.22133538523204">
        <ele>79.2</ele>
        <time>2023-03-02T12:20:42Z</time>
      </trkpt>
      <trkpt lat="36.69500791734397" lon="117.22135195706466">
        <ele>79.2</ele>
        <time>2023-03-02T12:20:43Z</time>
      </trkpt>
      <trkpt lat="36.695031223032686" lon="117.22136831112799">
        <ele>79.2</ele>
        <time>2023-03-02T12:20:44Z</time>
      </trkpt>
      <trkpt lat="36.69505464729513" lon="117.22138458522797">
        <ele>79.2</ele>
        <time>2023-03-02T12:20:45Z</time>
      </trkpt>
      <trkpt lat="36.69507814308813" lon="117.22140057989985">
        <ele>79.3</ele>
        <time>2023-03-02T12:20:46Z</time>
      </trkpt>
      <trkpt lat="36.695101851870824" lon="117.22141625435097">
        <ele>79.3</ele>
        <time>2023-03-02T12:20:47Z</time>
      </trkpt>
      <trkpt lat="36.69512577963484" lon="117.22143157037894">
        <ele>79.3</ele>
        <time>2023-03-02T12:20:48Z</time>
      </trkpt>
      <trkpt lat="36.69514985668381" lon="117.22144650186397">
        <ele>79.3</ele>
        <time>2023-03-02T12:20:49Z</time>
      </trkpt>
      <trkpt lat="36.69517407566627" lon="117.22146100413146">
        <ele>79.3</ele>
        <time>2023-03-02T12:20:50Z</time>
      </trkpt>
      <trkpt lat="36.6951981720049" lon="117.22147488106303">
        <ele>79.3</ele>
        <time>2023-03-02T12:20:51Z</time>
      </trkpt>
      <trkpt lat="36.695222576385305" lon="117.22148805680831">
        <ele>79.3</ele>
        <time>2023-03-02T12:20:52Z</time>
      </trkpt>
      <trkpt lat="36.695247320322224" lon="117.2214999267002">
        <ele>79.3</ele>
        <time>2023-03-02T12:20:53Z</time>
      </trkpt>
      <trkpt lat="36.69527207260922" lon="117.22150975059064">
        <ele>79.3</ele>
        <time>2023-03-02T12:20:54Z</time>
      </trkpt>
      <trkpt lat="36.69529717304263" lon="117.22151762145774">
        <ele>79.3</ele>
        <time>2023-03-02T12:20:55Z</time>
      </trkpt>
      <trkpt lat="36.69532186496244" lon="117.22152213967945">
        <ele>78</ele>
        <time>2023-03-02T12:20:56Z</time>
      </trkpt>
      <trkpt lat="36.69534576156032" lon="117.22152310791009">
        <ele>78</ele>
        <time>2023-03-02T12:20:57Z</time>
      </trkpt>
      <trkpt lat="36.69536848214927" lon="117.22151995915274">
        <ele>78</ele>
        <time>2023-03-02T12:20:58Z</time>
      </trkpt>
      <trkpt lat="36.695389782785014" lon="117.22151278235837">
        <ele>78</ele>
        <time>2023-03-02T12:20:59Z</time>
      </trkpt>
      <trkpt lat="36.69540936396833" lon="117.22150115780686">
        <ele>78.1</ele>
        <time>2023-03-02T12:21:00Z</time>
      </trkpt>
      <trkpt lat="36.69542723637322" lon="117.22148542974567">
        <ele>78.1</ele>
        <time>2023-03-02T12:21:01Z</time>
      </trkpt>
      <trkpt lat="36.695443437124695" lon="117.22146578850992">
        <ele>78.1</ele>
        <time>2023-03-02T12:21:02Z</time>
      </trkpt>
      <trkpt lat="36.69545769806964" lon="117.22144248920262">
        <ele>78.1</ele>
        <time>2023-03-02T12:21:03Z</time>
      </trkpt>
      <trkpt lat="36.695470128699846" lon="117.22141628251175">
        <ele>78.1</ele>
        <time>2023-03-02T12:21:04Z</time>
      </trkpt>
      <trkpt lat="36.695480968373836" lon="117.22138745114589">
        <ele>78.1</ele>
        <time>2023-03-02T12:21:05Z</time>
      </trkpt>
      <trkpt lat="36.695490101220514" lon="117.22135623757025">
        <ele>78.3</ele>
        <time>2023-03-02T12:21:06Z</time>
      </trkpt>
      <trkpt lat="36.695498291198476" lon="117.22132383190429">
        <ele>78.3</ele>
        <time>2023-03-02T12:21:07Z</time>
      </trkpt>
      <trkpt lat="36.695506164042484" lon="117.22129103012757">
        <ele>78.3</ele>
        <time>2023-03-02T12:21:08Z</time>
      </trkpt>
      <trkpt lat="36.695514168038216" lon="117.22125883821664">
        <ele>78.3</ele>
        <time>2023-03-02T12:21:09Z</time>
      </trkpt>
      <trkpt lat="36.69552301406508" lon="117.22122790946065">
        <ele>78.3</ele>
        <time>2023-03-02T12:21:10Z</time>
      </trkpt>
      <trkpt lat="36.69553336762822" lon="117.2211992776151">
        <ele>78.3</ele>
        <time>2023-03-02T12:21:11Z</time>
      </trkpt>
      <trkpt lat="36.69554534215223" lon="117.22117366832529">
        <ele>78.3</ele>
        <time>2023-03-02T12:21:12Z</time>
      </trkpt>
      <trkpt lat="36.695559259407474" lon="117.22115097159683">
        <ele>78.3</ele>
        <time>2023-03-02T12:21:13Z</time>
      </trkpt>
      <trkpt lat="36.69557485057115" lon="117.22113230587034">
        <ele>78.3</ele>
        <time>2023-03-02T12:21:14Z</time>
      </trkpt>
      <trkpt lat="36.6955919575741" lon="117.22111777774644">
        <ele>78.3</ele>
        <time>2023-03-02T12:21:15Z</time>
      </trkpt>
      <trkpt lat="36.69561068628702" lon="117.22110788193508">
        <ele>78.4</ele>
        <time>2023-03-02T12:21:16Z</time>
      </trkpt>
      <trkpt lat="36.695631067574695" lon="117.22110250154243">
        <ele>78.4</ele>
        <time>2023-03-02T12:21:17Z</time>
      </trkpt>
      <trkpt lat="36.6956527883992" lon="117.22110139739364">
        <ele>78.4</ele>
        <time>2023-03-02T12:21:18Z</time>
      </trkpt>
      <trkpt lat="36.695675677058965" lon="117.2211035358377">
        <ele>78.4</ele>
        <time>2023-03-02T12:21:19Z</time>
      </trkpt>
      <trkpt lat="36.69569959977381" lon="117.22110757810023">
        <ele>78.4</ele>
        <time>2023-03-02T12:21:20Z</time>
      </trkpt>
      <trkpt lat="36.69572377097842" lon="117.22111198119663">
        <ele>78.4</ele>
        <time>2023-03-02T12:21:21Z</time>
      </trkpt>
      <trkpt lat="36.69574703507098" lon="117.22111537333498">
        <ele>78.4</ele>
        <time>2023-03-02T12:21:22Z</time>
      </trkpt>
      <trkpt lat="36.69576895051391" lon="117.22111618360908">
        <ele>78.4</ele>
        <time>2023-03-02T12:21:23Z</time>
      </trkpt>
      <trkpt lat="36.69578881466983" lon="117.22111440344646">
        <ele>78.4</ele>
        <time>2023-03-02T12:21:24Z</time>
      </trkpt>
      <trkpt lat="36.69580663312597" lon="117.22110889505609">
        <ele>78.4</ele>
        <time>2023-03-02T12:21:25Z</time>
      </trkpt>
      <trkpt lat="36.69582241320229" lon="117.2210991192994">
        <ele>78.4</ele>
        <time>2023-03-02T12:21:26Z</time>
      </trkpt>
      <trkpt lat="36.695835896656014" lon="117.22108502735277">
        <ele>78.4</ele>
        <time>2023-03-02T12:21:27Z</time>
      </trkpt>
      <trkpt lat="36.69584697508426" lon="117.22106619335399">
        <ele>78.4</ele>
        <time>2023-03-02T12:21:28Z</time>
      </trkpt>
      <trkpt lat="36.695855787546925" lon="117.22104318202884">
        <ele>78.4</ele>
        <time>2023-03-02T12:21:29Z</time>
      </trkpt>
      <trkpt lat="36.69586238115255" lon="117.22101676500834">
        <ele>78.4</ele>
        <time>2023-03-02T12:21:30Z</time>
      </trkpt>
      <trkpt lat="36.6958665923157" lon="117.22098756194481">
        <ele>78.4</ele>
        <time>2023-03-02T12:21:31Z</time>
      </trkpt>
      <trkpt lat="36.69586891542602" lon="117.22095623494326">
        <ele>78.4</ele>
        <time>2023-03-02T12:21:32Z</time>
      </trkpt>
      <trkpt lat="36.695869948809545" lon="117.22092370869407">
        <ele>78.4</ele>
        <time>2023-03-02T12:21:33Z</time>
      </trkpt>
      <trkpt lat="36.69587012969761" lon="117.22089084992045">
        <ele>78.4</ele>
        <time>2023-03-02T12:21:34Z</time>
      </trkpt>
      <trkpt lat="36.69586994170226" lon="117.22085743430998">
        <ele>78.4</ele>
        <time>2023-03-02T12:21:35Z</time>
      </trkpt>
      <trkpt lat="36.69586968897169" lon="117.22082366039591">
        <ele>78.4</ele>
        <time>2023-03-02T12:21:36Z</time>
      </trkpt>
      <trkpt lat="36.69586963617558" lon="117.22078965100167">
        <ele>78.4</ele>
        <time>2023-03-02T12:21:37Z</time>
      </trkpt>
      <trkpt lat="36.69586990982659" lon="117.22075552847">
        <ele>78.4</ele>
        <time>2023-03-02T12:21:38Z</time>
      </trkpt>
      <trkpt lat="36.695870545029244" lon="117.22072185272528">
        <ele>78.4</ele>
        <time>2023-03-02T12:21:39Z</time>
      </trkpt>
      <trkpt lat="36.69587152208283" lon="117.22068821305972">
        <ele>78.4</ele>
        <time>2023-03-02T12:21:40Z</time>
      </trkpt>
      <trkpt lat="36.695872764985154" lon="117.22065472157233">
        <ele>78.4</ele>
        <time>2023-03-02T12:21:41Z</time>
      </trkpt>
      <trkpt lat="36.695874204988186" lon="117.22062141586538">
        <ele>78.4</ele>
        <time>2023-03-02T12:21:42Z</time>
      </trkpt>
      <trkpt lat="36.69587572776645" lon="117.22058882154516">
        <ele>78.4</ele>
        <time>2023-03-02T12:21:43Z</time>
      </trkpt>
      <trkpt lat="36.69587730692874" lon="117.22055685974786">
        <ele>78.4</ele>
        <time>2023-03-02T12:21:44Z</time>
      </trkpt>
      <trkpt lat="36.69587898525367" lon="117.22052508628695">
        <ele>78.4</ele>
        <time>2023-03-02T12:21:45Z</time>
      </trkpt>
      <trkpt lat="36.695880748318494" lon="117.2204939271662">
        <ele>78.4</ele>
        <time>2023-03-02T12:21:46Z</time>
      </trkpt>
      <trkpt lat="36.69588261014011" lon="117.22046288553041">
        <ele>78.4</ele>
        <time>2023-03-02T12:21:47Z</time>
      </trkpt>
      <trkpt lat="36.69588445293362" lon="117.22043198107602">
        <ele>78.4</ele>
        <time>2023-03-02T12:21:48Z</time>
      </trkpt>
      <trkpt lat="36.69588620548077" lon="117.22040121368737">
        <ele>78.4</ele>
        <time>2023-03-02T12:21:49Z</time>
      </trkpt>
      <trkpt lat="36.69588777120563" lon="117.22037055302094">
        <ele>78.4</ele>
        <time>2023-03-02T12:21:50Z</time>
      </trkpt>
      <trkpt lat="36.69588913870954" lon="117.22033999665501">
        <ele>78.4</ele>
        <time>2023-03-02T12:21:51Z</time>
      </trkpt>
      <trkpt lat="36.69589036746657" lon="117.22030954515797">
        <ele>78.4</ele>
        <time>2023-03-02T12:21:52Z</time>
      </trkpt>
      <trkpt lat="36.69589155109089" lon="117.22027919786717">
        <ele>78.4</ele>
        <time>2023-03-02T12:21:53Z</time>
      </trkpt>
      <trkpt lat="36.695892743854905" lon="117.22024892499645">
        <ele>78.4</ele>
        <time>2023-03-02T12:21:54Z</time>
      </trkpt>
      <trkpt lat="36.69589401598055" lon="117.22021872472054">
        <ele>78.4</ele>
        <time>2023-03-02T12:21:55Z</time>
      </trkpt>
      <trkpt lat="36.69589535681357" lon="117.22018859230273">
        <ele>78.4</ele>
        <time>2023-03-02T12:21:56Z</time>
      </trkpt>
      <trkpt lat="36.695896731472075" lon="117.22015853422536">
        <ele>78</ele>
        <time>2023-03-02T12:21:57Z</time>
      </trkpt>
      <trkpt lat="36.6958981013991" lon="117.22012850778744">
        <ele>78</ele>
        <time>2023-03-02T12:21:58Z</time>
      </trkpt>
      <trkpt lat="36.69589944254828" lon="117.22009891141774">
        <ele>78</ele>
        <time>2023-03-02T12:21:59Z</time>
      </trkpt>
      <trkpt lat="36.69590072698444" lon="117.22006960945372">
        <ele>78.6</ele>
        <time>2023-03-02T12:22:00Z</time>
      </trkpt>
      <trkpt lat="36.695901993193395" lon="117.22004009456477">
        <ele>78.6</ele>
        <time>2023-03-02T12:22:01Z</time>
      </trkpt>
      <trkpt lat="36.69590322062351" lon="117.22001083555348">
        <ele>78.6</ele>
        <time>2023-03-02T12:22:02Z</time>
      </trkpt>
      <trkpt lat="36.695904376716186" lon="117.21998176177107">
        <ele>78.6</ele>
        <time>2023-03-02T12:22:03Z</time>
      </trkpt>
      <trkpt lat="36.69590541529204" lon="117.21995322712809">
        <ele>78.6</ele>
        <time>2023-03-02T12:22:04Z</time>
      </trkpt>
      <trkpt lat="36.69590634625392" lon="117.21992470728465">
        <ele>78.6</ele>
        <time>2023-03-02T12:22:05Z</time>
      </trkpt>
      <trkpt lat="36.695907150327415" lon="117.21989624372178">
        <ele>78.6</ele>
        <time>2023-03-02T12:22:06Z</time>
      </trkpt>
      <trkpt lat="36.69590780418271" lon="117.21986784967827">
        <ele>79</ele>
        <time>2023-03-02T12:22:07Z</time>
      </trkpt>
      <trkpt lat="36.69590835523252" lon="117.21983956341207">
        <ele>79</ele>
        <time>2023-03-02T12:22:08Z</time>
      </trkpt>
      <trkpt lat="36.69590884184" lon="117.21981143261216">
        <ele>79</ele>
        <time>2023-03-02T12:22:09Z</time>
      </trkpt>
      <trkpt lat="36.69590925373984" lon="117.21978349927186">
        <ele>79</ele>
        <time>2023-03-02T12:22:10Z</time>
      </trkpt>
      <trkpt lat="36.695909653071396" lon="117.21975579555823">
        <ele>79</ele>
        <time>2023-03-02T12:22:11Z</time>
      </trkpt>
      <trkpt lat="36.69591008397116" lon="117.21972836884946">
        <ele>79</ele>
        <time>2023-03-02T12:22:12Z</time>
      </trkpt>
      <trkpt lat="36.695910609922166" lon="117.21970119347503">
        <ele>79</ele>
        <time>2023-03-02T12:22:13Z</time>
      </trkpt>
      <trkpt lat="36.69591126878742" lon="117.21967379737718">
        <ele>79</ele>
        <time>2023-03-02T12:22:14Z</time>
      </trkpt>
      <trkpt lat="36.6959121250763" lon="117.21964630677192">
        <ele>79</ele>
        <time>2023-03-02T12:22:15Z</time>
      </trkpt>
      <trkpt lat="36.695913147171744" lon="117.21961916362612">
        <ele>79</ele>
        <time>2023-03-02T12:22:16Z</time>
      </trkpt>
      <trkpt lat="36.69591434653623" lon="117.21959187031256">
        <ele>78.9</ele>
        <time>2023-03-02T12:22:17Z</time>
      </trkpt>
      <trkpt lat="36.69591574566012" lon="117.21956447874726">
        <ele>78.9</ele>
        <time>2023-03-02T12:22:18Z</time>
      </trkpt>
      <trkpt lat="36.69591731100955" lon="117.21953700072507">
        <ele>78.9</ele>
        <time>2023-03-02T12:22:19Z</time>
      </trkpt>
      <trkpt lat="36.695918971676825" lon="117.21950984958757">
        <ele>78.9</ele>
        <time>2023-03-02T12:22:20Z</time>
      </trkpt>
      <trkpt lat="36.69592074587183" lon="117.21948250573752">
        <ele>78.9</ele>
        <time>2023-03-02T12:22:21Z</time>
      </trkpt>
      <trkpt lat="36.695922535032004" lon="117.21945500253999">
        <ele>78.9</ele>
        <time>2023-03-02T12:22:22Z</time>
      </trkpt>
      <trkpt lat="36.6959242050093" lon="117.21942742882565">
        <ele>78.9</ele>
        <time>2023-03-02T12:22:23Z</time>
      </trkpt>
      <trkpt lat="36.69592557846857" lon="117.21939988663563">
        <ele>78.9</ele>
        <time>2023-03-02T12:22:24Z</time>
      </trkpt>
      <trkpt lat="36.69592666047767" lon="117.21937281972393">
        <ele>78.9</ele>
        <time>2023-03-02T12:22:25Z</time>
      </trkpt>
      <trkpt lat="36.69592777026231" lon="117.21934584272978">
        <ele>78.9</ele>
        <time>2023-03-02T12:22:26Z</time>
      </trkpt>
      <trkpt lat="36.69592887780253" lon="117.2193190576162">
        <ele>78.6</ele>
        <time>2023-03-02T12:22:27Z</time>
      </trkpt>
      <trkpt lat="36.69592990672156" lon="117.21929248395176">
        <ele>78.6</ele>
        <time>2023-03-02T12:22:28Z</time>
      </trkpt>
      <trkpt lat="36.69593084219614" lon="117.21926635575024">
        <ele>78.6</ele>
        <time>2023-03-02T12:22:29Z</time>
      </trkpt>
      <trkpt lat="36.695931643500174" lon="117.21924037198572">
        <ele>78.6</ele>
        <time>2023-03-02T12:22:30Z</time>
      </trkpt>
      <trkpt lat="36.69593236535635" lon="117.21921388671551">
        <ele>78.6</ele>
        <time>2023-03-02T12:22:31Z</time>
      </trkpt>
      <trkpt lat="36.69593315687584" lon="117.21918718858736">
        <ele>78.6</ele>
        <time>2023-03-02T12:22:32Z</time>
      </trkpt>
      <trkpt lat="36.69593431178369" lon="117.21916004402078">
        <ele>78.6</ele>
        <time>2023-03-02T12:22:33Z</time>
      </trkpt>
      <trkpt lat="36.69593607021816" lon="117.21913217980912">
        <ele>78.6</ele>
        <time>2023-03-02T12:22:34Z</time>
      </trkpt>
      <trkpt lat="36.69593854386906" lon="117.21910338438876">
        <ele>78.6</ele>
        <time>2023-03-02T12:22:35Z</time>
      </trkpt>
      <trkpt lat="36.6959414882879" lon="117.21907362046764">
        <ele>78.6</ele>
        <time>2023-03-02T12:22:36Z</time>
      </trkpt>
      <trkpt lat="36.69594446718209" lon="117.21904275381723">
        <ele>78.7</ele>
        <time>2023-03-02T12:22:37Z</time>
      </trkpt>
      <trkpt lat="36.69594723066327" lon="117.21901078697859">
        <ele>78.7</ele>
        <time>2023-03-02T12:22:38Z</time>
      </trkpt>
      <trkpt lat="36.695949614615756" lon="117.21897780280244">
        <ele>78.7</ele>
        <time>2023-03-02T12:22:39Z</time>
      </trkpt>
      <trkpt lat="36.69595151085055" lon="117.21894409246747">
        <ele>78.7</ele>
        <time>2023-03-02T12:22:40Z</time>
      </trkpt>
      <trkpt lat="36.69595315170209" lon="117.21890984314994">
        <ele>78.7</ele>
        <time>2023-03-02T12:22:41Z</time>
      </trkpt>
      <trkpt lat="36.695954458677264" lon="117.2188752701822">
        <ele>78.7</ele>
        <time>2023-03-02T12:22:42Z</time>
      </trkpt>
      <trkpt lat="36.69595532024304" lon="117.21884059486723">
        <ele>78.7</ele>
        <time>2023-03-02T12:22:43Z</time>
      </trkpt>
      <trkpt lat="36.695955543819494" lon="117.21880556666508">
        <ele>78.7</ele>
        <time>2023-03-02T12:22:44Z</time>
      </trkpt>
      <trkpt lat="36.69595503600571" lon="117.21877086816691">
        <ele>78.7</ele>
        <time>2023-03-02T12:22:45Z</time>
      </trkpt>
      <trkpt lat="36.695953904721925" lon="117.21873657828395">
        <ele>78.7</ele>
        <time>2023-03-02T12:22:46Z</time>
      </trkpt>
      <trkpt lat="36.6959524467889" lon="117.21870236579053">
        <ele>79.5</ele>
        <time>2023-03-02T12:22:47Z</time>
      </trkpt>
      <trkpt lat="36.69595086208572" lon="117.21866835097423">
        <ele>79.5</ele>
        <time>2023-03-02T12:22:48Z</time>
      </trkpt>
      <trkpt lat="36.69594952954689" lon="117.21863458571379">
        <ele>79.5</ele>
        <time>2023-03-02T12:22:49Z</time>
      </trkpt>
      <trkpt lat="36.695948704125" lon="117.21860155271366">
        <ele>79.5</ele>
        <time>2023-03-02T12:22:50Z</time>
      </trkpt>
      <trkpt lat="36.69594847658591" lon="117.21856918127796">
        <ele>79.5</ele>
        <time>2023-03-02T12:22:51Z</time>
      </trkpt>
      <trkpt lat="36.69594869083475" lon="117.21853739076418">
        <ele>79.5</ele>
        <time>2023-03-02T12:22:52Z</time>
      </trkpt>
      <trkpt lat="36.69594946826841" lon="117.21850608228978">
        <ele>79.5</ele>
        <time>2023-03-02T12:22:53Z</time>
      </trkpt>
      <trkpt lat="36.69595079043064" lon="117.21847515313459">
        <ele>79.5</ele>
        <time>2023-03-02T12:22:54Z</time>
      </trkpt>
      <trkpt lat="36.6959526159446" lon="117.21844496420665">
        <ele>79.5</ele>
        <time>2023-03-02T12:22:55Z</time>
      </trkpt>
      <trkpt lat="36.69595498013795" lon="117.2184149572013">
        <ele>79.5</ele>
        <time>2023-03-02T12:22:56Z</time>
      </trkpt>
      <trkpt lat="36.69595776667841" lon="117.2183851057211">
        <ele>79</ele>
        <time>2023-03-02T12:22:57Z</time>
      </trkpt>
      <trkpt lat="36.69596090022734" lon="117.21835536642955">
        <ele>79</ele>
        <time>2023-03-02T12:22:58Z</time>
      </trkpt>
      <trkpt lat="36.69596421316816" lon="117.21832606998538">
        <ele>79</ele>
        <time>2023-03-02T12:22:59Z</time>
      </trkpt>
      <trkpt lat="36.69596756434842" lon="117.21829704143843">
        <ele>79.1</ele>
        <time>2023-03-02T12:23:00Z</time>
      </trkpt>
      <trkpt lat="36.69597092682994" lon="117.21826772096357">
        <ele>79.1</ele>
        <time>2023-03-02T12:23:01Z</time>
      </trkpt>
      <trkpt lat="36.69597416746262" lon="117.21823803369061">
        <ele>79.1</ele>
        <time>2023-03-02T12:23:02Z</time>
      </trkpt>
      <trkpt lat="36.69597720586858" lon="117.21820808735521">
        <ele>79.1</ele>
        <time>2023-03-02T12:23:03Z</time>
      </trkpt>
      <trkpt lat="36.69597997822351" lon="117.21817834792526">
        <ele>79.1</ele>
        <time>2023-03-02T12:23:04Z</time>
      </trkpt>
      <trkpt lat="36.69598246202863" lon="117.21814843162855">
        <ele>79.1</ele>
        <time>2023-03-02T12:23:05Z</time>
      </trkpt>
      <trkpt lat="36.69598458741598" lon="117.21811845477662">
        <ele>79.1</ele>
        <time>2023-03-02T12:23:06Z</time>
      </trkpt>
      <trkpt lat="36.69598618216141" lon="117.2180884980841">
        <ele>79</ele>
        <time>2023-03-02T12:23:07Z</time>
      </trkpt>
      <trkpt lat="36.69598724134447" lon="117.21805862267134">
        <ele>79</ele>
        <time>2023-03-02T12:23:08Z</time>
      </trkpt>
      <trkpt lat="36.69598771494694" lon="117.2180292589305">
        <ele>79</ele>
        <time>2023-03-02T12:23:09Z</time>
      </trkpt>
      <trkpt lat="36.695987680875945" lon="117.21799994126259">
        <ele>79</ele>
        <time>2023-03-02T12:23:10Z</time>
      </trkpt>
      <trkpt lat="36.695987261005456" lon="117.217970713746">
        <ele>79</ele>
        <time>2023-03-02T12:23:11Z</time>
      </trkpt>
      <trkpt lat="36.695986462572286" lon="117.21794154434433">
        <ele>79</ele>
        <time>2023-03-02T12:23:12Z</time>
      </trkpt>
      <trkpt lat="36.695985447316154" lon="117.21791242461867">
        <ele>79</ele>
        <time>2023-03-02T12:23:13Z</time>
      </trkpt>
      <trkpt lat="36.69598426529607" lon="117.21788329207627">
        <ele>79</ele>
        <time>2023-03-02T12:23:14Z</time>
      </trkpt>
      <trkpt lat="36.69598282166874" lon="117.21785373423653">
        <ele>79</ele>
        <time>2023-03-02T12:23:15Z</time>
      </trkpt>
      <trkpt lat="36.69598117286009" lon="117.21782416861714">
        <ele>79</ele>
        <time>2023-03-02T12:23:16Z</time>
      </trkpt>
      <trkpt lat="36.69597947977147" lon="117.21779411369475">
        <ele>80.2</ele>
        <time>2023-03-02T12:23:17Z</time>
      </trkpt>
      <trkpt lat="36.69597794169658" lon="117.21776402118276">
        <ele>80.2</ele>
        <time>2023-03-02T12:23:18Z</time>
      </trkpt>
      <trkpt lat="36.69597659185725" lon="117.21773343877962">
        <ele>80.2</ele>
        <time>2023-03-02T12:23:19Z</time>
      </trkpt>
      <trkpt lat="36.69597584006012" lon="117.21770243585397">
        <ele>80.2</ele>
        <time>2023-03-02T12:23:20Z</time>
      </trkpt>
      <trkpt lat="36.69597571309287" lon="117.21767145317197">
        <ele>80.2</ele>
        <time>2023-03-02T12:23:21Z</time>
      </trkpt>
      <trkpt lat="36.69597619235684" lon="117.21764002737443">
        <ele>80.2</ele>
        <time>2023-03-02T12:23:22Z</time>
      </trkpt>
      <trkpt lat="36.695977186189126" lon="117.21760870280855">
        <ele>80.2</ele>
        <time>2023-03-02T12:23:23Z</time>
      </trkpt>
      <trkpt lat="36.695978548051826" lon="117.21757708638523">
        <ele>80.2</ele>
        <time>2023-03-02T12:23:24Z</time>
      </trkpt>
      <trkpt lat="36.695980193458176" lon="117.21754530647624">
        <ele>80.2</ele>
        <time>2023-03-02T12:23:25Z</time>
      </trkpt>
      <trkpt lat="36.69598214988691" lon="117.21751384750917">
        <ele>80.2</ele>
        <time>2023-03-02T12:23:26Z</time>
      </trkpt>
      <trkpt lat="36.69598443258087" lon="117.2174822995342">
        <ele>79.6</ele>
        <time>2023-03-02T12:23:27Z</time>
      </trkpt>
      <trkpt lat="36.69598693173273" lon="117.21745117225854">
        <ele>79.6</ele>
        <time>2023-03-02T12:23:28Z</time>
      </trkpt>
      <trkpt lat="36.69598955182063" lon="117.2174200244845">
        <ele>79.6</ele>
        <time>2023-03-02T12:23:29Z</time>
      </trkpt>
      <trkpt lat="36.69599216740052" lon="117.21738935458085">
        <ele>79.6</ele>
        <time>2023-03-02T12:23:30Z</time>
      </trkpt>
      <trkpt lat="36.69599441361313" lon="117.21735915361064">
        <ele>79.6</ele>
        <time>2023-03-02T12:23:31Z</time>
      </trkpt>
      <trkpt lat="36.695996127474785" lon="117.21732900722981">
        <ele>79.6</ele>
        <time>2023-03-02T12:23:32Z</time>
      </trkpt>
      <trkpt lat="36.69599731818231" lon="117.2172995354776">
        <ele>79.6</ele>
        <time>2023-03-02T12:23:33Z</time>
      </trkpt>
      <trkpt lat="36.69599815147155" lon="117.21727063862264">
        <ele>79.6</ele>
        <time>2023-03-02T12:23:34Z</time>
      </trkpt>
      <trkpt lat="36.69599879459915" lon="117.21724219412492">
        <ele>79.6</ele>
        <time>2023-03-02T12:23:35Z</time>
      </trkpt>
      <trkpt lat="36.69599933134737" lon="117.21721411894788">
        <ele>79.6</ele>
        <time>2023-03-02T12:23:36Z</time>
      </trkpt>
      <trkpt lat="36.6959998300013" lon="117.21718631020023">
        <ele>79.6</ele>
        <time>2023-03-02T12:23:37Z</time>
      </trkpt>
      <trkpt lat="36.69600029851327" lon="117.21715865126261">
        <ele>79.6</ele>
        <time>2023-03-02T12:23:38Z</time>
      </trkpt>
      <trkpt lat="36.69600072471704" lon="117.21713106550918">
        <ele>79.6</ele>
        <time>2023-03-02T12:23:39Z</time>
      </trkpt>
      <trkpt lat="36.69600113683765" lon="117.21710350713435">
        <ele>79.6</ele>
        <time>2023-03-02T12:23:40Z</time>
      </trkpt>
      <trkpt lat="36.69600165288005" lon="117.21707592808481">
        <ele>79.6</ele>
        <time>2023-03-02T12:23:41Z</time>
      </trkpt>
      <trkpt lat="36.69600227414008" lon="117.21704827820726">
        <ele>79.6</ele>
        <time>2023-03-02T12:23:42Z</time>
      </trkpt>
      <trkpt lat="36.696003129182394" lon="117.21702051904852">
        <ele>79.6</ele>
        <time>2023-03-02T12:23:43Z</time>
      </trkpt>
      <trkpt lat="36.696004129851644" lon="117.21699253061112">
        <ele>79.6</ele>
        <time>2023-03-02T12:23:44Z</time>
      </trkpt>
      <trkpt lat="36.696005174065796" lon="117.216964306225">
        <ele>79.6</ele>
        <time>2023-03-02T12:23:45Z</time>
      </trkpt>
      <trkpt lat="36.69600620188387" lon="117.21693592976467">
        <ele>79.6</ele>
        <time>2023-03-02T12:23:46Z</time>
      </trkpt>
      <trkpt lat="36.696007231454516" lon="117.21690707274489">
        <ele>79.5</ele>
        <time>2023-03-02T12:23:47Z</time>
      </trkpt>
      <trkpt lat="36.696008260051855" lon="117.2168779039582">
        <ele>79.5</ele>
        <time>2023-03-02T12:23:48Z</time>
      </trkpt>
      <trkpt lat="36.696009295174846" lon="117.21684897732825">
        <ele>79.5</ele>
        <time>2023-03-02T12:23:49Z</time>
      </trkpt>
      <trkpt lat="36.69601042670178" lon="117.21681987458884">
        <ele>79.5</ele>
        <time>2023-03-02T12:23:50Z</time>
      </trkpt>
      <trkpt lat="36.696011720016166" lon="117.21679110049953">
        <ele>79.5</ele>
        <time>2023-03-02T12:23:51Z</time>
      </trkpt>
      <trkpt lat="36.696013324125126" lon="117.21676224144781">
        <ele>79.5</ele>
        <time>2023-03-02T12:23:52Z</time>
      </trkpt>
      <trkpt lat="36.69601542135609" lon="117.21673342752027">
        <ele>79.5</ele>
        <time>2023-03-02T12:23:53Z</time>
      </trkpt>
      <trkpt lat="36.69601811763203" lon="117.21670519038456">
        <ele>79.5</ele>
        <time>2023-03-02T12:23:54Z</time>
      </trkpt>
      <trkpt lat="36.69602140948702" lon="117.21667744387415">
        <ele>79.5</ele>
        <time>2023-03-02T12:23:55Z</time>
      </trkpt>
      <trkpt lat="36.6960260056767" lon="117.21665034471083">
        <ele>79.5</ele>
        <time>2023-03-02T12:23:56Z</time>
      </trkpt>
      <trkpt lat="36.69603208170259" lon="117.21662468088982">
        <ele>79</ele>
        <time>2023-03-02T12:23:57Z</time>
      </trkpt>
      <trkpt lat="36.69603993226691" lon="117.21660078111731">
        <ele>79</ele>
        <time>2023-03-02T12:23:58Z</time>
      </trkpt>
      <trkpt lat="36.69604951614797" lon="117.21657872998728">
        <ele>79</ele>
        <time>2023-03-02T12:23:59Z</time>
      </trkpt>
      <trkpt lat="36.69606070219534" lon="117.21655840987187">
        <ele>79.7</ele>
        <time>2023-03-02T12:24:00Z</time>
      </trkpt>
      <trkpt lat="36.69607371563387" lon="117.21654009706319">
        <ele>79.7</ele>
        <time>2023-03-02T12:24:01Z</time>
      </trkpt>
      <trkpt lat="36.696088350428326" lon="117.2165235891702">
        <ele>79.7</ele>
        <time>2023-03-02T12:24:02Z</time>
      </trkpt>
      <trkpt lat="36.696104686844194" lon="117.21650907682894">
        <ele>79.7</ele>
        <time>2023-03-02T12:24:03Z</time>
      </trkpt>
      <trkpt lat="36.696122407955045" lon="117.21649635125856">
        <ele>79.7</ele>
        <time>2023-03-02T12:24:04Z</time>
      </trkpt>
      <trkpt lat="36.69614128750494" lon="117.21648529891023">
        <ele>79.7</ele>
        <time>2023-03-02T12:24:05Z</time>
      </trkpt>
      <trkpt lat="36.69616156779975" lon="117.21647574754383">
        <ele>79.7</ele>
        <time>2023-03-02T12:24:06Z</time>
      </trkpt>
      <trkpt lat="36.69618236658291" lon="117.21646753014272">
        <ele>78.5</ele>
        <time>2023-03-02T12:24:07Z</time>
      </trkpt>
      <trkpt lat="36.69620341131047" lon="117.21646022412605">
        <ele>78.5</ele>
        <time>2023-03-02T12:24:08Z</time>
      </trkpt>
      <trkpt lat="36.69622458298301" lon="117.21645377450622">
        <ele>78.5</ele>
        <time>2023-03-02T12:24:09Z</time>
      </trkpt>
      <trkpt lat="36.69624576895351" lon="117.2164480057568">
        <ele>78.5</ele>
        <time>2023-03-02T12:24:10Z</time>
      </trkpt>
      <trkpt lat="36.696266910038624" lon="117.2164429085315">
        <ele>78.5</ele>
        <time>2023-03-02T12:24:11Z</time>
      </trkpt>
      <trkpt lat="36.696287617635825" lon="117.21643852249495">
        <ele>78.5</ele>
        <time>2023-03-02T12:24:12Z</time>
      </trkpt>
      <trkpt lat="36.696307867320336" lon="117.21643485914787">
        <ele>78.5</ele>
        <time>2023-03-02T12:24:13Z</time>
      </trkpt>
      <trkpt lat="36.69632732583113" lon="117.2164319060986">
        <ele>78.5</ele>
        <time>2023-03-02T12:24:14Z</time>
      </trkpt>
      <trkpt lat="36.6963463302432" lon="117.21642940116432">
        <ele>78.5</ele>
        <time>2023-03-02T12:24:15Z</time>
      </trkpt>
      <trkpt lat="36.696364923077304" lon="117.21642710789419">
        <ele>78.5</ele>
        <time>2023-03-02T12:24:16Z</time>
      </trkpt>
      <trkpt lat="36.696382815074834" lon="117.21642502144245">
        <ele>77.4</ele>
        <time>2023-03-02T12:24:17Z</time>
      </trkpt>
      <trkpt lat="36.69640040453966" lon="117.21642268972245">
        <ele>77.4</ele>
        <time>2023-03-02T12:24:18Z</time>
      </trkpt>
      <trkpt lat="36.69641762290775" lon="117.2164197215756">
        <ele>77.4</ele>
        <time>2023-03-02T12:24:19Z</time>
      </trkpt>
      <trkpt lat="36.69643421274102" lon="117.21641597825196">
        <ele>77.4</ele>
        <time>2023-03-02T12:24:20Z</time>
      </trkpt>
      <trkpt lat="36.69645051899965" lon="117.21641111848227">
        <ele>77.4</ele>
        <time>2023-03-02T12:24:21Z</time>
      </trkpt>
      <trkpt lat="36.69646663493924" lon="117.21640523423599">
        <ele>77.4</ele>
        <time>2023-03-02T12:24:22Z</time>
      </trkpt>
      <trkpt lat="36.696482663623605" lon="117.2163986765191">
        <ele>77.4</ele>
        <time>2023-03-02T12:24:23Z</time>
      </trkpt>
      <trkpt lat="36.69649872630476" lon="117.21639197246645">
        <ele>77.4</ele>
        <time>2023-03-02T12:24:24Z</time>
      </trkpt>
      <trkpt lat="36.69651518835721" lon="117.21638550447139">
        <ele>77.4</ele>
        <time>2023-03-02T12:24:25Z</time>
      </trkpt>
      <trkpt lat="36.69653180411534" lon="117.2163795692933">
        <ele>77.4</ele>
        <time>2023-03-02T12:24:26Z</time>
      </trkpt>
      <trkpt lat="36.69654861728238" lon="117.2163742753469">
        <ele>77</ele>
        <time>2023-03-02T12:24:27Z</time>
      </trkpt>
      <trkpt lat="36.69656601579493" lon="117.21636966500527">
        <ele>77</ele>
        <time>2023-03-02T12:24:28Z</time>
      </trkpt>
      <trkpt lat="36.69658369371311" lon="117.2163659789454">
        <ele>77</ele>
        <time>2023-03-02T12:24:29Z</time>
      </trkpt>
      <trkpt lat="36.696601780371225" lon="117.21636345754621">
        <ele>77</ele>
        <time>2023-03-02T12:24:30Z</time>
      </trkpt>
      <trkpt lat="36.696620602213905" lon="117.21636216556149">
        <ele>77</ele>
        <time>2023-03-02T12:24:31Z</time>
      </trkpt>
      <trkpt lat="36.69663985663529" lon="117.21636219040766">
        <ele>77</ele>
        <time>2023-03-02T12:24:32Z</time>
      </trkpt>
      <trkpt lat="36.69665979967337" lon="117.2163633583485">
        <ele>77</ele>
        <time>2023-03-02T12:24:33Z</time>
      </trkpt>
      <trkpt lat="36.6966802855155" lon="117.21636527077533">
        <ele>77</ele>
        <time>2023-03-02T12:24:34Z</time>
      </trkpt>
      <trkpt lat="36.69670120880616" lon="117.21636737146441">
        <ele>77</ele>
        <time>2023-03-02T12:24:35Z</time>
      </trkpt>
      <trkpt lat="36.69672251973029" lon="117.21636940877919">
        <ele>77</ele>
        <time>2023-03-02T12:24:36Z</time>
      </trkpt>
      <trkpt lat="36.69674409848985" lon="117.2163713261154">
        <ele>76.5</ele>
        <time>2023-03-02T12:24:37Z</time>
      </trkpt>
      <trkpt lat="36.696766157903866" lon="117.21637323500667">
        <ele>76.5</ele>
        <time>2023-03-02T12:24:38Z</time>
      </trkpt>
      <trkpt lat="36.696788224494945" lon="117.21637515502171">
        <ele>76.5</ele>
        <time>2023-03-02T12:24:39Z</time>
      </trkpt>
      <trkpt lat="36.69681026042322" lon="117.21637717186853">
        <ele>76.5</ele>
        <time>2023-03-02T12:24:40Z</time>
      </trkpt>
      <trkpt lat="36.69683252066201" lon="117.21637934664184">
        <ele>76.5</ele>
        <time>2023-03-02T12:24:41Z</time>
      </trkpt>
      <trkpt lat="36.69685458759087" lon="117.21638161416355">
        <ele>76.5</ele>
        <time>2023-03-02T12:24:42Z</time>
      </trkpt>
      <trkpt lat="36.69687647395196" lon="117.21638397592372">
        <ele>76.5</ele>
        <time>2023-03-02T12:24:43Z</time>
      </trkpt>
      <trkpt lat="36.69689819893447" lon="117.21638641001257">
        <ele>76.5</ele>
        <time>2023-03-02T12:24:44Z</time>
      </trkpt>
      <trkpt lat="36.696919800476" lon="117.21638882885762">
        <ele>76.5</ele>
        <time>2023-03-02T12:24:45Z</time>
      </trkpt>
      <trkpt lat="36.69694164506764" lon="117.21639122906114">
        <ele>76.5</ele>
        <time>2023-03-02T12:24:46Z</time>
      </trkpt>
      <trkpt lat="36.69696340653966" lon="117.2163935211965">
        <ele>76.5</ele>
        <time>2023-03-02T12:24:47Z</time>
      </trkpt>
      <trkpt lat="36.69698544274048" lon="117.21639571929983">
        <ele>76.5</ele>
        <time>2023-03-02T12:24:48Z</time>
      </trkpt>
      <trkpt lat="36.697007393138044" lon="117.21639771120182">
        <ele>76.5</ele>
        <time>2023-03-02T12:24:49Z</time>
      </trkpt>
      <trkpt lat="36.69702930372818" lon="117.21639960898334">
        <ele>76.5</ele>
        <time>2023-03-02T12:24:50Z</time>
      </trkpt>
      <trkpt lat="36.6970515136368" lon="117.21640151894299">
        <ele>76.5</ele>
        <time>2023-03-02T12:24:51Z</time>
      </trkpt>
      <trkpt lat="36.69707366899292" lon="117.21640342284915">
        <ele>76.5</ele>
        <time>2023-03-02T12:24:52Z</time>
      </trkpt>
      <trkpt lat="36.6970960994549" lon="117.21640541519318">
        <ele>76.5</ele>
        <time>2023-03-02T12:24:53Z</time>
      </trkpt>
      <trkpt lat="36.69711873881664" lon="117.21640758355069">
        <ele>76.5</ele>
        <time>2023-03-02T12:24:54Z</time>
      </trkpt>
      <trkpt lat="36.697141204760776" lon="117.21640993138334">
        <ele>76.5</ele>
        <time>2023-03-02T12:24:55Z</time>
      </trkpt>
      <trkpt lat="36.69716383300649" lon="117.21641254205694">
        <ele>76.5</ele>
        <time>2023-03-02T12:24:56Z</time>
      </trkpt>
      <trkpt lat="36.6971861663422" lon="117.21641537535082">
        <ele>76</ele>
        <time>2023-03-02T12:24:57Z</time>
      </trkpt>
      <trkpt lat="36.69720834033213" lon="117.21641842637078">
        <ele>76</ele>
        <time>2023-03-02T12:24:58Z</time>
      </trkpt>
      <trkpt lat="36.697229946328065" lon="117.21642154190357">
        <ele>76</ele>
        <time>2023-03-02T12:24:59Z</time>
      </trkpt>
      <trkpt lat="36.69725273129309" lon="117.21642573664495">
        <ele>76</ele>
        <time>2023-03-02T12:25:00Z</time>
      </trkpt>
      <trkpt lat="36.69727541453809" lon="117.21642922404763">
        <ele>76</ele>
        <time>2023-03-02T12:25:01Z</time>
      </trkpt>
      <trkpt lat="36.697295862673435" lon="117.21643229126552">
        <ele>0</ele>
        <time>2023-03-02T12:25:02Z</time>
      </trkpt>
      <trkpt lat="36.69731645643843" lon="117.21643536667017">
        <ele>0</ele>
        <time>2023-03-02T12:25:03Z</time>
      </trkpt>
    </trkseg>
  </trk>
</gpx>