<?xml version="1.0" encoding="UTF-8"?>
<gpx xmlns="http://www.topografix.com/GPX/1/1" xmlns:gpxtpx="http://www.garmin.com/xmlschemas/TrackPointExtension/v1" xmlns:xsi="http://www.w3.org/2001/XMLSchema-instance" xsi:schemaLocation="http://www.topografix.com/GPX/1/1 http://www.topografix.com/GPX/1/1/gpx.xsd" version="1.1" creator="gpx.py -- https://github.com/tkrajina/gpxpy">
  <trk>
    <name>gpx from codoon</name>
    <type>Run</type>
    <trkseg>
      <trkpt lat="36.70060978126144" lon="117.20882473635507">
        <ele>77.5</ele>
        <time>2023-05-25T12:19:22Z</time>
      </trkpt>
      <trkpt lat="36.70062727816803" lon="117.20881039074818">
        <ele>77.8</ele>
        <time>2023-05-25T12:19:23Z</time>
      </trkpt>
      <trkpt lat="36.70065040543421" lon="117.20878936708952">
        <ele>77.8</ele>
        <time>2023-05-25T12:19:24Z</time>
      </trkpt>
      <trkpt lat="36.70068065618926" lon="117.20878230855529">
        <ele>77.8</ele>
        <time>2023-05-25T12:19:25Z</time>
      </trkpt>
      <trkpt lat="36.70071539904075" lon="117.20878077523652">
        <ele>77.8</ele>
        <time>2023-05-25T12:19:26Z</time>
      </trkpt>
      <trkpt lat="36.7007512755246" lon="117.2087717536015">
        <ele>77.8</ele>
        <time>2023-05-25T12:19:27Z</time>
      </trkpt>
      <trkpt lat="36.70078260532435" lon="117.20876325649739">
        <ele>77.8</ele>
        <time>2023-05-25T12:19:28Z</time>
      </trkpt>
      <trkpt lat="36.70081581145751" lon="117.20875585436487">
        <ele>77.8</ele>
        <time>2023-05-25T12:19:29Z</time>
      </trkpt>
      <trkpt lat="36.70085064315754" lon="117.20875012794646">
        <ele>77.8</ele>
        <time>2023-05-25T12:19:30Z</time>
      </trkpt>
      <trkpt lat="36.70088634761461" lon="117.20874515557067">
        <ele>77.8</ele>
        <time>2023-05-25T12:19:31Z</time>
      </trkpt>
      <trkpt lat="36.70092266301943" lon="117.20873958845984">
        <ele>77.8</ele>
        <time>2023-05-25T12:19:32Z</time>
      </trkpt>
      <trkpt lat="36.70095973800098" lon="117.20873453275664">
        <ele>77.3</ele>
        <time>2023-05-25T12:19:33Z</time>
      </trkpt>
      <trkpt lat="36.70099743349435" lon="117.20872943192876">
        <ele>77.3</ele>
        <time>2023-05-25T12:19:34Z</time>
      </trkpt>
      <trkpt lat="36.70103578213666" lon="117.20872483210765">
        <ele>77.3</ele>
        <time>2023-05-25T12:19:35Z</time>
      </trkpt>
      <trkpt lat="36.70107491631484" lon="117.20872085931248">
        <ele>77.3</ele>
        <time>2023-05-25T12:19:36Z</time>
      </trkpt>
      <trkpt lat="36.70111428960134" lon="117.20871773293273">
        <ele>77.3</ele>
        <time>2023-05-25T12:19:37Z</time>
      </trkpt>
      <trkpt lat="36.70115409264655" lon="117.20871509110097">
        <ele>77.3</ele>
        <time>2023-05-25T12:19:38Z</time>
      </trkpt>
      <trkpt lat="36.70119377463062" lon="117.20871250820407">
        <ele>77.3</ele>
        <time>2023-05-25T12:19:39Z</time>
      </trkpt>
      <trkpt lat="36.701233550788515" lon="117.20871004183212">
        <ele>77.3</ele>
        <time>2023-05-25T12:19:40Z</time>
      </trkpt>
      <trkpt lat="36.701272969087654" lon="117.20870754804619">
        <ele>77.3</ele>
        <time>2023-05-25T12:19:41Z</time>
      </trkpt>
      <trkpt lat="36.70131199018129" lon="117.20870469397083">
        <ele>77.3</ele>
        <time>2023-05-25T12:19:42Z</time>
      </trkpt>
      <trkpt lat="36.701350342044684" lon="117.20870233417476">
        <ele>76.6</ele>
        <time>2023-05-25T12:19:43Z</time>
      </trkpt>
      <trkpt lat="36.701388416438036" lon="117.20870010657696">
        <ele>76.6</ele>
        <time>2023-05-25T12:19:44Z</time>
      </trkpt>
      <trkpt lat="36.70142601928418" lon="117.2086989307397">
        <ele>76.6</ele>
        <time>2023-05-25T12:19:45Z</time>
      </trkpt>
      <trkpt lat="36.70146359143259" lon="117.20869887791838">
        <ele>76.6</ele>
        <time>2023-05-25T12:19:46Z</time>
      </trkpt>
      <trkpt lat="36.701500716992854" lon="117.20869894986994">
        <ele>76.6</ele>
        <time>2023-05-25T12:19:47Z</time>
      </trkpt>
      <trkpt lat="36.70153781918253" lon="117.20869919872608">
        <ele>76.6</ele>
        <time>2023-05-25T12:19:48Z</time>
      </trkpt>
      <trkpt lat="36.70157454142702" lon="117.20869971885514">
        <ele>76.6</ele>
        <time>2023-05-25T12:19:49Z</time>
      </trkpt>
      <trkpt lat="36.70161121438794" lon="117.20870068611976">
        <ele>76.6</ele>
        <time>2023-05-25T12:19:50Z</time>
      </trkpt>
      <trkpt lat="36.70164745974665" lon="117.20870230152386">
        <ele>76.6</ele>
        <time>2023-05-25T12:19:51Z</time>
      </trkpt>
      <trkpt lat="36.701683274047866" lon="117.2087049533637">
        <ele>76.6</ele>
        <time>2023-05-25T12:19:52Z</time>
      </trkpt>
      <trkpt lat="36.701718872281255" lon="117.20870897851859">
        <ele>75.6</ele>
        <time>2023-05-25T12:19:53Z</time>
      </trkpt>
      <trkpt lat="36.701754061503024" lon="117.2087147690379">
        <ele>75.6</ele>
        <time>2023-05-25T12:19:54Z</time>
      </trkpt>
      <trkpt lat="36.70178826422558" lon="117.20872266827794">
        <ele>75.6</ele>
        <time>2023-05-25T12:19:55Z</time>
      </trkpt>
      <trkpt lat="36.701821400101004" lon="117.20873295734623">
        <ele>75.6</ele>
        <time>2023-05-25T12:19:56Z</time>
      </trkpt>
      <trkpt lat="36.7018527745119" lon="117.20874592396707">
        <ele>75.6</ele>
        <time>2023-05-25T12:19:57Z</time>
      </trkpt>
      <trkpt lat="36.70188215155223" lon="117.2087617827425">
        <ele>75.6</ele>
        <time>2023-05-25T12:19:58Z</time>
      </trkpt>
      <trkpt lat="36.701909010986874" lon="117.20878044280148">
        <ele>75.6</ele>
        <time>2023-05-25T12:19:59Z</time>
      </trkpt>
      <trkpt lat="36.70193344543146" lon="117.20880242534255">
        <ele>75.6</ele>
        <time>2023-05-25T12:20:00Z</time>
      </trkpt>
      <trkpt lat="36.70195518710279" lon="117.20882770535327">
        <ele>75.6</ele>
        <time>2023-05-25T12:20:01Z</time>
      </trkpt>
      <trkpt lat="36.70197443962801" lon="117.20885605198308">
        <ele>75.6</ele>
        <time>2023-05-25T12:20:02Z</time>
      </trkpt>
      <trkpt lat="36.701991370014206" lon="117.20888710808745">
        <ele>74</ele>
        <time>2023-05-25T12:20:03Z</time>
      </trkpt>
      <trkpt lat="36.70200598244012" lon="117.20892054772308">
        <ele>74</ele>
        <time>2023-05-25T12:20:04Z</time>
      </trkpt>
      <trkpt lat="36.702018636898835" lon="117.20895595876463">
        <ele>74</ele>
        <time>2023-05-25T12:20:05Z</time>
      </trkpt>
      <trkpt lat="36.70202982455549" lon="117.20899322423816">
        <ele>74</ele>
        <time>2023-05-25T12:20:06Z</time>
      </trkpt>
      <trkpt lat="36.70203975316398" lon="117.20903149713527">
        <ele>74</ele>
        <time>2023-05-25T12:20:07Z</time>
      </trkpt>
      <trkpt lat="36.70204886961767" lon="117.20907036539649">
        <ele>74</ele>
        <time>2023-05-25T12:20:08Z</time>
      </trkpt>
      <trkpt lat="36.702057534553816" lon="117.20910991729632">
        <ele>74</ele>
        <time>2023-05-25T12:20:09Z</time>
      </trkpt>
      <trkpt lat="36.702065964612274" lon="117.20915003961538">
        <ele>74</ele>
        <time>2023-05-25T12:20:10Z</time>
      </trkpt>
      <trkpt lat="36.702074232810865" lon="117.20919047033901">
        <ele>74</ele>
        <time>2023-05-25T12:20:11Z</time>
      </trkpt>
      <trkpt lat="36.70208225850479" lon="117.20923102696104">
        <ele>74</ele>
        <time>2023-05-25T12:20:12Z</time>
      </trkpt>
      <trkpt lat="36.70208997692171" lon="117.20927158571592">
        <ele>70.9</ele>
        <time>2023-05-25T12:20:13Z</time>
      </trkpt>
      <trkpt lat="36.70209732028787" lon="117.20931203035573">
        <ele>70.9</ele>
        <time>2023-05-25T12:20:14Z</time>
      </trkpt>
      <trkpt lat="36.7021041453333" lon="117.20935269477319">
        <ele>70.9</ele>
        <time>2023-05-25T12:20:15Z</time>
      </trkpt>
      <trkpt lat="36.702110298251704" lon="117.20939345625837">
        <ele>70.9</ele>
        <time>2023-05-25T12:20:16Z</time>
      </trkpt>
      <trkpt lat="36.70211559532659" lon="117.20943379470368">
        <ele>70.9</ele>
        <time>2023-05-25T12:20:17Z</time>
      </trkpt>
      <trkpt lat="36.70211995257616" lon="117.20947431767527">
        <ele>70.9</ele>
        <time>2023-05-25T12:20:18Z</time>
      </trkpt>
      <trkpt lat="36.70212337645956" lon="117.20951538344976">
        <ele>70.9</ele>
        <time>2023-05-25T12:20:19Z</time>
      </trkpt>
      <trkpt lat="36.702125953022914" lon="117.20955645615474">
        <ele>70.9</ele>
        <time>2023-05-25T12:20:20Z</time>
      </trkpt>
      <trkpt lat="36.70212779510685" lon="117.20959739193725">
        <ele>70.9</ele>
        <time>2023-05-25T12:20:21Z</time>
      </trkpt>
      <trkpt lat="36.702128923725866" lon="117.20963821130952">
        <ele>70.9</ele>
        <time>2023-05-25T12:20:22Z</time>
      </trkpt>
      <trkpt lat="36.70212969112329" lon="117.20967894243647">
        <ele>69.9</ele>
        <time>2023-05-25T12:20:23Z</time>
      </trkpt>
      <trkpt lat="36.70213034127953" lon="117.20971959913638">
        <ele>69.9</ele>
        <time>2023-05-25T12:20:24Z</time>
      </trkpt>
      <trkpt lat="36.70213086375109" lon="117.20976073600133">
        <ele>69.9</ele>
        <time>2023-05-25T12:20:25Z</time>
      </trkpt>
      <trkpt lat="36.70213132666923" lon="117.20980182572667">
        <ele>69.9</ele>
        <time>2023-05-25T12:20:26Z</time>
      </trkpt>
      <trkpt lat="36.70213195445481" lon="117.2098428711821">
        <ele>69.9</ele>
        <time>2023-05-25T12:20:27Z</time>
      </trkpt>
      <trkpt lat="36.702132639263084" lon="117.20988432947733">
        <ele>69.9</ele>
        <time>2023-05-25T12:20:28Z</time>
      </trkpt>
      <trkpt lat="36.702133628924585" lon="117.20992559627032">
        <ele>69.9</ele>
        <time>2023-05-25T12:20:29Z</time>
      </trkpt>
      <trkpt lat="36.7021352571334" lon="117.20996662708424">
        <ele>69.9</ele>
        <time>2023-05-25T12:20:30Z</time>
      </trkpt>
      <trkpt lat="36.70213742394414" lon="117.2100074225999">
        <ele>69.9</ele>
        <time>2023-05-25T12:20:31Z</time>
      </trkpt>
      <trkpt lat="36.70214014722986" lon="117.21004830602483">
        <ele>69.9</ele>
        <time>2023-05-25T12:20:32Z</time>
      </trkpt>
      <trkpt lat="36.70214339819028" lon="117.21008883385318">
        <ele>67.6</ele>
        <time>2023-05-25T12:20:33Z</time>
      </trkpt>
      <trkpt lat="36.702147241862825" lon="117.2101289436245">
        <ele>67.6</ele>
        <time>2023-05-25T12:20:34Z</time>
      </trkpt>
      <trkpt lat="36.70215128147755" lon="117.21016869342573">
        <ele>67.6</ele>
        <time>2023-05-25T12:20:35Z</time>
      </trkpt>
      <trkpt lat="36.70215537827422" lon="117.21020810865699">
        <ele>67.6</ele>
        <time>2023-05-25T12:20:36Z</time>
      </trkpt>
      <trkpt lat="36.70215782208376" lon="117.210246593797">
        <ele>67.6</ele>
        <time>2023-05-25T12:20:37Z</time>
      </trkpt>
      <trkpt lat="36.70215779478559" lon="117.21028312643779">
        <ele>67.6</ele>
        <time>2023-05-25T12:20:38Z</time>
      </trkpt>
      <trkpt lat="36.702157443906295" lon="117.21031923277702">
        <ele>67.6</ele>
        <time>2023-05-25T12:20:39Z</time>
      </trkpt>
      <trkpt lat="36.70215682339938" lon="117.21035497995064">
        <ele>67.6</ele>
        <time>2023-05-25T12:20:40Z</time>
      </trkpt>
      <trkpt lat="36.70215587795442" lon="117.21038997670418">
        <ele>67.6</ele>
        <time>2023-05-25T12:20:41Z</time>
      </trkpt>
      <trkpt lat="36.70215590857951" lon="117.21042408586071">
        <ele>67.6</ele>
        <time>2023-05-25T12:20:42Z</time>
      </trkpt>
      <trkpt lat="36.70215687135055" lon="117.21045718393532">
        <ele>66.2</ele>
        <time>2023-05-25T12:20:43Z</time>
      </trkpt>
      <trkpt lat="36.70215857020296" lon="117.21048954519543">
        <ele>66.2</ele>
        <time>2023-05-25T12:20:44Z</time>
      </trkpt>
      <trkpt lat="36.70216075058227" lon="117.21052136984915">
        <ele>66.2</ele>
        <time>2023-05-25T12:20:45Z</time>
      </trkpt>
      <trkpt lat="36.70216317321124" lon="117.21055343812917">
        <ele>66.2</ele>
        <time>2023-05-25T12:20:46Z</time>
      </trkpt>
      <trkpt lat="36.70216700337202" lon="117.21058455310414">
        <ele>66.2</ele>
        <time>2023-05-25T12:20:47Z</time>
      </trkpt>
      <trkpt lat="36.70217315129186" lon="117.21061607326175">
        <ele>66.2</ele>
        <time>2023-05-25T12:20:48Z</time>
      </trkpt>
      <trkpt lat="36.70218127279692" lon="117.2106494104312">
        <ele>66.2</ele>
        <time>2023-05-25T12:20:49Z</time>
      </trkpt>
      <trkpt lat="36.70218949824492" lon="117.21068262704094">
        <ele>66.2</ele>
        <time>2023-05-25T12:20:50Z</time>
      </trkpt>
      <trkpt lat="36.702197765068675" lon="117.21071620138333">
        <ele>66.2</ele>
        <time>2023-05-25T12:20:51Z</time>
      </trkpt>
      <trkpt lat="36.70220598680101" lon="117.21075018207088">
        <ele>66.2</ele>
        <time>2023-05-25T12:20:52Z</time>
      </trkpt>
      <trkpt lat="36.70221293279722" lon="117.21078487201049">
        <ele>64.6</ele>
        <time>2023-05-25T12:20:53Z</time>
      </trkpt>
      <trkpt lat="36.702218561216654" lon="117.21082028565951">
        <ele>64.6</ele>
        <time>2023-05-25T12:20:54Z</time>
      </trkpt>
      <trkpt lat="36.702223036966785" lon="117.21085634960093">
        <ele>64.6</ele>
        <time>2023-05-25T12:20:55Z</time>
      </trkpt>
      <trkpt lat="36.702226217013134" lon="117.21089336890057">
        <ele>64.6</ele>
        <time>2023-05-25T12:20:56Z</time>
      </trkpt>
      <trkpt lat="36.702228472383005" lon="117.21093052556483">
        <ele>64.6</ele>
        <time>2023-05-25T12:20:57Z</time>
      </trkpt>
      <trkpt lat="36.702228712915655" lon="117.21096858051115">
        <ele>64.6</ele>
        <time>2023-05-25T12:20:58Z</time>
      </trkpt>
      <trkpt lat="36.702227556278714" lon="117.21100728122843">
        <ele>64.6</ele>
        <time>2023-05-25T12:20:59Z</time>
      </trkpt>
      <trkpt lat="36.70222589031554" lon="117.2110461969426">
        <ele>64.6</ele>
        <time>2023-05-25T12:21:00Z</time>
      </trkpt>
      <trkpt lat="36.70222346405197" lon="117.2110857051623">
        <ele>64.6</ele>
        <time>2023-05-25T12:21:01Z</time>
      </trkpt>
      <trkpt lat="36.7022199885611" lon="117.21112522040802">
        <ele>64.6</ele>
        <time>2023-05-25T12:21:02Z</time>
      </trkpt>
      <trkpt lat="36.702215354933045" lon="117.21116471687502">
        <ele>64.1</ele>
        <time>2023-05-25T12:21:03Z</time>
      </trkpt>
      <trkpt lat="36.70220971202826" lon="117.21120418683704">
        <ele>64.1</ele>
        <time>2023-05-25T12:21:04Z</time>
      </trkpt>
      <trkpt lat="36.702203334317225" lon="117.21124367303739">
        <ele>64.1</ele>
        <time>2023-05-25T12:21:05Z</time>
      </trkpt>
      <trkpt lat="36.70219623669919" lon="117.21128345495381">
        <ele>64.1</ele>
        <time>2023-05-25T12:21:06Z</time>
      </trkpt>
      <trkpt lat="36.70218883117362" lon="117.21132312168939">
        <ele>64.1</ele>
        <time>2023-05-25T12:21:07Z</time>
      </trkpt>
      <trkpt lat="36.702181385209265" lon="117.21136269657534">
        <ele>64.1</ele>
        <time>2023-05-25T12:21:08Z</time>
      </trkpt>
      <trkpt lat="36.702174203418615" lon="117.21140261366155">
        <ele>64.1</ele>
        <time>2023-05-25T12:21:09Z</time>
      </trkpt>
      <trkpt lat="36.702167655205365" lon="117.21144238894357">
        <ele>64.1</ele>
        <time>2023-05-25T12:21:10Z</time>
      </trkpt>
      <trkpt lat="36.7021620618122" lon="117.21148210028662">
        <ele>64.1</ele>
        <time>2023-05-25T12:21:11Z</time>
      </trkpt>
      <trkpt lat="36.70215756181869" lon="117.21152184677673">
        <ele>64.1</ele>
        <time>2023-05-25T12:21:12Z</time>
      </trkpt>
      <trkpt lat="36.70215418515741" lon="117.21156174736007">
        <ele>62</ele>
        <time>2023-05-25T12:21:13Z</time>
      </trkpt>
      <trkpt lat="36.70215154071942" lon="117.2116022067543">
        <ele>62</ele>
        <time>2023-05-25T12:21:14Z</time>
      </trkpt>
      <trkpt lat="36.70214932886625" lon="117.21164308603804">
        <ele>62</ele>
        <time>2023-05-25T12:21:15Z</time>
      </trkpt>
      <trkpt lat="36.70214728208948" lon="117.21168427201039">
        <ele>62</ele>
        <time>2023-05-25T12:21:16Z</time>
      </trkpt>
      <trkpt lat="36.70214543785029" lon="117.21172575299302">
        <ele>62</ele>
        <time>2023-05-25T12:21:17Z</time>
      </trkpt>
      <trkpt lat="36.702143646630056" lon="117.21176789425657">
        <ele>62</ele>
        <time>2023-05-25T12:21:18Z</time>
      </trkpt>
      <trkpt lat="36.70214202977846" lon="117.21181058898998">
        <ele>62</ele>
        <time>2023-05-25T12:21:19Z</time>
      </trkpt>
      <trkpt lat="36.70214056150881" lon="117.21185335449886">
        <ele>62</ele>
        <time>2023-05-25T12:21:20Z</time>
      </trkpt>
      <trkpt lat="36.70213907785413" lon="117.21189662063469">
        <ele>62</ele>
        <time>2023-05-25T12:21:21Z</time>
      </trkpt>
      <trkpt lat="36.702137366083896" lon="117.2119402921116">
        <ele>62</ele>
        <time>2023-05-25T12:21:22Z</time>
      </trkpt>
      <trkpt lat="36.70213538849269" lon="117.21198385119084">
        <ele>61</ele>
        <time>2023-05-25T12:21:23Z</time>
      </trkpt>
      <trkpt lat="36.70213313675152" lon="117.21202770656704">
        <ele>61</ele>
        <time>2023-05-25T12:21:24Z</time>
      </trkpt>
      <trkpt lat="36.70213089950785" lon="117.21207140411343">
        <ele>61</ele>
        <time>2023-05-25T12:21:25Z</time>
      </trkpt>
      <trkpt lat="36.70212885194709" lon="117.21211543772263">
        <ele>61</ele>
        <time>2023-05-25T12:21:26Z</time>
      </trkpt>
      <trkpt lat="36.70212719517893" lon="117.21215977168434">
        <ele>61</ele>
        <time>2023-05-25T12:21:27Z</time>
      </trkpt>
      <trkpt lat="36.70212601276289" lon="117.21220400138473">
        <ele>61</ele>
        <time>2023-05-25T12:21:28Z</time>
      </trkpt>
      <trkpt lat="36.70212525001582" lon="117.21224809241939">
        <ele>61</ele>
        <time>2023-05-25T12:21:29Z</time>
      </trkpt>
      <trkpt lat="36.70212471928143" lon="117.21229221981851">
        <ele>61</ele>
        <time>2023-05-25T12:21:30Z</time>
      </trkpt>
      <trkpt lat="36.702124371190806" lon="117.21233645247156">
        <ele>61</ele>
        <time>2023-05-25T12:21:31Z</time>
      </trkpt>
      <trkpt lat="36.702124217325355" lon="117.21238080013728">
        <ele>61</ele>
        <time>2023-05-25T12:21:32Z</time>
      </trkpt>
      <trkpt lat="36.702124094436726" lon="117.21242554943532">
        <ele>59.9</ele>
        <time>2023-05-25T12:21:33Z</time>
      </trkpt>
      <trkpt lat="36.70212389108637" lon="117.21247053655982">
        <ele>59.9</ele>
        <time>2023-05-25T12:21:34Z</time>
      </trkpt>
      <trkpt lat="36.70212367629301" lon="117.21251520943775">
        <ele>59.9</ele>
        <time>2023-05-25T12:21:35Z</time>
      </trkpt>
      <trkpt lat="36.70212359473797" lon="117.21255998017422">
        <ele>59.9</ele>
        <time>2023-05-25T12:21:36Z</time>
      </trkpt>
      <trkpt lat="36.70212360953847" lon="117.21260428822467">
        <ele>59.9</ele>
        <time>2023-05-25T12:21:37Z</time>
      </trkpt>
      <trkpt lat="36.7021235953946" lon="117.21264813556398">
        <ele>59.9</ele>
        <time>2023-05-25T12:21:38Z</time>
      </trkpt>
      <trkpt lat="36.70212365788477" lon="117.21269190337121">
        <ele>59.9</ele>
        <time>2023-05-25T12:21:39Z</time>
      </trkpt>
      <trkpt lat="36.702123628134544" lon="117.21273519362988">
        <ele>59.9</ele>
        <time>2023-05-25T12:21:40Z</time>
      </trkpt>
      <trkpt lat="36.70212359662651" lon="117.21277785983132">
        <ele>59.9</ele>
        <time>2023-05-25T12:21:41Z</time>
      </trkpt>
      <trkpt lat="36.70212333865143" lon="117.21282020314895">
        <ele>59.9</ele>
        <time>2023-05-25T12:21:42Z</time>
      </trkpt>
      <trkpt lat="36.70212290627408" lon="117.21286171398269">
        <ele>58.3</ele>
        <time>2023-05-25T12:21:43Z</time>
      </trkpt>
      <trkpt lat="36.70212280364491" lon="117.21290251409813">
        <ele>58.3</ele>
        <time>2023-05-25T12:21:44Z</time>
      </trkpt>
      <trkpt lat="36.702123293930576" lon="117.21294270868849">
        <ele>58.3</ele>
        <time>2023-05-25T12:21:45Z</time>
      </trkpt>
      <trkpt lat="36.70212422276632" lon="117.21298246003322">
        <ele>58.3</ele>
        <time>2023-05-25T12:21:46Z</time>
      </trkpt>
      <trkpt lat="36.70212550606015" lon="117.21302181616875">
        <ele>58.3</ele>
        <time>2023-05-25T12:21:47Z</time>
      </trkpt>
      <trkpt lat="36.70212718174615" lon="117.21306094687354">
        <ele>58.3</ele>
        <time>2023-05-25T12:21:48Z</time>
      </trkpt>
      <trkpt lat="36.70212915661822" lon="117.21310029836997">
        <ele>58.3</ele>
        <time>2023-05-25T12:21:49Z</time>
      </trkpt>
      <trkpt lat="36.70213106227138" lon="117.21313943692236">
        <ele>58.3</ele>
        <time>2023-05-25T12:21:50Z</time>
      </trkpt>
      <trkpt lat="36.70213290511761" lon="117.21317880476167">
        <ele>58.3</ele>
        <time>2023-05-25T12:21:51Z</time>
      </trkpt>
      <trkpt lat="36.7021343054315" lon="117.21321836204942">
        <ele>58.3</ele>
        <time>2023-05-25T12:21:52Z</time>
      </trkpt>
      <trkpt lat="36.70213526446698" lon="117.21325774805689">
        <ele>58.6</ele>
        <time>2023-05-25T12:21:53Z</time>
      </trkpt>
      <trkpt lat="36.70213566810381" lon="117.21329748214546">
        <ele>58.6</ele>
        <time>2023-05-25T12:21:54Z</time>
      </trkpt>
      <trkpt lat="36.70213537431273" lon="117.21333721445126">
        <ele>58.6</ele>
        <time>2023-05-25T12:21:55Z</time>
      </trkpt>
      <trkpt lat="36.70213436947642" lon="117.21337707903976">
        <ele>58.6</ele>
        <time>2023-05-25T12:21:56Z</time>
      </trkpt>
      <trkpt lat="36.70213304046588" lon="117.2134169696846">
        <ele>58.6</ele>
        <time>2023-05-25T12:21:57Z</time>
      </trkpt>
      <trkpt lat="36.70213161562096" lon="117.21345658683828">
        <ele>58.6</ele>
        <time>2023-05-25T12:21:58Z</time>
      </trkpt>
      <trkpt lat="36.70213017524896" lon="117.21349642509409">
        <ele>58.6</ele>
        <time>2023-05-25T12:21:59Z</time>
      </trkpt>
      <trkpt lat="36.70212881584294" lon="117.21353610472411">
        <ele>58.6</ele>
        <time>2023-05-25T12:22:00Z</time>
      </trkpt>
      <trkpt lat="36.702127768363454" lon="117.21357610305122">
        <ele>58.6</ele>
        <time>2023-05-25T12:22:01Z</time>
      </trkpt>
      <trkpt lat="36.702127209789786" lon="117.21361600341194">
        <ele>58.6</ele>
        <time>2023-05-25T12:22:02Z</time>
      </trkpt>
      <trkpt lat="36.702127343870536" lon="117.21365592029457">
        <ele>58.4</ele>
        <time>2023-05-25T12:22:03Z</time>
      </trkpt>
      <trkpt lat="36.70212838989416" lon="117.21369593327843">
        <ele>58.4</ele>
        <time>2023-05-25T12:22:04Z</time>
      </trkpt>
      <trkpt lat="36.702130409974686" lon="117.21373601061998">
        <ele>58.4</ele>
        <time>2023-05-25T12:22:05Z</time>
      </trkpt>
      <trkpt lat="36.702133352961646" lon="117.21377621023271">
        <ele>58.4</ele>
        <time>2023-05-25T12:22:06Z</time>
      </trkpt>
      <trkpt lat="36.70213701692982" lon="117.21381651784075">
        <ele>58.4</ele>
        <time>2023-05-25T12:22:07Z</time>
      </trkpt>
      <trkpt lat="36.702141105196425" lon="117.21385743851577">
        <ele>58.4</ele>
        <time>2023-05-25T12:22:08Z</time>
      </trkpt>
      <trkpt lat="36.70214512667316" lon="117.21389876175408">
        <ele>58.4</ele>
        <time>2023-05-25T12:22:09Z</time>
      </trkpt>
      <trkpt lat="36.70214881865462" lon="117.21394029639195">
        <ele>58.4</ele>
        <time>2023-05-25T12:22:10Z</time>
      </trkpt>
      <trkpt lat="36.70215221419277" lon="117.2139818832798">
        <ele>58.4</ele>
        <time>2023-05-25T12:22:11Z</time>
      </trkpt>
      <trkpt lat="36.70215527901087" lon="117.21402321588148">
        <ele>58.4</ele>
        <time>2023-05-25T12:22:12Z</time>
      </trkpt>
      <trkpt lat="36.70215799635949" lon="117.21406451619393">
        <ele>58.5</ele>
        <time>2023-05-25T12:22:13Z</time>
      </trkpt>
      <trkpt lat="36.702160371944615" lon="117.21410593372497">
        <ele>58.5</ele>
        <time>2023-05-25T12:22:14Z</time>
      </trkpt>
      <trkpt lat="36.70216248244127" lon="117.21414715487121">
        <ele>58.5</ele>
        <time>2023-05-25T12:22:15Z</time>
      </trkpt>
      <trkpt lat="36.70216422407525" lon="117.2141882669567">
        <ele>58.5</ele>
        <time>2023-05-25T12:22:16Z</time>
      </trkpt>
      <trkpt lat="36.702165401979016" lon="117.21422924566632">
        <ele>58.5</ele>
        <time>2023-05-25T12:22:17Z</time>
      </trkpt>
      <trkpt lat="36.70216607708722" lon="117.21427009621563">
        <ele>58.5</ele>
        <time>2023-05-25T12:22:18Z</time>
      </trkpt>
      <trkpt lat="36.70216631057045" lon="117.21431079951354">
        <ele>58.5</ele>
        <time>2023-05-25T12:22:19Z</time>
      </trkpt>
      <trkpt lat="36.70216633806982" lon="117.21435145173432">
        <ele>58.5</ele>
        <time>2023-05-25T12:22:20Z</time>
      </trkpt>
      <trkpt lat="36.702166282357986" lon="117.21439214315885">
        <ele>58.5</ele>
        <time>2023-05-25T12:22:21Z</time>
      </trkpt>
      <trkpt lat="36.702166113778844" lon="117.21443297539875">
        <ele>58.5</ele>
        <time>2023-05-25T12:22:22Z</time>
      </trkpt>
      <trkpt lat="36.70216584238858" lon="117.21447377187313">
        <ele>57.5</ele>
        <time>2023-05-25T12:22:23Z</time>
      </trkpt>
      <trkpt lat="36.70216549616946" lon="117.21451490506972">
        <ele>57.5</ele>
        <time>2023-05-25T12:22:24Z</time>
      </trkpt>
      <trkpt lat="36.70216513320353" lon="117.21455619827746">
        <ele>57.5</ele>
        <time>2023-05-25T12:22:25Z</time>
      </trkpt>
      <trkpt lat="36.702164692995574" lon="117.21459834889471">
        <ele>57.5</ele>
        <time>2023-05-25T12:22:26Z</time>
      </trkpt>
      <trkpt lat="36.70216429439062" lon="117.21464077989397">
        <ele>57.5</ele>
        <time>2023-05-25T12:22:27Z</time>
      </trkpt>
      <trkpt lat="36.7021640330591" lon="117.21468343537728">
        <ele>57.5</ele>
        <time>2023-05-25T12:22:28Z</time>
      </trkpt>
      <trkpt lat="36.70216389952223" lon="117.21472669317843">
        <ele>57.5</ele>
        <time>2023-05-25T12:22:29Z</time>
      </trkpt>
      <trkpt lat="36.70216383327315" lon="117.2147700459803">
        <ele>57.5</ele>
        <time>2023-05-25T12:22:30Z</time>
      </trkpt>
      <trkpt lat="36.702163760844925" lon="117.2148138734261">
        <ele>57.5</ele>
        <time>2023-05-25T12:22:31Z</time>
      </trkpt>
      <trkpt lat="36.70216368191917" lon="117.21485767245233">
        <ele>57.5</ele>
        <time>2023-05-25T12:22:32Z</time>
      </trkpt>
      <trkpt lat="36.70216356591407" lon="117.2149014558683">
        <ele>56.9</ele>
        <time>2023-05-25T12:22:33Z</time>
      </trkpt>
      <trkpt lat="36.702163338063436" lon="117.21494529485994">
        <ele>56.9</ele>
        <time>2023-05-25T12:22:34Z</time>
      </trkpt>
      <trkpt lat="36.70216288577419" lon="117.21498908730507">
        <ele>56.9</ele>
        <time>2023-05-25T12:22:35Z</time>
      </trkpt>
      <trkpt lat="36.702162169858624" lon="117.21503280106975">
        <ele>56.9</ele>
        <time>2023-05-25T12:22:36Z</time>
      </trkpt>
      <trkpt lat="36.70216110000215" lon="117.21507598579124">
        <ele>56.9</ele>
        <time>2023-05-25T12:22:37Z</time>
      </trkpt>
      <trkpt lat="36.70215977771829" lon="117.21511918905655">
        <ele>56.9</ele>
        <time>2023-05-25T12:22:38Z</time>
      </trkpt>
      <trkpt lat="36.70215838863652" lon="117.21516235607872">
        <ele>56.9</ele>
        <time>2023-05-25T12:22:39Z</time>
      </trkpt>
      <trkpt lat="36.702157167620875" lon="117.21520549447726">
        <ele>56.9</ele>
        <time>2023-05-25T12:22:40Z</time>
      </trkpt>
      <trkpt lat="36.70215617031622" lon="117.21524854668303">
        <ele>56.9</ele>
        <time>2023-05-25T12:22:41Z</time>
      </trkpt>
      <trkpt lat="36.70215568814518" lon="117.21529122180341">
        <ele>56.9</ele>
        <time>2023-05-25T12:22:42Z</time>
      </trkpt>
      <trkpt lat="36.70215576735658" lon="117.21533408694556">
        <ele>56.7</ele>
        <time>2023-05-25T12:22:43Z</time>
      </trkpt>
      <trkpt lat="36.70215641914561" lon="117.2153771403045">
        <ele>56.7</ele>
        <time>2023-05-25T12:22:44Z</time>
      </trkpt>
      <trkpt lat="36.70215775399396" lon="117.21542068789272">
        <ele>56.7</ele>
        <time>2023-05-25T12:22:45Z</time>
      </trkpt>
      <trkpt lat="36.70215988727113" lon="117.21546415693014">
        <ele>56.7</ele>
        <time>2023-05-25T12:22:46Z</time>
      </trkpt>
      <trkpt lat="36.702162893523614" lon="117.21550787543913">
        <ele>56.7</ele>
        <time>2023-05-25T12:22:47Z</time>
      </trkpt>
      <trkpt lat="36.70216675151746" lon="117.21555171263148">
        <ele>56.7</ele>
        <time>2023-05-25T12:22:48Z</time>
      </trkpt>
      <trkpt lat="36.70217137706523" lon="117.21559550297854">
        <ele>56.7</ele>
        <time>2023-05-25T12:22:49Z</time>
      </trkpt>
      <trkpt lat="36.70217651334244" lon="117.2156392133773">
        <ele>56.7</ele>
        <time>2023-05-25T12:22:50Z</time>
      </trkpt>
      <trkpt lat="36.702181875475205" lon="117.21568279301209">
        <ele>56.7</ele>
        <time>2023-05-25T12:22:51Z</time>
      </trkpt>
      <trkpt lat="36.70218735808543" lon="117.21572629740602">
        <ele>56.7</ele>
        <time>2023-05-25T12:22:52Z</time>
      </trkpt>
      <trkpt lat="36.70219270208511" lon="117.21576963160587">
        <ele>56.6</ele>
        <time>2023-05-25T12:22:53Z</time>
      </trkpt>
      <trkpt lat="36.70219769320286" lon="117.21581271302401">
        <ele>56.6</ele>
        <time>2023-05-25T12:22:54Z</time>
      </trkpt>
      <trkpt lat="36.702202301493195" lon="117.21585549305483">
        <ele>56.6</ele>
        <time>2023-05-25T12:22:55Z</time>
      </trkpt>
      <trkpt lat="36.702206478180194" lon="117.21589800502387">
        <ele>56.6</ele>
        <time>2023-05-25T12:22:56Z</time>
      </trkpt>
      <trkpt lat="36.70221020704847" lon="117.21594029468493">
        <ele>56.6</ele>
        <time>2023-05-25T12:22:57Z</time>
      </trkpt>
      <trkpt lat="36.702213410137695" lon="117.21598206075274">
        <ele>56.6</ele>
        <time>2023-05-25T12:22:58Z</time>
      </trkpt>
      <trkpt lat="36.70221626214845" lon="117.21602385725157">
        <ele>56.6</ele>
        <time>2023-05-25T12:22:59Z</time>
      </trkpt>
      <trkpt lat="36.70221865231011" lon="117.21606536990794">
        <ele>56.6</ele>
        <time>2023-05-25T12:23:00Z</time>
      </trkpt>
      <trkpt lat="36.70222054172969" lon="117.21610712908415">
        <ele>56.6</ele>
        <time>2023-05-25T12:23:01Z</time>
      </trkpt>
      <trkpt lat="36.702221710307384" lon="117.21614870577044">
        <ele>56.6</ele>
        <time>2023-05-25T12:23:02Z</time>
      </trkpt>
      <trkpt lat="36.70222194941796" lon="117.21619002639308">
        <ele>56.4</ele>
        <time>2023-05-25T12:23:03Z</time>
      </trkpt>
      <trkpt lat="36.702220809383036" lon="117.21623138402931">
        <ele>56.4</ele>
        <time>2023-05-25T12:23:04Z</time>
      </trkpt>
      <trkpt lat="36.70221795016555" lon="117.2162719701965">
        <ele>56.4</ele>
        <time>2023-05-25T12:23:05Z</time>
      </trkpt>
      <trkpt lat="36.70221271306734" lon="117.2163116256561">
        <ele>56.4</ele>
        <time>2023-05-25T12:23:06Z</time>
      </trkpt>
      <trkpt lat="36.70220478143216" lon="117.2163492454252">
        <ele>56.4</ele>
        <time>2023-05-25T12:23:07Z</time>
      </trkpt>
      <trkpt lat="36.702193941804794" lon="117.21638413415101">
        <ele>56.4</ele>
        <time>2023-05-25T12:23:08Z</time>
      </trkpt>
      <trkpt lat="36.70217980309231" lon="117.21641570615436">
        <ele>56.4</ele>
        <time>2023-05-25T12:23:09Z</time>
      </trkpt>
      <trkpt lat="36.7021623238377" lon="117.2164433762154">
        <ele>56.4</ele>
        <time>2023-05-25T12:23:10Z</time>
      </trkpt>
      <trkpt lat="36.70214129271393" lon="117.21646727559056">
        <ele>56.4</ele>
        <time>2023-05-25T12:23:11Z</time>
      </trkpt>
      <trkpt lat="36.702116931730245" lon="117.21648731177117">
        <ele>56.4</ele>
        <time>2023-05-25T12:23:12Z</time>
      </trkpt>
      <trkpt lat="36.702089624720124" lon="117.2165039980391">
        <ele>57.5</ele>
        <time>2023-05-25T12:23:13Z</time>
      </trkpt>
      <trkpt lat="36.702059485122895" lon="117.21651803859719">
        <ele>57.5</ele>
        <time>2023-05-25T12:23:14Z</time>
      </trkpt>
      <trkpt lat="36.70202716286836" lon="117.21652928307337">
        <ele>57.5</ele>
        <time>2023-05-25T12:23:15Z</time>
      </trkpt>
      <trkpt lat="36.70199297304877" lon="117.21653827663927">
        <ele>57.5</ele>
        <time>2023-05-25T12:23:16Z</time>
      </trkpt>
      <trkpt lat="36.7019578935484" lon="117.21654528125184">
        <ele>57.5</ele>
        <time>2023-05-25T12:23:17Z</time>
      </trkpt>
      <trkpt lat="36.70192224157454" lon="117.21655072845202">
        <ele>57.5</ele>
        <time>2023-05-25T12:23:18Z</time>
      </trkpt>
      <trkpt lat="36.701886288528534" lon="117.21655522296237">
        <ele>57.5</ele>
        <time>2023-05-25T12:23:19Z</time>
      </trkpt>
      <trkpt lat="36.70185047768711" lon="117.21655941573228">
        <ele>57.5</ele>
        <time>2023-05-25T12:23:20Z</time>
      </trkpt>
      <trkpt lat="36.701814773348204" lon="117.21656355074298">
        <ele>57.5</ele>
        <time>2023-05-25T12:23:21Z</time>
      </trkpt>
      <trkpt lat="36.701779548798896" lon="117.21656760924196">
        <ele>57.5</ele>
        <time>2023-05-25T12:23:22Z</time>
      </trkpt>
      <trkpt lat="36.70174461837066" lon="117.2165703062843">
        <ele>57.9</ele>
        <time>2023-05-25T12:23:23Z</time>
      </trkpt>
      <trkpt lat="36.70170959334492" lon="117.21657245216674">
        <ele>57.9</ele>
        <time>2023-05-25T12:23:24Z</time>
      </trkpt>
      <trkpt lat="36.701674491516364" lon="117.21657383771995">
        <ele>57.9</ele>
        <time>2023-05-25T12:23:25Z</time>
      </trkpt>
      <trkpt lat="36.70163946498027" lon="117.21657447933687">
        <ele>57.9</ele>
        <time>2023-05-25T12:23:26Z</time>
      </trkpt>
      <trkpt lat="36.70160453285378" lon="117.21657474257681">
        <ele>57.9</ele>
        <time>2023-05-25T12:23:27Z</time>
      </trkpt>
      <trkpt lat="36.70156943403443" lon="117.21657423642256">
        <ele>57.9</ele>
        <time>2023-05-25T12:23:28Z</time>
      </trkpt>
      <trkpt lat="36.7015343159828" lon="117.21657325965919">
        <ele>57.9</ele>
        <time>2023-05-25T12:23:29Z</time>
      </trkpt>
      <trkpt lat="36.701499073313705" lon="117.21657217698973">
        <ele>57.9</ele>
        <time>2023-05-25T12:23:30Z</time>
      </trkpt>
      <trkpt lat="36.70146385640591" lon="117.2165712363523">
        <ele>57.9</ele>
        <time>2023-05-25T12:23:31Z</time>
      </trkpt>
      <trkpt lat="36.7014284340826" lon="117.2165705433204">
        <ele>57.9</ele>
        <time>2023-05-25T12:23:32Z</time>
      </trkpt>
      <trkpt lat="36.701392899096746" lon="117.21657015935953">
        <ele>57.2</ele>
        <time>2023-05-25T12:23:33Z</time>
      </trkpt>
      <trkpt lat="36.701357152691635" lon="117.21657140481587">
        <ele>57.2</ele>
        <time>2023-05-25T12:23:34Z</time>
      </trkpt>
      <trkpt lat="36.70132165321262" lon="117.21657293126823">
        <ele>57.2</ele>
        <time>2023-05-25T12:23:35Z</time>
      </trkpt>
      <trkpt lat="36.70128648630808" lon="117.21657488664695">
        <ele>57.2</ele>
        <time>2023-05-25T12:23:36Z</time>
      </trkpt>
      <trkpt lat="36.70125156073371" lon="117.21657729619918">
        <ele>57.2</ele>
        <time>2023-05-25T12:23:37Z</time>
      </trkpt>
      <trkpt lat="36.701217301035335" lon="117.21657995568182">
        <ele>57.2</ele>
        <time>2023-05-25T12:23:38Z</time>
      </trkpt>
      <trkpt lat="36.701183516188856" lon="117.21658339011742">
        <ele>57.2</ele>
        <time>2023-05-25T12:23:39Z</time>
      </trkpt>
      <trkpt lat="36.701150305309085" lon="117.21658772630019">
        <ele>57.2</ele>
        <time>2023-05-25T12:23:40Z</time>
      </trkpt>
      <trkpt lat="36.70111757180933" lon="117.21659300414714">
        <ele>57.2</ele>
        <time>2023-05-25T12:23:41Z</time>
      </trkpt>
      <trkpt lat="36.70108539705733" lon="117.2165991693209">
        <ele>57.2</ele>
        <time>2023-05-25T12:23:42Z</time>
      </trkpt>
      <trkpt lat="36.70105414645957" lon="117.21660615514415">
        <ele>57.4</ele>
        <time>2023-05-25T12:23:43Z</time>
      </trkpt>
      <trkpt lat="36.70102316064832" lon="117.21661322435361">
        <ele>57.4</ele>
        <time>2023-05-25T12:23:44Z</time>
      </trkpt>
      <trkpt lat="36.70099297820892" lon="117.21662024964722">
        <ele>57.4</ele>
        <time>2023-05-25T12:23:45Z</time>
      </trkpt>
      <trkpt lat="36.70096359846994" lon="117.21662751577821">
        <ele>57.4</ele>
        <time>2023-05-25T12:23:46Z</time>
      </trkpt>
      <trkpt lat="36.70093520477448" lon="117.21663465163287">
        <ele>57.4</ele>
        <time>2023-05-25T12:23:47Z</time>
      </trkpt>
      <trkpt lat="36.70090729130649" lon="117.21664158920407">
        <ele>57.4</ele>
        <time>2023-05-25T12:23:48Z</time>
      </trkpt>
      <trkpt lat="36.70087985802228" lon="117.21664790537197">
        <ele>57.4</ele>
        <time>2023-05-25T12:23:49Z</time>
      </trkpt>
      <trkpt lat="36.7008492841604" lon="117.21665684204386">
        <ele>57.4</ele>
        <time>2023-05-25T12:23:50Z</time>
      </trkpt>
      <trkpt lat="36.70082470794714" lon="117.2166616359074">
        <ele>57.4</ele>
        <time>2023-05-25T12:23:51Z</time>
      </trkpt>
      <trkpt lat="36.70080094413094" lon="117.21666621566254">
        <ele>57.4</ele>
        <time>2023-05-25T12:23:52Z</time>
      </trkpt>
      <trkpt lat="36.70077390314128" lon="117.21667036707541">
        <ele>0</ele>
        <time>2023-05-25T12:23:53Z</time>
      </trkpt>
    </trkseg>
  </trk>
</gpx>