<?xml version="1.0" encoding="UTF-8"?>
<gpx xmlns="http://www.topografix.com/GPX/1/1" xmlns:gpxtpx="http://www.garmin.com/xmlschemas/TrackPointExtension/v1" xmlns:xsi="http://www.w3.org/2001/XMLSchema-instance" xsi:schemaLocation="http://www.topografix.com/GPX/1/1 http://www.topografix.com/GPX/1/1/gpx.xsd" version="1.1" creator="gpx.py -- https://github.com/tkrajina/gpxpy">
  <trk>
    <name>gpx from codoon</name>
    <type>Run</type>
    <trkseg>
      <trkpt lat="36.716581804012414" lon="117.18430400597175">
        <ele>65.2</ele>
        <time>2023-06-11T00:51:34Z</time>
      </trkpt>
      <trkpt lat="36.71658784452259" lon="117.18432672744389">
        <ele>66.1</ele>
        <time>2023-06-11T00:51:35Z</time>
      </trkpt>
      <trkpt lat="36.71656044933398" lon="117.18432817833181">
        <ele>66.1</ele>
        <time>2023-06-11T00:51:36Z</time>
      </trkpt>
      <trkpt lat="36.71654045292661" lon="117.18435484373927">
        <ele>66.1</ele>
        <time>2023-06-11T00:51:37Z</time>
      </trkpt>
      <trkpt lat="36.71650725621803" lon="117.18436226628518">
        <ele>66.1</ele>
        <time>2023-06-11T00:51:38Z</time>
      </trkpt>
      <trkpt lat="36.716468863488615" lon="117.18436726957623">
        <ele>66.1</ele>
        <time>2023-06-11T00:51:39Z</time>
      </trkpt>
      <trkpt lat="36.716441537937804" lon="117.18437721359875">
        <ele>66.1</ele>
        <time>2023-06-11T00:51:40Z</time>
      </trkpt>
      <trkpt lat="36.71641080220115" lon="117.18438566935633">
        <ele>66.1</ele>
        <time>2023-06-11T00:51:41Z</time>
      </trkpt>
      <trkpt lat="36.71637988547684" lon="117.18439478583154">
        <ele>66.1</ele>
        <time>2023-06-11T00:51:42Z</time>
      </trkpt>
      <trkpt lat="36.71634800763637" lon="117.18440254943903">
        <ele>66.1</ele>
        <time>2023-06-11T00:51:43Z</time>
      </trkpt>
      <trkpt lat="36.71631657443417" lon="117.18441076182599">
        <ele>66.1</ele>
        <time>2023-06-11T00:51:44Z</time>
      </trkpt>
      <trkpt lat="36.71628556791649" lon="117.18441934729086">
        <ele>66.3</ele>
        <time>2023-06-11T00:51:45Z</time>
      </trkpt>
      <trkpt lat="36.71625471088134" lon="117.1844282718236">
        <ele>66.3</ele>
        <time>2023-06-11T00:51:46Z</time>
      </trkpt>
      <trkpt lat="36.71622427559013" lon="117.18443703278648">
        <ele>66.3</ele>
        <time>2023-06-11T00:51:47Z</time>
      </trkpt>
      <trkpt lat="36.71619393552474" lon="117.1844457258914">
        <ele>66.3</ele>
        <time>2023-06-11T00:51:48Z</time>
      </trkpt>
      <trkpt lat="36.716164026880854" lon="117.18445440674373">
        <ele>66.3</ele>
        <time>2023-06-11T00:51:49Z</time>
      </trkpt>
      <trkpt lat="36.71613449114413" lon="117.18446312628576">
        <ele>66.3</ele>
        <time>2023-06-11T00:51:50Z</time>
      </trkpt>
      <trkpt lat="36.71610528277785" lon="117.18447201624222">
        <ele>66.3</ele>
        <time>2023-06-11T00:51:51Z</time>
      </trkpt>
      <trkpt lat="36.71607632545953" lon="117.18448070838477">
        <ele>66.3</ele>
        <time>2023-06-11T00:51:52Z</time>
      </trkpt>
      <trkpt lat="36.71604726682307" lon="117.1844891744088">
        <ele>66.3</ele>
        <time>2023-06-11T00:51:53Z</time>
      </trkpt>
      <trkpt lat="36.716018417425" lon="117.18449724782802">
        <ele>66.3</ele>
        <time>2023-06-11T00:51:54Z</time>
      </trkpt>
      <trkpt lat="36.715989425564025" lon="117.1845051454498">
        <ele>66.1</ele>
        <time>2023-06-11T00:51:55Z</time>
      </trkpt>
      <trkpt lat="36.715960300228446" lon="117.18451283809398">
        <ele>66.1</ele>
        <time>2023-06-11T00:51:56Z</time>
      </trkpt>
      <trkpt lat="36.71593133504787" lon="117.18452022018722">
        <ele>66.1</ele>
        <time>2023-06-11T00:51:57Z</time>
      </trkpt>
      <trkpt lat="36.71590227676634" lon="117.18452784009392">
        <ele>66.1</ele>
        <time>2023-06-11T00:51:58Z</time>
      </trkpt>
      <trkpt lat="36.715873486476404" lon="117.18453572253455">
        <ele>66.1</ele>
        <time>2023-06-11T00:51:59Z</time>
      </trkpt>
      <trkpt lat="36.7158449357012" lon="117.18454392274174">
        <ele>66.1</ele>
        <time>2023-06-11T00:52:00Z</time>
      </trkpt>
      <trkpt lat="36.7158163092909" lon="117.18455263999162">
        <ele>66.1</ele>
        <time>2023-06-11T00:52:01Z</time>
      </trkpt>
      <trkpt lat="36.71578799403411" lon="117.18456181882561">
        <ele>66.1</ele>
        <time>2023-06-11T00:52:02Z</time>
      </trkpt>
      <trkpt lat="36.71575961519179" lon="117.18457143780515">
        <ele>66.1</ele>
        <time>2023-06-11T00:52:03Z</time>
      </trkpt>
      <trkpt lat="36.71573151824297" lon="117.18458125238557">
        <ele>66.1</ele>
        <time>2023-06-11T00:52:04Z</time>
      </trkpt>
      <trkpt lat="36.715703574242596" lon="117.1845912037">
        <ele>66.3</ele>
        <time>2023-06-11T00:52:05Z</time>
      </trkpt>
      <trkpt lat="36.71567570219162" lon="117.18460114043681">
        <ele>66.3</ele>
        <time>2023-06-11T00:52:06Z</time>
      </trkpt>
      <trkpt lat="36.71564785154182" lon="117.18461108243771">
        <ele>66.3</ele>
        <time>2023-06-11T00:52:07Z</time>
      </trkpt>
      <trkpt lat="36.715619729387065" lon="117.18462124550219">
        <ele>66.3</ele>
        <time>2023-06-11T00:52:08Z</time>
      </trkpt>
      <trkpt lat="36.715591698144" lon="117.18463156973098">
        <ele>66.3</ele>
        <time>2023-06-11T00:52:09Z</time>
      </trkpt>
      <trkpt lat="36.71556341124391" lon="117.18464233870223">
        <ele>66.3</ele>
        <time>2023-06-11T00:52:10Z</time>
      </trkpt>
      <trkpt lat="36.715534927500705" lon="117.18465364961266">
        <ele>66.3</ele>
        <time>2023-06-11T00:52:11Z</time>
      </trkpt>
      <trkpt lat="36.71550652892499" lon="117.184665456953">
        <ele>66.3</ele>
        <time>2023-06-11T00:52:12Z</time>
      </trkpt>
      <trkpt lat="36.71547788039952" lon="117.18467799363656">
        <ele>66.3</ele>
        <time>2023-06-11T00:52:13Z</time>
      </trkpt>
      <trkpt lat="36.7154493367116" lon="117.1846911877542">
        <ele>66.3</ele>
        <time>2023-06-11T00:52:14Z</time>
      </trkpt>
      <trkpt lat="36.71542082181769" lon="117.18470498677046">
        <ele>67</ele>
        <time>2023-06-11T00:52:15Z</time>
      </trkpt>
      <trkpt lat="36.71539206945473" lon="117.18471938778274">
        <ele>67</ele>
        <time>2023-06-11T00:52:16Z</time>
      </trkpt>
      <trkpt lat="36.715363453875135" lon="117.1847341396491">
        <ele>67</ele>
        <time>2023-06-11T00:52:17Z</time>
      </trkpt>
      <trkpt lat="36.7153349826023" lon="117.1847491471251">
        <ele>67</ele>
        <time>2023-06-11T00:52:18Z</time>
      </trkpt>
      <trkpt lat="36.71530665493659" lon="117.18476430122627">
        <ele>67</ele>
        <time>2023-06-11T00:52:19Z</time>
      </trkpt>
      <trkpt lat="36.7152785070818" lon="117.18477947177065">
        <ele>67</ele>
        <time>2023-06-11T00:52:20Z</time>
      </trkpt>
      <trkpt lat="36.715250568637174" lon="117.18479455481109">
        <ele>67</ele>
        <time>2023-06-11T00:52:21Z</time>
      </trkpt>
      <trkpt lat="36.71522287151365" lon="117.18480945207105">
        <ele>67</ele>
        <time>2023-06-11T00:52:22Z</time>
      </trkpt>
      <trkpt lat="36.71519510656835" lon="117.18482422922705">
        <ele>67</ele>
        <time>2023-06-11T00:52:23Z</time>
      </trkpt>
      <trkpt lat="36.7151676188341" lon="117.18483868140167">
        <ele>67</ele>
        <time>2023-06-11T00:52:24Z</time>
      </trkpt>
      <trkpt lat="36.715140338030366" lon="117.18485288963065">
        <ele>67.9</ele>
        <time>2023-06-11T00:52:25Z</time>
      </trkpt>
      <trkpt lat="36.71511295780943" lon="117.18486713216019">
        <ele>67.9</ele>
        <time>2023-06-11T00:52:26Z</time>
      </trkpt>
      <trkpt lat="36.71508582484636" lon="117.1848813545733">
        <ele>67.9</ele>
        <time>2023-06-11T00:52:27Z</time>
      </trkpt>
      <trkpt lat="36.7150589332028" lon="117.1848957698762">
        <ele>67.9</ele>
        <time>2023-06-11T00:52:28Z</time>
      </trkpt>
      <trkpt lat="36.71503199984813" lon="117.18491067143381">
        <ele>67.9</ele>
        <time>2023-06-11T00:52:29Z</time>
      </trkpt>
      <trkpt lat="36.71500537228047" lon="117.18492595585764">
        <ele>67.9</ele>
        <time>2023-06-11T00:52:30Z</time>
      </trkpt>
      <trkpt lat="36.714978683045686" lon="117.18494184211823">
        <ele>67.9</ele>
        <time>2023-06-11T00:52:31Z</time>
      </trkpt>
      <trkpt lat="36.71495221789532" lon="117.18495804198395">
        <ele>67.9</ele>
        <time>2023-06-11T00:52:32Z</time>
      </trkpt>
      <trkpt lat="36.71492586515786" lon="117.18497443791107">
        <ele>67.9</ele>
        <time>2023-06-11T00:52:33Z</time>
      </trkpt>
      <trkpt lat="36.714899611188564" lon="117.18499096058463">
        <ele>67.9</ele>
        <time>2023-06-11T00:52:34Z</time>
      </trkpt>
      <trkpt lat="36.71487345022448" lon="117.18500752977918">
        <ele>68.2</ele>
        <time>2023-06-11T00:52:35Z</time>
      </trkpt>
      <trkpt lat="36.71484714611304" lon="117.18502435112916">
        <ele>68.2</ele>
        <time>2023-06-11T00:52:36Z</time>
      </trkpt>
      <trkpt lat="36.7148211199571" lon="117.18504131280196">
        <ele>68.2</ele>
        <time>2023-06-11T00:52:37Z</time>
      </trkpt>
      <trkpt lat="36.71479510022453" lon="117.1850586666882">
        <ele>68.2</ele>
        <time>2023-06-11T00:52:38Z</time>
      </trkpt>
      <trkpt lat="36.71476913705062" lon="117.18507630193105">
        <ele>68.2</ele>
        <time>2023-06-11T00:52:39Z</time>
      </trkpt>
      <trkpt lat="36.71474321614648" lon="117.18509410057915">
        <ele>68.2</ele>
        <time>2023-06-11T00:52:40Z</time>
      </trkpt>
      <trkpt lat="36.714717410277316" lon="117.18511215876909">
        <ele>68.2</ele>
        <time>2023-06-11T00:52:41Z</time>
      </trkpt>
      <trkpt lat="36.71469208506695" lon="117.18513036434413">
        <ele>68.2</ele>
        <time>2023-06-11T00:52:42Z</time>
      </trkpt>
      <trkpt lat="36.71466706687844" lon="117.18514923634334">
        <ele>68.2</ele>
        <time>2023-06-11T00:52:43Z</time>
      </trkpt>
      <trkpt lat="36.71464256964885" lon="117.18516902520848">
        <ele>68.2</ele>
        <time>2023-06-11T00:52:44Z</time>
      </trkpt>
      <trkpt lat="36.714618880685116" lon="117.18519002452875">
        <ele>69.4</ele>
        <time>2023-06-11T00:52:45Z</time>
      </trkpt>
      <trkpt lat="36.714596013122566" lon="117.18521223297903">
        <ele>69.4</ele>
        <time>2023-06-11T00:52:46Z</time>
      </trkpt>
      <trkpt lat="36.7145741804426" lon="117.18523524279708">
        <ele>69.4</ele>
        <time>2023-06-11T00:52:47Z</time>
      </trkpt>
      <trkpt lat="36.71455293287266" lon="117.18525904238861">
        <ele>69.4</ele>
        <time>2023-06-11T00:52:48Z</time>
      </trkpt>
      <trkpt lat="36.714532341755444" lon="117.1852830499522">
        <ele>69.4</ele>
        <time>2023-06-11T00:52:49Z</time>
      </trkpt>
      <trkpt lat="36.71451214358604" lon="117.18530699410343">
        <ele>69.4</ele>
        <time>2023-06-11T00:52:50Z</time>
      </trkpt>
      <trkpt lat="36.71449219673203" lon="117.18533074201406">
        <ele>69.4</ele>
        <time>2023-06-11T00:52:51Z</time>
      </trkpt>
      <trkpt lat="36.71447202527296" lon="117.1853541693185">
        <ele>69.4</ele>
        <time>2023-06-11T00:52:52Z</time>
      </trkpt>
      <trkpt lat="36.714451577911014" lon="117.18537711048477">
        <ele>69.4</ele>
        <time>2023-06-11T00:52:53Z</time>
      </trkpt>
      <trkpt lat="36.714430966088344" lon="117.18539912584177">
        <ele>69.4</ele>
        <time>2023-06-11T00:52:54Z</time>
      </trkpt>
      <trkpt lat="36.71440968524049" lon="117.18542032666774">
        <ele>68.9</ele>
        <time>2023-06-11T00:52:55Z</time>
      </trkpt>
      <trkpt lat="36.714387845230334" lon="117.18544038150154">
        <ele>68.9</ele>
        <time>2023-06-11T00:52:56Z</time>
      </trkpt>
      <trkpt lat="36.714365398201764" lon="117.18545946732246">
        <ele>68.9</ele>
        <time>2023-06-11T00:52:57Z</time>
      </trkpt>
      <trkpt lat="36.714342102285386" lon="117.18547791634738">
        <ele>68.9</ele>
        <time>2023-06-11T00:52:58Z</time>
      </trkpt>
      <trkpt lat="36.71431826796403" lon="117.18549555902085">
        <ele>68.9</ele>
        <time>2023-06-11T00:52:59Z</time>
      </trkpt>
      <trkpt lat="36.71429375084788" lon="117.18551281241338">
        <ele>68.9</ele>
        <time>2023-06-11T00:53:00Z</time>
      </trkpt>
      <trkpt lat="36.71426876232576" lon="117.1855298565773">
        <ele>68.9</ele>
        <time>2023-06-11T00:53:01Z</time>
      </trkpt>
      <trkpt lat="36.71424373196435" lon="117.18554663127247">
        <ele>68.9</ele>
        <time>2023-06-11T00:53:02Z</time>
      </trkpt>
      <trkpt lat="36.71421874720009" lon="117.18556335663294">
        <ele>68.9</ele>
        <time>2023-06-11T00:53:03Z</time>
      </trkpt>
      <trkpt lat="36.71419384254949" lon="117.18558015667784">
        <ele>68.9</ele>
        <time>2023-06-11T00:53:04Z</time>
      </trkpt>
      <trkpt lat="36.71416909512505" lon="117.1855970298503">
        <ele>69.2</ele>
        <time>2023-06-11T00:53:05Z</time>
      </trkpt>
      <trkpt lat="36.71414470659668" lon="117.18561379484564">
        <ele>69.2</ele>
        <time>2023-06-11T00:53:06Z</time>
      </trkpt>
      <trkpt lat="36.7141205878631" lon="117.18563035526556">
        <ele>69.2</ele>
        <time>2023-06-11T00:53:07Z</time>
      </trkpt>
      <trkpt lat="36.71409633152789" lon="117.18564679211696">
        <ele>69.2</ele>
        <time>2023-06-11T00:53:08Z</time>
      </trkpt>
      <trkpt lat="36.71407219093987" lon="117.18566289219712">
        <ele>69.2</ele>
        <time>2023-06-11T00:53:09Z</time>
      </trkpt>
      <trkpt lat="36.71404784683511" lon="117.18567895651418">
        <ele>69.2</ele>
        <time>2023-06-11T00:53:10Z</time>
      </trkpt>
      <trkpt lat="36.71402363216087" lon="117.18569485545348">
        <ele>69.2</ele>
        <time>2023-06-11T00:53:11Z</time>
      </trkpt>
      <trkpt lat="36.71399924316021" lon="117.1857108638226">
        <ele>69.2</ele>
        <time>2023-06-11T00:53:12Z</time>
      </trkpt>
      <trkpt lat="36.713974739578944" lon="117.18572699584949">
        <ele>69.2</ele>
        <time>2023-06-11T00:53:13Z</time>
      </trkpt>
      <trkpt lat="36.71395043355505" lon="117.18574301712812">
        <ele>69.2</ele>
        <time>2023-06-11T00:53:14Z</time>
      </trkpt>
      <trkpt lat="36.71392598832316" lon="117.18575910879137">
        <ele>69.5</ele>
        <time>2023-06-11T00:53:15Z</time>
      </trkpt>
      <trkpt lat="36.71390143966645" lon="117.18577527092845">
        <ele>69.5</ele>
        <time>2023-06-11T00:53:16Z</time>
      </trkpt>
      <trkpt lat="36.71387689640201" lon="117.18579148897308">
        <ele>69.5</ele>
        <time>2023-06-11T00:53:17Z</time>
      </trkpt>
      <trkpt lat="36.71385210008942" lon="117.18580802532782">
        <ele>69.5</ele>
        <time>2023-06-11T00:53:18Z</time>
      </trkpt>
      <trkpt lat="36.713827460824206" lon="117.18582468278854">
        <ele>69.5</ele>
        <time>2023-06-11T00:53:19Z</time>
      </trkpt>
      <trkpt lat="36.713803004623" lon="117.18584146892846">
        <ele>69.5</ele>
        <time>2023-06-11T00:53:20Z</time>
      </trkpt>
      <trkpt lat="36.71377877626771" lon="117.18585837848404">
        <ele>69.5</ele>
        <time>2023-06-11T00:53:21Z</time>
      </trkpt>
      <trkpt lat="36.713754491579564" lon="117.18587556797789">
        <ele>69.5</ele>
        <time>2023-06-11T00:53:22Z</time>
      </trkpt>
      <trkpt lat="36.713730480380036" lon="117.18589276860529">
        <ele>69.5</ele>
        <time>2023-06-11T00:53:23Z</time>
      </trkpt>
      <trkpt lat="36.71370665172871" lon="117.18590994297705">
        <ele>69.5</ele>
        <time>2023-06-11T00:53:24Z</time>
      </trkpt>
      <trkpt lat="36.71368266529804" lon="117.18592727036688">
        <ele>69.7</ele>
        <time>2023-06-11T00:53:25Z</time>
      </trkpt>
      <trkpt lat="36.71365882505585" lon="117.18594448222225">
        <ele>69.7</ele>
        <time>2023-06-11T00:53:26Z</time>
      </trkpt>
      <trkpt lat="36.7136347889938" lon="117.18596183675434">
        <ele>69.7</ele>
        <time>2023-06-11T00:53:27Z</time>
      </trkpt>
      <trkpt lat="36.71361058874499" lon="117.18597927943138">
        <ele>69.7</ele>
        <time>2023-06-11T00:53:28Z</time>
      </trkpt>
      <trkpt lat="36.7135865376785" lon="117.18599661108526">
        <ele>69.7</ele>
        <time>2023-06-11T00:53:29Z</time>
      </trkpt>
      <trkpt lat="36.71356227916126" lon="117.18601409412896">
        <ele>69.7</ele>
        <time>2023-06-11T00:53:30Z</time>
      </trkpt>
      <trkpt lat="36.71353783101536" lon="117.18603171720358">
        <ele>69.7</ele>
        <time>2023-06-11T00:53:31Z</time>
      </trkpt>
      <trkpt lat="36.713513233340386" lon="117.18604935679588">
        <ele>69.7</ele>
        <time>2023-06-11T00:53:32Z</time>
      </trkpt>
      <trkpt lat="36.713488748786425" lon="117.18606686825622">
        <ele>69.7</ele>
        <time>2023-06-11T00:53:33Z</time>
      </trkpt>
      <trkpt lat="36.713464301337666" lon="117.18608437007693">
        <ele>69.7</ele>
        <time>2023-06-11T00:53:34Z</time>
      </trkpt>
      <trkpt lat="36.713439947836534" lon="117.18610189560606">
        <ele>70</ele>
        <time>2023-06-11T00:53:35Z</time>
      </trkpt>
      <trkpt lat="36.713415908657446" lon="117.18611930136575">
        <ele>70</ele>
        <time>2023-06-11T00:53:36Z</time>
      </trkpt>
      <trkpt lat="36.71339184616141" lon="117.18613685451122">
        <ele>70</ele>
        <time>2023-06-11T00:53:37Z</time>
      </trkpt>
      <trkpt lat="36.713368012750685" lon="117.18615429693575">
        <ele>70</ele>
        <time>2023-06-11T00:53:38Z</time>
      </trkpt>
      <trkpt lat="36.713344318611455" lon="117.18617162407593">
        <ele>70</ele>
        <time>2023-06-11T00:53:39Z</time>
      </trkpt>
      <trkpt lat="36.71332039007656" lon="117.18618896044725">
        <ele>70</ele>
        <time>2023-06-11T00:53:40Z</time>
      </trkpt>
      <trkpt lat="36.71329657261346" lon="117.18620600384388">
        <ele>70</ele>
        <time>2023-06-11T00:53:41Z</time>
      </trkpt>
      <trkpt lat="36.71327256684498" lon="117.18622291444545">
        <ele>70</ele>
        <time>2023-06-11T00:53:42Z</time>
      </trkpt>
      <trkpt lat="36.71324869415746" lon="117.18623952421383">
        <ele>70</ele>
        <time>2023-06-11T00:53:43Z</time>
      </trkpt>
      <trkpt lat="36.71322497550758" lon="117.18625574854728">
        <ele>70</ele>
        <time>2023-06-11T00:53:44Z</time>
      </trkpt>
      <trkpt lat="36.713201131009654" lon="117.18627170845028">
        <ele>70.1</ele>
        <time>2023-06-11T00:53:45Z</time>
      </trkpt>
      <trkpt lat="36.71317717666702" lon="117.18628734748">
        <ele>70.1</ele>
        <time>2023-06-11T00:53:46Z</time>
      </trkpt>
      <trkpt lat="36.71315292571856" lon="117.18630282094918">
        <ele>70.1</ele>
        <time>2023-06-11T00:53:47Z</time>
      </trkpt>
      <trkpt lat="36.71312877039187" lon="117.186317915214">
        <ele>70.1</ele>
        <time>2023-06-11T00:53:48Z</time>
      </trkpt>
      <trkpt lat="36.71310474665401" lon="117.18633267938448">
        <ele>70.1</ele>
        <time>2023-06-11T00:53:49Z</time>
      </trkpt>
      <trkpt lat="36.713080601776554" lon="117.18634737043087">
        <ele>70.1</ele>
        <time>2023-06-11T00:53:50Z</time>
      </trkpt>
      <trkpt lat="36.71305672171543" lon="117.18636186125428">
        <ele>70.1</ele>
        <time>2023-06-11T00:53:51Z</time>
      </trkpt>
      <trkpt lat="36.71303309858956" lon="117.1863762285367">
        <ele>70.1</ele>
        <time>2023-06-11T00:53:52Z</time>
      </trkpt>
      <trkpt lat="36.713009931823464" lon="117.18639032973697">
        <ele>70.1</ele>
        <time>2023-06-11T00:53:53Z</time>
      </trkpt>
      <trkpt lat="36.71298677190601" lon="117.1864044071149">
        <ele>70.1</ele>
        <time>2023-06-11T00:53:54Z</time>
      </trkpt>
      <trkpt lat="36.71296358175776" lon="117.18641848833526">
        <ele>70.8</ele>
        <time>2023-06-11T00:53:55Z</time>
      </trkpt>
      <trkpt lat="36.712940355606044" lon="117.18643253004112">
        <ele>70.8</ele>
        <time>2023-06-11T00:53:56Z</time>
      </trkpt>
      <trkpt lat="36.712917087238296" lon="117.18644656620987">
        <ele>70.8</ele>
        <time>2023-06-11T00:53:57Z</time>
      </trkpt>
      <trkpt lat="36.71289373676098" lon="117.18646055054818">
        <ele>70.8</ele>
        <time>2023-06-11T00:53:58Z</time>
      </trkpt>
      <trkpt lat="36.71287031895536" lon="117.18647446863305">
        <ele>70.8</ele>
        <time>2023-06-11T00:53:59Z</time>
      </trkpt>
      <trkpt lat="36.712846855803456" lon="117.18648829690859">
        <ele>70.8</ele>
        <time>2023-06-11T00:54:00Z</time>
      </trkpt>
      <trkpt lat="36.712823364335726" lon="117.18650195388504">
        <ele>70.8</ele>
        <time>2023-06-11T00:54:01Z</time>
      </trkpt>
      <trkpt lat="36.71279984342089" lon="117.18651531644413">
        <ele>70.8</ele>
        <time>2023-06-11T00:54:02Z</time>
      </trkpt>
      <trkpt lat="36.712775971746126" lon="117.18652846503717">
        <ele>70.8</ele>
        <time>2023-06-11T00:54:03Z</time>
      </trkpt>
      <trkpt lat="36.71275188670285" lon="117.18654134563455">
        <ele>70.8</ele>
        <time>2023-06-11T00:54:04Z</time>
      </trkpt>
      <trkpt lat="36.712727971357076" lon="117.18655374156087">
        <ele>71.3</ele>
        <time>2023-06-11T00:54:05Z</time>
      </trkpt>
      <trkpt lat="36.71270391172047" lon="117.18656579645933">
        <ele>71.3</ele>
        <time>2023-06-11T00:54:06Z</time>
      </trkpt>
      <trkpt lat="36.712679759460286" lon="117.18657751502249">
        <ele>71.3</ele>
        <time>2023-06-11T00:54:07Z</time>
      </trkpt>
      <trkpt lat="36.71265557307748" lon="117.18658891099635">
        <ele>71.3</ele>
        <time>2023-06-11T00:54:08Z</time>
      </trkpt>
      <trkpt lat="36.71263166472093" lon="117.18659984157853">
        <ele>71.3</ele>
        <time>2023-06-11T00:54:09Z</time>
      </trkpt>
      <trkpt lat="36.71260760550296" lon="117.1866105609424">
        <ele>71.3</ele>
        <time>2023-06-11T00:54:10Z</time>
      </trkpt>
      <trkpt lat="36.71258341278324" lon="117.18662109270164">
        <ele>71.3</ele>
        <time>2023-06-11T00:54:11Z</time>
      </trkpt>
      <trkpt lat="36.712559045969286" lon="117.18663143283173">
        <ele>71.3</ele>
        <time>2023-06-11T00:54:12Z</time>
      </trkpt>
      <trkpt lat="36.712534443434315" lon="117.18664171858387">
        <ele>71.3</ele>
        <time>2023-06-11T00:54:13Z</time>
      </trkpt>
      <trkpt lat="36.71250993874583" lon="117.18665187616416">
        <ele>71.3</ele>
        <time>2023-06-11T00:54:14Z</time>
      </trkpt>
      <trkpt lat="36.71248518184988" lon="117.18666216082548">
        <ele>71.4</ele>
        <time>2023-06-11T00:54:15Z</time>
      </trkpt>
      <trkpt lat="36.71246025304707" lon="117.1866726746281">
        <ele>71.4</ele>
        <time>2023-06-11T00:54:16Z</time>
      </trkpt>
      <trkpt lat="36.712435516214455" lon="117.18668338804983">
        <ele>71.4</ele>
        <time>2023-06-11T00:54:17Z</time>
      </trkpt>
      <trkpt lat="36.71241107135135" lon="117.18669433942716">
        <ele>71.4</ele>
        <time>2023-06-11T00:54:18Z</time>
      </trkpt>
      <trkpt lat="36.7123867132812" lon="117.18670558214389">
        <ele>71.4</ele>
        <time>2023-06-11T00:54:19Z</time>
      </trkpt>
      <trkpt lat="36.71236235269379" lon="117.18671729004389">
        <ele>71.4</ele>
        <time>2023-06-11T00:54:20Z</time>
      </trkpt>
      <trkpt lat="36.71233841893028" lon="117.18672916819504">
        <ele>71.4</ele>
        <time>2023-06-11T00:54:21Z</time>
      </trkpt>
      <trkpt lat="36.712314624596" lon="117.18674138561005">
        <ele>71.4</ele>
        <time>2023-06-11T00:54:22Z</time>
      </trkpt>
      <trkpt lat="36.71229139554258" lon="117.18675380414072">
        <ele>71.4</ele>
        <time>2023-06-11T00:54:23Z</time>
      </trkpt>
      <trkpt lat="36.71226853616685" lon="117.18676660428578">
        <ele>71.4</ele>
        <time>2023-06-11T00:54:24Z</time>
      </trkpt>
      <trkpt lat="36.71224611605423" lon="117.18677971909533">
        <ele>72.2</ele>
        <time>2023-06-11T00:54:25Z</time>
      </trkpt>
      <trkpt lat="36.71222449454746" lon="117.18679294092024">
        <ele>72.2</ele>
        <time>2023-06-11T00:54:26Z</time>
      </trkpt>
      <trkpt lat="36.71220328675689" lon="117.18680640987942">
        <ele>72.2</ele>
        <time>2023-06-11T00:54:27Z</time>
      </trkpt>
      <trkpt lat="36.712182421547254" lon="117.18681988284088">
        <ele>72.2</ele>
        <time>2023-06-11T00:54:28Z</time>
      </trkpt>
      <trkpt lat="36.712162015298894" lon="117.18683316912518">
        <ele>72.2</ele>
        <time>2023-06-11T00:54:29Z</time>
      </trkpt>
      <trkpt lat="36.712141857072716" lon="117.1868464594849">
        <ele>72.2</ele>
        <time>2023-06-11T00:54:30Z</time>
      </trkpt>
      <trkpt lat="36.71212204829745" lon="117.18685965285046">
        <ele>72.2</ele>
        <time>2023-06-11T00:54:31Z</time>
      </trkpt>
      <trkpt lat="36.71210266098414" lon="117.18687298076337">
        <ele>72.2</ele>
        <time>2023-06-11T00:54:32Z</time>
      </trkpt>
      <trkpt lat="36.71208406676911" lon="117.18688638176229">
        <ele>72.2</ele>
        <time>2023-06-11T00:54:33Z</time>
      </trkpt>
      <trkpt lat="36.71206620286301" lon="117.18689992460047">
        <ele>72.2</ele>
        <time>2023-06-11T00:54:34Z</time>
      </trkpt>
      <trkpt lat="36.71204924017565" lon="117.18691336527876">
        <ele>71.7</ele>
        <time>2023-06-11T00:54:35Z</time>
      </trkpt>
      <trkpt lat="36.712032924405285" lon="117.18692665248837">
        <ele>71.7</ele>
        <time>2023-06-11T00:54:36Z</time>
      </trkpt>
      <trkpt lat="36.71201673947503" lon="117.18693998541713">
        <ele>71.7</ele>
        <time>2023-06-11T00:54:37Z</time>
      </trkpt>
      <trkpt lat="36.71200084564198" lon="117.18695313311962">
        <ele>71.7</ele>
        <time>2023-06-11T00:54:38Z</time>
      </trkpt>
      <trkpt lat="36.711984871343994" lon="117.18696653644389">
        <ele>71.7</ele>
        <time>2023-06-11T00:54:39Z</time>
      </trkpt>
      <trkpt lat="36.7119687813325" lon="117.18698021712682">
        <ele>71.7</ele>
        <time>2023-06-11T00:54:40Z</time>
      </trkpt>
      <trkpt lat="36.7119527732262" lon="117.18699399438977">
        <ele>71.7</ele>
        <time>2023-06-11T00:54:41Z</time>
      </trkpt>
      <trkpt lat="36.71193642828616" lon="117.1870080483051">
        <ele>71.7</ele>
        <time>2023-06-11T00:54:42Z</time>
      </trkpt>
      <trkpt lat="36.71191956017709" lon="117.1870222011873">
        <ele>71.7</ele>
        <time>2023-06-11T00:54:43Z</time>
      </trkpt>
      <trkpt lat="36.71190192650087" lon="117.18703630488442">
        <ele>71.7</ele>
        <time>2023-06-11T00:54:44Z</time>
      </trkpt>
      <trkpt lat="36.71188312025083" lon="117.18705048806741">
        <ele>71.3</ele>
        <time>2023-06-11T00:54:45Z</time>
      </trkpt>
      <trkpt lat="36.711863235024545" lon="117.1870647707162">
        <ele>71.3</ele>
        <time>2023-06-11T00:54:46Z</time>
      </trkpt>
      <trkpt lat="36.71184232027395" lon="117.1870792450307">
        <ele>71.3</ele>
        <time>2023-06-11T00:54:47Z</time>
      </trkpt>
      <trkpt lat="36.71182048884351" lon="117.18709386474724">
        <ele>71.3</ele>
        <time>2023-06-11T00:54:48Z</time>
      </trkpt>
      <trkpt lat="36.71179790368796" lon="117.18710863855898">
        <ele>71.3</ele>
        <time>2023-06-11T00:54:49Z</time>
      </trkpt>
      <trkpt lat="36.711774694054675" lon="117.18712342040304">
        <ele>71.3</ele>
        <time>2023-06-11T00:54:50Z</time>
      </trkpt>
      <trkpt lat="36.71175101117309" lon="117.1871381428697">
        <ele>71.3</ele>
        <time>2023-06-11T00:54:51Z</time>
      </trkpt>
      <trkpt lat="36.711726713966634" lon="117.18715290277001">
        <ele>71.3</ele>
        <time>2023-06-11T00:54:52Z</time>
      </trkpt>
      <trkpt lat="36.71170225218006" lon="117.18716740300974">
        <ele>71.3</ele>
        <time>2023-06-11T00:54:53Z</time>
      </trkpt>
      <trkpt lat="36.71167768329294" lon="117.18718161282665">
        <ele>71.3</ele>
        <time>2023-06-11T00:54:54Z</time>
      </trkpt>
      <trkpt lat="36.711652786564436" lon="117.18719572510454">
        <ele>72.5</ele>
        <time>2023-06-11T00:54:55Z</time>
      </trkpt>
      <trkpt lat="36.71162798426331" lon="117.18720952792647">
        <ele>72.5</ele>
        <time>2023-06-11T00:54:56Z</time>
      </trkpt>
      <trkpt lat="36.71160294573151" lon="117.18722313820905">
        <ele>72.5</ele>
        <time>2023-06-11T00:54:57Z</time>
      </trkpt>
      <trkpt lat="36.711577778702996" lon="117.1872365186348">
        <ele>72.5</ele>
        <time>2023-06-11T00:54:58Z</time>
      </trkpt>
      <trkpt lat="36.711552837325534" lon="117.187249463782">
        <ele>72.5</ele>
        <time>2023-06-11T00:54:59Z</time>
      </trkpt>
      <trkpt lat="36.711527781592316" lon="117.18726212434227">
        <ele>72.5</ele>
        <time>2023-06-11T00:55:00Z</time>
      </trkpt>
      <trkpt lat="36.711502931162734" lon="117.18727441241428">
        <ele>72.5</ele>
        <time>2023-06-11T00:55:01Z</time>
      </trkpt>
      <trkpt lat="36.71147797301181" lon="117.18728662968098">
        <ele>72.5</ele>
        <time>2023-06-11T00:55:02Z</time>
      </trkpt>
      <trkpt lat="36.71145324986204" lon="117.18729872971288">
        <ele>72.5</ele>
        <time>2023-06-11T00:55:03Z</time>
      </trkpt>
      <trkpt lat="36.7114287185606" lon="117.18731073936603">
        <ele>72.5</ele>
        <time>2023-06-11T00:55:04Z</time>
      </trkpt>
      <trkpt lat="36.71140422213267" lon="117.18732321126782">
        <ele>72.5</ele>
        <time>2023-06-11T00:55:05Z</time>
      </trkpt>
      <trkpt lat="36.71138016219483" lon="117.18733605150223">
        <ele>72.5</ele>
        <time>2023-06-11T00:55:06Z</time>
      </trkpt>
      <trkpt lat="36.711356250818966" lon="117.18734948243986">
        <ele>72.5</ele>
        <time>2023-06-11T00:55:07Z</time>
      </trkpt>
      <trkpt lat="36.711332829081606" lon="117.18736333845457">
        <ele>72.5</ele>
        <time>2023-06-11T00:55:08Z</time>
      </trkpt>
      <trkpt lat="36.71130961586899" lon="117.18737781042907">
        <ele>72.5</ele>
        <time>2023-06-11T00:55:09Z</time>
      </trkpt>
      <trkpt lat="36.71128658192616" lon="117.18739278638829">
        <ele>72.5</ele>
        <time>2023-06-11T00:55:10Z</time>
      </trkpt>
      <trkpt lat="36.71126399278036" lon="117.18740798238997">
        <ele>72.5</ele>
        <time>2023-06-11T00:55:11Z</time>
      </trkpt>
      <trkpt lat="36.71124146414993" lon="117.18742341397237">
        <ele>72.5</ele>
        <time>2023-06-11T00:55:12Z</time>
      </trkpt>
      <trkpt lat="36.71121922078402" lon="117.1874387276283">
        <ele>72.5</ele>
        <time>2023-06-11T00:55:13Z</time>
      </trkpt>
      <trkpt lat="36.71119715819292" lon="117.18745373146132">
        <ele>72.5</ele>
        <time>2023-06-11T00:55:14Z</time>
      </trkpt>
      <trkpt lat="36.71117495589082" lon="117.1874685542562">
        <ele>72.8</ele>
        <time>2023-06-11T00:55:15Z</time>
      </trkpt>
      <trkpt lat="36.71115280678796" lon="117.18748264416116">
        <ele>72.8</ele>
        <time>2023-06-11T00:55:16Z</time>
      </trkpt>
      <trkpt lat="36.71113035523858" lon="117.18749605712844">
        <ele>72.8</ele>
        <time>2023-06-11T00:55:17Z</time>
      </trkpt>
      <trkpt lat="36.711107925303914" lon="117.1875086299311">
        <ele>72.8</ele>
        <time>2023-06-11T00:55:18Z</time>
      </trkpt>
      <trkpt lat="36.71108548206125" lon="117.1875205175191">
        <ele>72.8</ele>
        <time>2023-06-11T00:55:19Z</time>
      </trkpt>
      <trkpt lat="36.71106303746136" lon="117.18753181155193">
        <ele>72.8</ele>
        <time>2023-06-11T00:55:20Z</time>
      </trkpt>
      <trkpt lat="36.71104065258832" lon="117.18754278719095">
        <ele>72.8</ele>
        <time>2023-06-11T00:55:21Z</time>
      </trkpt>
      <trkpt lat="36.71101833738445" lon="117.18755361384821">
        <ele>72.8</ele>
        <time>2023-06-11T00:55:22Z</time>
      </trkpt>
      <trkpt lat="36.71099642245016" lon="117.18756431619018">
        <ele>72.8</ele>
        <time>2023-06-11T00:55:23Z</time>
      </trkpt>
      <trkpt lat="36.71097489686472" lon="117.18757505765737">
        <ele>72.8</ele>
        <time>2023-06-11T00:55:24Z</time>
      </trkpt>
      <trkpt lat="36.71095348212383" lon="117.18758624770389">
        <ele>73.7</ele>
        <time>2023-06-11T00:55:25Z</time>
      </trkpt>
      <trkpt lat="36.710932480679325" lon="117.18759789363772">
        <ele>73.7</ele>
        <time>2023-06-11T00:55:26Z</time>
      </trkpt>
      <trkpt lat="36.71091182514232" lon="117.18761019941503">
        <ele>73.7</ele>
        <time>2023-06-11T00:55:27Z</time>
      </trkpt>
      <trkpt lat="36.710891870332894" lon="117.18762312096929">
        <ele>73.7</ele>
        <time>2023-06-11T00:55:28Z</time>
      </trkpt>
      <trkpt lat="36.710872450180545" lon="117.18763689661695">
        <ele>73.7</ele>
        <time>2023-06-11T00:55:29Z</time>
      </trkpt>
      <trkpt lat="36.7108534723663" lon="117.18765161516565">
        <ele>73.7</ele>
        <time>2023-06-11T00:55:30Z</time>
      </trkpt>
      <trkpt lat="36.71083522655435" lon="117.18766716818229">
        <ele>73.7</ele>
        <time>2023-06-11T00:55:31Z</time>
      </trkpt>
      <trkpt lat="36.71081743363803" lon="117.18768393344608">
        <ele>73.7</ele>
        <time>2023-06-11T00:55:32Z</time>
      </trkpt>
      <trkpt lat="36.71080007942781" lon="117.18770196699273">
        <ele>73.7</ele>
        <time>2023-06-11T00:55:33Z</time>
      </trkpt>
      <trkpt lat="36.710783055714565" lon="117.18772120259283">
        <ele>73.7</ele>
        <time>2023-06-11T00:55:34Z</time>
      </trkpt>
      <trkpt lat="36.7107661009796" lon="117.18774194204363">
        <ele>74.6</ele>
        <time>2023-06-11T00:55:35Z</time>
      </trkpt>
      <trkpt lat="36.71074941373317" lon="117.18776379547006">
        <ele>74.6</ele>
        <time>2023-06-11T00:55:36Z</time>
      </trkpt>
      <trkpt lat="36.710732688839975" lon="117.1877868765004">
        <ele>74.6</ele>
        <time>2023-06-11T00:55:37Z</time>
      </trkpt>
      <trkpt lat="36.710715891072695" lon="117.18781092599392">
        <ele>74.6</ele>
        <time>2023-06-11T00:55:38Z</time>
      </trkpt>
      <trkpt lat="36.71069868655226" lon="117.18783612957843">
        <ele>74.6</ele>
        <time>2023-06-11T00:55:39Z</time>
      </trkpt>
      <trkpt lat="36.7106811920856" lon="117.18786210619405">
        <ele>74.6</ele>
        <time>2023-06-11T00:55:40Z</time>
      </trkpt>
      <trkpt lat="36.7106633291414" lon="117.18788859278555">
        <ele>74.6</ele>
        <time>2023-06-11T00:55:41Z</time>
      </trkpt>
      <trkpt lat="36.710644682806475" lon="117.18791562048173">
        <ele>74.6</ele>
        <time>2023-06-11T00:55:42Z</time>
      </trkpt>
      <trkpt lat="36.71062536868509" lon="117.1879424784236">
        <ele>74.6</ele>
        <time>2023-06-11T00:55:43Z</time>
      </trkpt>
      <trkpt lat="36.710605043999614" lon="117.18796909222766">
        <ele>74.6</ele>
        <time>2023-06-11T00:55:44Z</time>
      </trkpt>
      <trkpt lat="36.71058374712757" lon="117.18799517066999">
        <ele>74.5</ele>
        <time>2023-06-11T00:55:45Z</time>
      </trkpt>
      <trkpt lat="36.71056171826436" lon="117.18802028000569">
        <ele>74.5</ele>
        <time>2023-06-11T00:55:46Z</time>
      </trkpt>
      <trkpt lat="36.71053872778257" lon="117.18804471568225">
        <ele>74.5</ele>
        <time>2023-06-11T00:55:47Z</time>
      </trkpt>
      <trkpt lat="36.71051514169231" lon="117.18806831008321">
        <ele>74.5</ele>
        <time>2023-06-11T00:55:48Z</time>
      </trkpt>
      <trkpt lat="36.71049074266332" lon="117.18809147962222">
        <ele>74.5</ele>
        <time>2023-06-11T00:55:49Z</time>
      </trkpt>
      <trkpt lat="36.71046590773229" lon="117.18811404380041">
        <ele>74.5</ele>
        <time>2023-06-11T00:55:50Z</time>
      </trkpt>
      <trkpt lat="36.71044066813298" lon="117.18813613770836">
        <ele>74.5</ele>
        <time>2023-06-11T00:55:51Z</time>
      </trkpt>
      <trkpt lat="36.71041495647629" lon="117.18815811352397">
        <ele>74.5</ele>
        <time>2023-06-11T00:55:52Z</time>
      </trkpt>
      <trkpt lat="36.7103890092298" lon="117.18818004218942">
        <ele>74.5</ele>
        <time>2023-06-11T00:55:53Z</time>
      </trkpt>
      <trkpt lat="36.71036308098288" lon="117.18820211660805">
        <ele>74.5</ele>
        <time>2023-06-11T00:55:54Z</time>
      </trkpt>
      <trkpt lat="36.71033761907199" lon="117.18822423181531">
        <ele>75.2</ele>
        <time>2023-06-11T00:55:55Z</time>
      </trkpt>
      <trkpt lat="36.71031244154809" lon="117.18824680322261">
        <ele>75.2</ele>
        <time>2023-06-11T00:55:56Z</time>
      </trkpt>
      <trkpt lat="36.71028760349207" lon="117.18826976473892">
        <ele>75.2</ele>
        <time>2023-06-11T00:55:57Z</time>
      </trkpt>
      <trkpt lat="36.71026320721091" lon="117.18829304799664">
        <ele>75.2</ele>
        <time>2023-06-11T00:55:58Z</time>
      </trkpt>
      <trkpt lat="36.71023916073968" lon="117.18831642028024">
        <ele>75.2</ele>
        <time>2023-06-11T00:55:59Z</time>
      </trkpt>
      <trkpt lat="36.71021571743021" lon="117.18833948698531">
        <ele>75.2</ele>
        <time>2023-06-11T00:56:00Z</time>
      </trkpt>
      <trkpt lat="36.710192510054895" lon="117.18836240188355">
        <ele>75.2</ele>
        <time>2023-06-11T00:56:01Z</time>
      </trkpt>
      <trkpt lat="36.71016953212011" lon="117.18838503231012">
        <ele>75.2</ele>
        <time>2023-06-11T00:56:02Z</time>
      </trkpt>
      <trkpt lat="36.71014676001026" lon="117.1884072148004">
        <ele>75.2</ele>
        <time>2023-06-11T00:56:03Z</time>
      </trkpt>
      <trkpt lat="36.71012439194041" lon="117.1884285873019">
        <ele>75.2</ele>
        <time>2023-06-11T00:56:04Z</time>
      </trkpt>
      <trkpt lat="36.71010232439724" lon="117.18844915169421">
        <ele>75.7</ele>
        <time>2023-06-11T00:56:05Z</time>
      </trkpt>
      <trkpt lat="36.71008021185126" lon="117.18846917972718">
        <ele>75.7</ele>
        <time>2023-06-11T00:56:06Z</time>
      </trkpt>
      <trkpt lat="36.71005832795302" lon="117.1884885089606">
        <ele>75.7</ele>
        <time>2023-06-11T00:56:07Z</time>
      </trkpt>
      <trkpt lat="36.71003635698019" lon="117.18850746832605">
        <ele>75.7</ele>
        <time>2023-06-11T00:56:08Z</time>
      </trkpt>
      <trkpt lat="36.7100145402536" lon="117.18852581810256">
        <ele>75.7</ele>
        <time>2023-06-11T00:56:09Z</time>
      </trkpt>
      <trkpt lat="36.70999285871037" lon="117.18854358654349">
        <ele>75.7</ele>
        <time>2023-06-11T00:56:10Z</time>
      </trkpt>
      <trkpt lat="36.70997097161873" lon="117.18856085019492">
        <ele>75.7</ele>
        <time>2023-06-11T00:56:11Z</time>
      </trkpt>
      <trkpt lat="36.709949119438434" lon="117.18857715257289">
        <ele>75.7</ele>
        <time>2023-06-11T00:56:12Z</time>
      </trkpt>
      <trkpt lat="36.70992724931013" lon="117.18859246008252">
        <ele>75.7</ele>
        <time>2023-06-11T00:56:13Z</time>
      </trkpt>
      <trkpt lat="36.70990528736592" lon="117.18860661663992">
        <ele>75.7</ele>
        <time>2023-06-11T00:56:14Z</time>
      </trkpt>
      <trkpt lat="36.709883223690504" lon="117.1886197929323">
        <ele>77.1</ele>
        <time>2023-06-11T00:56:15Z</time>
      </trkpt>
      <trkpt lat="36.70986095735673" lon="117.18863184155933">
        <ele>77.1</ele>
        <time>2023-06-11T00:56:16Z</time>
      </trkpt>
      <trkpt lat="36.70983842282855" lon="117.18864267805795">
        <ele>77.1</ele>
        <time>2023-06-11T00:56:17Z</time>
      </trkpt>
      <trkpt lat="36.70981562536658" lon="117.18865244162716">
        <ele>77.1</ele>
        <time>2023-06-11T00:56:18Z</time>
      </trkpt>
      <trkpt lat="36.709792543248135" lon="117.18866114742202">
        <ele>77.1</ele>
        <time>2023-06-11T00:56:19Z</time>
      </trkpt>
      <trkpt lat="36.70976927103257" lon="117.18866903279198">
        <ele>77.1</ele>
        <time>2023-06-11T00:56:20Z</time>
      </trkpt>
      <trkpt lat="36.709745907138505" lon="117.18867626231302">
        <ele>77.1</ele>
        <time>2023-06-11T00:56:21Z</time>
      </trkpt>
      <trkpt lat="36.70972251052077" lon="117.18868291285844">
        <ele>77.1</ele>
        <time>2023-06-11T00:56:22Z</time>
      </trkpt>
      <trkpt lat="36.70969915836042" lon="117.18868906798866">
        <ele>77.1</ele>
        <time>2023-06-11T00:56:23Z</time>
      </trkpt>
      <trkpt lat="36.70967556344565" lon="117.1886947864776">
        <ele>77.1</ele>
        <time>2023-06-11T00:56:24Z</time>
      </trkpt>
      <trkpt lat="36.70965209774483" lon="117.1887000400948">
        <ele>77.5</ele>
        <time>2023-06-11T00:56:25Z</time>
      </trkpt>
      <trkpt lat="36.70962874725355" lon="117.18870478736861">
        <ele>77.5</ele>
        <time>2023-06-11T00:56:26Z</time>
      </trkpt>
      <trkpt lat="36.70960526208169" lon="117.18870923304992">
        <ele>77.5</ele>
        <time>2023-06-11T00:56:27Z</time>
      </trkpt>
      <trkpt lat="36.709582043252254" lon="117.18871337273723">
        <ele>77.5</ele>
        <time>2023-06-11T00:56:28Z</time>
      </trkpt>
      <trkpt lat="36.70955905524922" lon="117.18871709850441">
        <ele>77.5</ele>
        <time>2023-06-11T00:56:29Z</time>
      </trkpt>
      <trkpt lat="36.70953629993949" lon="117.1887202770019">
        <ele>77.5</ele>
        <time>2023-06-11T00:56:30Z</time>
      </trkpt>
      <trkpt lat="36.70951372907613" lon="117.18872280606101">
        <ele>77.5</ele>
        <time>2023-06-11T00:56:31Z</time>
      </trkpt>
      <trkpt lat="36.70949130757587" lon="117.1887246578087">
        <ele>77.5</ele>
        <time>2023-06-11T00:56:32Z</time>
      </trkpt>
      <trkpt lat="36.70946944248887" lon="117.18872592006113">
        <ele>77.5</ele>
        <time>2023-06-11T00:56:33Z</time>
      </trkpt>
      <trkpt lat="36.70944796460404" lon="117.18872680073325">
        <ele>77.5</ele>
        <time>2023-06-11T00:56:34Z</time>
      </trkpt>
      <trkpt lat="36.70942319110771" lon="117.18872745820504">
        <ele>0</ele>
        <time>2023-06-11T00:56:35Z</time>
      </trkpt>
      <trkpt lat="36.709401635889684" lon="117.18872777860697">
        <ele>0</ele>
        <time>2023-06-11T00:56:36Z</time>
      </trkpt>
      <trkpt lat="36.709381389690066" lon="117.18872748796002">
        <ele>0</ele>
        <time>2023-06-11T00:56:37Z</time>
      </trkpt>
      <trkpt lat="36.709363604642256" lon="117.1887284010346">
        <ele>0</ele>
        <time>2023-06-11T00:56:38Z</time>
      </trkpt>
    </trkseg>
  </trk>
</gpx>