<?xml version="1.0" encoding="UTF-8"?>
<gpx xmlns="http://www.topografix.com/GPX/1/1" xmlns:gpxtpx="http://www.garmin.com/xmlschemas/TrackPointExtension/v1" xmlns:xsi="http://www.w3.org/2001/XMLSchema-instance" xsi:schemaLocation="http://www.topografix.com/GPX/1/1 http://www.topografix.com/GPX/1/1/gpx.xsd" version="1.1" creator="gpx.py -- https://github.com/tkrajina/gpxpy">
  <trk>
    <name>gpx from codoon</name>
    <type>Run</type>
    <trkseg>
      <trkpt lat="36.69588241010102" lon="117.22138332208492">
        <ele>76</ele>
        <time>2023-06-29T11:20:13Z</time>
      </trkpt>
      <trkpt lat="36.69587922856587" lon="117.2213502893068">
        <ele>76</ele>
        <time>2023-06-29T11:20:14Z</time>
      </trkpt>
      <trkpt lat="36.69587399648298" lon="117.2213072177597">
        <ele>76</ele>
        <time>2023-06-29T11:20:15Z</time>
      </trkpt>
      <trkpt lat="36.69587530604539" lon="117.22126099912619">
        <ele>76</ele>
        <time>2023-06-29T11:20:16Z</time>
      </trkpt>
      <trkpt lat="36.695878262399205" lon="117.22121027563044">
        <ele>76</ele>
        <time>2023-06-29T11:20:17Z</time>
      </trkpt>
      <trkpt lat="36.69588699475507" lon="117.22115850601875">
        <ele>77.1</ele>
        <time>2023-06-29T11:20:18Z</time>
      </trkpt>
      <trkpt lat="36.69588826988236" lon="117.22111216531208">
        <ele>77.1</ele>
        <time>2023-06-29T11:20:19Z</time>
      </trkpt>
      <trkpt lat="36.6958898315277" lon="117.22106473906929">
        <ele>77.1</ele>
        <time>2023-06-29T11:20:20Z</time>
      </trkpt>
      <trkpt lat="36.69589196199864" lon="117.22101686236094">
        <ele>77.1</ele>
        <time>2023-06-29T11:20:21Z</time>
      </trkpt>
      <trkpt lat="36.69589410509344" lon="117.22096904817407">
        <ele>77.1</ele>
        <time>2023-06-29T11:20:22Z</time>
      </trkpt>
      <trkpt lat="36.69589610640041" lon="117.22092146668791">
        <ele>77.1</ele>
        <time>2023-06-29T11:20:23Z</time>
      </trkpt>
      <trkpt lat="36.69589751465133" lon="117.2208741921885">
        <ele>77.1</ele>
        <time>2023-06-29T11:20:24Z</time>
      </trkpt>
      <trkpt lat="36.69589856299666" lon="117.22082766347825">
        <ele>77.1</ele>
        <time>2023-06-29T11:20:25Z</time>
      </trkpt>
      <trkpt lat="36.695899351939346" lon="117.22078131986285">
        <ele>77.1</ele>
        <time>2023-06-29T11:20:26Z</time>
      </trkpt>
      <trkpt lat="36.695900066031164" lon="117.22073554019241">
        <ele>77.1</ele>
        <time>2023-06-29T11:20:27Z</time>
      </trkpt>
      <trkpt lat="36.69590091113036" lon="117.22069018846442">
        <ele>76.5</ele>
        <time>2023-06-29T11:20:28Z</time>
      </trkpt>
      <trkpt lat="36.6959019470506" lon="117.2206447210509">
        <ele>76.5</ele>
        <time>2023-06-29T11:20:29Z</time>
      </trkpt>
      <trkpt lat="36.69590317214424" lon="117.22059959680917">
        <ele>76.5</ele>
        <time>2023-06-29T11:20:30Z</time>
      </trkpt>
      <trkpt lat="36.695904528879844" lon="117.22055435692413">
        <ele>76.5</ele>
        <time>2023-06-29T11:20:31Z</time>
      </trkpt>
      <trkpt lat="36.695905908618684" lon="117.22050950678317">
        <ele>76.5</ele>
        <time>2023-06-29T11:20:32Z</time>
      </trkpt>
      <trkpt lat="36.695907253626196" lon="117.22046498887102">
        <ele>76.5</ele>
        <time>2023-06-29T11:20:33Z</time>
      </trkpt>
      <trkpt lat="36.695908613458485" lon="117.22042079365221">
        <ele>76.5</ele>
        <time>2023-06-29T11:20:34Z</time>
      </trkpt>
      <trkpt lat="36.69590996706362" lon="117.22037684923531">
        <ele>76.5</ele>
        <time>2023-06-29T11:20:35Z</time>
      </trkpt>
      <trkpt lat="36.69591138149841" lon="117.22033275568185">
        <ele>76.5</ele>
        <time>2023-06-29T11:20:36Z</time>
      </trkpt>
      <trkpt lat="36.69591291231755" lon="117.22028895776813">
        <ele>76.5</ele>
        <time>2023-06-29T11:20:37Z</time>
      </trkpt>
      <trkpt lat="36.695914606605704" lon="117.22024498333839">
        <ele>76.6</ele>
        <time>2023-06-29T11:20:38Z</time>
      </trkpt>
      <trkpt lat="36.695916440820135" lon="117.22020090587526">
        <ele>76.6</ele>
        <time>2023-06-29T11:20:39Z</time>
      </trkpt>
      <trkpt lat="36.69591840807384" lon="117.22015683784949">
        <ele>76.6</ele>
        <time>2023-06-29T11:20:40Z</time>
      </trkpt>
      <trkpt lat="36.69592045559728" lon="117.22011284387675">
        <ele>76.6</ele>
        <time>2023-06-29T11:20:41Z</time>
      </trkpt>
      <trkpt lat="36.69592248823039" lon="117.22006938162019">
        <ele>76.6</ele>
        <time>2023-06-29T11:20:42Z</time>
      </trkpt>
      <trkpt lat="36.69592453430956" lon="117.22002639938069">
        <ele>76.6</ele>
        <time>2023-06-29T11:20:43Z</time>
      </trkpt>
      <trkpt lat="36.695926616911414" lon="117.21998344795672">
        <ele>76.6</ele>
        <time>2023-06-29T11:20:44Z</time>
      </trkpt>
      <trkpt lat="36.69592871258856" lon="117.21994098237195">
        <ele>76.6</ele>
        <time>2023-06-29T11:20:45Z</time>
      </trkpt>
      <trkpt lat="36.695930830354214" lon="117.21989857536302">
        <ele>76.6</ele>
        <time>2023-06-29T11:20:46Z</time>
      </trkpt>
      <trkpt lat="36.69593296768471" lon="117.21985662254741">
        <ele>76.6</ele>
        <time>2023-06-29T11:20:47Z</time>
      </trkpt>
      <trkpt lat="36.69593499854471" lon="117.21981469684647">
        <ele>76.8</ele>
        <time>2023-06-29T11:20:48Z</time>
      </trkpt>
      <trkpt lat="36.69593685042911" lon="117.21977321525007">
        <ele>76.8</ele>
        <time>2023-06-29T11:20:49Z</time>
      </trkpt>
      <trkpt lat="36.6959385498643" lon="117.2197320774273">
        <ele>76.8</ele>
        <time>2023-06-29T11:20:50Z</time>
      </trkpt>
      <trkpt lat="36.695940139082126" lon="117.21969116003433">
        <ele>76.8</ele>
        <time>2023-06-29T11:20:51Z</time>
      </trkpt>
      <trkpt lat="36.695941672248715" lon="117.21965035924755">
        <ele>76.8</ele>
        <time>2023-06-29T11:20:52Z</time>
      </trkpt>
      <trkpt lat="36.69594325672446" lon="117.21960918524867">
        <ele>76.8</ele>
        <time>2023-06-29T11:20:53Z</time>
      </trkpt>
      <trkpt lat="36.69594486743756" lon="117.21956770741194">
        <ele>76.8</ele>
        <time>2023-06-29T11:20:54Z</time>
      </trkpt>
      <trkpt lat="36.695946411952136" lon="117.2195258719257">
        <ele>76.8</ele>
        <time>2023-06-29T11:20:55Z</time>
      </trkpt>
      <trkpt lat="36.69594784950135" lon="117.21948366502687">
        <ele>76.8</ele>
        <time>2023-06-29T11:20:56Z</time>
      </trkpt>
      <trkpt lat="36.69594909214671" lon="117.2194414935028">
        <ele>76.8</ele>
        <time>2023-06-29T11:20:57Z</time>
      </trkpt>
      <trkpt lat="36.695950106254486" lon="117.21939893100071">
        <ele>77.6</ele>
        <time>2023-06-29T11:20:58Z</time>
      </trkpt>
      <trkpt lat="36.69595095669895" lon="117.21935609891926">
        <ele>77.6</ele>
        <time>2023-06-29T11:20:59Z</time>
      </trkpt>
      <trkpt lat="36.69595171758555" lon="117.21931311463278">
        <ele>77.6</ele>
        <time>2023-06-29T11:21:00Z</time>
      </trkpt>
      <trkpt lat="36.695952418559955" lon="117.21926967309336">
        <ele>77.6</ele>
        <time>2023-06-29T11:21:01Z</time>
      </trkpt>
      <trkpt lat="36.695953208933396" lon="117.21922635463184">
        <ele>77.6</ele>
        <time>2023-06-29T11:21:02Z</time>
      </trkpt>
      <trkpt lat="36.695954234481526" lon="117.21918314945937">
        <ele>77.6</ele>
        <time>2023-06-29T11:21:03Z</time>
      </trkpt>
      <trkpt lat="36.69595561736717" lon="117.21914010795042">
        <ele>77.6</ele>
        <time>2023-06-29T11:21:04Z</time>
      </trkpt>
      <trkpt lat="36.695957314238875" lon="117.21909714679924">
        <ele>77.6</ele>
        <time>2023-06-29T11:21:05Z</time>
      </trkpt>
      <trkpt lat="36.69595928965413" lon="117.21905465728953">
        <ele>77.6</ele>
        <time>2023-06-29T11:21:06Z</time>
      </trkpt>
      <trkpt lat="36.69596136032575" lon="117.21901208370065">
        <ele>77.6</ele>
        <time>2023-06-29T11:21:07Z</time>
      </trkpt>
      <trkpt lat="36.6959633241259" lon="117.21896940150594">
        <ele>76.7</ele>
        <time>2023-06-29T11:21:08Z</time>
      </trkpt>
      <trkpt lat="36.69596499684999" lon="117.21892657023507">
        <ele>76.7</ele>
        <time>2023-06-29T11:21:09Z</time>
      </trkpt>
      <trkpt lat="36.695966388518556" lon="117.21888395671198">
        <ele>76.7</ele>
        <time>2023-06-29T11:21:10Z</time>
      </trkpt>
      <trkpt lat="36.69596748732928" lon="117.21884100561091">
        <ele>76.7</ele>
        <time>2023-06-29T11:21:11Z</time>
      </trkpt>
      <trkpt lat="36.695968264118925" lon="117.21879819480776">
        <ele>76.7</ele>
        <time>2023-06-29T11:21:12Z</time>
      </trkpt>
      <trkpt lat="36.695968871561135" lon="117.2187553276418">
        <ele>76.7</ele>
        <time>2023-06-29T11:21:13Z</time>
      </trkpt>
      <trkpt lat="36.69596927997093" lon="117.21871233725767">
        <ele>76.7</ele>
        <time>2023-06-29T11:21:14Z</time>
      </trkpt>
      <trkpt lat="36.695969380555375" lon="117.2186691422963">
        <ele>76.7</ele>
        <time>2023-06-29T11:21:15Z</time>
      </trkpt>
      <trkpt lat="36.69596921960186" lon="117.21862580449823">
        <ele>76.7</ele>
        <time>2023-06-29T11:21:16Z</time>
      </trkpt>
      <trkpt lat="36.6959689096864" lon="117.21858201811402">
        <ele>76.7</ele>
        <time>2023-06-29T11:21:17Z</time>
      </trkpt>
      <trkpt lat="36.695968573317444" lon="117.21853835505678">
        <ele>77.4</ele>
        <time>2023-06-29T11:21:18Z</time>
      </trkpt>
      <trkpt lat="36.695968431068096" lon="117.21849441714639">
        <ele>77.4</ele>
        <time>2023-06-29T11:21:19Z</time>
      </trkpt>
      <trkpt lat="36.6959686563032" lon="117.21845073261623">
        <ele>77.4</ele>
        <time>2023-06-29T11:21:20Z</time>
      </trkpt>
      <trkpt lat="36.695969232194194" lon="117.2184072645051">
        <ele>77.4</ele>
        <time>2023-06-29T11:21:21Z</time>
      </trkpt>
      <trkpt lat="36.69597013549828" lon="117.21836401670124">
        <ele>77.4</ele>
        <time>2023-06-29T11:21:22Z</time>
      </trkpt>
      <trkpt lat="36.69597138712491" lon="117.21832090773832">
        <ele>77.4</ele>
        <time>2023-06-29T11:21:23Z</time>
      </trkpt>
      <trkpt lat="36.69597267424022" lon="117.21827764544655">
        <ele>77.4</ele>
        <time>2023-06-29T11:21:24Z</time>
      </trkpt>
      <trkpt lat="36.69597386715315" lon="117.2182343766424">
        <ele>77.4</ele>
        <time>2023-06-29T11:21:25Z</time>
      </trkpt>
      <trkpt lat="36.69597488737988" lon="117.21819117444093">
        <ele>77.4</ele>
        <time>2023-06-29T11:21:26Z</time>
      </trkpt>
      <trkpt lat="36.695975720493564" lon="117.21814805602924">
        <ele>77.4</ele>
        <time>2023-06-29T11:21:27Z</time>
      </trkpt>
      <trkpt lat="36.69597637023275" lon="117.21810500207805">
        <ele>77.2</ele>
        <time>2023-06-29T11:21:28Z</time>
      </trkpt>
      <trkpt lat="36.69597694132782" lon="117.21806200014537">
        <ele>77.2</ele>
        <time>2023-06-29T11:21:29Z</time>
      </trkpt>
      <trkpt lat="36.695977480207716" lon="117.21801909680941">
        <ele>77.2</ele>
        <time>2023-06-29T11:21:30Z</time>
      </trkpt>
      <trkpt lat="36.695978055749805" lon="117.21797618494318">
        <ele>77.2</ele>
        <time>2023-06-29T11:21:31Z</time>
      </trkpt>
      <trkpt lat="36.69597867589648" lon="117.21793280455488">
        <ele>77.2</ele>
        <time>2023-06-29T11:21:32Z</time>
      </trkpt>
      <trkpt lat="36.69597932287723" lon="117.21788945519597">
        <ele>77.2</ele>
        <time>2023-06-29T11:21:33Z</time>
      </trkpt>
      <trkpt lat="36.695979997291786" lon="117.21784573815671">
        <ele>77.2</ele>
        <time>2023-06-29T11:21:34Z</time>
      </trkpt>
      <trkpt lat="36.695980706644164" lon="117.2178021509369">
        <ele>77.2</ele>
        <time>2023-06-29T11:21:35Z</time>
      </trkpt>
      <trkpt lat="36.695981482178475" lon="117.21775826327983">
        <ele>77.2</ele>
        <time>2023-06-29T11:21:36Z</time>
      </trkpt>
      <trkpt lat="36.695982322045964" lon="117.21771458316124">
        <ele>77.2</ele>
        <time>2023-06-29T11:21:37Z</time>
      </trkpt>
      <trkpt lat="36.69598324869782" lon="117.21767108397813">
        <ele>77.3</ele>
        <time>2023-06-29T11:21:38Z</time>
      </trkpt>
      <trkpt lat="36.69598439577802" lon="117.21762781581182">
        <ele>77.3</ele>
        <time>2023-06-29T11:21:39Z</time>
      </trkpt>
      <trkpt lat="36.69598596459222" lon="117.21758489813062">
        <ele>77.3</ele>
        <time>2023-06-29T11:21:40Z</time>
      </trkpt>
      <trkpt lat="36.695988218509626" lon="117.2175424646296">
        <ele>77.3</ele>
        <time>2023-06-29T11:21:41Z</time>
      </trkpt>
      <trkpt lat="36.69599125135686" lon="117.21750076462976">
        <ele>77.3</ele>
        <time>2023-06-29T11:21:42Z</time>
      </trkpt>
      <trkpt lat="36.69599495783028" lon="117.21746032810032">
        <ele>77.3</ele>
        <time>2023-06-29T11:21:43Z</time>
      </trkpt>
      <trkpt lat="36.69599890599262" lon="117.2174209900781">
        <ele>77.3</ele>
        <time>2023-06-29T11:21:44Z</time>
      </trkpt>
      <trkpt lat="36.69600251538234" lon="117.21738303203598">
        <ele>77.3</ele>
        <time>2023-06-29T11:21:45Z</time>
      </trkpt>
      <trkpt lat="36.69600560406483" lon="117.21734627157893">
        <ele>77.3</ele>
        <time>2023-06-29T11:21:46Z</time>
      </trkpt>
      <trkpt lat="36.69600804612636" lon="117.21731049979567">
        <ele>77.3</ele>
        <time>2023-06-29T11:21:47Z</time>
      </trkpt>
      <trkpt lat="36.696010044728894" lon="117.21727540291313">
        <ele>77.9</ele>
        <time>2023-06-29T11:21:48Z</time>
      </trkpt>
      <trkpt lat="36.696011829837744" lon="117.21724021923885">
        <ele>77.9</ele>
        <time>2023-06-29T11:21:49Z</time>
      </trkpt>
      <trkpt lat="36.69601345077272" lon="117.21720518423858">
        <ele>77.9</ele>
        <time>2023-06-29T11:21:50Z</time>
      </trkpt>
      <trkpt lat="36.69601475798106" lon="117.21716959104776">
        <ele>77.9</ele>
        <time>2023-06-29T11:21:51Z</time>
      </trkpt>
      <trkpt lat="36.69601554344974" lon="117.21713368796394">
        <ele>77.9</ele>
        <time>2023-06-29T11:21:52Z</time>
      </trkpt>
      <trkpt lat="36.69601568111293" lon="117.21709726053568">
        <ele>77.9</ele>
        <time>2023-06-29T11:21:53Z</time>
      </trkpt>
      <trkpt lat="36.69601521481498" lon="117.21705981910117">
        <ele>77.9</ele>
        <time>2023-06-29T11:21:54Z</time>
      </trkpt>
      <trkpt lat="36.69601452058007" lon="117.21702160328203">
        <ele>77.9</ele>
        <time>2023-06-29T11:21:55Z</time>
      </trkpt>
      <trkpt lat="36.6960140646753" lon="117.21698234292782">
        <ele>77.9</ele>
        <time>2023-06-29T11:21:56Z</time>
      </trkpt>
      <trkpt lat="36.69601414246563" lon="117.21694231527347">
        <ele>77.9</ele>
        <time>2023-06-29T11:21:57Z</time>
      </trkpt>
      <trkpt lat="36.69601555858481" lon="117.21690064514266">
        <ele>77.7</ele>
        <time>2023-06-29T11:21:58Z</time>
      </trkpt>
      <trkpt lat="36.696017140008486" lon="117.2168573137033">
        <ele>77.7</ele>
        <time>2023-06-29T11:21:59Z</time>
      </trkpt>
      <trkpt lat="36.696018261029856" lon="117.21681737685311">
        <ele>77.7</ele>
        <time>2023-06-29T11:22:00Z</time>
      </trkpt>
      <trkpt lat="36.69601848836942" lon="117.21677553146779">
        <ele>77.7</ele>
        <time>2023-06-29T11:22:01Z</time>
      </trkpt>
    </trkseg>
  </trk>
</gpx>