<?xml version="1.0" encoding="UTF-8"?>
<gpx xmlns="http://www.topografix.com/GPX/1/1" xmlns:gpxtpx="http://www.garmin.com/xmlschemas/TrackPointExtension/v1" xmlns:xsi="http://www.w3.org/2001/XMLSchema-instance" xsi:schemaLocation="http://www.topografix.com/GPX/1/1 http://www.topografix.com/GPX/1/1/gpx.xsd" version="1.1" creator="gpx.py -- https://github.com/tkrajina/gpxpy">
  <trk>
    <name>gpx from codoon</name>
    <type>Run</type>
    <trkseg>
      <trkpt lat="36.697438284244924" lon="117.21635097896606">
        <ele>75.7</ele>
        <time>2023-07-04T11:35:54Z</time>
      </trkpt>
      <trkpt lat="36.697427982575896" lon="117.216362782022">
        <ele>75.7</ele>
        <time>2023-07-04T11:35:55Z</time>
      </trkpt>
      <trkpt lat="36.69741129735469" lon="117.21636125946301">
        <ele>75.7</ele>
        <time>2023-07-04T11:35:56Z</time>
      </trkpt>
      <trkpt lat="36.697393111021206" lon="117.21636794046252">
        <ele>75.7</ele>
        <time>2023-07-04T11:35:57Z</time>
      </trkpt>
      <trkpt lat="36.697373030621684" lon="117.21637479349303">
        <ele>75.7</ele>
        <time>2023-07-04T11:35:58Z</time>
      </trkpt>
      <trkpt lat="36.69734027467392" lon="117.21637386318423">
        <ele>75.7</ele>
        <time>2023-07-04T11:35:59Z</time>
      </trkpt>
      <trkpt lat="36.69731760754041" lon="117.21637768659316">
        <ele>75.7</ele>
        <time>2023-07-04T11:36:00Z</time>
      </trkpt>
      <trkpt lat="36.697293415834956" lon="117.21638099697549">
        <ele>75.7</ele>
        <time>2023-07-04T11:36:01Z</time>
      </trkpt>
      <trkpt lat="36.69726808341106" lon="117.21638521127203">
        <ele>76.2</ele>
        <time>2023-07-04T11:36:02Z</time>
      </trkpt>
      <trkpt lat="36.697241881796764" lon="117.21638953377955">
        <ele>76.2</ele>
        <time>2023-07-04T11:36:03Z</time>
      </trkpt>
      <trkpt lat="36.697215061410496" lon="117.21639383207034">
        <ele>76.2</ele>
        <time>2023-07-04T11:36:04Z</time>
      </trkpt>
      <trkpt lat="36.697187943361754" lon="117.21639911430451">
        <ele>76.2</ele>
        <time>2023-07-04T11:36:05Z</time>
      </trkpt>
      <trkpt lat="36.69716043597035" lon="117.21640376249971">
        <ele>76.2</ele>
        <time>2023-07-04T11:36:06Z</time>
      </trkpt>
      <trkpt lat="36.697132725947434" lon="117.21640861973367">
        <ele>76.2</ele>
        <time>2023-07-04T11:36:07Z</time>
      </trkpt>
      <trkpt lat="36.69710482829312" lon="117.21641351503013">
        <ele>76.2</ele>
        <time>2023-07-04T11:36:08Z</time>
      </trkpt>
      <trkpt lat="36.697076788766175" lon="117.21641818662602">
        <ele>76.2</ele>
        <time>2023-07-04T11:36:09Z</time>
      </trkpt>
      <trkpt lat="36.69704865288787" lon="117.21642231558982">
        <ele>76.2</ele>
        <time>2023-07-04T11:36:10Z</time>
      </trkpt>
      <trkpt lat="36.69702049747509" lon="117.21642581170047">
        <ele>76.2</ele>
        <time>2023-07-04T11:36:11Z</time>
      </trkpt>
      <trkpt lat="36.69699231989179" lon="117.21642816737287">
        <ele>75.8</ele>
        <time>2023-07-04T11:36:12Z</time>
      </trkpt>
      <trkpt lat="36.69696439256458" lon="117.21642925214441">
        <ele>75.8</ele>
        <time>2023-07-04T11:36:13Z</time>
      </trkpt>
      <trkpt lat="36.69693634394812" lon="117.2164291111227">
        <ele>75.8</ele>
        <time>2023-07-04T11:36:14Z</time>
      </trkpt>
      <trkpt lat="36.69690824771343" lon="117.21642794683018">
        <ele>75.8</ele>
        <time>2023-07-04T11:36:15Z</time>
      </trkpt>
      <trkpt lat="36.69688043204366" lon="117.21642592964585">
        <ele>75.8</ele>
        <time>2023-07-04T11:36:16Z</time>
      </trkpt>
      <trkpt lat="36.6968525639923" lon="117.21642330638568">
        <ele>75.8</ele>
        <time>2023-07-04T11:36:17Z</time>
      </trkpt>
      <trkpt lat="36.696824701844065" lon="117.21642021092721">
        <ele>75.8</ele>
        <time>2023-07-04T11:36:18Z</time>
      </trkpt>
      <trkpt lat="36.696796905699465" lon="117.21641677318472">
        <ele>75.8</ele>
        <time>2023-07-04T11:36:19Z</time>
      </trkpt>
      <trkpt lat="36.69676916710989" lon="117.21641316192303">
        <ele>75.8</ele>
        <time>2023-07-04T11:36:20Z</time>
      </trkpt>
      <trkpt lat="36.69674150261228" lon="117.2164095030145">
        <ele>75.8</ele>
        <time>2023-07-04T11:36:21Z</time>
      </trkpt>
      <trkpt lat="36.696713879399105" lon="117.21640558514713">
        <ele>76.5</ele>
        <time>2023-07-04T11:36:22Z</time>
      </trkpt>
      <trkpt lat="36.696686353952764" lon="117.21640158533275">
        <ele>76.5</ele>
        <time>2023-07-04T11:36:23Z</time>
      </trkpt>
      <trkpt lat="36.69665898802277" lon="117.21639745194148">
        <ele>76.5</ele>
        <time>2023-07-04T11:36:24Z</time>
      </trkpt>
      <trkpt lat="36.69663182351827" lon="117.21639314782631">
        <ele>76.5</ele>
        <time>2023-07-04T11:36:25Z</time>
      </trkpt>
      <trkpt lat="36.696604894894676" lon="117.21638867638717">
        <ele>76.5</ele>
        <time>2023-07-04T11:36:26Z</time>
      </trkpt>
      <trkpt lat="36.69657823518451" lon="117.21638397901161">
        <ele>76.5</ele>
        <time>2023-07-04T11:36:27Z</time>
      </trkpt>
      <trkpt lat="36.6965521702975" lon="117.21637903807954">
        <ele>76.5</ele>
        <time>2023-07-04T11:36:28Z</time>
      </trkpt>
      <trkpt lat="36.69652636874828" lon="117.21637379969252">
        <ele>76.5</ele>
        <time>2023-07-04T11:36:29Z</time>
      </trkpt>
      <trkpt lat="36.696501145033636" lon="117.21636826174507">
        <ele>76.5</ele>
        <time>2023-07-04T11:36:30Z</time>
      </trkpt>
      <trkpt lat="36.69647646390304" lon="117.21636249871838">
        <ele>76.5</ele>
        <time>2023-07-04T11:36:31Z</time>
      </trkpt>
      <trkpt lat="36.69645196970793" lon="117.21635669812629">
        <ele>77</ele>
        <time>2023-07-04T11:36:32Z</time>
      </trkpt>
      <trkpt lat="36.69642802412291" lon="117.21635118616058">
        <ele>77</ele>
        <time>2023-07-04T11:36:33Z</time>
      </trkpt>
      <trkpt lat="36.69640425803292" lon="117.21634612030272">
        <ele>77</ele>
        <time>2023-07-04T11:36:34Z</time>
      </trkpt>
      <trkpt lat="36.69638071084275" lon="117.21634148824415">
        <ele>77</ele>
        <time>2023-07-04T11:36:35Z</time>
      </trkpt>
      <trkpt lat="36.69635770217357" lon="117.21633737482601">
        <ele>77</ele>
        <time>2023-07-04T11:36:36Z</time>
      </trkpt>
      <trkpt lat="36.69633513300889" lon="117.21633370115052">
        <ele>77</ele>
        <time>2023-07-04T11:36:37Z</time>
      </trkpt>
      <trkpt lat="36.69631263990456" lon="117.21633045008598">
        <ele>77</ele>
        <time>2023-07-04T11:36:38Z</time>
      </trkpt>
      <trkpt lat="36.69629025487197" lon="117.21632763199868">
        <ele>77</ele>
        <time>2023-07-04T11:36:39Z</time>
      </trkpt>
      <trkpt lat="36.696268260697636" lon="117.216325331982">
        <ele>77</ele>
        <time>2023-07-04T11:36:40Z</time>
      </trkpt>
      <trkpt lat="36.69624630742721" lon="117.21632348466962">
        <ele>77</ele>
        <time>2023-07-04T11:36:41Z</time>
      </trkpt>
      <trkpt lat="36.69622442899916" lon="117.21632184457799">
        <ele>78.6</ele>
        <time>2023-07-04T11:36:42Z</time>
      </trkpt>
      <trkpt lat="36.69620297180877" lon="117.2163200754721">
        <ele>78.6</ele>
        <time>2023-07-04T11:36:43Z</time>
      </trkpt>
      <trkpt lat="36.69618185846633" lon="117.21631792308493">
        <ele>78.6</ele>
        <time>2023-07-04T11:36:44Z</time>
      </trkpt>
      <trkpt lat="36.69616107728262" lon="117.21631506326919">
        <ele>78.6</ele>
        <time>2023-07-04T11:36:45Z</time>
      </trkpt>
      <trkpt lat="36.69614059857845" lon="117.2163113895843">
        <ele>78.6</ele>
        <time>2023-07-04T11:36:46Z</time>
      </trkpt>
      <trkpt lat="36.696120373345416" lon="117.21630689065842">
        <ele>78.6</ele>
        <time>2023-07-04T11:36:47Z</time>
      </trkpt>
      <trkpt lat="36.69610025626745" lon="117.21630168913887">
        <ele>78.6</ele>
        <time>2023-07-04T11:36:48Z</time>
      </trkpt>
      <trkpt lat="36.69608043659057" lon="117.21629590145828">
        <ele>78.6</ele>
        <time>2023-07-04T11:36:49Z</time>
      </trkpt>
      <trkpt lat="36.69606073996664" lon="117.21628960732532">
        <ele>78.6</ele>
        <time>2023-07-04T11:36:50Z</time>
      </trkpt>
      <trkpt lat="36.69604075513004" lon="117.21628295512969">
        <ele>78.6</ele>
        <time>2023-07-04T11:36:51Z</time>
      </trkpt>
      <trkpt lat="36.69602079301505" lon="117.21627626893472">
        <ele>78.7</ele>
        <time>2023-07-04T11:36:52Z</time>
      </trkpt>
      <trkpt lat="36.696000788597374" lon="117.21626995329059">
        <ele>78.7</ele>
        <time>2023-07-04T11:36:53Z</time>
      </trkpt>
      <trkpt lat="36.69598073430636" lon="117.21626459886696">
        <ele>78.7</ele>
        <time>2023-07-04T11:36:54Z</time>
      </trkpt>
      <trkpt lat="36.695960431898" lon="117.21626088677007">
        <ele>78.7</ele>
        <time>2023-07-04T11:36:55Z</time>
      </trkpt>
      <trkpt lat="36.69594039919353" lon="117.21625948247262">
        <ele>78.7</ele>
        <time>2023-07-04T11:36:56Z</time>
      </trkpt>
      <trkpt lat="36.69592088006518" lon="117.21626082446527">
        <ele>78.7</ele>
        <time>2023-07-04T11:36:57Z</time>
      </trkpt>
      <trkpt lat="36.695902046742226" lon="117.21626541413634">
        <ele>78.7</ele>
        <time>2023-07-04T11:36:58Z</time>
      </trkpt>
      <trkpt lat="36.69588429040825" lon="117.21627311706035">
        <ele>78.7</ele>
        <time>2023-07-04T11:36:59Z</time>
      </trkpt>
      <trkpt lat="36.69586793950425" lon="117.21628371373632">
        <ele>78.7</ele>
        <time>2023-07-04T11:37:00Z</time>
      </trkpt>
      <trkpt lat="36.69585306054057" lon="117.21629730357894">
        <ele>78.7</ele>
        <time>2023-07-04T11:37:01Z</time>
      </trkpt>
      <trkpt lat="36.695839916198096" lon="117.21631347403299">
        <ele>78.9</ele>
        <time>2023-07-04T11:37:02Z</time>
      </trkpt>
      <trkpt lat="36.69582832937931" lon="117.21633185084706">
        <ele>78.9</ele>
        <time>2023-07-04T11:37:03Z</time>
      </trkpt>
      <trkpt lat="36.69581813913082" lon="117.21635207905818">
        <ele>78.9</ele>
        <time>2023-07-04T11:37:04Z</time>
      </trkpt>
      <trkpt lat="36.69580925629974" lon="117.21637374917194">
        <ele>78.9</ele>
        <time>2023-07-04T11:37:05Z</time>
      </trkpt>
      <trkpt lat="36.69580161170443" lon="117.21639658006603">
        <ele>78.9</ele>
        <time>2023-07-04T11:37:06Z</time>
      </trkpt>
      <trkpt lat="36.695795014575424" lon="117.21642009477215">
        <ele>78.9</ele>
        <time>2023-07-04T11:37:07Z</time>
      </trkpt>
      <trkpt lat="36.6957891767677" lon="117.21644387510308">
        <ele>78.9</ele>
        <time>2023-07-04T11:37:08Z</time>
      </trkpt>
      <trkpt lat="36.6957839367784" lon="117.21646771268679">
        <ele>78.9</ele>
        <time>2023-07-04T11:37:09Z</time>
      </trkpt>
      <trkpt lat="36.69577906765373" lon="117.21649148244553">
        <ele>78.9</ele>
        <time>2023-07-04T11:37:10Z</time>
      </trkpt>
      <trkpt lat="36.695774346695536" lon="117.21651512339645">
        <ele>78.9</ele>
        <time>2023-07-04T11:37:11Z</time>
      </trkpt>
      <trkpt lat="36.695769819252924" lon="117.21653868406096">
        <ele>78.5</ele>
        <time>2023-07-04T11:37:12Z</time>
      </trkpt>
      <trkpt lat="36.69576560535045" lon="117.2165622622581">
        <ele>78.5</ele>
        <time>2023-07-04T11:37:13Z</time>
      </trkpt>
      <trkpt lat="36.695761781194186" lon="117.21658592033387">
        <ele>78.5</ele>
        <time>2023-07-04T11:37:14Z</time>
      </trkpt>
      <trkpt lat="36.69575845033398" lon="117.21661012776772">
        <ele>78.5</ele>
        <time>2023-07-04T11:37:15Z</time>
      </trkpt>
      <trkpt lat="36.695755592336816" lon="117.21663480554535">
        <ele>78.5</ele>
        <time>2023-07-04T11:37:16Z</time>
      </trkpt>
      <trkpt lat="36.69575341705289" lon="117.2166596220344">
        <ele>78.5</ele>
        <time>2023-07-04T11:37:17Z</time>
      </trkpt>
      <trkpt lat="36.69575176267601" lon="117.21668496738226">
        <ele>78.5</ele>
        <time>2023-07-04T11:37:18Z</time>
      </trkpt>
      <trkpt lat="36.69575053050896" lon="117.21671075899316">
        <ele>78.5</ele>
        <time>2023-07-04T11:37:19Z</time>
      </trkpt>
      <trkpt lat="36.69574961967322" lon="117.21673694855424">
        <ele>78.5</ele>
        <time>2023-07-04T11:37:20Z</time>
      </trkpt>
      <trkpt lat="36.6957489781608" lon="117.21676351134542">
        <ele>78.5</ele>
        <time>2023-07-04T11:37:21Z</time>
      </trkpt>
      <trkpt lat="36.695748518966234" lon="117.21679042477179">
        <ele>78.9</ele>
        <time>2023-07-04T11:37:22Z</time>
      </trkpt>
      <trkpt lat="36.69574816605407" lon="117.21681766213104">
        <ele>78.9</ele>
        <time>2023-07-04T11:37:23Z</time>
      </trkpt>
      <trkpt lat="36.695747936608875" lon="117.21684520054852">
        <ele>78.9</ele>
        <time>2023-07-04T11:37:24Z</time>
      </trkpt>
      <trkpt lat="36.69574791483995" lon="117.21687304201045">
        <ele>78.9</ele>
        <time>2023-07-04T11:37:25Z</time>
      </trkpt>
      <trkpt lat="36.695748079699925" lon="117.21690115336563">
        <ele>78.9</ele>
        <time>2023-07-04T11:37:26Z</time>
      </trkpt>
      <trkpt lat="36.695748428349155" lon="117.21692964926451">
        <ele>78.9</ele>
        <time>2023-07-04T11:37:27Z</time>
      </trkpt>
      <trkpt lat="36.6957489331862" lon="117.21695862975709">
        <ele>78.9</ele>
        <time>2023-07-04T11:37:28Z</time>
      </trkpt>
      <trkpt lat="36.69574961486265" lon="117.21698780765094">
        <ele>78.9</ele>
        <time>2023-07-04T11:37:29Z</time>
      </trkpt>
      <trkpt lat="36.69575034293955" lon="117.2170169273629">
        <ele>78.9</ele>
        <time>2023-07-04T11:37:30Z</time>
      </trkpt>
      <trkpt lat="36.695751130025165" lon="117.21704603247083">
        <ele>78.9</ele>
        <time>2023-07-04T11:37:31Z</time>
      </trkpt>
      <trkpt lat="36.695751969545114" lon="117.21707552224946">
        <ele>78.5</ele>
        <time>2023-07-04T11:37:32Z</time>
      </trkpt>
      <trkpt lat="36.69575286875253" lon="117.21710531886197">
        <ele>78.5</ele>
        <time>2023-07-04T11:37:33Z</time>
      </trkpt>
      <trkpt lat="36.69575387299697" lon="117.21713534276994">
        <ele>78.5</ele>
        <time>2023-07-04T11:37:34Z</time>
      </trkpt>
      <trkpt lat="36.695754900268476" lon="117.21716572135442">
        <ele>78.5</ele>
        <time>2023-07-04T11:37:35Z</time>
      </trkpt>
      <trkpt lat="36.695755857426924" lon="117.21719610350772">
        <ele>78.5</ele>
        <time>2023-07-04T11:37:36Z</time>
      </trkpt>
      <trkpt lat="36.69575670264118" lon="117.21722640974536">
        <ele>78.5</ele>
        <time>2023-07-04T11:37:37Z</time>
      </trkpt>
      <trkpt lat="36.69575737472237" lon="117.21725643123621">
        <ele>78.5</ele>
        <time>2023-07-04T11:37:38Z</time>
      </trkpt>
      <trkpt lat="36.69575776241596" lon="117.21728599919152">
        <ele>78.5</ele>
        <time>2023-07-04T11:37:39Z</time>
      </trkpt>
      <trkpt lat="36.69575778790818" lon="117.21731536132613">
        <ele>78.5</ele>
        <time>2023-07-04T11:37:40Z</time>
      </trkpt>
      <trkpt lat="36.69575759006207" lon="117.2173447769133">
        <ele>78.5</ele>
        <time>2023-07-04T11:37:41Z</time>
      </trkpt>
      <trkpt lat="36.69575724459193" lon="117.21737385495719">
        <ele>78.5</ele>
        <time>2023-07-04T11:37:42Z</time>
      </trkpt>
      <trkpt lat="36.69575671399518" lon="117.21740267141674">
        <ele>78.5</ele>
        <time>2023-07-04T11:37:43Z</time>
      </trkpt>
      <trkpt lat="36.69575602435275" lon="117.21743128079207">
        <ele>78.5</ele>
        <time>2023-07-04T11:37:44Z</time>
      </trkpt>
      <trkpt lat="36.69575514830732" lon="117.2174593417242">
        <ele>78.5</ele>
        <time>2023-07-04T11:37:45Z</time>
      </trkpt>
      <trkpt lat="36.69575406526023" lon="117.21748714963165">
        <ele>78.5</ele>
        <time>2023-07-04T11:37:46Z</time>
      </trkpt>
      <trkpt lat="36.69575284846032" lon="117.21751494451775">
        <ele>78.5</ele>
        <time>2023-07-04T11:37:47Z</time>
      </trkpt>
      <trkpt lat="36.695751574728384" lon="117.21754274307015">
        <ele>78.5</ele>
        <time>2023-07-04T11:37:48Z</time>
      </trkpt>
      <trkpt lat="36.695750332219546" lon="117.21757054830884">
        <ele>78.5</ele>
        <time>2023-07-04T11:37:49Z</time>
      </trkpt>
      <trkpt lat="36.69574927420706" lon="117.21759875771066">
        <ele>78.5</ele>
        <time>2023-07-04T11:37:50Z</time>
      </trkpt>
      <trkpt lat="36.69574852539061" lon="117.21762692553428">
        <ele>78.5</ele>
        <time>2023-07-04T11:37:51Z</time>
      </trkpt>
      <trkpt lat="36.6957480722249" lon="117.21765508273434">
        <ele>78.5</ele>
        <time>2023-07-04T11:37:52Z</time>
      </trkpt>
      <trkpt lat="36.695747844928626" lon="117.21768360933079">
        <ele>78.5</ele>
        <time>2023-07-04T11:37:53Z</time>
      </trkpt>
      <trkpt lat="36.69574783975298" lon="117.21771204893132">
        <ele>78.5</ele>
        <time>2023-07-04T11:37:54Z</time>
      </trkpt>
      <trkpt lat="36.69574805693964" lon="117.2177404603263">
        <ele>78.5</ele>
        <time>2023-07-04T11:37:55Z</time>
      </trkpt>
      <trkpt lat="36.695748446084494" lon="117.21776926996148">
        <ele>78.5</ele>
        <time>2023-07-04T11:37:56Z</time>
      </trkpt>
      <trkpt lat="36.69574900835332" lon="117.21779804681987">
        <ele>78.5</ele>
        <time>2023-07-04T11:37:57Z</time>
      </trkpt>
      <trkpt lat="36.69574967898645" lon="117.21782688619108">
        <ele>78.5</ele>
        <time>2023-07-04T11:37:58Z</time>
      </trkpt>
      <trkpt lat="36.6957504279367" lon="117.21785584243969">
        <ele>78.5</ele>
        <time>2023-07-04T11:37:59Z</time>
      </trkpt>
      <trkpt lat="36.695751127824124" lon="117.21788499897475">
        <ele>78.5</ele>
        <time>2023-07-04T11:38:00Z</time>
      </trkpt>
      <trkpt lat="36.695751704486575" lon="117.21791399935961">
        <ele>78.5</ele>
        <time>2023-07-04T11:38:01Z</time>
      </trkpt>
      <trkpt lat="36.695752043134036" lon="117.21794330130804">
        <ele>78.5</ele>
        <time>2023-07-04T11:38:02Z</time>
      </trkpt>
      <trkpt lat="36.69575212606705" lon="117.21797280419419">
        <ele>78.5</ele>
        <time>2023-07-04T11:38:03Z</time>
      </trkpt>
      <trkpt lat="36.6957519278053" lon="117.21800240204836">
        <ele>78.5</ele>
        <time>2023-07-04T11:38:04Z</time>
      </trkpt>
      <trkpt lat="36.69575148927434" lon="117.21803200452536">
        <ele>78.5</ele>
        <time>2023-07-04T11:38:05Z</time>
      </trkpt>
      <trkpt lat="36.69575083243041" lon="117.21806153964894">
        <ele>78.5</ele>
        <time>2023-07-04T11:38:06Z</time>
      </trkpt>
      <trkpt lat="36.6957500008523" lon="117.21809094675268">
        <ele>78.5</ele>
        <time>2023-07-04T11:38:07Z</time>
      </trkpt>
      <trkpt lat="36.69574902600518" lon="117.2181201838178">
        <ele>78.5</ele>
        <time>2023-07-04T11:38:08Z</time>
      </trkpt>
      <trkpt lat="36.69574791709886" lon="117.21814921257297">
        <ele>78.5</ele>
        <time>2023-07-04T11:38:09Z</time>
      </trkpt>
      <trkpt lat="36.6957466322218" lon="117.2181780252545">
        <ele>78.5</ele>
        <time>2023-07-04T11:38:10Z</time>
      </trkpt>
      <trkpt lat="36.695745258783596" lon="117.21820658462353">
        <ele>78.5</ele>
        <time>2023-07-04T11:38:11Z</time>
      </trkpt>
      <trkpt lat="36.69574383900627" lon="117.2182348964252">
        <ele>77.9</ele>
        <time>2023-07-04T11:38:12Z</time>
      </trkpt>
      <trkpt lat="36.69574241014004" lon="117.21826298551736">
        <ele>77.9</ele>
        <time>2023-07-04T11:38:13Z</time>
      </trkpt>
      <trkpt lat="36.69574099189503" lon="117.21829093493471">
        <ele>77.9</ele>
        <time>2023-07-04T11:38:14Z</time>
      </trkpt>
      <trkpt lat="36.69573961374917" lon="117.21831846083802">
        <ele>77.9</ele>
        <time>2023-07-04T11:38:15Z</time>
      </trkpt>
      <trkpt lat="36.695738232955414" lon="117.21834609853967">
        <ele>77.9</ele>
        <time>2023-07-04T11:38:16Z</time>
      </trkpt>
      <trkpt lat="36.69573682330354" lon="117.21837385419536">
        <ele>77.9</ele>
        <time>2023-07-04T11:38:17Z</time>
      </trkpt>
      <trkpt lat="36.69573534359398" lon="117.21840136856726">
        <ele>77.9</ele>
        <time>2023-07-04T11:38:18Z</time>
      </trkpt>
      <trkpt lat="36.69573379005884" lon="117.21842914958275">
        <ele>77.9</ele>
        <time>2023-07-04T11:38:19Z</time>
      </trkpt>
      <trkpt lat="36.69573216437447" lon="117.21845735880612">
        <ele>77.9</ele>
        <time>2023-07-04T11:38:20Z</time>
      </trkpt>
      <trkpt lat="36.69573047402947" lon="117.218485406129">
        <ele>77.9</ele>
        <time>2023-07-04T11:38:21Z</time>
      </trkpt>
      <trkpt lat="36.69572878117844" lon="117.21851344900784">
        <ele>78.1</ele>
        <time>2023-07-04T11:38:22Z</time>
      </trkpt>
      <trkpt lat="36.69572714152828" lon="117.21854160134589">
        <ele>78.1</ele>
        <time>2023-07-04T11:38:23Z</time>
      </trkpt>
      <trkpt lat="36.69572564800024" lon="117.21856995000542">
        <ele>78.1</ele>
        <time>2023-07-04T11:38:24Z</time>
      </trkpt>
      <trkpt lat="36.69572436107413" lon="117.21859854926876">
        <ele>78.1</ele>
        <time>2023-07-04T11:38:25Z</time>
      </trkpt>
      <trkpt lat="36.69572334801824" lon="117.21862742067864">
        <ele>78.1</ele>
        <time>2023-07-04T11:38:26Z</time>
      </trkpt>
      <trkpt lat="36.69572261851204" lon="117.218656578357">
        <ele>78.1</ele>
        <time>2023-07-04T11:38:27Z</time>
      </trkpt>
      <trkpt lat="36.69572206213826" lon="117.2186860303641">
        <ele>78.1</ele>
        <time>2023-07-04T11:38:28Z</time>
      </trkpt>
      <trkpt lat="36.69572159474743" lon="117.21871577380283">
        <ele>78.1</ele>
        <time>2023-07-04T11:38:29Z</time>
      </trkpt>
      <trkpt lat="36.695721169864306" lon="117.21874577749276">
        <ele>78.1</ele>
        <time>2023-07-04T11:38:30Z</time>
      </trkpt>
      <trkpt lat="36.69572074953397" lon="117.21877585490451">
        <ele>78.1</ele>
        <time>2023-07-04T11:38:31Z</time>
      </trkpt>
      <trkpt lat="36.69572040304651" lon="117.2188062005489">
        <ele>77.6</ele>
        <time>2023-07-04T11:38:32Z</time>
      </trkpt>
      <trkpt lat="36.69572007878469" lon="117.21883708497647">
        <ele>77.6</ele>
        <time>2023-07-04T11:38:33Z</time>
      </trkpt>
      <trkpt lat="36.69571971892883" lon="117.2188683278593">
        <ele>77.6</ele>
        <time>2023-07-04T11:38:34Z</time>
      </trkpt>
      <trkpt lat="36.69571926522059" lon="117.21889942425378">
        <ele>77.6</ele>
        <time>2023-07-04T11:38:35Z</time>
      </trkpt>
      <trkpt lat="36.69571843320819" lon="117.21893070786757">
        <ele>77.6</ele>
        <time>2023-07-04T11:38:36Z</time>
      </trkpt>
      <trkpt lat="36.69571708206808" lon="117.21896202158214">
        <ele>77.6</ele>
        <time>2023-07-04T11:38:37Z</time>
      </trkpt>
      <trkpt lat="36.69571517409081" lon="117.21899327060558">
        <ele>77.6</ele>
        <time>2023-07-04T11:38:38Z</time>
      </trkpt>
      <trkpt lat="36.69571288660611" lon="117.21902439020323">
        <ele>77.6</ele>
        <time>2023-07-04T11:38:39Z</time>
      </trkpt>
      <trkpt lat="36.69571044414427" lon="117.21905535194699">
        <ele>77.6</ele>
        <time>2023-07-04T11:38:40Z</time>
      </trkpt>
      <trkpt lat="36.69570793388871" lon="117.2190861290405">
        <ele>77.6</ele>
        <time>2023-07-04T11:38:41Z</time>
      </trkpt>
      <trkpt lat="36.69570540442791" lon="117.21911672317255">
        <ele>77.9</ele>
        <time>2023-07-04T11:38:42Z</time>
      </trkpt>
      <trkpt lat="36.695702885886384" lon="117.21914717834309">
        <ele>77.9</ele>
        <time>2023-07-04T11:38:43Z</time>
      </trkpt>
      <trkpt lat="36.695700388578274" lon="117.21917756402038">
        <ele>77.9</ele>
        <time>2023-07-04T11:38:44Z</time>
      </trkpt>
      <trkpt lat="36.69569795142163" lon="117.21920793535892">
        <ele>77.9</ele>
        <time>2023-07-04T11:38:45Z</time>
      </trkpt>
      <trkpt lat="36.69569561704352" lon="117.2192383632987">
        <ele>77.9</ele>
        <time>2023-07-04T11:38:46Z</time>
      </trkpt>
      <trkpt lat="36.695693642862025" lon="117.21926896477741">
        <ele>77.9</ele>
        <time>2023-07-04T11:38:47Z</time>
      </trkpt>
      <trkpt lat="36.69569204211491" lon="117.21929982450388">
        <ele>77.9</ele>
        <time>2023-07-04T11:38:48Z</time>
      </trkpt>
      <trkpt lat="36.69569075543611" lon="117.21933059829549">
        <ele>77.9</ele>
        <time>2023-07-04T11:38:49Z</time>
      </trkpt>
      <trkpt lat="36.69568970874578" lon="117.219361484762">
        <ele>77.9</ele>
        <time>2023-07-04T11:38:50Z</time>
      </trkpt>
      <trkpt lat="36.69568859115469" lon="117.21939237276727">
        <ele>77.9</ele>
        <time>2023-07-04T11:38:51Z</time>
      </trkpt>
      <trkpt lat="36.69568725910492" lon="117.21942334650984">
        <ele>77.9</ele>
        <time>2023-07-04T11:38:52Z</time>
      </trkpt>
      <trkpt lat="36.69568572179699" lon="117.21945442716593">
        <ele>77.9</ele>
        <time>2023-07-04T11:38:53Z</time>
      </trkpt>
      <trkpt lat="36.69568397260778" lon="117.21948568182667">
        <ele>77.9</ele>
        <time>2023-07-04T11:38:54Z</time>
      </trkpt>
      <trkpt lat="36.69568200130926" lon="117.21951712466277">
        <ele>77.9</ele>
        <time>2023-07-04T11:38:55Z</time>
      </trkpt>
      <trkpt lat="36.69567978323234" lon="117.21954873199721">
        <ele>77.9</ele>
        <time>2023-07-04T11:38:56Z</time>
      </trkpt>
      <trkpt lat="36.69567726737298" lon="117.21958045712967">
        <ele>77.9</ele>
        <time>2023-07-04T11:38:57Z</time>
      </trkpt>
      <trkpt lat="36.695674368842276" lon="117.21961223313423">
        <ele>77.9</ele>
        <time>2023-07-04T11:38:58Z</time>
      </trkpt>
      <trkpt lat="36.695671119418684" lon="117.2196440473907">
        <ele>77.9</ele>
        <time>2023-07-04T11:38:59Z</time>
      </trkpt>
      <trkpt lat="36.695667683699334" lon="117.219675929308">
        <ele>77.9</ele>
        <time>2023-07-04T11:39:00Z</time>
      </trkpt>
      <trkpt lat="36.69566408309345" lon="117.21970819084204">
        <ele>77.9</ele>
        <time>2023-07-04T11:39:01Z</time>
      </trkpt>
      <trkpt lat="36.69566059483004" lon="117.21974092711031">
        <ele>77.7</ele>
        <time>2023-07-04T11:39:02Z</time>
      </trkpt>
      <trkpt lat="36.695657364303266" lon="117.21977367430617">
        <ele>77.7</ele>
        <time>2023-07-04T11:39:03Z</time>
      </trkpt>
      <trkpt lat="36.695654419017444" lon="117.21980648413442">
        <ele>77.7</ele>
        <time>2023-07-04T11:39:04Z</time>
      </trkpt>
      <trkpt lat="36.69565169956344" lon="117.21983933021936">
        <ele>77.7</ele>
        <time>2023-07-04T11:39:05Z</time>
      </trkpt>
      <trkpt lat="36.69564917562663" lon="117.21987165704601">
        <ele>77.7</ele>
        <time>2023-07-04T11:39:06Z</time>
      </trkpt>
      <trkpt lat="36.695646819740375" lon="117.21990359929607">
        <ele>77.7</ele>
        <time>2023-07-04T11:39:07Z</time>
      </trkpt>
      <trkpt lat="36.695644641557415" lon="117.21993523975215">
        <ele>77.7</ele>
        <time>2023-07-04T11:39:08Z</time>
      </trkpt>
      <trkpt lat="36.69564266177854" lon="117.21996664646583">
        <ele>77.7</ele>
        <time>2023-07-04T11:39:09Z</time>
      </trkpt>
      <trkpt lat="36.695640916715604" lon="117.2199978398497">
        <ele>77.7</ele>
        <time>2023-07-04T11:39:10Z</time>
      </trkpt>
      <trkpt lat="36.695639297626286" lon="117.2200288211288">
        <ele>77.7</ele>
        <time>2023-07-04T11:39:11Z</time>
      </trkpt>
      <trkpt lat="36.69563775894132" lon="117.22005961131528">
        <ele>77.6</ele>
        <time>2023-07-04T11:39:12Z</time>
      </trkpt>
      <trkpt lat="36.69563623940966" lon="117.22009022598498">
        <ele>77.6</ele>
        <time>2023-07-04T11:39:13Z</time>
      </trkpt>
      <trkpt lat="36.695634675918306" lon="117.22012068593432">
        <ele>77.6</ele>
        <time>2023-07-04T11:39:14Z</time>
      </trkpt>
      <trkpt lat="36.695632991476515" lon="117.22015134243439">
        <ele>77.6</ele>
        <time>2023-07-04T11:39:15Z</time>
      </trkpt>
      <trkpt lat="36.69563123098145" lon="117.22018202777257">
        <ele>77.6</ele>
        <time>2023-07-04T11:39:16Z</time>
      </trkpt>
      <trkpt lat="36.6956294350981" lon="117.22021280558371">
        <ele>77.6</ele>
        <time>2023-07-04T11:39:17Z</time>
      </trkpt>
      <trkpt lat="36.69562757001852" lon="117.22024393692395">
        <ele>77.6</ele>
        <time>2023-07-04T11:39:18Z</time>
      </trkpt>
      <trkpt lat="36.69562564689801" lon="117.2202752407227">
        <ele>77.6</ele>
        <time>2023-07-04T11:39:19Z</time>
      </trkpt>
      <trkpt lat="36.695623699672716" lon="117.22030621084352">
        <ele>77.6</ele>
        <time>2023-07-04T11:39:20Z</time>
      </trkpt>
      <trkpt lat="36.695621645646106" lon="117.22033725072917">
        <ele>77.6</ele>
        <time>2023-07-04T11:39:21Z</time>
      </trkpt>
      <trkpt lat="36.695619508968136" lon="117.22036825727368">
        <ele>77.6</ele>
        <time>2023-07-04T11:39:22Z</time>
      </trkpt>
      <trkpt lat="36.69561728408491" lon="117.22039916578211">
        <ele>77.6</ele>
        <time>2023-07-04T11:39:23Z</time>
      </trkpt>
      <trkpt lat="36.69561502927561" lon="117.22042993196814">
        <ele>77.6</ele>
        <time>2023-07-04T11:39:24Z</time>
      </trkpt>
      <trkpt lat="36.69561279914042" lon="117.22046091534898">
        <ele>77.6</ele>
        <time>2023-07-04T11:39:25Z</time>
      </trkpt>
      <trkpt lat="36.695610654688984" lon="117.22049166475813">
        <ele>77.6</ele>
        <time>2023-07-04T11:39:26Z</time>
      </trkpt>
      <trkpt lat="36.69560858161231" lon="117.22052225281716">
        <ele>77.6</ele>
        <time>2023-07-04T11:39:27Z</time>
      </trkpt>
      <trkpt lat="36.69560656464978" lon="117.22055311642326">
        <ele>77.6</ele>
        <time>2023-07-04T11:39:28Z</time>
      </trkpt>
      <trkpt lat="36.6956046391393" lon="117.22058382834095">
        <ele>77.6</ele>
        <time>2023-07-04T11:39:29Z</time>
      </trkpt>
      <trkpt lat="36.6956027595477" lon="117.22061445345747">
        <ele>77.6</ele>
        <time>2023-07-04T11:39:30Z</time>
      </trkpt>
      <trkpt lat="36.69560078898195" lon="117.22064535805185">
        <ele>77.6</ele>
        <time>2023-07-04T11:39:31Z</time>
      </trkpt>
      <trkpt lat="36.69559856878728" lon="117.22067602936707">
        <ele>77.5</ele>
        <time>2023-07-04T11:39:32Z</time>
      </trkpt>
      <trkpt lat="36.69559582956405" lon="117.22070643288099">
        <ele>77.5</ele>
        <time>2023-07-04T11:39:33Z</time>
      </trkpt>
      <trkpt lat="36.695592131123604" lon="117.22073635905474">
        <ele>77.5</ele>
        <time>2023-07-04T11:39:34Z</time>
      </trkpt>
      <trkpt lat="36.69558710607104" lon="117.22076553137919">
        <ele>77.5</ele>
        <time>2023-07-04T11:39:35Z</time>
      </trkpt>
      <trkpt lat="36.69558053337534" lon="117.2207932612047">
        <ele>77.5</ele>
        <time>2023-07-04T11:39:36Z</time>
      </trkpt>
      <trkpt lat="36.69557223444717" lon="117.22081927918241">
        <ele>77.5</ele>
        <time>2023-07-04T11:39:37Z</time>
      </trkpt>
      <trkpt lat="36.695562091488405" lon="117.22084313374391">
        <ele>77.5</ele>
        <time>2023-07-04T11:39:38Z</time>
      </trkpt>
      <trkpt lat="36.69554981898344" lon="117.22086401382415">
        <ele>77.5</ele>
        <time>2023-07-04T11:39:39Z</time>
      </trkpt>
      <trkpt lat="36.69553561496523" lon="117.22088158611736">
        <ele>77.5</ele>
        <time>2023-07-04T11:39:40Z</time>
      </trkpt>
      <trkpt lat="36.69551970395712" lon="117.22089563940084">
        <ele>77.5</ele>
        <time>2023-07-04T11:39:41Z</time>
      </trkpt>
      <trkpt lat="36.695502071022595" lon="117.22090563332031">
        <ele>77.9</ele>
        <time>2023-07-04T11:39:42Z</time>
      </trkpt>
      <trkpt lat="36.695483097751605" lon="117.22091180750459">
        <ele>77.9</ele>
        <time>2023-07-04T11:39:43Z</time>
      </trkpt>
      <trkpt lat="36.69546314719079" lon="117.22091444334475">
        <ele>77.9</ele>
        <time>2023-07-04T11:39:44Z</time>
      </trkpt>
      <trkpt lat="36.69544244226315" lon="117.22091344663394">
        <ele>77.9</ele>
        <time>2023-07-04T11:39:45Z</time>
      </trkpt>
      <trkpt lat="36.69542136839158" lon="117.22090946998829">
        <ele>77.9</ele>
        <time>2023-07-04T11:39:46Z</time>
      </trkpt>
      <trkpt lat="36.69539991740871" lon="117.2209028397375">
        <ele>77.9</ele>
        <time>2023-07-04T11:39:47Z</time>
      </trkpt>
      <trkpt lat="36.6953783433135" lon="117.22089421230231">
        <ele>77.9</ele>
        <time>2023-07-04T11:39:48Z</time>
      </trkpt>
      <trkpt lat="36.69535682436855" lon="117.22088424227898">
        <ele>77.9</ele>
        <time>2023-07-04T11:39:49Z</time>
      </trkpt>
      <trkpt lat="36.69533542874304" lon="117.22087335104167">
        <ele>77.9</ele>
        <time>2023-07-04T11:39:50Z</time>
      </trkpt>
      <trkpt lat="36.69531409196897" lon="117.22086210453284">
        <ele>77.9</ele>
        <time>2023-07-04T11:39:51Z</time>
      </trkpt>
      <trkpt lat="36.6952924215136" lon="117.22085071776112">
        <ele>78.1</ele>
        <time>2023-07-04T11:39:52Z</time>
      </trkpt>
      <trkpt lat="36.69527071913088" lon="117.22083953085078">
        <ele>78.1</ele>
        <time>2023-07-04T11:39:53Z</time>
      </trkpt>
      <trkpt lat="36.69524896249044" lon="117.22082850238392">
        <ele>78.1</ele>
        <time>2023-07-04T11:39:54Z</time>
      </trkpt>
      <trkpt lat="36.69522689986382" lon="117.2208173924417">
        <ele>78.1</ele>
        <time>2023-07-04T11:39:55Z</time>
      </trkpt>
      <trkpt lat="36.69520494273022" lon="117.22080628356997">
        <ele>78.1</ele>
        <time>2023-07-04T11:39:56Z</time>
      </trkpt>
      <trkpt lat="36.69518311888081" lon="117.22079505038485">
        <ele>78.1</ele>
        <time>2023-07-04T11:39:57Z</time>
      </trkpt>
      <trkpt lat="36.695161419939005" lon="117.22078370435318">
        <ele>78.1</ele>
        <time>2023-07-04T11:39:58Z</time>
      </trkpt>
      <trkpt lat="36.69513987084872" lon="117.22077219768114">
        <ele>78.1</ele>
        <time>2023-07-04T11:39:59Z</time>
      </trkpt>
      <trkpt lat="36.69511821428674" lon="117.22076037133341">
        <ele>78.1</ele>
        <time>2023-07-04T11:40:00Z</time>
      </trkpt>
      <trkpt lat="36.69509683996081" lon="117.22074838551052">
        <ele>78.1</ele>
        <time>2023-07-04T11:40:01Z</time>
      </trkpt>
      <trkpt lat="36.69507571583954" lon="117.22073624888526">
        <ele>78.5</ele>
        <time>2023-07-04T11:40:02Z</time>
      </trkpt>
      <trkpt lat="36.69505482978803" lon="117.22072397199277">
        <ele>78.5</ele>
        <time>2023-07-04T11:40:03Z</time>
      </trkpt>
      <trkpt lat="36.695034150254834" lon="117.22071163183622">
        <ele>78.5</ele>
        <time>2023-07-04T11:40:04Z</time>
      </trkpt>
      <trkpt lat="36.69501362318422" lon="117.22069930949228">
        <ele>78.5</ele>
        <time>2023-07-04T11:40:05Z</time>
      </trkpt>
      <trkpt lat="36.694993184727466" lon="117.22068715921667">
        <ele>78.5</ele>
        <time>2023-07-04T11:40:06Z</time>
      </trkpt>
      <trkpt lat="36.6949728078824" lon="117.22067519232345">
        <ele>78.5</ele>
        <time>2023-07-04T11:40:07Z</time>
      </trkpt>
      <trkpt lat="36.69495218694847" lon="117.22066323219504">
        <ele>78.5</ele>
        <time>2023-07-04T11:40:08Z</time>
      </trkpt>
      <trkpt lat="36.6949316820956" lon="117.22065142266072">
        <ele>78.5</ele>
        <time>2023-07-04T11:40:09Z</time>
      </trkpt>
      <trkpt lat="36.69491127848795" lon="117.2206396682957">
        <ele>78.5</ele>
        <time>2023-07-04T11:40:10Z</time>
      </trkpt>
      <trkpt lat="36.694890960464136" lon="117.22062798777701">
        <ele>78.5</ele>
        <time>2023-07-04T11:40:11Z</time>
      </trkpt>
      <trkpt lat="36.69487071328473" lon="117.22061640124207">
        <ele>78.9</ele>
        <time>2023-07-04T11:40:12Z</time>
      </trkpt>
      <trkpt lat="36.69485028982464" lon="117.22060467075798">
        <ele>78.9</ele>
        <time>2023-07-04T11:40:13Z</time>
      </trkpt>
      <trkpt lat="36.6948300443496" lon="117.22059299148826">
        <ele>78.9</ele>
        <time>2023-07-04T11:40:14Z</time>
      </trkpt>
      <trkpt lat="36.69480991715227" lon="117.22058135135221">
        <ele>78.9</ele>
        <time>2023-07-04T11:40:15Z</time>
      </trkpt>
      <trkpt lat="36.69478962236545" lon="117.2205695159633">
        <ele>78.9</ele>
        <time>2023-07-04T11:40:16Z</time>
      </trkpt>
      <trkpt lat="36.69476950264661" lon="117.22055757663864">
        <ele>78.9</ele>
        <time>2023-07-04T11:40:17Z</time>
      </trkpt>
      <trkpt lat="36.69474948442386" lon="117.2205455463752">
        <ele>78.9</ele>
        <time>2023-07-04T11:40:18Z</time>
      </trkpt>
      <trkpt lat="36.69472951045537" lon="117.22053341563979">
        <ele>78.9</ele>
        <time>2023-07-04T11:40:19Z</time>
      </trkpt>
      <trkpt lat="36.694709527931366" lon="117.22052123741878">
        <ele>78.9</ele>
        <time>2023-07-04T11:40:20Z</time>
      </trkpt>
      <trkpt lat="36.69468950784734" lon="117.22050896501169">
        <ele>78.9</ele>
        <time>2023-07-04T11:40:21Z</time>
      </trkpt>
      <trkpt lat="36.6946696787588" lon="117.22049668008513">
        <ele>79.2</ele>
        <time>2023-07-04T11:40:22Z</time>
      </trkpt>
      <trkpt lat="36.694649629556324" lon="117.22048414932237">
        <ele>79.2</ele>
        <time>2023-07-04T11:40:23Z</time>
      </trkpt>
      <trkpt lat="36.69462951091043" lon="117.22047157608331">
        <ele>79.2</ele>
        <time>2023-07-04T11:40:24Z</time>
      </trkpt>
      <trkpt lat="36.694609167148215" lon="117.22045890467044">
        <ele>79.2</ele>
        <time>2023-07-04T11:40:25Z</time>
      </trkpt>
      <trkpt lat="36.694588209752055" lon="117.2204459577277">
        <ele>79.2</ele>
        <time>2023-07-04T11:40:26Z</time>
      </trkpt>
      <trkpt lat="36.694566830097614" lon="117.22043313875673">
        <ele>79.2</ele>
        <time>2023-07-04T11:40:27Z</time>
      </trkpt>
      <trkpt lat="36.694544919956954" lon="117.22042070577554">
        <ele>79.2</ele>
        <time>2023-07-04T11:40:28Z</time>
      </trkpt>
      <trkpt lat="36.69452220564077" lon="117.22040843676257">
        <ele>79.2</ele>
        <time>2023-07-04T11:40:29Z</time>
      </trkpt>
      <trkpt lat="36.69449910578826" lon="117.22039646345443">
        <ele>79.2</ele>
        <time>2023-07-04T11:40:30Z</time>
      </trkpt>
      <trkpt lat="36.694475634356" lon="117.22038469284611">
        <ele>79.2</ele>
        <time>2023-07-04T11:40:31Z</time>
      </trkpt>
      <trkpt lat="36.69445156133651" lon="117.22037294482898">
        <ele>80</ele>
        <time>2023-07-04T11:40:32Z</time>
      </trkpt>
      <trkpt lat="36.69442703807204" lon="117.22036136241884">
        <ele>80</ele>
        <time>2023-07-04T11:40:33Z</time>
      </trkpt>
      <trkpt lat="36.69440219656898" lon="117.22035011678676">
        <ele>80</ele>
        <time>2023-07-04T11:40:34Z</time>
      </trkpt>
      <trkpt lat="36.69437725944926" lon="117.22033933419219">
        <ele>80</ele>
        <time>2023-07-04T11:40:35Z</time>
      </trkpt>
      <trkpt lat="36.69435241545485" lon="117.22032909646286">
        <ele>80</ele>
        <time>2023-07-04T11:40:36Z</time>
      </trkpt>
      <trkpt lat="36.69432813889392" lon="117.22031953784696">
        <ele>80</ele>
        <time>2023-07-04T11:40:37Z</time>
      </trkpt>
      <trkpt lat="36.694304580797265" lon="117.2203103439845">
        <ele>80</ele>
        <time>2023-07-04T11:40:38Z</time>
      </trkpt>
      <trkpt lat="36.694281514212534" lon="117.22030112271766">
        <ele>80</ele>
        <time>2023-07-04T11:40:39Z</time>
      </trkpt>
      <trkpt lat="36.69425925494737" lon="117.22029214062489">
        <ele>80</ele>
        <time>2023-07-04T11:40:40Z</time>
      </trkpt>
      <trkpt lat="36.694237693328624" lon="117.22028341695368">
        <ele>80</ele>
        <time>2023-07-04T11:40:41Z</time>
      </trkpt>
      <trkpt lat="36.694216486017304" lon="117.22027487949639">
        <ele>80.3</ele>
        <time>2023-07-04T11:40:42Z</time>
      </trkpt>
      <trkpt lat="36.6941958970746" lon="117.22026675068173">
        <ele>80.3</ele>
        <time>2023-07-04T11:40:43Z</time>
      </trkpt>
      <trkpt lat="36.69417582847993" lon="117.22025882282276">
        <ele>80.3</ele>
        <time>2023-07-04T11:40:44Z</time>
      </trkpt>
      <trkpt lat="36.69415620372474" lon="117.22025090271038">
        <ele>80.3</ele>
        <time>2023-07-04T11:40:45Z</time>
      </trkpt>
      <trkpt lat="36.694136907667875" lon="117.22024287094028">
        <ele>80.3</ele>
        <time>2023-07-04T11:40:46Z</time>
      </trkpt>
      <trkpt lat="36.694117827232375" lon="117.22023466543936">
        <ele>80.3</ele>
        <time>2023-07-04T11:40:47Z</time>
      </trkpt>
      <trkpt lat="36.69409855024364" lon="117.22022617855173">
        <ele>80.3</ele>
        <time>2023-07-04T11:40:48Z</time>
      </trkpt>
      <trkpt lat="36.694079025675904" lon="117.22021765884404">
        <ele>80.3</ele>
        <time>2023-07-04T11:40:49Z</time>
      </trkpt>
      <trkpt lat="36.694059230146934" lon="117.22020920473037">
        <ele>80.3</ele>
        <time>2023-07-04T11:40:50Z</time>
      </trkpt>
      <trkpt lat="36.69403918374656" lon="117.22020082587258">
        <ele>80.3</ele>
        <time>2023-07-04T11:40:51Z</time>
      </trkpt>
      <trkpt lat="36.69401861776265" lon="117.2201925080072">
        <ele>80.7</ele>
        <time>2023-07-04T11:40:52Z</time>
      </trkpt>
      <trkpt lat="36.69399789207587" lon="117.2201843444399">
        <ele>80.7</ele>
        <time>2023-07-04T11:40:53Z</time>
      </trkpt>
      <trkpt lat="36.69397699648564" lon="117.22017624959396">
        <ele>80.7</ele>
        <time>2023-07-04T11:40:54Z</time>
      </trkpt>
      <trkpt lat="36.693955612512305" lon="117.22016812263918">
        <ele>80.7</ele>
        <time>2023-07-04T11:40:55Z</time>
      </trkpt>
      <trkpt lat="36.69393407880369" lon="117.22016016607799">
        <ele>80.7</ele>
        <time>2023-07-04T11:40:56Z</time>
      </trkpt>
      <trkpt lat="36.6939123746303" lon="117.22015237866998">
        <ele>80.7</ele>
        <time>2023-07-04T11:40:57Z</time>
      </trkpt>
      <trkpt lat="36.69389019514847" lon="117.2201446589308">
        <ele>80.7</ele>
        <time>2023-07-04T11:40:58Z</time>
      </trkpt>
      <trkpt lat="36.69386791990479" lon="117.22013710861621">
        <ele>80.7</ele>
        <time>2023-07-04T11:40:59Z</time>
      </trkpt>
      <trkpt lat="36.69384553923431" lon="117.22012971601254">
        <ele>80.7</ele>
        <time>2023-07-04T11:41:00Z</time>
      </trkpt>
      <trkpt lat="36.693823055085815" lon="117.22012240259532">
        <ele>80.7</ele>
        <time>2023-07-04T11:41:01Z</time>
      </trkpt>
      <trkpt lat="36.6938004801265" lon="117.22011508207025">
        <ele>81.1</ele>
        <time>2023-07-04T11:41:02Z</time>
      </trkpt>
      <trkpt lat="36.693777816104756" lon="117.22010767457652">
        <ele>81.1</ele>
        <time>2023-07-04T11:41:03Z</time>
      </trkpt>
      <trkpt lat="36.693755064508366" lon="117.22010020313985">
        <ele>81.1</ele>
        <time>2023-07-04T11:41:04Z</time>
      </trkpt>
      <trkpt lat="36.69373220145065" lon="117.22009275787804">
        <ele>81.1</ele>
        <time>2023-07-04T11:41:05Z</time>
      </trkpt>
      <trkpt lat="36.693709493580855" lon="117.22008553064394">
        <ele>81.1</ele>
        <time>2023-07-04T11:41:06Z</time>
      </trkpt>
      <trkpt lat="36.69368684358927" lon="117.22007853599158">
        <ele>81.1</ele>
        <time>2023-07-04T11:41:07Z</time>
      </trkpt>
      <trkpt lat="36.69366395115709" lon="117.22007172619416">
        <ele>81.1</ele>
        <time>2023-07-04T11:41:08Z</time>
      </trkpt>
      <trkpt lat="36.693641157498035" lon="117.22006518955713">
        <ele>81.1</ele>
        <time>2023-07-04T11:41:09Z</time>
      </trkpt>
      <trkpt lat="36.69361842148883" lon="117.2200589089013">
        <ele>81.1</ele>
        <time>2023-07-04T11:41:10Z</time>
      </trkpt>
      <trkpt lat="36.69359543001779" lon="117.22005265916067">
        <ele>81.1</ele>
        <time>2023-07-04T11:41:11Z</time>
      </trkpt>
      <trkpt lat="36.6935725526136" lon="117.22004649569865">
        <ele>81.1</ele>
        <time>2023-07-04T11:41:12Z</time>
      </trkpt>
      <trkpt lat="36.693549737984746" lon="117.22004035432175">
        <ele>81.1</ele>
        <time>2023-07-04T11:41:13Z</time>
      </trkpt>
      <trkpt lat="36.6935269441366" lon="117.2200342176021">
        <ele>81.1</ele>
        <time>2023-07-04T11:41:14Z</time>
      </trkpt>
      <trkpt lat="36.693504124652144" lon="117.22002807631588">
        <ele>81.1</ele>
        <time>2023-07-04T11:41:15Z</time>
      </trkpt>
      <trkpt lat="36.69348125067452" lon="117.22002194084523">
        <ele>81.1</ele>
        <time>2023-07-04T11:41:16Z</time>
      </trkpt>
      <trkpt lat="36.69345802130876" lon="117.22001570122137">
        <ele>81.1</ele>
        <time>2023-07-04T11:41:17Z</time>
      </trkpt>
      <trkpt lat="36.69343447186365" lon="117.22000944242833">
        <ele>81.1</ele>
        <time>2023-07-04T11:41:18Z</time>
      </trkpt>
      <trkpt lat="36.69341088791129" lon="117.22000322310201">
        <ele>81.1</ele>
        <time>2023-07-04T11:41:19Z</time>
      </trkpt>
      <trkpt lat="36.69338691341588" lon="117.21999693644936">
        <ele>81.1</ele>
        <time>2023-07-04T11:41:20Z</time>
      </trkpt>
      <trkpt lat="36.693362595062766" lon="117.21999058547927">
        <ele>81.1</ele>
        <time>2023-07-04T11:41:21Z</time>
      </trkpt>
      <trkpt lat="36.69333826034098" lon="117.21998424258872">
        <ele>81.7</ele>
        <time>2023-07-04T11:41:22Z</time>
      </trkpt>
      <trkpt lat="36.6933138380868" lon="117.21997788488403">
        <ele>81.7</ele>
        <time>2023-07-04T11:41:23Z</time>
      </trkpt>
      <trkpt lat="36.693288981644265" lon="117.21997149102543">
        <ele>81.7</ele>
        <time>2023-07-04T11:41:24Z</time>
      </trkpt>
      <trkpt lat="36.69326404584459" lon="117.2199651848349">
        <ele>81.7</ele>
        <time>2023-07-04T11:41:25Z</time>
      </trkpt>
      <trkpt lat="36.69323901239429" lon="117.21995896208848">
        <ele>81.7</ele>
        <time>2023-07-04T11:41:26Z</time>
      </trkpt>
      <trkpt lat="36.69321358122758" lon="117.21995278043491">
        <ele>81.7</ele>
        <time>2023-07-04T11:41:27Z</time>
      </trkpt>
      <trkpt lat="36.69318813472886" lon="117.21994679983271">
        <ele>81.7</ele>
        <time>2023-07-04T11:41:28Z</time>
      </trkpt>
      <trkpt lat="36.69316269787199" lon="117.21994095064152">
        <ele>81.7</ele>
        <time>2023-07-04T11:41:29Z</time>
      </trkpt>
      <trkpt lat="36.69313694371169" lon="117.21993518523044">
        <ele>81.7</ele>
        <time>2023-07-04T11:41:30Z</time>
      </trkpt>
      <trkpt lat="36.693111257767676" lon="117.21992963434789">
        <ele>81.7</ele>
        <time>2023-07-04T11:41:31Z</time>
      </trkpt>
      <trkpt lat="36.69308559176237" lon="117.21992420850518">
        <ele>82.2</ele>
        <time>2023-07-04T11:41:32Z</time>
      </trkpt>
      <trkpt lat="36.69305960856134" lon="117.21991890472651">
        <ele>82.2</ele>
        <time>2023-07-04T11:41:33Z</time>
      </trkpt>
      <trkpt lat="36.69303336779639" lon="117.21991379143103">
        <ele>82.2</ele>
        <time>2023-07-04T11:41:34Z</time>
      </trkpt>
      <trkpt lat="36.69300727497675" lon="117.21990894995668">
        <ele>82.2</ele>
        <time>2023-07-04T11:41:35Z</time>
      </trkpt>
      <trkpt lat="36.69298094005392" lon="117.21990416288915">
        <ele>82.2</ele>
        <time>2023-07-04T11:41:36Z</time>
      </trkpt>
      <trkpt lat="36.69295413790743" lon="117.21989935207075">
        <ele>82.2</ele>
        <time>2023-07-04T11:41:37Z</time>
      </trkpt>
      <trkpt lat="36.69292732848018" lon="117.2198944679787">
        <ele>82.2</ele>
        <time>2023-07-04T11:41:38Z</time>
      </trkpt>
      <trkpt lat="36.69290053982359" lon="117.2198894896656">
        <ele>82.2</ele>
        <time>2023-07-04T11:41:39Z</time>
      </trkpt>
      <trkpt lat="36.69287348300647" lon="117.21988435936575">
        <ele>82.2</ele>
        <time>2023-07-04T11:41:40Z</time>
      </trkpt>
      <trkpt lat="36.69284657702114" lon="117.2198792691959">
        <ele>82.2</ele>
        <time>2023-07-04T11:41:41Z</time>
      </trkpt>
      <trkpt lat="36.69281982125864" lon="117.2198742343826">
        <ele>82.4</ele>
        <time>2023-07-04T11:41:42Z</time>
      </trkpt>
      <trkpt lat="36.69279292090083" lon="117.21986938283086">
        <ele>82.4</ele>
        <time>2023-07-04T11:41:43Z</time>
      </trkpt>
      <trkpt lat="36.692766307523506" lon="117.21986469482157">
        <ele>82.4</ele>
        <time>2023-07-04T11:41:44Z</time>
      </trkpt>
      <trkpt lat="36.69274002695463" lon="117.21986036220349">
        <ele>82.4</ele>
        <time>2023-07-04T11:41:45Z</time>
      </trkpt>
      <trkpt lat="36.6927137650751" lon="117.21985626338694">
        <ele>82.4</ele>
        <time>2023-07-04T11:41:46Z</time>
      </trkpt>
      <trkpt lat="36.69268800063178" lon="117.21985262755415">
        <ele>82.4</ele>
        <time>2023-07-04T11:41:47Z</time>
      </trkpt>
      <trkpt lat="36.692663041274415" lon="117.21984946091638">
        <ele>82.4</ele>
        <time>2023-07-04T11:41:48Z</time>
      </trkpt>
      <trkpt lat="36.692638481783945" lon="117.21984678788223">
        <ele>82.4</ele>
        <time>2023-07-04T11:41:49Z</time>
      </trkpt>
      <trkpt lat="36.69261431534241" lon="117.21984431995696">
        <ele>82.4</ele>
        <time>2023-07-04T11:41:50Z</time>
      </trkpt>
      <trkpt lat="36.69259053395876" lon="117.21984213992404">
        <ele>82.4</ele>
        <time>2023-07-04T11:41:51Z</time>
      </trkpt>
      <trkpt lat="36.6925671494133" lon="117.21984011506301">
        <ele>82.7</ele>
        <time>2023-07-04T11:41:52Z</time>
      </trkpt>
      <trkpt lat="36.69254382484831" lon="117.21983815939788">
        <ele>82.7</ele>
        <time>2023-07-04T11:41:53Z</time>
      </trkpt>
      <trkpt lat="36.69252098536445" lon="117.21983624721288">
        <ele>82.7</ele>
        <time>2023-07-04T11:41:54Z</time>
      </trkpt>
      <trkpt lat="36.69249855684866" lon="117.21983442724128">
        <ele>82.7</ele>
        <time>2023-07-04T11:41:55Z</time>
      </trkpt>
      <trkpt lat="36.69247614529239" lon="117.21983242125557">
        <ele>82.7</ele>
        <time>2023-07-04T11:41:56Z</time>
      </trkpt>
      <trkpt lat="36.69245399533442" lon="117.21983031766598">
        <ele>82.7</ele>
        <time>2023-07-04T11:41:57Z</time>
      </trkpt>
      <trkpt lat="36.692431945075036" lon="117.2198281133834">
        <ele>82.7</ele>
        <time>2023-07-04T11:41:58Z</time>
      </trkpt>
      <trkpt lat="36.692409543833115" lon="117.21982583484133">
        <ele>82.7</ele>
        <time>2023-07-04T11:41:59Z</time>
      </trkpt>
      <trkpt lat="36.692387058358435" lon="117.21982352862122">
        <ele>82.7</ele>
        <time>2023-07-04T11:42:00Z</time>
      </trkpt>
      <trkpt lat="36.69236408127006" lon="117.21982139600799">
        <ele>82.7</ele>
        <time>2023-07-04T11:42:01Z</time>
      </trkpt>
      <trkpt lat="36.692340954785514" lon="117.21981938979167">
        <ele>83</ele>
        <time>2023-07-04T11:42:02Z</time>
      </trkpt>
      <trkpt lat="36.69231758464948" lon="117.21981745954905">
        <ele>83</ele>
        <time>2023-07-04T11:42:03Z</time>
      </trkpt>
      <trkpt lat="36.69229393430036" lon="117.21981562647711">
        <ele>83</ele>
        <time>2023-07-04T11:42:04Z</time>
      </trkpt>
      <trkpt lat="36.69226994606035" lon="117.21981383747605">
        <ele>83</ele>
        <time>2023-07-04T11:42:05Z</time>
      </trkpt>
      <trkpt lat="36.69224563164915" lon="117.21981212044949">
        <ele>83</ele>
        <time>2023-07-04T11:42:06Z</time>
      </trkpt>
      <trkpt lat="36.692221319544664" lon="117.21981059711017">
        <ele>83</ele>
        <time>2023-07-04T11:42:07Z</time>
      </trkpt>
      <trkpt lat="36.69219668935983" lon="117.21980935155118">
        <ele>83</ele>
        <time>2023-07-04T11:42:08Z</time>
      </trkpt>
      <trkpt lat="36.69217185228868" lon="117.21980839659369">
        <ele>83</ele>
        <time>2023-07-04T11:42:09Z</time>
      </trkpt>
      <trkpt lat="36.69214719712364" lon="117.21980779048944">
        <ele>83</ele>
        <time>2023-07-04T11:42:10Z</time>
      </trkpt>
      <trkpt lat="36.692122404433" lon="117.21980751332488">
        <ele>83</ele>
        <time>2023-07-04T11:42:11Z</time>
      </trkpt>
      <trkpt lat="36.69209781849604" lon="117.21980754243864">
        <ele>82.9</ele>
        <time>2023-07-04T11:42:12Z</time>
      </trkpt>
      <trkpt lat="36.69207336090483" lon="117.21980785183023">
        <ele>82.9</ele>
        <time>2023-07-04T11:42:13Z</time>
      </trkpt>
      <trkpt lat="36.692048679718646" lon="117.21980852516118">
        <ele>82.9</ele>
        <time>2023-07-04T11:42:14Z</time>
      </trkpt>
      <trkpt lat="36.6920241443875" lon="117.21980969871359">
        <ele>82.9</ele>
        <time>2023-07-04T11:42:15Z</time>
      </trkpt>
      <trkpt lat="36.691999723944726" lon="117.21981159088274">
        <ele>82.9</ele>
        <time>2023-07-04T11:42:16Z</time>
      </trkpt>
      <trkpt lat="36.691975130720216" lon="117.21981453873562">
        <ele>82.9</ele>
        <time>2023-07-04T11:42:17Z</time>
      </trkpt>
      <trkpt lat="36.691950469323835" lon="117.21981865378643">
        <ele>82.9</ele>
        <time>2023-07-04T11:42:18Z</time>
      </trkpt>
      <trkpt lat="36.69192586586652" lon="117.21982416438696">
        <ele>82.9</ele>
        <time>2023-07-04T11:42:19Z</time>
      </trkpt>
      <trkpt lat="36.691901333898684" lon="117.21983102920566">
        <ele>82.9</ele>
        <time>2023-07-04T11:42:20Z</time>
      </trkpt>
      <trkpt lat="36.6918768983904" lon="117.21983923338487">
        <ele>82.9</ele>
        <time>2023-07-04T11:42:21Z</time>
      </trkpt>
      <trkpt lat="36.69185261127262" lon="117.219848977379">
        <ele>83.7</ele>
        <time>2023-07-04T11:42:22Z</time>
      </trkpt>
      <trkpt lat="36.691828528705656" lon="117.21986028774845">
        <ele>83.7</ele>
        <time>2023-07-04T11:42:23Z</time>
      </trkpt>
      <trkpt lat="36.69180448398128" lon="117.21987341686574">
        <ele>83.7</ele>
        <time>2023-07-04T11:42:24Z</time>
      </trkpt>
      <trkpt lat="36.69178089558102" lon="117.21988822593302">
        <ele>83.7</ele>
        <time>2023-07-04T11:42:25Z</time>
      </trkpt>
      <trkpt lat="36.69175774319802" lon="117.21990454273508">
        <ele>83.7</ele>
        <time>2023-07-04T11:42:26Z</time>
      </trkpt>
      <trkpt lat="36.69173476267912" lon="117.2199223915059">
        <ele>83.7</ele>
        <time>2023-07-04T11:42:27Z</time>
      </trkpt>
      <trkpt lat="36.69171224161898" lon="117.21994129099163">
        <ele>83.7</ele>
        <time>2023-07-04T11:42:28Z</time>
      </trkpt>
      <trkpt lat="36.691690094884834" lon="117.21996092023257">
        <ele>83.7</ele>
        <time>2023-07-04T11:42:29Z</time>
      </trkpt>
      <trkpt lat="36.691668269541196" lon="117.21998124418111">
        <ele>83.7</ele>
        <time>2023-07-04T11:42:30Z</time>
      </trkpt>
      <trkpt lat="36.69164673103693" lon="117.22000213456474">
        <ele>83.7</ele>
        <time>2023-07-04T11:42:31Z</time>
      </trkpt>
      <trkpt lat="36.69162544818266" lon="117.22002349458917">
        <ele>84.1</ele>
        <time>2023-07-04T11:42:32Z</time>
      </trkpt>
      <trkpt lat="36.6916044977259" lon="117.22004533058363">
        <ele>84.1</ele>
        <time>2023-07-04T11:42:33Z</time>
      </trkpt>
      <trkpt lat="36.691583868489865" lon="117.22006755199783">
        <ele>84.1</ele>
        <time>2023-07-04T11:42:34Z</time>
      </trkpt>
      <trkpt lat="36.69156370938256" lon="117.22008975230123">
        <ele>84.1</ele>
        <time>2023-07-04T11:42:35Z</time>
      </trkpt>
      <trkpt lat="36.69154364513635" lon="117.22011203330446">
        <ele>84.1</ele>
        <time>2023-07-04T11:42:36Z</time>
      </trkpt>
      <trkpt lat="36.69152358606931" lon="117.22013410444319">
        <ele>84.1</ele>
        <time>2023-07-04T11:42:37Z</time>
      </trkpt>
      <trkpt lat="36.69150365231004" lon="117.22015536575663">
        <ele>84.1</ele>
        <time>2023-07-04T11:42:38Z</time>
      </trkpt>
      <trkpt lat="36.69148372542013" lon="117.22017559389978">
        <ele>84.1</ele>
        <time>2023-07-04T11:42:39Z</time>
      </trkpt>
      <trkpt lat="36.69146340994044" lon="117.22019478867158">
        <ele>84.1</ele>
        <time>2023-07-04T11:42:40Z</time>
      </trkpt>
      <trkpt lat="36.69144295728798" lon="117.22021240426153">
        <ele>84.1</ele>
        <time>2023-07-04T11:42:41Z</time>
      </trkpt>
      <trkpt lat="36.6914223082756" lon="117.22022836420666">
        <ele>83.9</ele>
        <time>2023-07-04T11:42:42Z</time>
      </trkpt>
      <trkpt lat="36.691401114656216" lon="117.2202426461143">
        <ele>83.9</ele>
        <time>2023-07-04T11:42:43Z</time>
      </trkpt>
      <trkpt lat="36.69137961759103" lon="117.22025493334723">
        <ele>83.9</ele>
        <time>2023-07-04T11:42:44Z</time>
      </trkpt>
      <trkpt lat="36.6913577715272" lon="117.2202652644764">
        <ele>83.9</ele>
        <time>2023-07-04T11:42:45Z</time>
      </trkpt>
      <trkpt lat="36.69133529891308" lon="117.220273822375">
        <ele>83.9</ele>
        <time>2023-07-04T11:42:46Z</time>
      </trkpt>
      <trkpt lat="36.69131256435016" lon="117.22028054286685">
        <ele>83.9</ele>
        <time>2023-07-04T11:42:47Z</time>
      </trkpt>
      <trkpt lat="36.691289631632365" lon="117.22028588338566">
        <ele>83.9</ele>
        <time>2023-07-04T11:42:48Z</time>
      </trkpt>
      <trkpt lat="36.69126628049677" lon="117.22029026951495">
        <ele>83.9</ele>
        <time>2023-07-04T11:42:49Z</time>
      </trkpt>
      <trkpt lat="36.69124263901332" lon="117.22029401278789">
        <ele>83.9</ele>
        <time>2023-07-04T11:42:50Z</time>
      </trkpt>
      <trkpt lat="36.69121908494697" lon="117.2202971970304">
        <ele>83.9</ele>
        <time>2023-07-04T11:42:51Z</time>
      </trkpt>
      <trkpt lat="36.69119531832446" lon="117.22030009463971">
        <ele>84.1</ele>
        <time>2023-07-04T11:42:52Z</time>
      </trkpt>
      <trkpt lat="36.69117140453811" lon="117.2203028188729">
        <ele>84.1</ele>
        <time>2023-07-04T11:42:53Z</time>
      </trkpt>
      <trkpt lat="36.69114737872423" lon="117.22030542811397">
        <ele>84.1</ele>
        <time>2023-07-04T11:42:54Z</time>
      </trkpt>
      <trkpt lat="36.69112325728481" lon="117.22030801433986">
        <ele>84.1</ele>
        <time>2023-07-04T11:42:55Z</time>
      </trkpt>
      <trkpt lat="36.69109873528778" lon="117.22031069526211">
        <ele>84.1</ele>
        <time>2023-07-04T11:42:56Z</time>
      </trkpt>
      <trkpt lat="36.691074212468756" lon="117.22031340539364">
        <ele>84.1</ele>
        <time>2023-07-04T11:42:57Z</time>
      </trkpt>
      <trkpt lat="36.69104964980616" lon="117.22031614122747">
        <ele>84.1</ele>
        <time>2023-07-04T11:42:58Z</time>
      </trkpt>
      <trkpt lat="36.69102474541661" lon="117.22031874146228">
        <ele>84.1</ele>
        <time>2023-07-04T11:42:59Z</time>
      </trkpt>
      <trkpt lat="36.690999887991204" lon="117.2203210865748">
        <ele>84.1</ele>
        <time>2023-07-04T11:43:00Z</time>
      </trkpt>
      <trkpt lat="36.690975049458466" lon="117.22032317411342">
        <ele>84.1</ele>
        <time>2023-07-04T11:43:01Z</time>
      </trkpt>
      <trkpt lat="36.69094991277971" lon="117.22032510662702">
        <ele>84.7</ele>
        <time>2023-07-04T11:43:02Z</time>
      </trkpt>
      <trkpt lat="36.690924845893164" lon="117.22032688295516">
        <ele>84.7</ele>
        <time>2023-07-04T11:43:03Z</time>
      </trkpt>
      <trkpt lat="36.69089981799698" lon="117.22032862655796">
        <ele>84.7</ele>
        <time>2023-07-04T11:43:04Z</time>
      </trkpt>
      <trkpt lat="36.6908748309155" lon="117.22033037606">
        <ele>84.7</ele>
        <time>2023-07-04T11:43:05Z</time>
      </trkpt>
      <trkpt lat="36.69084987744222" lon="117.22033220209308">
        <ele>84.7</ele>
        <time>2023-07-04T11:43:06Z</time>
      </trkpt>
      <trkpt lat="36.6908252764326" lon="117.22033397283661">
        <ele>84.7</ele>
        <time>2023-07-04T11:43:07Z</time>
      </trkpt>
      <trkpt lat="36.69080063099756" lon="117.220335706545">
        <ele>84.7</ele>
        <time>2023-07-04T11:43:08Z</time>
      </trkpt>
      <trkpt lat="36.690776013835354" lon="117.22033738705157">
        <ele>84.7</ele>
        <time>2023-07-04T11:43:09Z</time>
      </trkpt>
      <trkpt lat="36.69075146056325" lon="117.22033899418537">
        <ele>84.7</ele>
        <time>2023-07-04T11:43:10Z</time>
      </trkpt>
      <trkpt lat="36.69072700777558" lon="117.2203405449707">
        <ele>84.7</ele>
        <time>2023-07-04T11:43:11Z</time>
      </trkpt>
      <trkpt lat="36.690702676966474" lon="117.22034209129852">
        <ele>84.8</ele>
        <time>2023-07-04T11:43:12Z</time>
      </trkpt>
      <trkpt lat="36.690678462272615" lon="117.22034364423178">
        <ele>84.8</ele>
        <time>2023-07-04T11:43:13Z</time>
      </trkpt>
      <trkpt lat="36.690654364565965" lon="117.22034523444026">
        <ele>84.8</ele>
        <time>2023-07-04T11:43:14Z</time>
      </trkpt>
      <trkpt lat="36.690630080791834" lon="117.22034690459175">
        <ele>84.8</ele>
        <time>2023-07-04T11:43:15Z</time>
      </trkpt>
      <trkpt lat="36.690605988784434" lon="117.22034864407819">
        <ele>84.8</ele>
        <time>2023-07-04T11:43:16Z</time>
      </trkpt>
      <trkpt lat="36.69058205450363" lon="117.22035033696689">
        <ele>84.8</ele>
        <time>2023-07-04T11:43:17Z</time>
      </trkpt>
      <trkpt lat="36.690557922571664" lon="117.22035200672791">
        <ele>84.8</ele>
        <time>2023-07-04T11:43:18Z</time>
      </trkpt>
      <trkpt lat="36.6905339471868" lon="117.22035364757232">
        <ele>84.8</ele>
        <time>2023-07-04T11:43:19Z</time>
      </trkpt>
      <trkpt lat="36.69051003168294" lon="117.22035524117759">
        <ele>84.8</ele>
        <time>2023-07-04T11:43:20Z</time>
      </trkpt>
      <trkpt lat="36.690486128517726" lon="117.2203568306485">
        <ele>84.8</ele>
        <time>2023-07-04T11:43:21Z</time>
      </trkpt>
      <trkpt lat="36.69046218751263" lon="117.22035846098572">
        <ele>85.1</ele>
        <time>2023-07-04T11:43:22Z</time>
      </trkpt>
      <trkpt lat="36.69043819748856" lon="117.22036009555444">
        <ele>85.1</ele>
        <time>2023-07-04T11:43:23Z</time>
      </trkpt>
      <trkpt lat="36.69041439955287" lon="117.2203617088778">
        <ele>85.1</ele>
        <time>2023-07-04T11:43:24Z</time>
      </trkpt>
      <trkpt lat="36.69039068553075" lon="117.22036326821625">
        <ele>85.1</ele>
        <time>2023-07-04T11:43:25Z</time>
      </trkpt>
      <trkpt lat="36.69036699495388" lon="117.22036471525108">
        <ele>85.1</ele>
        <time>2023-07-04T11:43:26Z</time>
      </trkpt>
      <trkpt lat="36.69034333364388" lon="117.22036604842793">
        <ele>85.1</ele>
        <time>2023-07-04T11:43:27Z</time>
      </trkpt>
      <trkpt lat="36.690319725180316" lon="117.22036725497281">
        <ele>85.1</ele>
        <time>2023-07-04T11:43:28Z</time>
      </trkpt>
      <trkpt lat="36.690296525510064" lon="117.22036833695834">
        <ele>85.1</ele>
        <time>2023-07-04T11:43:29Z</time>
      </trkpt>
      <trkpt lat="36.690273443165324" lon="117.22036926735231">
        <ele>85.1</ele>
        <time>2023-07-04T11:43:30Z</time>
      </trkpt>
      <trkpt lat="36.69025056503065" lon="117.22037015045974">
        <ele>85.1</ele>
        <time>2023-07-04T11:43:31Z</time>
      </trkpt>
      <trkpt lat="36.69022813478176" lon="117.22037099641412">
        <ele>85.9</ele>
        <time>2023-07-04T11:43:32Z</time>
      </trkpt>
      <trkpt lat="36.690203560293185" lon="117.22037330640697">
        <ele>85.9</ele>
        <time>2023-07-04T11:43:33Z</time>
      </trkpt>
      <trkpt lat="36.69018287398593" lon="117.2203737401241">
        <ele>85.9</ele>
        <time>2023-07-04T11:43:34Z</time>
      </trkpt>
      <trkpt lat="36.69016035865557" lon="117.22037355331821">
        <ele>85.9</ele>
        <time>2023-07-04T11:43:35Z</time>
      </trkpt>
      <trkpt lat="36.69013962795595" lon="117.22037393029957">
        <ele>85.9</ele>
        <time>2023-07-04T11:43:36Z</time>
      </trkpt>
      <trkpt lat="36.690119005667654" lon="117.22037432572647">
        <ele>85.9</ele>
        <time>2023-07-04T11:43:37Z</time>
      </trkpt>
      <trkpt lat="36.68956089154122" lon="117.22065355669173">
        <ele>89.3</ele>
        <time>2023-07-04T11:45:56Z</time>
      </trkpt>
      <trkpt lat="36.68955403439334" lon="117.22067701062325">
        <ele>89.3</ele>
        <time>2023-07-04T11:45:57Z</time>
      </trkpt>
      <trkpt lat="36.68954877057615" lon="117.22070576564053">
        <ele>89.3</ele>
        <time>2023-07-04T11:45:58Z</time>
      </trkpt>
      <trkpt lat="36.689543031861234" lon="117.22073738097102">
        <ele>89.3</ele>
        <time>2023-07-04T11:45:59Z</time>
      </trkpt>
      <trkpt lat="36.689538094123925" lon="117.22077146787774">
        <ele>89.3</ele>
        <time>2023-07-04T11:46:00Z</time>
      </trkpt>
      <trkpt lat="36.68949373928512" lon="117.22077286282402">
        <ele>89.3</ele>
        <time>2023-07-04T11:46:01Z</time>
      </trkpt>
      <trkpt lat="36.689474136285824" lon="117.22078830523952">
        <ele>89.2</ele>
        <time>2023-07-04T11:46:02Z</time>
      </trkpt>
      <trkpt lat="36.689452295497" lon="117.22080148217421">
        <ele>89.2</ele>
        <time>2023-07-04T11:46:03Z</time>
      </trkpt>
      <trkpt lat="36.689428230474526" lon="117.22081207486251">
        <ele>89.2</ele>
        <time>2023-07-04T11:46:04Z</time>
      </trkpt>
      <trkpt lat="36.689402089900966" lon="117.22081978905993">
        <ele>89.2</ele>
        <time>2023-07-04T11:46:05Z</time>
      </trkpt>
      <trkpt lat="36.68937360030291" lon="117.22082461531656">
        <ele>89.2</ele>
        <time>2023-07-04T11:46:06Z</time>
      </trkpt>
      <trkpt lat="36.689344850675376" lon="117.22082763587139">
        <ele>89.2</ele>
        <time>2023-07-04T11:46:07Z</time>
      </trkpt>
      <trkpt lat="36.68931505630568" lon="117.22082807768501">
        <ele>89.2</ele>
        <time>2023-07-04T11:46:08Z</time>
      </trkpt>
      <trkpt lat="36.68928525502991" lon="117.22082747513237">
        <ele>89.2</ele>
        <time>2023-07-04T11:46:09Z</time>
      </trkpt>
      <trkpt lat="36.68925574250095" lon="117.22082710228096">
        <ele>89.2</ele>
        <time>2023-07-04T11:46:10Z</time>
      </trkpt>
      <trkpt lat="36.689226124435194" lon="117.22082742722972">
        <ele>89.2</ele>
        <time>2023-07-04T11:46:11Z</time>
      </trkpt>
      <trkpt lat="36.689196718168446" lon="117.22082853067722">
        <ele>89</ele>
        <time>2023-07-04T11:46:12Z</time>
      </trkpt>
      <trkpt lat="36.68916716262073" lon="117.22083014737255">
        <ele>89</ele>
        <time>2023-07-04T11:46:13Z</time>
      </trkpt>
      <trkpt lat="36.689137848553685" lon="117.22083204463799">
        <ele>89</ele>
        <time>2023-07-04T11:46:14Z</time>
      </trkpt>
      <trkpt lat="36.68910873763822" lon="117.22083403545837">
        <ele>89</ele>
        <time>2023-07-04T11:46:15Z</time>
      </trkpt>
      <trkpt lat="36.68907950585901" lon="117.22083621043681">
        <ele>89</ele>
        <time>2023-07-04T11:46:16Z</time>
      </trkpt>
      <trkpt lat="36.68905049170834" lon="117.22083841581568">
        <ele>89</ele>
        <time>2023-07-04T11:46:17Z</time>
      </trkpt>
      <trkpt lat="36.689021359699616" lon="117.22084074641229">
        <ele>89</ele>
        <time>2023-07-04T11:46:18Z</time>
      </trkpt>
      <trkpt lat="36.68899213751792" lon="117.22084318130263">
        <ele>89</ele>
        <time>2023-07-04T11:46:19Z</time>
      </trkpt>
      <trkpt lat="36.68896312615511" lon="117.22084566081934">
        <ele>89</ele>
        <time>2023-07-04T11:46:20Z</time>
      </trkpt>
      <trkpt lat="36.6889339073215" lon="117.22084812154064">
        <ele>89</ele>
        <time>2023-07-04T11:46:21Z</time>
      </trkpt>
      <trkpt lat="36.6889047635406" lon="117.22085045365132">
        <ele>0</ele>
        <time>2023-07-04T11:46:22Z</time>
      </trkpt>
      <trkpt lat="36.68887566309451" lon="117.22085271755715">
        <ele>0</ele>
        <time>2023-07-04T11:46:23Z</time>
      </trkpt>
      <trkpt lat="36.688846495826816" lon="117.22085482719403">
        <ele>0</ele>
        <time>2023-07-04T11:46:24Z</time>
      </trkpt>
      <trkpt lat="36.688817208048455" lon="117.22085680746686">
        <ele>0</ele>
        <time>2023-07-04T11:46:25Z</time>
      </trkpt>
      <trkpt lat="36.68878745136506" lon="117.22085873197352">
        <ele>0</ele>
        <time>2023-07-04T11:46:26Z</time>
      </trkpt>
      <trkpt lat="36.68875762300471" lon="117.22086058508341">
        <ele>0</ele>
        <time>2023-07-04T11:46:27Z</time>
      </trkpt>
      <trkpt lat="36.688727394207866" lon="117.22086232145031">
        <ele>0</ele>
        <time>2023-07-04T11:46:28Z</time>
      </trkpt>
      <trkpt lat="36.68869715128361" lon="117.22086383400769">
        <ele>0</ele>
        <time>2023-07-04T11:46:29Z</time>
      </trkpt>
      <trkpt lat="36.68866688317048" lon="117.2208651072063">
        <ele>0</ele>
        <time>2023-07-04T11:46:30Z</time>
      </trkpt>
      <trkpt lat="36.68863630714101" lon="117.22086616616735">
        <ele>0</ele>
        <time>2023-07-04T11:46:31Z</time>
      </trkpt>
      <trkpt lat="36.6886058441574" lon="117.22086707866889">
        <ele>0</ele>
        <time>2023-07-04T11:46:32Z</time>
      </trkpt>
      <trkpt lat="36.688575191407004" lon="117.22086791819491">
        <ele>0</ele>
        <time>2023-07-04T11:46:33Z</time>
      </trkpt>
      <trkpt lat="36.688544394220735" lon="117.22086865962982">
        <ele>0</ele>
        <time>2023-07-04T11:46:34Z</time>
      </trkpt>
      <trkpt lat="36.688513904689735" lon="117.22086942928405">
        <ele>0</ele>
        <time>2023-07-04T11:46:35Z</time>
      </trkpt>
      <trkpt lat="36.6884834195801" lon="117.22087022009062">
        <ele>0</ele>
        <time>2023-07-04T11:46:36Z</time>
      </trkpt>
      <trkpt lat="36.68845334588353" lon="117.22087096696009">
        <ele>0</ele>
        <time>2023-07-04T11:46:37Z</time>
      </trkpt>
      <trkpt lat="36.688423616042016" lon="117.22087165088344">
        <ele>0</ele>
        <time>2023-07-04T11:46:38Z</time>
      </trkpt>
      <trkpt lat="36.68839420529879" lon="117.22087230572394">
        <ele>0</ele>
        <time>2023-07-04T11:46:39Z</time>
      </trkpt>
      <trkpt lat="36.688365063926575" lon="117.22087292886958">
        <ele>0</ele>
        <time>2023-07-04T11:46:40Z</time>
      </trkpt>
      <trkpt lat="36.68833586457846" lon="117.22087355832706">
        <ele>0</ele>
        <time>2023-07-04T11:46:41Z</time>
      </trkpt>
      <trkpt lat="36.68830691097942" lon="117.22087424570606">
        <ele>0</ele>
        <time>2023-07-04T11:46:42Z</time>
      </trkpt>
      <trkpt lat="36.688277851613186" lon="117.22087501349651">
        <ele>0</ele>
        <time>2023-07-04T11:46:43Z</time>
      </trkpt>
      <trkpt lat="36.688249062576496" lon="117.22087586294123">
        <ele>0</ele>
        <time>2023-07-04T11:46:44Z</time>
      </trkpt>
      <trkpt lat="36.688220490222825" lon="117.22087676139755">
        <ele>0</ele>
        <time>2023-07-04T11:46:45Z</time>
      </trkpt>
      <trkpt lat="36.68819178042422" lon="117.22087757481141">
        <ele>0</ele>
        <time>2023-07-04T11:46:46Z</time>
      </trkpt>
      <trkpt lat="36.68816326545275" lon="117.2208781725229">
        <ele>0</ele>
        <time>2023-07-04T11:46:47Z</time>
      </trkpt>
      <trkpt lat="36.688134556605895" lon="117.22087839307815">
        <ele>0</ele>
        <time>2023-07-04T11:46:48Z</time>
      </trkpt>
      <trkpt lat="36.68810570162609" lon="117.22087808826198">
        <ele>0</ele>
        <time>2023-07-04T11:46:49Z</time>
      </trkpt>
      <trkpt lat="36.68807702795212" lon="117.22087710541742">
        <ele>0</ele>
        <time>2023-07-04T11:46:50Z</time>
      </trkpt>
      <trkpt lat="36.68804816109247" lon="117.22087534589886">
        <ele>0</ele>
        <time>2023-07-04T11:46:51Z</time>
      </trkpt>
      <trkpt lat="36.688019428086974" lon="117.22087280665521">
        <ele>0</ele>
        <time>2023-07-04T11:46:52Z</time>
      </trkpt>
      <trkpt lat="36.687990813126056" lon="117.22086947823884">
        <ele>0</ele>
        <time>2023-07-04T11:46:53Z</time>
      </trkpt>
      <trkpt lat="36.687962279722626" lon="117.22086529278499">
        <ele>0</ele>
        <time>2023-07-04T11:46:54Z</time>
      </trkpt>
      <trkpt lat="36.687933794072606" lon="117.2208603274847">
        <ele>0</ele>
        <time>2023-07-04T11:46:55Z</time>
      </trkpt>
      <trkpt lat="36.68790506271669" lon="117.22085453990394">
        <ele>0</ele>
        <time>2023-07-04T11:46:56Z</time>
      </trkpt>
      <trkpt lat="36.6878764851603" lon="117.22084808047964">
        <ele>0</ele>
        <time>2023-07-04T11:46:57Z</time>
      </trkpt>
      <trkpt lat="36.68784773527943" lon="117.22084100715708">
        <ele>0</ele>
        <time>2023-07-04T11:46:58Z</time>
      </trkpt>
      <trkpt lat="36.68781921113867" lon="117.22083354828362">
        <ele>0</ele>
        <time>2023-07-04T11:46:59Z</time>
      </trkpt>
      <trkpt lat="36.68779082233507" lon="117.22082591661473">
        <ele>0</ele>
        <time>2023-07-04T11:47:00Z</time>
      </trkpt>
      <trkpt lat="36.6877622149152" lon="117.22081826426688">
        <ele>0</ele>
        <time>2023-07-04T11:47:01Z</time>
      </trkpt>
      <trkpt lat="36.6877337503228" lon="117.22081081451235">
        <ele>0</ele>
        <time>2023-07-04T11:47:02Z</time>
      </trkpt>
      <trkpt lat="36.68770508726452" lon="117.22080360678602">
        <ele>0</ele>
        <time>2023-07-04T11:47:03Z</time>
      </trkpt>
      <trkpt lat="36.68767627218416" lon="117.22079671240914">
        <ele>0</ele>
        <time>2023-07-04T11:47:04Z</time>
      </trkpt>
      <trkpt lat="36.68764765240234" lon="117.22079029273527">
        <ele>0</ele>
        <time>2023-07-04T11:47:05Z</time>
      </trkpt>
      <trkpt lat="36.68761887253166" lon="117.22078434554095">
        <ele>0</ele>
        <time>2023-07-04T11:47:06Z</time>
      </trkpt>
      <trkpt lat="36.68759025845524" lon="117.2207790024919">
        <ele>0</ele>
        <time>2023-07-04T11:47:07Z</time>
      </trkpt>
      <trkpt lat="36.687561748122945" lon="117.22077424698469">
        <ele>0</ele>
        <time>2023-07-04T11:47:08Z</time>
      </trkpt>
      <trkpt lat="36.68753330233153" lon="117.22077014106344">
        <ele>0</ele>
        <time>2023-07-04T11:47:09Z</time>
      </trkpt>
      <trkpt lat="36.687504876464615" lon="117.22076661103613">
        <ele>0</ele>
        <time>2023-07-04T11:47:10Z</time>
      </trkpt>
      <trkpt lat="36.6874762144094" lon="117.22076353324765">
        <ele>0</ele>
        <time>2023-07-04T11:47:11Z</time>
      </trkpt>
      <trkpt lat="36.687447745013074" lon="117.22076088078927">
        <ele>0</ele>
        <time>2023-07-04T11:47:12Z</time>
      </trkpt>
      <trkpt lat="36.6874191715775" lon="117.22075853138912">
        <ele>0</ele>
        <time>2023-07-04T11:47:13Z</time>
      </trkpt>
      <trkpt lat="36.687390888817056" lon="117.22075643851275">
        <ele>0</ele>
        <time>2023-07-04T11:47:14Z</time>
      </trkpt>
      <trkpt lat="36.68736289116882" lon="117.22075452571706">
        <ele>0</ele>
        <time>2023-07-04T11:47:15Z</time>
      </trkpt>
      <trkpt lat="36.6873348622204" lon="117.2207526788343">
        <ele>0</ele>
        <time>2023-07-04T11:47:16Z</time>
      </trkpt>
      <trkpt lat="36.68730720261479" lon="117.22075085873027">
        <ele>0</ele>
        <time>2023-07-04T11:47:17Z</time>
      </trkpt>
      <trkpt lat="36.68727983028369" lon="117.22074911066073">
        <ele>0</ele>
        <time>2023-07-04T11:47:18Z</time>
      </trkpt>
      <trkpt lat="36.68725242294707" lon="117.22074753609333">
        <ele>0</ele>
        <time>2023-07-04T11:47:19Z</time>
      </trkpt>
      <trkpt lat="36.68722533231858" lon="117.22074623746342">
        <ele>0</ele>
        <time>2023-07-04T11:47:20Z</time>
      </trkpt>
      <trkpt lat="36.6871985194473" lon="117.22074526623152">
        <ele>0</ele>
        <time>2023-07-04T11:47:21Z</time>
      </trkpt>
      <trkpt lat="36.687171962008755" lon="117.22074476811646">
        <ele>0</ele>
        <time>2023-07-04T11:47:22Z</time>
      </trkpt>
      <trkpt lat="36.687145612079114" lon="117.22074471731074">
        <ele>0</ele>
        <time>2023-07-04T11:47:23Z</time>
      </trkpt>
      <trkpt lat="36.687119735926686" lon="117.22074515047598">
        <ele>0</ele>
        <time>2023-07-04T11:47:24Z</time>
      </trkpt>
      <trkpt lat="36.68709392838661" lon="117.22074620507871">
        <ele>0</ele>
        <time>2023-07-04T11:47:25Z</time>
      </trkpt>
      <trkpt lat="36.68706821857229" lon="117.22074795443484">
        <ele>0</ele>
        <time>2023-07-04T11:47:26Z</time>
      </trkpt>
      <trkpt lat="36.68704292651641" lon="117.22075042246537">
        <ele>0</ele>
        <time>2023-07-04T11:47:27Z</time>
      </trkpt>
      <trkpt lat="36.68701796130436" lon="117.22075356498358">
        <ele>0</ele>
        <time>2023-07-04T11:47:28Z</time>
      </trkpt>
      <trkpt lat="36.68699332703604" lon="117.22075716539335">
        <ele>0</ele>
        <time>2023-07-04T11:47:29Z</time>
      </trkpt>
      <trkpt lat="36.68696900558255" lon="117.22076093867685">
        <ele>0</ele>
        <time>2023-07-04T11:47:30Z</time>
      </trkpt>
      <trkpt lat="36.68694499605019" lon="117.22076461792496">
        <ele>0</ele>
        <time>2023-07-04T11:47:31Z</time>
      </trkpt>
      <trkpt lat="36.686921317947984" lon="117.22076811286996">
        <ele>0</ele>
        <time>2023-07-04T11:47:32Z</time>
      </trkpt>
      <trkpt lat="36.68689826809002" lon="117.22077141541162">
        <ele>0</ele>
        <time>2023-07-04T11:47:33Z</time>
      </trkpt>
      <trkpt lat="36.68687550747702" lon="117.22077470573755">
        <ele>0</ele>
        <time>2023-07-04T11:47:34Z</time>
      </trkpt>
      <trkpt lat="36.68685309584524" lon="117.22077818017898">
        <ele>0</ele>
        <time>2023-07-04T11:47:35Z</time>
      </trkpt>
      <trkpt lat="36.68683145593142" lon="117.22078213984966">
        <ele>0</ele>
        <time>2023-07-04T11:47:36Z</time>
      </trkpt>
      <trkpt lat="36.68681071496248" lon="117.22078690638736">
        <ele>0</ele>
        <time>2023-07-04T11:47:37Z</time>
      </trkpt>
      <trkpt lat="36.686790961729784" lon="117.22079311456729">
        <ele>0</ele>
        <time>2023-07-04T11:47:38Z</time>
      </trkpt>
      <trkpt lat="36.68677273714832" lon="117.2208010095895">
        <ele>0</ele>
        <time>2023-07-04T11:47:39Z</time>
      </trkpt>
      <trkpt lat="36.68675645987503" lon="117.22081065585094">
        <ele>0</ele>
        <time>2023-07-04T11:47:40Z</time>
      </trkpt>
      <trkpt lat="36.686742610768036" lon="117.22082219649496">
        <ele>0</ele>
        <time>2023-07-04T11:47:41Z</time>
      </trkpt>
      <trkpt lat="36.686731182625614" lon="117.22083580211083">
        <ele>0</ele>
        <time>2023-07-04T11:47:42Z</time>
      </trkpt>
      <trkpt lat="36.686722029063" lon="117.2208515782576">
        <ele>0</ele>
        <time>2023-07-04T11:47:43Z</time>
      </trkpt>
      <trkpt lat="36.686714972003344" lon="117.2208694938114">
        <ele>0</ele>
        <time>2023-07-04T11:47:44Z</time>
      </trkpt>
      <trkpt lat="36.68671011539164" lon="117.22088982798654">
        <ele>0</ele>
        <time>2023-07-04T11:47:45Z</time>
      </trkpt>
      <trkpt lat="36.686707234347395" lon="117.22091231509313">
        <ele>0</ele>
        <time>2023-07-04T11:47:46Z</time>
      </trkpt>
      <trkpt lat="36.6867060963897" lon="117.22093649521561">
        <ele>0</ele>
        <time>2023-07-04T11:47:47Z</time>
      </trkpt>
      <trkpt lat="36.68670641440592" lon="117.22096231693371">
        <ele>0</ele>
        <time>2023-07-04T11:47:48Z</time>
      </trkpt>
      <trkpt lat="36.68670795086664" lon="117.22098898982068">
        <ele>0</ele>
        <time>2023-07-04T11:47:49Z</time>
      </trkpt>
      <trkpt lat="36.68671013733927" lon="117.221016185102">
        <ele>0</ele>
        <time>2023-07-04T11:47:50Z</time>
      </trkpt>
      <trkpt lat="36.6867125603281" lon="117.22104427762173">
        <ele>0</ele>
        <time>2023-07-04T11:47:51Z</time>
      </trkpt>
      <trkpt lat="36.686715002131386" lon="117.22107310266958">
        <ele>0</ele>
        <time>2023-07-04T11:47:52Z</time>
      </trkpt>
      <trkpt lat="36.68671731994951" lon="117.22110249503233">
        <ele>0</ele>
        <time>2023-07-04T11:47:53Z</time>
      </trkpt>
      <trkpt lat="36.68671971994628" lon="117.22113272656948">
        <ele>0</ele>
        <time>2023-07-04T11:47:54Z</time>
      </trkpt>
      <trkpt lat="36.686722358086335" lon="117.22116354394156">
        <ele>0</ele>
        <time>2023-07-04T11:47:55Z</time>
      </trkpt>
      <trkpt lat="36.68672537894064" lon="117.22119436146598">
        <ele>0</ele>
        <time>2023-07-04T11:47:56Z</time>
      </trkpt>
      <trkpt lat="36.6867289953126" lon="117.2212254748697">
        <ele>0</ele>
        <time>2023-07-04T11:47:57Z</time>
      </trkpt>
      <trkpt lat="36.68673324976108" lon="117.22125667954812">
        <ele>0</ele>
        <time>2023-07-04T11:47:58Z</time>
      </trkpt>
      <trkpt lat="36.68673825553811" lon="117.22128779625592">
        <ele>0</ele>
        <time>2023-07-04T11:47:59Z</time>
      </trkpt>
      <trkpt lat="36.68674396687812" lon="117.22131872879214">
        <ele>0</ele>
        <time>2023-07-04T11:48:00Z</time>
      </trkpt>
      <trkpt lat="36.686750397320544" lon="117.22134941800749">
        <ele>0</ele>
        <time>2023-07-04T11:48:01Z</time>
      </trkpt>
      <trkpt lat="36.6867575654944" lon="117.22137978995961">
        <ele>0</ele>
        <time>2023-07-04T11:48:02Z</time>
      </trkpt>
      <trkpt lat="36.68676537049244" lon="117.22140984203186">
        <ele>0</ele>
        <time>2023-07-04T11:48:03Z</time>
      </trkpt>
      <trkpt lat="36.686773789594945" lon="117.2214396034798">
        <ele>0</ele>
        <time>2023-07-04T11:48:04Z</time>
      </trkpt>
      <trkpt lat="36.6867826874498" lon="117.22146900409165">
        <ele>0</ele>
        <time>2023-07-04T11:48:05Z</time>
      </trkpt>
      <trkpt lat="36.68679191947073" lon="117.22149806331507">
        <ele>0</ele>
        <time>2023-07-04T11:48:06Z</time>
      </trkpt>
      <trkpt lat="36.686801429919356" lon="117.22152675227494">
        <ele>0</ele>
        <time>2023-07-04T11:48:07Z</time>
      </trkpt>
      <trkpt lat="36.686811168217275" lon="117.22155508391859">
        <ele>0</ele>
        <time>2023-07-04T11:48:08Z</time>
      </trkpt>
      <trkpt lat="36.68682105436505" lon="117.22158315467935">
        <ele>0</ele>
        <time>2023-07-04T11:48:09Z</time>
      </trkpt>
      <trkpt lat="36.68683092445264" lon="117.22161068851247">
        <ele>0</ele>
        <time>2023-07-04T11:48:10Z</time>
      </trkpt>
      <trkpt lat="36.6868409348123" lon="117.22163816022237">
        <ele>0</ele>
        <time>2023-07-04T11:48:11Z</time>
      </trkpt>
      <trkpt lat="36.68685086305043" lon="117.22166569144629">
        <ele>0</ele>
        <time>2023-07-04T11:48:12Z</time>
      </trkpt>
      <trkpt lat="36.686860669460984" lon="117.22169329415009">
        <ele>0</ele>
        <time>2023-07-04T11:48:13Z</time>
      </trkpt>
      <trkpt lat="36.686870389035974" lon="117.22172097438022">
        <ele>0</ele>
        <time>2023-07-04T11:48:14Z</time>
      </trkpt>
      <trkpt lat="36.6868800371308" lon="117.22174873457354">
        <ele>0</ele>
        <time>2023-07-04T11:48:15Z</time>
      </trkpt>
      <trkpt lat="36.68688968779847" lon="117.22177654021166">
        <ele>0</ele>
        <time>2023-07-04T11:48:16Z</time>
      </trkpt>
      <trkpt lat="36.686899388292616" lon="117.22180435793666">
        <ele>0</ele>
        <time>2023-07-04T11:48:17Z</time>
      </trkpt>
      <trkpt lat="36.686909085734555" lon="117.22183221987959">
        <ele>0</ele>
        <time>2023-07-04T11:48:18Z</time>
      </trkpt>
      <trkpt lat="36.68691873885274" lon="117.22186010946984">
        <ele>0</ele>
        <time>2023-07-04T11:48:19Z</time>
      </trkpt>
      <trkpt lat="36.6869283255743" lon="117.22188799488765">
        <ele>0</ele>
        <time>2023-07-04T11:48:20Z</time>
      </trkpt>
      <trkpt lat="36.68693796189696" lon="117.22191617377332">
        <ele>0</ele>
        <time>2023-07-04T11:48:21Z</time>
      </trkpt>
      <trkpt lat="36.6869474913355" lon="117.22194422250716">
        <ele>0</ele>
        <time>2023-07-04T11:48:22Z</time>
      </trkpt>
      <trkpt lat="36.68695701004207" lon="117.22197207629289">
        <ele>0</ele>
        <time>2023-07-04T11:48:23Z</time>
      </trkpt>
      <trkpt lat="36.686966532003126" lon="117.22199976782149">
        <ele>0</ele>
        <time>2023-07-04T11:48:24Z</time>
      </trkpt>
      <trkpt lat="36.686976028622695" lon="117.22202732320207">
        <ele>0</ele>
        <time>2023-07-04T11:48:25Z</time>
      </trkpt>
      <trkpt lat="36.68698547975295" lon="117.22205478440317">
        <ele>0</ele>
        <time>2023-07-04T11:48:26Z</time>
      </trkpt>
      <trkpt lat="36.68699479440316" lon="117.22208222888911">
        <ele>0</ele>
        <time>2023-07-04T11:48:27Z</time>
      </trkpt>
      <trkpt lat="36.68700392068839" lon="117.22210968698083">
        <ele>0</ele>
        <time>2023-07-04T11:48:28Z</time>
      </trkpt>
      <trkpt lat="36.68701276014161" lon="117.22213719096179">
        <ele>0</ele>
        <time>2023-07-04T11:48:29Z</time>
      </trkpt>
      <trkpt lat="36.687020997904334" lon="117.22216480882958">
        <ele>0</ele>
        <time>2023-07-04T11:48:30Z</time>
      </trkpt>
      <trkpt lat="36.68702826337512" lon="117.22219251092459">
        <ele>0</ele>
        <time>2023-07-04T11:48:31Z</time>
      </trkpt>
      <trkpt lat="36.68703414113971" lon="117.22221985842317">
        <ele>0</ele>
        <time>2023-07-04T11:48:32Z</time>
      </trkpt>
      <trkpt lat="36.687038305355706" lon="117.222247128601">
        <ele>0</ele>
        <time>2023-07-04T11:48:33Z</time>
      </trkpt>
      <trkpt lat="36.687040728058655" lon="117.22227416868361">
        <ele>0</ele>
        <time>2023-07-04T11:48:34Z</time>
      </trkpt>
      <trkpt lat="36.687041327859504" lon="117.22230070004606">
        <ele>0</ele>
        <time>2023-07-04T11:48:35Z</time>
      </trkpt>
      <trkpt lat="36.68704016121188" lon="117.22232686935632">
        <ele>0</ele>
        <time>2023-07-04T11:48:36Z</time>
      </trkpt>
      <trkpt lat="36.68705089415991" lon="117.22235661684495">
        <ele>0</ele>
        <time>2023-07-04T11:48:37Z</time>
      </trkpt>
      <trkpt lat="36.687041326181834" lon="117.2223829517403">
        <ele>0</ele>
        <time>2023-07-04T11:48:38Z</time>
      </trkpt>
      <trkpt lat="36.68703092156463" lon="117.2224063281856">
        <ele>0</ele>
        <time>2023-07-04T11:48:39Z</time>
      </trkpt>
      <trkpt lat="36.687020473822805" lon="117.2224295361312">
        <ele>0</ele>
        <time>2023-07-04T11:48:40Z</time>
      </trkpt>
    </trkseg>
  </trk>
</gpx>