<?xml version="1.0" encoding="UTF-8"?>
<gpx xmlns="http://www.topografix.com/GPX/1/1" xmlns:gpxtpx="http://www.garmin.com/xmlschemas/TrackPointExtension/v1" xmlns:xsi="http://www.w3.org/2001/XMLSchema-instance" xsi:schemaLocation="http://www.topografix.com/GPX/1/1 http://www.topografix.com/GPX/1/1/gpx.xsd" version="1.1" creator="gpx.py -- https://github.com/tkrajina/gpxpy">
  <trk>
    <name>gpx from codoon</name>
    <type>Run</type>
    <trkseg>
      <trkpt lat="36.68674785491271" lon="117.22078813426894">
        <ele>88.3</ele>
        <time>2023-07-04T12:32:15Z</time>
      </trkpt>
      <trkpt lat="36.68685446375664" lon="117.22077799365998">
        <ele>88.3</ele>
        <time>2023-07-04T12:32:16Z</time>
      </trkpt>
      <trkpt lat="36.68686161737217" lon="117.22077677080888">
        <ele>88.3</ele>
        <time>2023-07-04T12:32:17Z</time>
      </trkpt>
      <trkpt lat="36.686873769743386" lon="117.22077580458071">
        <ele>88.3</ele>
        <time>2023-07-04T12:32:18Z</time>
      </trkpt>
      <trkpt lat="36.686888170603005" lon="117.22077547982562">
        <ele>88</ele>
        <time>2023-07-04T12:32:19Z</time>
      </trkpt>
      <trkpt lat="36.68690535106767" lon="117.22077580405212">
        <ele>88</ele>
        <time>2023-07-04T12:32:20Z</time>
      </trkpt>
      <trkpt lat="36.68693804988205" lon="117.22077569423604">
        <ele>88</ele>
        <time>2023-07-04T12:32:21Z</time>
      </trkpt>
      <trkpt lat="36.68697533164442" lon="117.22077782945416">
        <ele>88</ele>
        <time>2023-07-04T12:32:23Z</time>
      </trkpt>
      <trkpt lat="36.68701185780685" lon="117.22078158935582">
        <ele>88</ele>
        <time>2023-07-04T12:32:24Z</time>
      </trkpt>
      <trkpt lat="36.68704864505476" lon="117.22078641468273">
        <ele>88</ele>
        <time>2023-07-04T12:32:25Z</time>
      </trkpt>
      <trkpt lat="36.6870854243762" lon="117.22079148376552">
        <ele>88</ele>
        <time>2023-07-04T12:32:26Z</time>
      </trkpt>
      <trkpt lat="36.68712082173734" lon="117.22079649556163">
        <ele>88</ele>
        <time>2023-07-04T12:32:27Z</time>
      </trkpt>
      <trkpt lat="36.687156894843895" lon="117.2208014278028">
        <ele>88</ele>
        <time>2023-07-04T12:32:28Z</time>
      </trkpt>
      <trkpt lat="36.687188918407465" lon="117.22080535580173">
        <ele>87.7</ele>
        <time>2023-07-04T12:32:29Z</time>
      </trkpt>
      <trkpt lat="36.68722087298346" lon="117.22080871101582">
        <ele>87.7</ele>
        <time>2023-07-04T12:32:30Z</time>
      </trkpt>
      <trkpt lat="36.68725249603821" lon="117.22081136040647">
        <ele>87.7</ele>
        <time>2023-07-04T12:32:31Z</time>
      </trkpt>
      <trkpt lat="36.68728379202841" lon="117.22081366615137">
        <ele>87.7</ele>
        <time>2023-07-04T12:32:32Z</time>
      </trkpt>
      <trkpt lat="36.68731478763891" lon="117.22081576089882">
        <ele>87.7</ele>
        <time>2023-07-04T12:32:33Z</time>
      </trkpt>
      <trkpt lat="36.687344325613495" lon="117.22081771965865">
        <ele>87.7</ele>
        <time>2023-07-04T12:32:34Z</time>
      </trkpt>
      <trkpt lat="36.687374774799125" lon="117.22081995888792">
        <ele>87.7</ele>
        <time>2023-07-04T12:32:35Z</time>
      </trkpt>
      <trkpt lat="36.687404755106556" lon="117.22082256422924">
        <ele>87.7</ele>
        <time>2023-07-04T12:32:36Z</time>
      </trkpt>
      <trkpt lat="36.687434509379024" lon="117.22082581110963">
        <ele>87.7</ele>
        <time>2023-07-04T12:32:37Z</time>
      </trkpt>
      <trkpt lat="36.68746402322285" lon="117.22082948494038">
        <ele>87.7</ele>
        <time>2023-07-04T12:32:38Z</time>
      </trkpt>
      <trkpt lat="36.6874936338493" lon="117.22083341834629">
        <ele>87.5</ele>
        <time>2023-07-04T12:32:39Z</time>
      </trkpt>
      <trkpt lat="36.687526548214514" lon="117.22083746201174">
        <ele>87.5</ele>
        <time>2023-07-04T12:32:41Z</time>
      </trkpt>
      <trkpt lat="36.6875591693668" lon="117.2208417174741">
        <ele>87.5</ele>
        <time>2023-07-04T12:32:42Z</time>
      </trkpt>
      <trkpt lat="36.687591614088" lon="117.2208463130192">
        <ele>87.5</ele>
        <time>2023-07-04T12:32:43Z</time>
      </trkpt>
      <trkpt lat="36.68762283366713" lon="117.2208511414239">
        <ele>87.5</ele>
        <time>2023-07-04T12:32:44Z</time>
      </trkpt>
      <trkpt lat="36.68765489514508" lon="117.22085691346378">
        <ele>87.5</ele>
        <time>2023-07-04T12:32:45Z</time>
      </trkpt>
      <trkpt lat="36.68768648072795" lon="117.22086358646945">
        <ele>87.5</ele>
        <time>2023-07-04T12:32:46Z</time>
      </trkpt>
      <trkpt lat="36.68771496709454" lon="117.22087138161382">
        <ele>87.5</ele>
        <time>2023-07-04T12:32:47Z</time>
      </trkpt>
      <trkpt lat="36.687742945991744" lon="117.2208798659956">
        <ele>87.5</ele>
        <time>2023-07-04T12:32:48Z</time>
      </trkpt>
      <trkpt lat="36.68777286922369" lon="117.2208876898654">
        <ele>87.8</ele>
        <time>2023-07-04T12:32:49Z</time>
      </trkpt>
      <trkpt lat="36.68780265837239" lon="117.22089461245446">
        <ele>87.8</ele>
        <time>2023-07-04T12:32:50Z</time>
      </trkpt>
      <trkpt lat="36.68783104733884" lon="117.22090146386984">
        <ele>87.8</ele>
        <time>2023-07-04T12:32:51Z</time>
      </trkpt>
      <trkpt lat="36.68786079191859" lon="117.22090937022665">
        <ele>87.8</ele>
        <time>2023-07-04T12:32:52Z</time>
      </trkpt>
      <trkpt lat="36.68789100672302" lon="117.2209161430855">
        <ele>87.8</ele>
        <time>2023-07-04T12:32:53Z</time>
      </trkpt>
      <trkpt lat="36.68792229434141" lon="117.22092189941516">
        <ele>87.8</ele>
        <time>2023-07-04T12:32:54Z</time>
      </trkpt>
      <trkpt lat="36.687952119364574" lon="117.2209274632198">
        <ele>87.8</ele>
        <time>2023-07-04T12:32:55Z</time>
      </trkpt>
      <trkpt lat="36.68798223832715" lon="117.2209328500532">
        <ele>87.8</ele>
        <time>2023-07-04T12:32:56Z</time>
      </trkpt>
      <trkpt lat="36.68801407075243" lon="117.22093664380704">
        <ele>87.8</ele>
        <time>2023-07-04T12:32:57Z</time>
      </trkpt>
      <trkpt lat="36.68804685382112" lon="117.22093765993097">
        <ele>87.8</ele>
        <time>2023-07-04T12:32:59Z</time>
      </trkpt>
      <trkpt lat="36.68808001743387" lon="117.22093779221022">
        <ele>87.8</ele>
        <time>2023-07-04T12:33:00Z</time>
      </trkpt>
      <trkpt lat="36.688111581968776" lon="117.22093699960942">
        <ele>87.8</ele>
        <time>2023-07-04T12:33:01Z</time>
      </trkpt>
      <trkpt lat="36.68814397422954" lon="117.22093558168135">
        <ele>87.8</ele>
        <time>2023-07-04T12:33:02Z</time>
      </trkpt>
      <trkpt lat="36.688176181248764" lon="117.22093371170132">
        <ele>87.8</ele>
        <time>2023-07-04T12:33:03Z</time>
      </trkpt>
      <trkpt lat="36.68820841445461" lon="117.22093144398673">
        <ele>87.8</ele>
        <time>2023-07-04T12:33:04Z</time>
      </trkpt>
      <trkpt lat="36.68823839577983" lon="117.22092915276671">
        <ele>87.8</ele>
        <time>2023-07-04T12:33:05Z</time>
      </trkpt>
      <trkpt lat="36.68826843988788" lon="117.22092676172943">
        <ele>87.8</ele>
        <time>2023-07-04T12:33:06Z</time>
      </trkpt>
      <trkpt lat="36.6882987093732" lon="117.22092432758302">
        <ele>87.8</ele>
        <time>2023-07-04T12:33:07Z</time>
      </trkpt>
      <trkpt lat="36.68832813323881" lon="117.22092201007976">
        <ele>87.8</ele>
        <time>2023-07-04T12:33:08Z</time>
      </trkpt>
      <trkpt lat="36.68835903204932" lon="117.22091970600808">
        <ele>86.5</ele>
        <time>2023-07-04T12:33:09Z</time>
      </trkpt>
      <trkpt lat="36.68838888045761" lon="117.22091758087369">
        <ele>86.5</ele>
        <time>2023-07-04T12:33:10Z</time>
      </trkpt>
      <trkpt lat="36.68842043569162" lon="117.22091519641263">
        <ele>86.5</ele>
        <time>2023-07-04T12:33:11Z</time>
      </trkpt>
      <trkpt lat="36.688451466906464" lon="117.22091274720913">
        <ele>86.5</ele>
        <time>2023-07-04T12:33:12Z</time>
      </trkpt>
      <trkpt lat="36.688483055624324" lon="117.22091014892102">
        <ele>86.5</ele>
        <time>2023-07-04T12:33:13Z</time>
      </trkpt>
      <trkpt lat="36.688515899349504" lon="117.2209087620455">
        <ele>86.5</ele>
        <time>2023-07-04T12:33:14Z</time>
      </trkpt>
      <trkpt lat="36.68854691951618" lon="117.22090823321557">
        <ele>86.5</ele>
        <time>2023-07-04T12:33:15Z</time>
      </trkpt>
      <trkpt lat="36.68858097707889" lon="117.22090558680304">
        <ele>86.5</ele>
        <time>2023-07-04T12:33:17Z</time>
      </trkpt>
      <trkpt lat="36.68861365515158" lon="117.22090361905148">
        <ele>86.5</ele>
        <time>2023-07-04T12:33:18Z</time>
      </trkpt>
      <trkpt lat="36.68864494047506" lon="117.22090156649485">
        <ele>86.2</ele>
        <time>2023-07-04T12:33:19Z</time>
      </trkpt>
      <trkpt lat="36.688675883595934" lon="117.22089989403648">
        <ele>86.2</ele>
        <time>2023-07-04T12:33:20Z</time>
      </trkpt>
      <trkpt lat="36.68870645677698" lon="117.22089690000065">
        <ele>86.2</ele>
        <time>2023-07-04T12:33:21Z</time>
      </trkpt>
      <trkpt lat="36.68873730892846" lon="117.22089296983145">
        <ele>86.2</ele>
        <time>2023-07-04T12:33:22Z</time>
      </trkpt>
      <trkpt lat="36.68876608875343" lon="117.22089089885863">
        <ele>86.2</ele>
        <time>2023-07-04T12:33:23Z</time>
      </trkpt>
      <trkpt lat="36.68879465154359" lon="117.22088825832155">
        <ele>86.2</ele>
        <time>2023-07-04T12:33:24Z</time>
      </trkpt>
      <trkpt lat="36.68882403800085" lon="117.22088578182671">
        <ele>86.2</ele>
        <time>2023-07-04T12:33:25Z</time>
      </trkpt>
      <trkpt lat="36.68885429268733" lon="117.2208828143324">
        <ele>86.2</ele>
        <time>2023-07-04T12:33:26Z</time>
      </trkpt>
      <trkpt lat="36.68888333482344" lon="117.22087960008734">
        <ele>86.2</ele>
        <time>2023-07-04T12:33:27Z</time>
      </trkpt>
      <trkpt lat="36.68891375393667" lon="117.22087588071167">
        <ele>86.2</ele>
        <time>2023-07-04T12:33:28Z</time>
      </trkpt>
      <trkpt lat="36.68894370931203" lon="117.22087200858873">
        <ele>85.9</ele>
        <time>2023-07-04T12:33:29Z</time>
      </trkpt>
      <trkpt lat="36.68897456838708" lon="117.22086819261672">
        <ele>85.9</ele>
        <time>2023-07-04T12:33:30Z</time>
      </trkpt>
      <trkpt lat="36.689006131740086" lon="117.22086643307743">
        <ele>85.9</ele>
        <time>2023-07-04T12:33:31Z</time>
      </trkpt>
      <trkpt lat="36.68903591632234" lon="117.22086427954038">
        <ele>85.9</ele>
        <time>2023-07-04T12:33:32Z</time>
      </trkpt>
      <trkpt lat="36.689066943110724" lon="117.22086007251188">
        <ele>85.9</ele>
        <time>2023-07-04T12:33:33Z</time>
      </trkpt>
      <trkpt lat="36.68910151931462" lon="117.22085686539678">
        <ele>85.9</ele>
        <time>2023-07-04T12:33:35Z</time>
      </trkpt>
      <trkpt lat="36.68913561751106" lon="117.22085536912043">
        <ele>85.9</ele>
        <time>2023-07-04T12:33:36Z</time>
      </trkpt>
      <trkpt lat="36.689168623599876" lon="117.22085379613712">
        <ele>85.9</ele>
        <time>2023-07-04T12:33:37Z</time>
      </trkpt>
      <trkpt lat="36.68920277151781" lon="117.22084926166808">
        <ele>85.9</ele>
        <time>2023-07-04T12:33:38Z</time>
      </trkpt>
      <trkpt lat="36.689238427421955" lon="117.22084630796567">
        <ele>85.9</ele>
        <time>2023-07-04T12:33:39Z</time>
      </trkpt>
      <trkpt lat="36.689274822355884" lon="117.22084670739703">
        <ele>85.9</ele>
        <time>2023-07-04T12:33:40Z</time>
      </trkpt>
      <trkpt lat="36.68930711762591" lon="117.22084753859151">
        <ele>85.9</ele>
        <time>2023-07-04T12:33:41Z</time>
      </trkpt>
      <trkpt lat="36.689339853166864" lon="117.22084763351363">
        <ele>85.9</ele>
        <time>2023-07-04T12:33:42Z</time>
      </trkpt>
      <trkpt lat="36.689374511686516" lon="117.22084815428225">
        <ele>85.9</ele>
        <time>2023-07-04T12:33:43Z</time>
      </trkpt>
      <trkpt lat="36.68940842878931" lon="117.22085015877748">
        <ele>85.9</ele>
        <time>2023-07-04T12:33:44Z</time>
      </trkpt>
      <trkpt lat="36.68944219942993" lon="117.22085174534516">
        <ele>85.9</ele>
        <time>2023-07-04T12:33:45Z</time>
      </trkpt>
      <trkpt lat="36.68947493124345" lon="117.22085287085717">
        <ele>85.9</ele>
        <time>2023-07-04T12:33:46Z</time>
      </trkpt>
      <trkpt lat="36.68950721322543" lon="117.22085372758836">
        <ele>85.9</ele>
        <time>2023-07-04T12:33:47Z</time>
      </trkpt>
      <trkpt lat="36.68953954350613" lon="117.22085369914609">
        <ele>85.9</ele>
        <time>2023-07-04T12:33:48Z</time>
      </trkpt>
      <trkpt lat="36.68957654888554" lon="117.22085269965359">
        <ele>85.2</ele>
        <time>2023-07-04T12:34:05Z</time>
      </trkpt>
      <trkpt lat="36.68961257276703" lon="117.22085113267056">
        <ele>85.2</ele>
        <time>2023-07-04T12:34:06Z</time>
      </trkpt>
      <trkpt lat="36.68964984840584" lon="117.22084853086324">
        <ele>85.2</ele>
        <time>2023-07-04T12:34:07Z</time>
      </trkpt>
      <trkpt lat="36.68968759483353" lon="117.2208447348483">
        <ele>85.2</ele>
        <time>2023-07-04T12:34:08Z</time>
      </trkpt>
      <trkpt lat="36.68972687926266" lon="117.22083973498714">
        <ele>85</ele>
        <time>2023-07-04T12:34:09Z</time>
      </trkpt>
      <trkpt lat="36.6897702041505" lon="117.22083596110032">
        <ele>85</ele>
        <time>2023-07-04T12:34:11Z</time>
      </trkpt>
      <trkpt lat="36.689806942244374" lon="117.22083173435125">
        <ele>85</ele>
        <time>2023-07-04T12:34:12Z</time>
      </trkpt>
      <trkpt lat="36.68984524398785" lon="117.22082577355098">
        <ele>85</ele>
        <time>2023-07-04T12:34:13Z</time>
      </trkpt>
      <trkpt lat="36.68988231085222" lon="117.22082023405281">
        <ele>85</ele>
        <time>2023-07-04T12:34:14Z</time>
      </trkpt>
      <trkpt lat="36.689919788929885" lon="117.2208149027799">
        <ele>85</ele>
        <time>2023-07-04T12:34:15Z</time>
      </trkpt>
      <trkpt lat="36.68995596205568" lon="117.22080987650385">
        <ele>85</ele>
        <time>2023-07-04T12:34:16Z</time>
      </trkpt>
      <trkpt lat="36.689987919170676" lon="117.22080345583345">
        <ele>85</ele>
        <time>2023-07-04T12:34:17Z</time>
      </trkpt>
      <trkpt lat="36.690021417763646" lon="117.22079771213583">
        <ele>85</ele>
        <time>2023-07-04T12:34:18Z</time>
      </trkpt>
      <trkpt lat="36.69005328685919" lon="117.22079364247077">
        <ele>84.7</ele>
        <time>2023-07-04T12:34:19Z</time>
      </trkpt>
      <trkpt lat="36.69008443813696" lon="117.22078958966158">
        <ele>84.7</ele>
        <time>2023-07-04T12:34:20Z</time>
      </trkpt>
      <trkpt lat="36.690114843586734" lon="117.22078575845057">
        <ele>84.7</ele>
        <time>2023-07-04T12:34:21Z</time>
      </trkpt>
      <trkpt lat="36.69014569197676" lon="117.2207819040443">
        <ele>84.7</ele>
        <time>2023-07-04T12:34:22Z</time>
      </trkpt>
      <trkpt lat="36.690176097055776" lon="117.22077827963058">
        <ele>84.7</ele>
        <time>2023-07-04T12:34:23Z</time>
      </trkpt>
      <trkpt lat="36.690205344996215" lon="117.22077467752726">
        <ele>84.7</ele>
        <time>2023-07-04T12:34:24Z</time>
      </trkpt>
      <trkpt lat="36.690235942836" lon="117.22077068051372">
        <ele>84.7</ele>
        <time>2023-07-04T12:34:25Z</time>
      </trkpt>
      <trkpt lat="36.690266941011885" lon="117.22076659365484">
        <ele>84.7</ele>
        <time>2023-07-04T12:34:26Z</time>
      </trkpt>
      <trkpt lat="36.690297894292144" lon="117.22076295508859">
        <ele>84.7</ele>
        <time>2023-07-04T12:34:27Z</time>
      </trkpt>
      <trkpt lat="36.69033001496068" lon="117.22076131272475">
        <ele>84.9</ele>
        <time>2023-07-04T12:34:29Z</time>
      </trkpt>
      <trkpt lat="36.69036253578804" lon="117.22075729443984">
        <ele>84.9</ele>
        <time>2023-07-04T12:34:30Z</time>
      </trkpt>
      <trkpt lat="36.690395548297154" lon="117.22075339342321">
        <ele>84.9</ele>
        <time>2023-07-04T12:34:31Z</time>
      </trkpt>
      <trkpt lat="36.69042777445583" lon="117.22075001313338">
        <ele>84.9</ele>
        <time>2023-07-04T12:34:32Z</time>
      </trkpt>
      <trkpt lat="36.690461076799295" lon="117.22074691169645">
        <ele>84.9</ele>
        <time>2023-07-04T12:34:33Z</time>
      </trkpt>
      <trkpt lat="36.690493630556084" lon="117.22074389872355">
        <ele>84.9</ele>
        <time>2023-07-04T12:34:34Z</time>
      </trkpt>
      <trkpt lat="36.690524219314874" lon="117.22073939008655">
        <ele>84.9</ele>
        <time>2023-07-04T12:34:35Z</time>
      </trkpt>
      <trkpt lat="36.69055535313537" lon="117.2207374256762">
        <ele>84.9</ele>
        <time>2023-07-04T12:34:36Z</time>
      </trkpt>
      <trkpt lat="36.69058681655711" lon="117.22073573918999">
        <ele>84.9</ele>
        <time>2023-07-04T12:34:37Z</time>
      </trkpt>
      <trkpt lat="36.690617616156274" lon="117.22073406506215">
        <ele>84.9</ele>
        <time>2023-07-04T12:34:38Z</time>
      </trkpt>
      <trkpt lat="36.6906469232769" lon="117.22073210008374">
        <ele>83.6</ele>
        <time>2023-07-04T12:34:39Z</time>
      </trkpt>
      <trkpt lat="36.69067730019046" lon="117.22072932704012">
        <ele>83.6</ele>
        <time>2023-07-04T12:34:40Z</time>
      </trkpt>
      <trkpt lat="36.69070813329722" lon="117.22072585207138">
        <ele>83.6</ele>
        <time>2023-07-04T12:34:41Z</time>
      </trkpt>
      <trkpt lat="36.690739662068545" lon="117.22072305955209">
        <ele>83.6</ele>
        <time>2023-07-04T12:34:42Z</time>
      </trkpt>
      <trkpt lat="36.690770035137604" lon="117.22072073539826">
        <ele>83.6</ele>
        <time>2023-07-04T12:34:43Z</time>
      </trkpt>
      <trkpt lat="36.690800051728715" lon="117.22071773250538">
        <ele>83.6</ele>
        <time>2023-07-04T12:34:44Z</time>
      </trkpt>
      <trkpt lat="36.69083106097478" lon="117.22071325333057">
        <ele>83.6</ele>
        <time>2023-07-04T12:34:45Z</time>
      </trkpt>
      <trkpt lat="36.690864707046224" lon="117.22070967496069">
        <ele>83.6</ele>
        <time>2023-07-04T12:34:47Z</time>
      </trkpt>
      <trkpt lat="36.69089811762767" lon="117.22070710079399">
        <ele>83.6</ele>
        <time>2023-07-04T12:34:48Z</time>
      </trkpt>
      <trkpt lat="36.69093014445394" lon="117.22070412491358">
        <ele>83.3</ele>
        <time>2023-07-04T12:34:49Z</time>
      </trkpt>
      <trkpt lat="36.69096365149002" lon="117.2207005398376">
        <ele>83.3</ele>
        <time>2023-07-04T12:34:50Z</time>
      </trkpt>
      <trkpt lat="36.69099764836685" lon="117.22069781273044">
        <ele>83.3</ele>
        <time>2023-07-04T12:34:51Z</time>
      </trkpt>
      <trkpt lat="36.69103200143374" lon="117.22069689607564">
        <ele>83.3</ele>
        <time>2023-07-04T12:34:52Z</time>
      </trkpt>
      <trkpt lat="36.691062653104645" lon="117.22069570145655">
        <ele>83.3</ele>
        <time>2023-07-04T12:34:53Z</time>
      </trkpt>
      <trkpt lat="36.691094374598016" lon="117.22069427106335">
        <ele>83.3</ele>
        <time>2023-07-04T12:34:54Z</time>
      </trkpt>
      <trkpt lat="36.691125971871244" lon="117.22069257217169">
        <ele>83.3</ele>
        <time>2023-07-04T12:34:55Z</time>
      </trkpt>
      <trkpt lat="36.69115647993992" lon="117.2206904783617">
        <ele>83.3</ele>
        <time>2023-07-04T12:34:56Z</time>
      </trkpt>
      <trkpt lat="36.69118843210309" lon="117.22068741303659">
        <ele>83.3</ele>
        <time>2023-07-04T12:34:57Z</time>
      </trkpt>
      <trkpt lat="36.691219503962536" lon="117.22068338945488">
        <ele>83.3</ele>
        <time>2023-07-04T12:34:58Z</time>
      </trkpt>
      <trkpt lat="36.691251182901" lon="117.2206801667954">
        <ele>83.4</ele>
        <time>2023-07-04T12:34:59Z</time>
      </trkpt>
      <trkpt lat="36.691280974249835" lon="117.22067515814464">
        <ele>83.4</ele>
        <time>2023-07-04T12:35:00Z</time>
      </trkpt>
      <trkpt lat="36.69131127791609" lon="117.220667636472">
        <ele>83.4</ele>
        <time>2023-07-04T12:35:01Z</time>
      </trkpt>
      <trkpt lat="36.691343712743254" lon="117.22065917016728">
        <ele>83.4</ele>
        <time>2023-07-04T12:35:02Z</time>
      </trkpt>
      <trkpt lat="36.69137550381977" lon="117.22065151588892">
        <ele>83.4</ele>
        <time>2023-07-04T12:35:03Z</time>
      </trkpt>
      <trkpt lat="36.6914086811245" lon="117.22064120890751">
        <ele>83.4</ele>
        <time>2023-07-04T12:35:05Z</time>
      </trkpt>
      <trkpt lat="36.69144298342415" lon="117.22062757099822">
        <ele>83.4</ele>
        <time>2023-07-04T12:35:06Z</time>
      </trkpt>
      <trkpt lat="36.691478514435325" lon="117.22061408323233">
        <ele>83.4</ele>
        <time>2023-07-04T12:35:07Z</time>
      </trkpt>
      <trkpt lat="36.69151387946146" lon="117.22060160756358">
        <ele>83.4</ele>
        <time>2023-07-04T12:35:08Z</time>
      </trkpt>
      <trkpt lat="36.69154832877794" lon="117.22058875008976">
        <ele>81.9</ele>
        <time>2023-07-04T12:35:09Z</time>
      </trkpt>
      <trkpt lat="36.6915820532027" lon="117.22057453330687">
        <ele>81.9</ele>
        <time>2023-07-04T12:35:10Z</time>
      </trkpt>
      <trkpt lat="36.691615081153216" lon="117.22056235135403">
        <ele>81.9</ele>
        <time>2023-07-04T12:35:11Z</time>
      </trkpt>
      <trkpt lat="36.69164636860733" lon="117.220551309914">
        <ele>81.9</ele>
        <time>2023-07-04T12:35:12Z</time>
      </trkpt>
      <trkpt lat="36.691677372801344" lon="117.22054040319249">
        <ele>81.9</ele>
        <time>2023-07-04T12:35:13Z</time>
      </trkpt>
      <trkpt lat="36.69170909709467" lon="117.2205292537979">
        <ele>81.9</ele>
        <time>2023-07-04T12:35:14Z</time>
      </trkpt>
      <trkpt lat="36.69173949873538" lon="117.22051871571554">
        <ele>81.9</ele>
        <time>2023-07-04T12:35:15Z</time>
      </trkpt>
      <trkpt lat="36.691769994915546" lon="117.22050876797027">
        <ele>81.9</ele>
        <time>2023-07-04T12:35:16Z</time>
      </trkpt>
      <trkpt lat="36.69180019627131" lon="117.22049955778162">
        <ele>81.9</ele>
        <time>2023-07-04T12:35:17Z</time>
      </trkpt>
      <trkpt lat="36.691833264900225" lon="117.22049040324745">
        <ele>81.9</ele>
        <time>2023-07-04T12:35:18Z</time>
      </trkpt>
      <trkpt lat="36.69186549933625" lon="117.2204822973777">
        <ele>81.9</ele>
        <time>2023-07-04T12:35:19Z</time>
      </trkpt>
      <trkpt lat="36.69189619489892" lon="117.2204756245802">
        <ele>81.9</ele>
        <time>2023-07-04T12:35:20Z</time>
      </trkpt>
      <trkpt lat="36.69192658390432" lon="117.22046987186528">
        <ele>81.9</ele>
        <time>2023-07-04T12:35:21Z</time>
      </trkpt>
      <trkpt lat="36.69195987906982" lon="117.2204640609012">
        <ele>81.9</ele>
        <time>2023-07-04T12:35:23Z</time>
      </trkpt>
      <trkpt lat="36.691991851537075" lon="117.22045865494088">
        <ele>81.9</ele>
        <time>2023-07-04T12:35:24Z</time>
      </trkpt>
      <trkpt lat="36.69202191249193" lon="117.22045403334144">
        <ele>81.9</ele>
        <time>2023-07-04T12:35:25Z</time>
      </trkpt>
      <trkpt lat="36.69205197024101" lon="117.220449312478">
        <ele>81.9</ele>
        <time>2023-07-04T12:35:26Z</time>
      </trkpt>
      <trkpt lat="36.69208193104126" lon="117.22044453809015">
        <ele>81.9</ele>
        <time>2023-07-04T12:35:27Z</time>
      </trkpt>
      <trkpt lat="36.692113267151335" lon="117.22043960475824">
        <ele>81.9</ele>
        <time>2023-07-04T12:35:28Z</time>
      </trkpt>
      <trkpt lat="36.69214103167785" lon="117.22043513191453">
        <ele>81</ele>
        <time>2023-07-04T12:35:29Z</time>
      </trkpt>
      <trkpt lat="36.69217041293128" lon="117.2204305440158">
        <ele>81</ele>
        <time>2023-07-04T12:35:30Z</time>
      </trkpt>
      <trkpt lat="36.69219822496192" lon="117.22042617950368">
        <ele>81</ele>
        <time>2023-07-04T12:35:31Z</time>
      </trkpt>
      <trkpt lat="36.69222630181414" lon="117.22042195201087">
        <ele>81</ele>
        <time>2023-07-04T12:35:32Z</time>
      </trkpt>
      <trkpt lat="36.69225603283604" lon="117.22041784000652">
        <ele>81</ele>
        <time>2023-07-04T12:35:33Z</time>
      </trkpt>
      <trkpt lat="36.6922842284684" lon="117.22041418049275">
        <ele>81</ele>
        <time>2023-07-04T12:35:34Z</time>
      </trkpt>
      <trkpt lat="36.69231419826802" lon="117.22041078479718">
        <ele>81</ele>
        <time>2023-07-04T12:35:35Z</time>
      </trkpt>
      <trkpt lat="36.692342767965954" lon="117.22040792985136">
        <ele>81</ele>
        <time>2023-07-04T12:35:36Z</time>
      </trkpt>
      <trkpt lat="36.692373036879744" lon="117.22040542036333">
        <ele>81</ele>
        <time>2023-07-04T12:35:37Z</time>
      </trkpt>
      <trkpt lat="36.69240324647305" lon="117.22040337810681">
        <ele>81</ele>
        <time>2023-07-04T12:35:38Z</time>
      </trkpt>
      <trkpt lat="36.69243207595519" lon="117.22040191317082">
        <ele>81.2</ele>
        <time>2023-07-04T12:35:39Z</time>
      </trkpt>
      <trkpt lat="36.692464340553826" lon="117.22040079900867">
        <ele>81.2</ele>
        <time>2023-07-04T12:35:41Z</time>
      </trkpt>
      <trkpt lat="36.692494864823374" lon="117.22040028676895">
        <ele>81.2</ele>
        <time>2023-07-04T12:35:42Z</time>
      </trkpt>
      <trkpt lat="36.69252671584068" lon="117.22040022852747">
        <ele>81.2</ele>
        <time>2023-07-04T12:35:43Z</time>
      </trkpt>
      <trkpt lat="36.69255692312515" lon="117.2204007549748">
        <ele>81.2</ele>
        <time>2023-07-04T12:35:44Z</time>
      </trkpt>
      <trkpt lat="36.69258708462949" lon="117.22040177809752">
        <ele>81.2</ele>
        <time>2023-07-04T12:35:45Z</time>
      </trkpt>
      <trkpt lat="36.692618509696395" lon="117.22040326218469">
        <ele>81.2</ele>
        <time>2023-07-04T12:35:46Z</time>
      </trkpt>
      <trkpt lat="36.69264664527517" lon="117.2204053528106">
        <ele>81.2</ele>
        <time>2023-07-04T12:35:47Z</time>
      </trkpt>
      <trkpt lat="36.69267629596344" lon="117.22040787957212">
        <ele>81.2</ele>
        <time>2023-07-04T12:35:48Z</time>
      </trkpt>
      <trkpt lat="36.69270449216213" lon="117.22041089822108">
        <ele>80.2</ele>
        <time>2023-07-04T12:35:49Z</time>
      </trkpt>
      <trkpt lat="36.692734358385536" lon="117.22041438646382">
        <ele>80.2</ele>
        <time>2023-07-04T12:35:50Z</time>
      </trkpt>
      <trkpt lat="36.69276416850787" lon="117.22041832964523">
        <ele>80.2</ele>
        <time>2023-07-04T12:35:51Z</time>
      </trkpt>
      <trkpt lat="36.69279412233823" lon="117.22042268487273">
        <ele>80.2</ele>
        <time>2023-07-04T12:35:52Z</time>
      </trkpt>
      <trkpt lat="36.69282418800693" lon="117.22042737342677">
        <ele>80.2</ele>
        <time>2023-07-04T12:35:53Z</time>
      </trkpt>
      <trkpt lat="36.69285309886962" lon="117.220432323014">
        <ele>80.2</ele>
        <time>2023-07-04T12:35:54Z</time>
      </trkpt>
      <trkpt lat="36.692884686239324" lon="117.22043864904943">
        <ele>80.2</ele>
        <time>2023-07-04T12:35:55Z</time>
      </trkpt>
      <trkpt lat="36.69291540885392" lon="117.22044562905997">
        <ele>80.2</ele>
        <time>2023-07-04T12:35:56Z</time>
      </trkpt>
      <trkpt lat="36.69294791776777" lon="117.22045324074139">
        <ele>80.2</ele>
        <time>2023-07-04T12:35:57Z</time>
      </trkpt>
      <trkpt lat="36.692981455690585" lon="117.2204616799321">
        <ele>80</ele>
        <time>2023-07-04T12:35:59Z</time>
      </trkpt>
      <trkpt lat="36.69301641713968" lon="117.22047059574092">
        <ele>80</ele>
        <time>2023-07-04T12:36:00Z</time>
      </trkpt>
      <trkpt lat="36.693051518808524" lon="117.22047971817373">
        <ele>80</ele>
        <time>2023-07-04T12:36:01Z</time>
      </trkpt>
      <trkpt lat="36.693084494595965" lon="117.22048794738592">
        <ele>80</ele>
        <time>2023-07-04T12:36:02Z</time>
      </trkpt>
      <trkpt lat="36.69311818460841" lon="117.2204961493719">
        <ele>80</ele>
        <time>2023-07-04T12:36:03Z</time>
      </trkpt>
      <trkpt lat="36.693150302675896" lon="117.22050396771976">
        <ele>80</ele>
        <time>2023-07-04T12:36:04Z</time>
      </trkpt>
      <trkpt lat="36.69318134266855" lon="117.2205115706878">
        <ele>80</ele>
        <time>2023-07-04T12:36:05Z</time>
      </trkpt>
      <trkpt lat="36.693211030411376" lon="117.2205190455749">
        <ele>80</ele>
        <time>2023-07-04T12:36:06Z</time>
      </trkpt>
      <trkpt lat="36.693241832389944" lon="117.22052701361596">
        <ele>80</ele>
        <time>2023-07-04T12:36:07Z</time>
      </trkpt>
      <trkpt lat="36.693272539930184" lon="117.22053507036964">
        <ele>80</ele>
        <time>2023-07-04T12:36:08Z</time>
      </trkpt>
      <trkpt lat="36.69330221652673" lon="117.22054289221383">
        <ele>79.9</ele>
        <time>2023-07-04T12:36:09Z</time>
      </trkpt>
      <trkpt lat="36.69333319691337" lon="117.22055107315552">
        <ele>79.9</ele>
        <time>2023-07-04T12:36:10Z</time>
      </trkpt>
      <trkpt lat="36.69336314689699" lon="117.22055891727041">
        <ele>79.9</ele>
        <time>2023-07-04T12:36:11Z</time>
      </trkpt>
      <trkpt lat="36.693394378043074" lon="117.22056699634514">
        <ele>79.9</ele>
        <time>2023-07-04T12:36:12Z</time>
      </trkpt>
      <trkpt lat="36.69342451485251" lon="117.22057468032503">
        <ele>79.9</ele>
        <time>2023-07-04T12:36:13Z</time>
      </trkpt>
      <trkpt lat="36.693454819163605" lon="117.22058215529286">
        <ele>79.9</ele>
        <time>2023-07-04T12:36:14Z</time>
      </trkpt>
      <trkpt lat="36.69348654103497" lon="117.22058987067928">
        <ele>79.9</ele>
        <time>2023-07-04T12:36:15Z</time>
      </trkpt>
      <trkpt lat="36.693519982738195" lon="117.22059832823247">
        <ele>79.9</ele>
        <time>2023-07-04T12:36:17Z</time>
      </trkpt>
      <trkpt lat="36.69355297661994" lon="117.22060935438613">
        <ele>79.9</ele>
        <time>2023-07-04T12:36:18Z</time>
      </trkpt>
      <trkpt lat="36.69358384074155" lon="117.22061982220558">
        <ele>78.9</ele>
        <time>2023-07-04T12:36:19Z</time>
      </trkpt>
      <trkpt lat="36.693615671417454" lon="117.22062913492233">
        <ele>78.9</ele>
        <time>2023-07-04T12:36:20Z</time>
      </trkpt>
      <trkpt lat="36.69364737051196" lon="117.22063940047128">
        <ele>78.9</ele>
        <time>2023-07-04T12:36:21Z</time>
      </trkpt>
      <trkpt lat="36.6936781483898" lon="117.22065080371856">
        <ele>78.9</ele>
        <time>2023-07-04T12:36:22Z</time>
      </trkpt>
      <trkpt lat="36.693707046953094" lon="117.22066232247818">
        <ele>78.9</ele>
        <time>2023-07-04T12:36:23Z</time>
      </trkpt>
      <trkpt lat="36.69373566946736" lon="117.22067187175847">
        <ele>78.9</ele>
        <time>2023-07-04T12:36:24Z</time>
      </trkpt>
      <trkpt lat="36.69376484074931" lon="117.22068151079097">
        <ele>78.9</ele>
        <time>2023-07-04T12:36:25Z</time>
      </trkpt>
      <trkpt lat="36.69379314080537" lon="117.22069263874879">
        <ele>78.9</ele>
        <time>2023-07-04T12:36:26Z</time>
      </trkpt>
      <trkpt lat="36.6938224285276" lon="117.22070374877109">
        <ele>78.9</ele>
        <time>2023-07-04T12:36:27Z</time>
      </trkpt>
      <trkpt lat="36.69385027024324" lon="117.22071333066116">
        <ele>78.9</ele>
        <time>2023-07-04T12:36:28Z</time>
      </trkpt>
      <trkpt lat="36.69388103714234" lon="117.22072500809466">
        <ele>79</ele>
        <time>2023-07-04T12:36:29Z</time>
      </trkpt>
      <trkpt lat="36.69391185345972" lon="117.22073917308552">
        <ele>79</ele>
        <time>2023-07-04T12:36:30Z</time>
      </trkpt>
      <trkpt lat="36.69394134474941" lon="117.22075456158477">
        <ele>79</ele>
        <time>2023-07-04T12:36:31Z</time>
      </trkpt>
      <trkpt lat="36.69397034751264" lon="117.22076999862543">
        <ele>79</ele>
        <time>2023-07-04T12:36:32Z</time>
      </trkpt>
      <trkpt lat="36.69399953667908" lon="117.22078500889822">
        <ele>79</ele>
        <time>2023-07-04T12:36:33Z</time>
      </trkpt>
      <trkpt lat="36.694028901207545" lon="117.22080075180871">
        <ele>79</ele>
        <time>2023-07-04T12:36:35Z</time>
      </trkpt>
      <trkpt lat="36.69405493225111" lon="117.22081455276034">
        <ele>79</ele>
        <time>2023-07-04T12:36:36Z</time>
      </trkpt>
      <trkpt lat="36.694081392602776" lon="117.2208261755645">
        <ele>79</ele>
        <time>2023-07-04T12:36:37Z</time>
      </trkpt>
      <trkpt lat="36.694108378585604" lon="117.22083664268146">
        <ele>79</ele>
        <time>2023-07-04T12:36:38Z</time>
      </trkpt>
      <trkpt lat="36.694136700814234" lon="117.22084761014207">
        <ele>78.2</ele>
        <time>2023-07-04T12:36:39Z</time>
      </trkpt>
      <trkpt lat="36.69416364514213" lon="117.22085906368443">
        <ele>78.2</ele>
        <time>2023-07-04T12:36:40Z</time>
      </trkpt>
      <trkpt lat="36.6941902637721" lon="117.22087011685856">
        <ele>78.2</ele>
        <time>2023-07-04T12:36:41Z</time>
      </trkpt>
      <trkpt lat="36.69421799797866" lon="117.22088178176">
        <ele>78.2</ele>
        <time>2023-07-04T12:36:42Z</time>
      </trkpt>
      <trkpt lat="36.69424484607175" lon="117.22089364971046">
        <ele>78.2</ele>
        <time>2023-07-04T12:36:43Z</time>
      </trkpt>
      <trkpt lat="36.69427177923823" lon="117.22090604565793">
        <ele>78.2</ele>
        <time>2023-07-04T12:36:44Z</time>
      </trkpt>
      <trkpt lat="36.69429835768889" lon="117.22091868986207">
        <ele>78.2</ele>
        <time>2023-07-04T12:36:45Z</time>
      </trkpt>
      <trkpt lat="36.69432573258688" lon="117.22093161885057">
        <ele>78.2</ele>
        <time>2023-07-04T12:36:46Z</time>
      </trkpt>
      <trkpt lat="36.69435508297283" lon="117.2209450164787">
        <ele>78.2</ele>
        <time>2023-07-04T12:36:47Z</time>
      </trkpt>
      <trkpt lat="36.69438461411547" lon="117.22095804610774">
        <ele>78.2</ele>
        <time>2023-07-04T12:36:48Z</time>
      </trkpt>
      <trkpt lat="36.694414243107225" lon="117.22097080988691">
        <ele>78.4</ele>
        <time>2023-07-04T12:36:49Z</time>
      </trkpt>
      <trkpt lat="36.69444403091056" lon="117.22098339680434">
        <ele>78.4</ele>
        <time>2023-07-04T12:36:50Z</time>
      </trkpt>
      <trkpt lat="36.69447405457562" lon="117.22099606751291">
        <ele>78.4</ele>
        <time>2023-07-04T12:36:51Z</time>
      </trkpt>
      <trkpt lat="36.69450298663671" lon="117.22100845976664">
        <ele>78.4</ele>
        <time>2023-07-04T12:36:53Z</time>
      </trkpt>
      <trkpt lat="36.69453056408793" lon="117.22102098753962">
        <ele>78.4</ele>
        <time>2023-07-04T12:36:54Z</time>
      </trkpt>
      <trkpt lat="36.69455660835174" lon="117.22103337235035">
        <ele>78.4</ele>
        <time>2023-07-04T12:36:55Z</time>
      </trkpt>
      <trkpt lat="36.69458218763087" lon="117.2210460221233">
        <ele>78.4</ele>
        <time>2023-07-04T12:36:56Z</time>
      </trkpt>
      <trkpt lat="36.694608484022496" lon="117.22105953907787">
        <ele>78.4</ele>
        <time>2023-07-04T12:36:57Z</time>
      </trkpt>
      <trkpt lat="36.6946336943679" lon="117.22107296165773">
        <ele>78.4</ele>
        <time>2023-07-04T12:36:58Z</time>
      </trkpt>
      <trkpt lat="36.6946590975003" lon="117.22108682951739">
        <ele>77.3</ele>
        <time>2023-07-04T12:36:59Z</time>
      </trkpt>
      <trkpt lat="36.69468444453003" lon="117.22110087198097">
        <ele>77.3</ele>
        <time>2023-07-04T12:37:00Z</time>
      </trkpt>
      <trkpt lat="36.694710669211844" lon="117.22111568602675">
        <ele>77.3</ele>
        <time>2023-07-04T12:37:01Z</time>
      </trkpt>
      <trkpt lat="36.694736835667165" lon="117.22113081015404">
        <ele>77.3</ele>
        <time>2023-07-04T12:37:02Z</time>
      </trkpt>
      <trkpt lat="36.694761767083705" lon="117.22114567689623">
        <ele>77.3</ele>
        <time>2023-07-04T12:37:03Z</time>
      </trkpt>
      <trkpt lat="36.69478758547955" lon="117.22116132793388">
        <ele>77.3</ele>
        <time>2023-07-04T12:37:04Z</time>
      </trkpt>
      <trkpt lat="36.69481573598073" lon="117.22117826103165">
        <ele>77.3</ele>
        <time>2023-07-04T12:37:05Z</time>
      </trkpt>
      <trkpt lat="36.69484405812821" lon="117.22119279121627">
        <ele>77.3</ele>
        <time>2023-07-04T12:37:06Z</time>
      </trkpt>
      <trkpt lat="36.694870805921525" lon="117.22120622272242">
        <ele>77.3</ele>
        <time>2023-07-04T12:37:07Z</time>
      </trkpt>
      <trkpt lat="36.69489741976427" lon="117.22122150640482">
        <ele>77.3</ele>
        <time>2023-07-04T12:37:08Z</time>
      </trkpt>
      <trkpt lat="36.69492457141218" lon="117.22123679091068">
        <ele>77.4</ele>
        <time>2023-07-04T12:37:09Z</time>
      </trkpt>
      <trkpt lat="36.69495087747344" lon="117.22125120935341">
        <ele>77.4</ele>
        <time>2023-07-04T12:37:11Z</time>
      </trkpt>
      <trkpt lat="36.69497550351497" lon="117.22126473037396">
        <ele>77.4</ele>
        <time>2023-07-04T12:37:12Z</time>
      </trkpt>
      <trkpt lat="36.69499888658738" lon="117.22128023480005">
        <ele>77.4</ele>
        <time>2023-07-04T12:37:13Z</time>
      </trkpt>
      <trkpt lat="36.695022681242364" lon="117.22129638943076">
        <ele>77.4</ele>
        <time>2023-07-04T12:37:14Z</time>
      </trkpt>
      <trkpt lat="36.695047333167736" lon="117.22131122580932">
        <ele>77.4</ele>
        <time>2023-07-04T12:37:15Z</time>
      </trkpt>
      <trkpt lat="36.695072204814636" lon="117.22132660242517">
        <ele>77.4</ele>
        <time>2023-07-04T12:37:16Z</time>
      </trkpt>
      <trkpt lat="36.69509666579272" lon="117.22134215322737">
        <ele>77.4</ele>
        <time>2023-07-04T12:37:17Z</time>
      </trkpt>
      <trkpt lat="36.69512010457588" lon="117.2213575644155">
        <ele>77.4</ele>
        <time>2023-07-04T12:37:18Z</time>
      </trkpt>
      <trkpt lat="36.695144651855315" lon="117.22137413175733">
        <ele>76.9</ele>
        <time>2023-07-04T12:37:19Z</time>
      </trkpt>
      <trkpt lat="36.69516950281572" lon="117.22139109895032">
        <ele>76.9</ele>
        <time>2023-07-04T12:37:20Z</time>
      </trkpt>
      <trkpt lat="36.6951936634857" lon="117.2214078467034">
        <ele>76.9</ele>
        <time>2023-07-04T12:37:21Z</time>
      </trkpt>
      <trkpt lat="36.69521795776587" lon="117.22142518291818">
        <ele>76.9</ele>
        <time>2023-07-04T12:37:22Z</time>
      </trkpt>
      <trkpt lat="36.6952445445562" lon="117.22144489782418">
        <ele>76.9</ele>
        <time>2023-07-04T12:37:23Z</time>
      </trkpt>
      <trkpt lat="36.6952714119226" lon="117.22146496437367">
        <ele>76.9</ele>
        <time>2023-07-04T12:37:24Z</time>
      </trkpt>
      <trkpt lat="36.69529737712827" lon="117.22148433932526">
        <ele>76.9</ele>
        <time>2023-07-04T12:37:25Z</time>
      </trkpt>
      <trkpt lat="36.69532213974773" lon="117.22150294915282">
        <ele>76.9</ele>
        <time>2023-07-04T12:37:26Z</time>
      </trkpt>
      <trkpt lat="36.695346006492166" lon="117.2215209442527">
        <ele>76.9</ele>
        <time>2023-07-04T12:37:27Z</time>
      </trkpt>
      <trkpt lat="36.695367899678715" lon="117.22153680821548">
        <ele>77.5</ele>
        <time>2023-07-04T12:37:29Z</time>
      </trkpt>
      <trkpt lat="36.695386205767605" lon="117.22154859390652">
        <ele>77.5</ele>
        <time>2023-07-04T12:37:30Z</time>
      </trkpt>
      <trkpt lat="36.69540280676295" lon="117.22155749202932">
        <ele>77.5</ele>
        <time>2023-07-04T12:37:31Z</time>
      </trkpt>
      <trkpt lat="36.695417789661306" lon="117.22156155991605">
        <ele>77.5</ele>
        <time>2023-07-04T12:37:32Z</time>
      </trkpt>
      <trkpt lat="36.695431735150784" lon="117.22156194382299">
        <ele>77.5</ele>
        <time>2023-07-04T12:37:33Z</time>
      </trkpt>
      <trkpt lat="36.695444336052304" lon="117.22155751800305">
        <ele>77.5</ele>
        <time>2023-07-04T12:37:34Z</time>
      </trkpt>
      <trkpt lat="36.6954543335195" lon="117.22154738684767">
        <ele>77.5</ele>
        <time>2023-07-04T12:37:35Z</time>
      </trkpt>
      <trkpt lat="36.69546289497247" lon="117.2215339890947">
        <ele>77.5</ele>
        <time>2023-07-04T12:37:36Z</time>
      </trkpt>
      <trkpt lat="36.69547100649585" lon="117.22151707935762">
        <ele>77.5</ele>
        <time>2023-07-04T12:37:37Z</time>
      </trkpt>
      <trkpt lat="36.695478972687916" lon="117.22149633835252">
        <ele>77.5</ele>
        <time>2023-07-04T12:37:38Z</time>
      </trkpt>
      <trkpt lat="36.69548634193979" lon="117.22147203278496">
        <ele>77</ele>
        <time>2023-07-04T12:37:39Z</time>
      </trkpt>
      <trkpt lat="36.695492153239044" lon="117.22144356004308">
        <ele>77</ele>
        <time>2023-07-04T12:37:40Z</time>
      </trkpt>
      <trkpt lat="36.69549857956406" lon="117.22141292290154">
        <ele>77</ele>
        <time>2023-07-04T12:37:41Z</time>
      </trkpt>
      <trkpt lat="36.69550654831152" lon="117.22137871266645">
        <ele>77</ele>
        <time>2023-07-04T12:37:42Z</time>
      </trkpt>
      <trkpt lat="36.69551354486638" lon="117.22134196184822">
        <ele>77</ele>
        <time>2023-07-04T12:37:43Z</time>
      </trkpt>
      <trkpt lat="36.69551913394056" lon="117.22130529540485">
        <ele>77</ele>
        <time>2023-07-04T12:37:44Z</time>
      </trkpt>
      <trkpt lat="36.69552457263896" lon="117.22126823600189">
        <ele>77</ele>
        <time>2023-07-04T12:37:45Z</time>
      </trkpt>
      <trkpt lat="36.69553125944389" lon="117.22123291811586">
        <ele>77</ele>
        <time>2023-07-04T12:37:47Z</time>
      </trkpt>
      <trkpt lat="36.695539605163596" lon="117.22119795850658">
        <ele>77</ele>
        <time>2023-07-04T12:37:48Z</time>
      </trkpt>
      <trkpt lat="36.695547435474" lon="117.22116432918585">
        <ele>77.4</ele>
        <time>2023-07-04T12:37:49Z</time>
      </trkpt>
      <trkpt lat="36.695556358490215" lon="117.221131984509">
        <ele>77.4</ele>
        <time>2023-07-04T12:37:50Z</time>
      </trkpt>
      <trkpt lat="36.69556679381067" lon="117.22109924398313">
        <ele>77.4</ele>
        <time>2023-07-04T12:37:51Z</time>
      </trkpt>
      <trkpt lat="36.69557780629851" lon="117.22106705681344">
        <ele>77.4</ele>
        <time>2023-07-04T12:37:52Z</time>
      </trkpt>
      <trkpt lat="36.69558887684905" lon="117.22103313459499">
        <ele>77.4</ele>
        <time>2023-07-04T12:37:53Z</time>
      </trkpt>
      <trkpt lat="36.695598600560146" lon="117.2209997835515">
        <ele>77.4</ele>
        <time>2023-07-04T12:37:54Z</time>
      </trkpt>
      <trkpt lat="36.69560720595283" lon="117.22096571610909">
        <ele>77.4</ele>
        <time>2023-07-04T12:37:55Z</time>
      </trkpt>
      <trkpt lat="36.69561467520092" lon="117.22092955418277">
        <ele>77.4</ele>
        <time>2023-07-04T12:37:56Z</time>
      </trkpt>
      <trkpt lat="36.6956205257181" lon="117.22089425931715">
        <ele>77.4</ele>
        <time>2023-07-04T12:37:57Z</time>
      </trkpt>
      <trkpt lat="36.695625515735706" lon="117.22085864300928">
        <ele>77.4</ele>
        <time>2023-07-04T12:37:58Z</time>
      </trkpt>
      <trkpt lat="36.69563038481481" lon="117.22082064759879">
        <ele>77.3</ele>
        <time>2023-07-04T12:37:59Z</time>
      </trkpt>
      <trkpt lat="36.695635009920785" lon="117.22078250265251">
        <ele>77.3</ele>
        <time>2023-07-04T12:38:00Z</time>
      </trkpt>
      <trkpt lat="36.69563948028912" lon="117.2207443878435">
        <ele>77.3</ele>
        <time>2023-07-04T12:38:01Z</time>
      </trkpt>
      <trkpt lat="36.69564394213374" lon="117.22070630414439">
        <ele>77.3</ele>
        <time>2023-07-04T12:38:02Z</time>
      </trkpt>
      <trkpt lat="36.695648409569706" lon="117.22066821509448">
        <ele>77.3</ele>
        <time>2023-07-04T12:38:03Z</time>
      </trkpt>
      <trkpt lat="36.69565306259236" lon="117.22062856068659">
        <ele>77.3</ele>
        <time>2023-07-04T12:38:05Z</time>
      </trkpt>
      <trkpt lat="36.69565710955179" lon="117.22059275226965">
        <ele>77.3</ele>
        <time>2023-07-04T12:38:06Z</time>
      </trkpt>
      <trkpt lat="36.695660952795905" lon="117.22055709037384">
        <ele>77.3</ele>
        <time>2023-07-04T12:38:07Z</time>
      </trkpt>
      <trkpt lat="36.69566459119132" lon="117.2205200714527">
        <ele>77.3</ele>
        <time>2023-07-04T12:38:08Z</time>
      </trkpt>
      <trkpt lat="36.69566779747601" lon="117.22048447803444">
        <ele>77.3</ele>
        <time>2023-07-04T12:38:09Z</time>
      </trkpt>
      <trkpt lat="36.695670742292315" lon="117.22044889164081">
        <ele>77.3</ele>
        <time>2023-07-04T12:38:10Z</time>
      </trkpt>
      <trkpt lat="36.69567318479256" lon="117.22041378291756">
        <ele>77.3</ele>
        <time>2023-07-04T12:38:11Z</time>
      </trkpt>
      <trkpt lat="36.69567524412104" lon="117.22037892998085">
        <ele>77.3</ele>
        <time>2023-07-04T12:38:12Z</time>
      </trkpt>
      <trkpt lat="36.69567700609986" lon="117.22034464704174">
        <ele>77.3</ele>
        <time>2023-07-04T12:38:13Z</time>
      </trkpt>
      <trkpt lat="36.695678665648224" lon="117.22031099608947">
        <ele>77.3</ele>
        <time>2023-07-04T12:38:14Z</time>
      </trkpt>
      <trkpt lat="36.69568030181278" lon="117.22027804652944">
        <ele>77.3</ele>
        <time>2023-07-04T12:38:15Z</time>
      </trkpt>
      <trkpt lat="36.69568219661955" lon="117.22024426953075">
        <ele>77.3</ele>
        <time>2023-07-04T12:38:16Z</time>
      </trkpt>
      <trkpt lat="36.69568456455899" lon="117.22020818156273">
        <ele>77.3</ele>
        <time>2023-07-04T12:38:17Z</time>
      </trkpt>
      <trkpt lat="36.6956870927484" lon="117.22017170026243">
        <ele>77.3</ele>
        <time>2023-07-04T12:38:18Z</time>
      </trkpt>
      <trkpt lat="36.695689579966405" lon="117.2201344745781">
        <ele>77.2</ele>
        <time>2023-07-04T12:38:19Z</time>
      </trkpt>
      <trkpt lat="36.69569193739947" lon="117.22009852034648">
        <ele>77.2</ele>
        <time>2023-07-04T12:38:20Z</time>
      </trkpt>
      <trkpt lat="36.69569465579061" lon="117.22006312152376">
        <ele>77.2</ele>
        <time>2023-07-04T12:38:21Z</time>
      </trkpt>
      <trkpt lat="36.695699005748494" lon="117.22003143832447">
        <ele>77.2</ele>
        <time>2023-07-04T12:38:23Z</time>
      </trkpt>
      <trkpt lat="36.69570491624894" lon="117.22000604367287">
        <ele>77.2</ele>
        <time>2023-07-04T12:38:24Z</time>
      </trkpt>
      <trkpt lat="36.69571319631321" lon="117.21998438530149">
        <ele>77.2</ele>
        <time>2023-07-04T12:38:25Z</time>
      </trkpt>
      <trkpt lat="36.69572561085391" lon="117.21996734907187">
        <ele>77.2</ele>
        <time>2023-07-04T12:38:26Z</time>
      </trkpt>
      <trkpt lat="36.69574136190935" lon="117.21995430128575">
        <ele>77.2</ele>
        <time>2023-07-04T12:38:27Z</time>
      </trkpt>
      <trkpt lat="36.69576019349737" lon="117.21994418329736">
        <ele>77.2</ele>
        <time>2023-07-04T12:38:28Z</time>
      </trkpt>
      <trkpt lat="36.695781625001175" lon="117.21993440118271">
        <ele>77.3</ele>
        <time>2023-07-04T12:38:29Z</time>
      </trkpt>
      <trkpt lat="36.69580445452811" lon="117.2199249810228">
        <ele>77.3</ele>
        <time>2023-07-04T12:38:30Z</time>
      </trkpt>
      <trkpt lat="36.69582804792172" lon="117.21991467622398">
        <ele>77.3</ele>
        <time>2023-07-04T12:38:31Z</time>
      </trkpt>
      <trkpt lat="36.695850371142434" lon="117.21990197075665">
        <ele>77.3</ele>
        <time>2023-07-04T12:38:32Z</time>
      </trkpt>
      <trkpt lat="36.695871692013625" lon="117.21988580691098">
        <ele>77.3</ele>
        <time>2023-07-04T12:38:33Z</time>
      </trkpt>
      <trkpt lat="36.69589086447836" lon="117.21986558088771">
        <ele>77.3</ele>
        <time>2023-07-04T12:38:34Z</time>
      </trkpt>
      <trkpt lat="36.69590648439823" lon="117.21984157093914">
        <ele>77.3</ele>
        <time>2023-07-04T12:38:35Z</time>
      </trkpt>
      <trkpt lat="36.695919402138344" lon="117.21981371544561">
        <ele>77.3</ele>
        <time>2023-07-04T12:38:36Z</time>
      </trkpt>
      <trkpt lat="36.69592958291027" lon="117.21978401084509">
        <ele>77.3</ele>
        <time>2023-07-04T12:38:37Z</time>
      </trkpt>
      <trkpt lat="36.69593729205503" lon="117.21975126185357">
        <ele>77.3</ele>
        <time>2023-07-04T12:38:38Z</time>
      </trkpt>
      <trkpt lat="36.69594285541344" lon="117.21971812663246">
        <ele>77.3</ele>
        <time>2023-07-04T12:38:39Z</time>
      </trkpt>
      <trkpt lat="36.695947115285875" lon="117.21968542651281">
        <ele>77.3</ele>
        <time>2023-07-04T12:38:41Z</time>
      </trkpt>
      <trkpt lat="36.69595038811826" lon="117.21965196606484">
        <ele>77.3</ele>
        <time>2023-07-04T12:38:42Z</time>
      </trkpt>
      <trkpt lat="36.695952863701855" lon="117.21961965815377">
        <ele>77.3</ele>
        <time>2023-07-04T12:38:43Z</time>
      </trkpt>
      <trkpt lat="36.69595477544394" lon="117.21958686631501">
        <ele>77.3</ele>
        <time>2023-07-04T12:38:44Z</time>
      </trkpt>
      <trkpt lat="36.69595634159013" lon="117.21955384337215">
        <ele>77.3</ele>
        <time>2023-07-04T12:38:45Z</time>
      </trkpt>
      <trkpt lat="36.695957710437085" lon="117.21952065301699">
        <ele>77.3</ele>
        <time>2023-07-04T12:38:46Z</time>
      </trkpt>
      <trkpt lat="36.69595893373002" lon="117.21948729869838">
        <ele>77.3</ele>
        <time>2023-07-04T12:38:47Z</time>
      </trkpt>
      <trkpt lat="36.69596003620151" lon="117.21945582590493">
        <ele>77.3</ele>
        <time>2023-07-04T12:38:48Z</time>
      </trkpt>
      <trkpt lat="36.69596105833179" lon="117.21942255727016">
        <ele>77.3</ele>
        <time>2023-07-04T12:38:49Z</time>
      </trkpt>
      <trkpt lat="36.6959619974738" lon="117.21938934100989">
        <ele>77.3</ele>
        <time>2023-07-04T12:38:50Z</time>
      </trkpt>
      <trkpt lat="36.69596283675493" lon="117.219358162584">
        <ele>77.3</ele>
        <time>2023-07-04T12:38:51Z</time>
      </trkpt>
      <trkpt lat="36.695963598917814" lon="117.21932533429528">
        <ele>77.3</ele>
        <time>2023-07-04T12:38:52Z</time>
      </trkpt>
      <trkpt lat="36.695964325841615" lon="117.21928857420082">
        <ele>77.3</ele>
        <time>2023-07-04T12:38:53Z</time>
      </trkpt>
      <trkpt lat="36.6959649838514" lon="117.21925154696878">
        <ele>77.3</ele>
        <time>2023-07-04T12:38:54Z</time>
      </trkpt>
      <trkpt lat="36.69596556514857" lon="117.21921616010317">
        <ele>77.3</ele>
        <time>2023-07-04T12:38:55Z</time>
      </trkpt>
      <trkpt lat="36.695966101673854" lon="117.21917893394067">
        <ele>77.3</ele>
        <time>2023-07-04T12:38:56Z</time>
      </trkpt>
      <trkpt lat="36.695966604600095" lon="117.21914122457423">
        <ele>77.3</ele>
        <time>2023-07-04T12:38:57Z</time>
      </trkpt>
      <trkpt lat="36.69596708131979" lon="117.21910517845569">
        <ele>77.7</ele>
        <time>2023-07-04T12:38:59Z</time>
      </trkpt>
      <trkpt lat="36.69596753658596" lon="117.21907149072065">
        <ele>77.7</ele>
        <time>2023-07-04T12:39:00Z</time>
      </trkpt>
      <trkpt lat="36.695968004470686" lon="117.21903822546275">
        <ele>77.7</ele>
        <time>2023-07-04T12:39:01Z</time>
      </trkpt>
      <trkpt lat="36.695968499852306" lon="117.21900339790014">
        <ele>77.7</ele>
        <time>2023-07-04T12:39:02Z</time>
      </trkpt>
      <trkpt lat="36.695968986128015" lon="117.21897087262755">
        <ele>77.7</ele>
        <time>2023-07-04T12:39:03Z</time>
      </trkpt>
      <trkpt lat="36.695969555095324" lon="117.21893604288124">
        <ele>77.7</ele>
        <time>2023-07-04T12:39:04Z</time>
      </trkpt>
      <trkpt lat="36.695970112024746" lon="117.21890032865717">
        <ele>77.7</ele>
        <time>2023-07-04T12:39:05Z</time>
      </trkpt>
      <trkpt lat="36.695970725356716" lon="117.21886540848958">
        <ele>77.7</ele>
        <time>2023-07-04T12:39:06Z</time>
      </trkpt>
      <trkpt lat="36.695971380121335" lon="117.21882936630699">
        <ele>77.7</ele>
        <time>2023-07-04T12:39:07Z</time>
      </trkpt>
      <trkpt lat="36.69597202392181" lon="117.21879466508673">
        <ele>77.7</ele>
        <time>2023-07-04T12:39:08Z</time>
      </trkpt>
      <trkpt lat="36.69597265063008" lon="117.21875942263289">
        <ele>77.6</ele>
        <time>2023-07-04T12:39:09Z</time>
      </trkpt>
      <trkpt lat="36.69597327405669" lon="117.21872499031348">
        <ele>77.6</ele>
        <time>2023-07-04T12:39:10Z</time>
      </trkpt>
      <trkpt lat="36.69597446628534" lon="117.21868874898834">
        <ele>77.6</ele>
        <time>2023-07-04T12:39:11Z</time>
      </trkpt>
      <trkpt lat="36.695976049283686" lon="117.21865169929374">
        <ele>77.6</ele>
        <time>2023-07-04T12:39:12Z</time>
      </trkpt>
      <trkpt lat="36.69597781239256" lon="117.21861537329785">
        <ele>77.6</ele>
        <time>2023-07-04T12:39:13Z</time>
      </trkpt>
      <trkpt lat="36.6959799528553" lon="117.21857761740397">
        <ele>77.6</ele>
        <time>2023-07-04T12:39:14Z</time>
      </trkpt>
      <trkpt lat="36.69598231675347" lon="117.21853963223424">
        <ele>77.6</ele>
        <time>2023-07-04T12:39:15Z</time>
      </trkpt>
      <trkpt lat="36.69598481754702" lon="117.21850157852315">
        <ele>77.6</ele>
        <time>2023-07-04T12:39:17Z</time>
      </trkpt>
      <trkpt lat="36.69598683201258" lon="117.2184660186721">
        <ele>77.6</ele>
        <time>2023-07-04T12:39:18Z</time>
      </trkpt>
      <trkpt lat="36.695988450447004" lon="117.21843195882876">
        <ele>78.3</ele>
        <time>2023-07-04T12:39:19Z</time>
      </trkpt>
      <trkpt lat="36.6959899626449" lon="117.21839635239263">
        <ele>78.3</ele>
        <time>2023-07-04T12:39:20Z</time>
      </trkpt>
      <trkpt lat="36.695991158451314" lon="117.21836236411049">
        <ele>78.3</ele>
        <time>2023-07-04T12:39:21Z</time>
      </trkpt>
      <trkpt lat="36.69599233625997" lon="117.21832700101956">
        <ele>78.3</ele>
        <time>2023-07-04T12:39:22Z</time>
      </trkpt>
      <trkpt lat="36.69599355427432" lon="117.21829299323323">
        <ele>78.3</ele>
        <time>2023-07-04T12:39:23Z</time>
      </trkpt>
      <trkpt lat="36.695994970115464" lon="117.21825875203106">
        <ele>78.3</ele>
        <time>2023-07-04T12:39:24Z</time>
      </trkpt>
      <trkpt lat="36.69599655119378" lon="117.21822299633567">
        <ele>78.3</ele>
        <time>2023-07-04T12:39:25Z</time>
      </trkpt>
      <trkpt lat="36.69599813385249" lon="117.21818897329199">
        <ele>78.3</ele>
        <time>2023-07-04T12:39:26Z</time>
      </trkpt>
      <trkpt lat="36.6959997601104" lon="117.21815376924224">
        <ele>78.3</ele>
        <time>2023-07-04T12:39:27Z</time>
      </trkpt>
      <trkpt lat="36.69600127234317" lon="117.21812051152845">
        <ele>78.3</ele>
        <time>2023-07-04T12:39:28Z</time>
      </trkpt>
      <trkpt lat="36.696002632131645" lon="117.21808422154646">
        <ele>78.3</ele>
        <time>2023-07-04T12:39:29Z</time>
      </trkpt>
      <trkpt lat="36.69600373667524" lon="117.21804836123053">
        <ele>78.3</ele>
        <time>2023-07-04T12:39:30Z</time>
      </trkpt>
      <trkpt lat="36.69600446860618" lon="117.2180126869331">
        <ele>78.3</ele>
        <time>2023-07-04T12:39:31Z</time>
      </trkpt>
      <trkpt lat="36.69600484104256" lon="117.21797679716605">
        <ele>78.3</ele>
        <time>2023-07-04T12:39:32Z</time>
      </trkpt>
      <trkpt lat="36.69600468184225" lon="117.21794049355776">
        <ele>78.3</ele>
        <time>2023-07-04T12:39:33Z</time>
      </trkpt>
      <trkpt lat="36.6960043981355" lon="117.21790414780304">
        <ele>78.3</ele>
        <time>2023-07-04T12:39:35Z</time>
      </trkpt>
      <trkpt lat="36.69600394147898" lon="117.21787177226476">
        <ele>78.3</ele>
        <time>2023-07-04T12:39:36Z</time>
      </trkpt>
      <trkpt lat="36.69600346198885" lon="117.21783797622382">
        <ele>78.3</ele>
        <time>2023-07-04T12:39:37Z</time>
      </trkpt>
      <trkpt lat="36.69600306431698" lon="117.21780619533642">
        <ele>78.3</ele>
        <time>2023-07-04T12:39:38Z</time>
      </trkpt>
      <trkpt lat="36.69600293617034" lon="117.21777322049027">
        <ele>78.3</ele>
        <time>2023-07-04T12:39:39Z</time>
      </trkpt>
      <trkpt lat="36.69600324843697" lon="117.21774244955037">
        <ele>78.3</ele>
        <time>2023-07-04T12:39:40Z</time>
      </trkpt>
      <trkpt lat="36.69600364576281" lon="117.21771198206316">
        <ele>78.3</ele>
        <time>2023-07-04T12:39:41Z</time>
      </trkpt>
      <trkpt lat="36.696004198853906" lon="117.21767966451179">
        <ele>78.3</ele>
        <time>2023-07-04T12:39:42Z</time>
      </trkpt>
      <trkpt lat="36.69600477074768" lon="117.21764934343618">
        <ele>78.3</ele>
        <time>2023-07-04T12:39:43Z</time>
      </trkpt>
      <trkpt lat="36.696005399514526" lon="117.21761887505171">
        <ele>78.3</ele>
        <time>2023-07-04T12:39:44Z</time>
      </trkpt>
      <trkpt lat="36.696006048012954" lon="117.21758842949994">
        <ele>78.3</ele>
        <time>2023-07-04T12:39:45Z</time>
      </trkpt>
      <trkpt lat="36.69600666531859" lon="117.21755786934413">
        <ele>77.6</ele>
        <time>2023-07-04T12:39:46Z</time>
      </trkpt>
      <trkpt lat="36.6960072556097" lon="117.21752473662362">
        <ele>77.6</ele>
        <time>2023-07-04T12:39:47Z</time>
      </trkpt>
      <trkpt lat="36.696007754357744" lon="117.21749294704954">
        <ele>77.6</ele>
        <time>2023-07-04T12:39:48Z</time>
      </trkpt>
      <trkpt lat="36.69600821231612" lon="117.2174612627297">
        <ele>77.6</ele>
        <time>2023-07-04T12:39:49Z</time>
      </trkpt>
      <trkpt lat="36.69600870981727" lon="117.21742784007624">
        <ele>77.6</ele>
        <time>2023-07-04T12:39:50Z</time>
      </trkpt>
      <trkpt lat="36.696009160446806" lon="117.21739578341256">
        <ele>77.6</ele>
        <time>2023-07-04T12:39:51Z</time>
      </trkpt>
      <trkpt lat="36.696009706029216" lon="117.21736156858825">
        <ele>77.6</ele>
        <time>2023-07-04T12:39:53Z</time>
      </trkpt>
      <trkpt lat="36.69601029051194" lon="117.2173294810607">
        <ele>77.6</ele>
        <time>2023-07-04T12:39:54Z</time>
      </trkpt>
      <trkpt lat="36.696010948238474" lon="117.21729743374898">
        <ele>77.6</ele>
        <time>2023-07-04T12:39:55Z</time>
      </trkpt>
      <trkpt lat="36.696011803214134" lon="117.21726291291431">
        <ele>78.5</ele>
        <time>2023-07-04T12:39:56Z</time>
      </trkpt>
      <trkpt lat="36.696012749602225" lon="117.21722976657114">
        <ele>78.5</ele>
        <time>2023-07-04T12:39:57Z</time>
      </trkpt>
      <trkpt lat="36.69601386525333" lon="117.21719659766448">
        <ele>78.5</ele>
        <time>2023-07-04T12:39:58Z</time>
      </trkpt>
      <trkpt lat="36.69601516835883" lon="117.21716363106331">
        <ele>78.5</ele>
        <time>2023-07-04T12:39:59Z</time>
      </trkpt>
      <trkpt lat="36.69601664786461" lon="117.2171307274516">
        <ele>78.5</ele>
        <time>2023-07-04T12:40:00Z</time>
      </trkpt>
      <trkpt lat="36.69601827574874" lon="117.21709793259679">
        <ele>78.5</ele>
        <time>2023-07-04T12:40:01Z</time>
      </trkpt>
      <trkpt lat="36.69601994009401" lon="117.21706734763119">
        <ele>78.5</ele>
        <time>2023-07-04T12:40:02Z</time>
      </trkpt>
      <trkpt lat="36.69602166279896" lon="117.21703722800383">
        <ele>78.5</ele>
        <time>2023-07-04T12:40:03Z</time>
      </trkpt>
      <trkpt lat="36.696023456428954" lon="117.21700600021751">
        <ele>78.5</ele>
        <time>2023-07-04T12:40:04Z</time>
      </trkpt>
      <trkpt lat="36.696025955720415" lon="117.21697443544019">
        <ele>78.5</ele>
        <time>2023-07-04T12:40:05Z</time>
      </trkpt>
      <trkpt lat="36.696029049790134" lon="117.21694197734699">
        <ele>78.3</ele>
        <time>2023-07-04T12:40:06Z</time>
      </trkpt>
      <trkpt lat="36.6960321205465" lon="117.21691073106065">
        <ele>78.3</ele>
        <time>2023-07-04T12:40:07Z</time>
      </trkpt>
      <trkpt lat="36.6960336865944" lon="117.21689432481406">
        <ele>78.3</ele>
        <time>2023-07-04T12:40:08Z</time>
      </trkpt>
      <trkpt lat="36.6960354112684" lon="117.2168783903469">
        <ele>78.3</ele>
        <time>2023-07-04T12:40:09Z</time>
      </trkpt>
      <trkpt lat="36.6960372974917" lon="117.21686551237042">
        <ele>0</ele>
        <time>2023-07-04T12:40:11Z</time>
      </trkpt>
    </trkseg>
  </trk>
</gpx>