<?xml version="1.0" encoding="UTF-8"?>
<gpx xmlns="http://www.topografix.com/GPX/1/1" xmlns:gpxtpx="http://www.garmin.com/xmlschemas/TrackPointExtension/v1" xmlns:xsi="http://www.w3.org/2001/XMLSchema-instance" xsi:schemaLocation="http://www.topografix.com/GPX/1/1 http://www.topografix.com/GPX/1/1/gpx.xsd" version="1.1" creator="gpx.py -- https://github.com/tkrajina/gpxpy">
  <trk>
    <name>gpx from codoon</name>
    <type>Run</type>
    <trkseg>
      <trkpt lat="36.69410152816259" lon="117.22506206449675">
        <ele>79.2</ele>
        <time>2023-07-05T11:43:13Z</time>
      </trkpt>
      <trkpt lat="36.6941149113875" lon="117.22506784814391">
        <ele>79.2</ele>
        <time>2023-07-05T11:43:14Z</time>
      </trkpt>
      <trkpt lat="36.69413217130833" lon="117.22507407853699">
        <ele>79.2</ele>
        <time>2023-07-05T11:43:15Z</time>
      </trkpt>
      <trkpt lat="36.69415208301384" lon="117.22508016406404">
        <ele>79.2</ele>
        <time>2023-07-05T11:43:16Z</time>
      </trkpt>
      <trkpt lat="36.69417398150911" lon="117.22508565036208">
        <ele>79.2</ele>
        <time>2023-07-05T11:43:17Z</time>
      </trkpt>
      <trkpt lat="36.694208378926824" lon="117.22508525331394">
        <ele>79.2</ele>
        <time>2023-07-05T11:43:18Z</time>
      </trkpt>
      <trkpt lat="36.694232332520855" lon="117.22508829441686">
        <ele>79.2</ele>
        <time>2023-07-05T11:43:19Z</time>
      </trkpt>
      <trkpt lat="36.6942573038171" lon="117.22509077600239">
        <ele>79.2</ele>
        <time>2023-07-05T11:43:20Z</time>
      </trkpt>
      <trkpt lat="36.69428316457479" lon="117.22509271126961">
        <ele>79.2</ele>
        <time>2023-07-05T11:43:21Z</time>
      </trkpt>
      <trkpt lat="36.69430949850483" lon="117.2250941110788">
        <ele>79.2</ele>
        <time>2023-07-05T11:43:22Z</time>
      </trkpt>
      <trkpt lat="36.694336336161506" lon="117.22509506316449">
        <ele>79.8</ele>
        <time>2023-07-05T11:43:23Z</time>
      </trkpt>
      <trkpt lat="36.694363054011234" lon="117.22509560237341">
        <ele>79.8</ele>
        <time>2023-07-05T11:43:24Z</time>
      </trkpt>
      <trkpt lat="36.69438953786214" lon="117.22509585362977">
        <ele>79.8</ele>
        <time>2023-07-05T11:43:25Z</time>
      </trkpt>
      <trkpt lat="36.69441572401573" lon="117.22509593170132">
        <ele>79.8</ele>
        <time>2023-07-05T11:43:26Z</time>
      </trkpt>
      <trkpt lat="36.694441581382684" lon="117.22509596625494">
        <ele>79.8</ele>
        <time>2023-07-05T11:43:27Z</time>
      </trkpt>
      <trkpt lat="36.694467413005576" lon="117.22509604519848">
        <ele>79.8</ele>
        <time>2023-07-05T11:43:28Z</time>
      </trkpt>
      <trkpt lat="36.694492842616484" lon="117.22509620559707">
        <ele>79.8</ele>
        <time>2023-07-05T11:43:29Z</time>
      </trkpt>
      <trkpt lat="36.69451792154467" lon="117.22509648749319">
        <ele>79.8</ele>
        <time>2023-07-05T11:43:30Z</time>
      </trkpt>
      <trkpt lat="36.6945429901449" lon="117.2250968895881">
        <ele>79.8</ele>
        <time>2023-07-05T11:43:31Z</time>
      </trkpt>
      <trkpt lat="36.694567669512566" lon="117.22509739333135">
        <ele>79.8</ele>
        <time>2023-07-05T11:43:32Z</time>
      </trkpt>
      <trkpt lat="36.694592005972666" lon="117.22509803968087">
        <ele>79.5</ele>
        <time>2023-07-05T11:43:33Z</time>
      </trkpt>
      <trkpt lat="36.694616005434916" lon="117.22509888297314">
        <ele>79.5</ele>
        <time>2023-07-05T11:43:34Z</time>
      </trkpt>
      <trkpt lat="36.69463970352259" lon="117.22509999852636">
        <ele>79.5</ele>
        <time>2023-07-05T11:43:35Z</time>
      </trkpt>
      <trkpt lat="36.694663145641165" lon="117.22510142905715">
        <ele>79.5</ele>
        <time>2023-07-05T11:43:36Z</time>
      </trkpt>
      <trkpt lat="36.69468610778278" lon="117.22510314260252">
        <ele>79.5</ele>
        <time>2023-07-05T11:43:37Z</time>
      </trkpt>
      <trkpt lat="36.69470871199018" lon="117.22510506780327">
        <ele>79.5</ele>
        <time>2023-07-05T11:43:38Z</time>
      </trkpt>
      <trkpt lat="36.694731016430474" lon="117.22510719130028">
        <ele>79.5</ele>
        <time>2023-07-05T11:43:39Z</time>
      </trkpt>
      <trkpt lat="36.69475309260098" lon="117.22510947927503">
        <ele>79.5</ele>
        <time>2023-07-05T11:43:40Z</time>
      </trkpt>
      <trkpt lat="36.694775025885555" lon="117.2251116664483">
        <ele>79.5</ele>
        <time>2023-07-05T11:43:41Z</time>
      </trkpt>
      <trkpt lat="36.69479690457535" lon="117.22511367330337">
        <ele>79.5</ele>
        <time>2023-07-05T11:43:42Z</time>
      </trkpt>
      <trkpt lat="36.69481874135661" lon="117.22511544714895">
        <ele>78.6</ele>
        <time>2023-07-05T11:43:43Z</time>
      </trkpt>
      <trkpt lat="36.69484054867096" lon="117.22511695061866">
        <ele>78.6</ele>
        <time>2023-07-05T11:43:44Z</time>
      </trkpt>
      <trkpt lat="36.69486233206897" lon="117.22511817653829">
        <ele>78.6</ele>
        <time>2023-07-05T11:43:45Z</time>
      </trkpt>
      <trkpt lat="36.69488409521006" lon="117.22511912697722">
        <ele>78.6</ele>
        <time>2023-07-05T11:43:46Z</time>
      </trkpt>
      <trkpt lat="36.69490581549924" lon="117.22511982917207">
        <ele>78.6</ele>
        <time>2023-07-05T11:43:47Z</time>
      </trkpt>
      <trkpt lat="36.69492777695685" lon="117.22512028928442">
        <ele>78.6</ele>
        <time>2023-07-05T11:43:48Z</time>
      </trkpt>
      <trkpt lat="36.6949498773558" lon="117.22512055823775">
        <ele>78.6</ele>
        <time>2023-07-05T11:43:49Z</time>
      </trkpt>
      <trkpt lat="36.694971757037145" lon="117.2251205888041">
        <ele>78.6</ele>
        <time>2023-07-05T11:43:50Z</time>
      </trkpt>
      <trkpt lat="36.69499373456588" lon="117.22512043166253">
        <ele>78.6</ele>
        <time>2023-07-05T11:43:51Z</time>
      </trkpt>
      <trkpt lat="36.69501570274667" lon="117.22512034240823">
        <ele>78.6</ele>
        <time>2023-07-05T11:43:52Z</time>
      </trkpt>
      <trkpt lat="36.69503757404414" lon="117.22512040495734">
        <ele>79</ele>
        <time>2023-07-05T11:43:53Z</time>
      </trkpt>
      <trkpt lat="36.695059317439295" lon="117.22512059069446">
        <ele>79</ele>
        <time>2023-07-05T11:43:54Z</time>
      </trkpt>
      <trkpt lat="36.69508090198909" lon="117.2251210100678">
        <ele>79</ele>
        <time>2023-07-05T11:43:55Z</time>
      </trkpt>
      <trkpt lat="36.69510228134147" lon="117.22512154570289">
        <ele>79</ele>
        <time>2023-07-05T11:43:56Z</time>
      </trkpt>
      <trkpt lat="36.695123410850265" lon="117.22512208215953">
        <ele>79</ele>
        <time>2023-07-05T11:43:57Z</time>
      </trkpt>
      <trkpt lat="36.69514431453035" lon="117.22512255774603">
        <ele>79</ele>
        <time>2023-07-05T11:43:58Z</time>
      </trkpt>
      <trkpt lat="36.69516458685848" lon="117.22512281145492">
        <ele>79</ele>
        <time>2023-07-05T11:43:59Z</time>
      </trkpt>
      <trkpt lat="36.69518455669671" lon="117.225122603084">
        <ele>79</ele>
        <time>2023-07-05T11:44:00Z</time>
      </trkpt>
      <trkpt lat="36.69520420374848" lon="117.22512194583585">
        <ele>79</ele>
        <time>2023-07-05T11:44:01Z</time>
      </trkpt>
      <trkpt lat="36.695223197816894" lon="117.22512052590346">
        <ele>79</ele>
        <time>2023-07-05T11:44:02Z</time>
      </trkpt>
      <trkpt lat="36.69524179513744" lon="117.22511793590112">
        <ele>78.6</ele>
        <time>2023-07-05T11:44:03Z</time>
      </trkpt>
      <trkpt lat="36.69525963038373" lon="117.22511397343636">
        <ele>78.6</ele>
        <time>2023-07-05T11:44:04Z</time>
      </trkpt>
      <trkpt lat="36.695276639677225" lon="117.2251084554338">
        <ele>78.6</ele>
        <time>2023-07-05T11:44:05Z</time>
      </trkpt>
      <trkpt lat="36.69529284367772" lon="117.22510072491191">
        <ele>78.6</ele>
        <time>2023-07-05T11:44:06Z</time>
      </trkpt>
      <trkpt lat="36.69530782735783" lon="117.22509075395317">
        <ele>78.6</ele>
        <time>2023-07-05T11:44:07Z</time>
      </trkpt>
      <trkpt lat="36.69532163884551" lon="117.22507816545067">
        <ele>78.6</ele>
        <time>2023-07-05T11:44:08Z</time>
      </trkpt>
      <trkpt lat="36.695334291320016" lon="117.22506305101521">
        <ele>78.6</ele>
        <time>2023-07-05T11:44:09Z</time>
      </trkpt>
      <trkpt lat="36.695346071032944" lon="117.22504567479271">
        <ele>78.6</ele>
        <time>2023-07-05T11:44:10Z</time>
      </trkpt>
      <trkpt lat="36.69535702550832" lon="117.22502598117111">
        <ele>78.6</ele>
        <time>2023-07-05T11:44:11Z</time>
      </trkpt>
      <trkpt lat="36.69536730930218" lon="117.22500415917762">
        <ele>78.6</ele>
        <time>2023-07-05T11:44:12Z</time>
      </trkpt>
      <trkpt lat="36.69537709017192" lon="117.22498061608975">
        <ele>78.2</ele>
        <time>2023-07-05T11:44:13Z</time>
      </trkpt>
      <trkpt lat="36.69538629476017" lon="117.22495546883003">
        <ele>78.2</ele>
        <time>2023-07-05T11:44:14Z</time>
      </trkpt>
      <trkpt lat="36.69539483226938" lon="117.22492894812882">
        <ele>78.2</ele>
        <time>2023-07-05T11:44:15Z</time>
      </trkpt>
      <trkpt lat="36.69540300555793" lon="117.22490103064257">
        <ele>78.2</ele>
        <time>2023-07-05T11:44:16Z</time>
      </trkpt>
      <trkpt lat="36.69541048268434" lon="117.22487232050432">
        <ele>78.2</ele>
        <time>2023-07-05T11:44:17Z</time>
      </trkpt>
      <trkpt lat="36.69541738908873" lon="117.2248429996951">
        <ele>78.2</ele>
        <time>2023-07-05T11:44:18Z</time>
      </trkpt>
      <trkpt lat="36.69542383926811" lon="117.2248132397908">
        <ele>78.2</ele>
        <time>2023-07-05T11:44:19Z</time>
      </trkpt>
      <trkpt lat="36.695429915587205" lon="117.2247831117424">
        <ele>78.2</ele>
        <time>2023-07-05T11:44:20Z</time>
      </trkpt>
      <trkpt lat="36.69543551406138" lon="117.2247526445583">
        <ele>78.2</ele>
        <time>2023-07-05T11:44:21Z</time>
      </trkpt>
      <trkpt lat="36.69544046192981" lon="117.22472183669954">
        <ele>78.2</ele>
        <time>2023-07-05T11:44:22Z</time>
      </trkpt>
      <trkpt lat="36.695444764555546" lon="117.22469070833829">
        <ele>78.2</ele>
        <time>2023-07-05T11:44:23Z</time>
      </trkpt>
      <trkpt lat="36.69544837986301" lon="117.22465910539682">
        <ele>78.2</ele>
        <time>2023-07-05T11:44:24Z</time>
      </trkpt>
      <trkpt lat="36.69545126776756" lon="117.22462741017999">
        <ele>78.2</ele>
        <time>2023-07-05T11:44:25Z</time>
      </trkpt>
      <trkpt lat="36.69545374369997" lon="117.22459563866859">
        <ele>78.2</ele>
        <time>2023-07-05T11:44:26Z</time>
      </trkpt>
      <trkpt lat="36.69545574630046" lon="117.2245637090251">
        <ele>78.2</ele>
        <time>2023-07-05T11:44:27Z</time>
      </trkpt>
      <trkpt lat="36.695457708139244" lon="117.22453166872661">
        <ele>78.2</ele>
        <time>2023-07-05T11:44:28Z</time>
      </trkpt>
      <trkpt lat="36.695459782240675" lon="117.22449909136279">
        <ele>78.2</ele>
        <time>2023-07-05T11:44:29Z</time>
      </trkpt>
      <trkpt lat="36.69546190326192" lon="117.2244664085648">
        <ele>78.2</ele>
        <time>2023-07-05T11:44:30Z</time>
      </trkpt>
      <trkpt lat="36.69546399153087" lon="117.22443357801214">
        <ele>78.2</ele>
        <time>2023-07-05T11:44:31Z</time>
      </trkpt>
      <trkpt lat="36.6954660151061" lon="117.22440017359324">
        <ele>78.2</ele>
        <time>2023-07-05T11:44:32Z</time>
      </trkpt>
      <trkpt lat="36.69546790714481" lon="117.22436665051525">
        <ele>78.1</ele>
        <time>2023-07-05T11:44:33Z</time>
      </trkpt>
      <trkpt lat="36.695469642122575" lon="117.22433300132055">
        <ele>78.1</ele>
        <time>2023-07-05T11:44:34Z</time>
      </trkpt>
      <trkpt lat="36.69547114978723" lon="117.22429888761113">
        <ele>78.1</ele>
        <time>2023-07-05T11:44:35Z</time>
      </trkpt>
      <trkpt lat="36.69547243199217" lon="117.22426438108455">
        <ele>78.1</ele>
        <time>2023-07-05T11:44:36Z</time>
      </trkpt>
      <trkpt lat="36.69547344342466" lon="117.22422950322351">
        <ele>78.1</ele>
        <time>2023-07-05T11:44:37Z</time>
      </trkpt>
      <trkpt lat="36.69547423128105" lon="117.22419467965008">
        <ele>78.1</ele>
        <time>2023-07-05T11:44:38Z</time>
      </trkpt>
      <trkpt lat="36.69547482009428" lon="117.224159836351">
        <ele>78.1</ele>
        <time>2023-07-05T11:44:39Z</time>
      </trkpt>
      <trkpt lat="36.6954753673656" lon="117.22412526435757">
        <ele>78.1</ele>
        <time>2023-07-05T11:44:40Z</time>
      </trkpt>
      <trkpt lat="36.69547598694673" lon="117.22409086705309">
        <ele>78.1</ele>
        <time>2023-07-05T11:44:41Z</time>
      </trkpt>
      <trkpt lat="36.69547677505953" lon="117.22405620254362">
        <ele>78.1</ele>
        <time>2023-07-05T11:44:42Z</time>
      </trkpt>
      <trkpt lat="36.69547768095764" lon="117.22402176378588">
        <ele>78.4</ele>
        <time>2023-07-05T11:44:43Z</time>
      </trkpt>
      <trkpt lat="36.69547866499259" lon="117.22398752137194">
        <ele>78.4</ele>
        <time>2023-07-05T11:44:44Z</time>
      </trkpt>
      <trkpt lat="36.69547963504577" lon="117.22395304680205">
        <ele>78.4</ele>
        <time>2023-07-05T11:44:45Z</time>
      </trkpt>
      <trkpt lat="36.69548070199456" lon="117.22391890035654">
        <ele>78.4</ele>
        <time>2023-07-05T11:44:46Z</time>
      </trkpt>
      <trkpt lat="36.69548193064609" lon="117.2238850579208">
        <ele>78.4</ele>
        <time>2023-07-05T11:44:47Z</time>
      </trkpt>
      <trkpt lat="36.695483389651805" lon="117.22385113464144">
        <ele>78.4</ele>
        <time>2023-07-05T11:44:48Z</time>
      </trkpt>
      <trkpt lat="36.69548506660502" lon="117.22381719683423">
        <ele>78.4</ele>
        <time>2023-07-05T11:44:49Z</time>
      </trkpt>
      <trkpt lat="36.69548699936038" lon="117.22378330377276">
        <ele>78.4</ele>
        <time>2023-07-05T11:44:50Z</time>
      </trkpt>
      <trkpt lat="36.695489001233085" lon="117.22374912601659">
        <ele>78.4</ele>
        <time>2023-07-05T11:44:51Z</time>
      </trkpt>
      <trkpt lat="36.695491034111484" lon="117.22371481639308">
        <ele>78.4</ele>
        <time>2023-07-05T11:44:52Z</time>
      </trkpt>
      <trkpt lat="36.69549303173153" lon="117.22368070263224">
        <ele>78.2</ele>
        <time>2023-07-05T11:44:53Z</time>
      </trkpt>
      <trkpt lat="36.69549505270677" lon="117.22364666310376">
        <ele>78.2</ele>
        <time>2023-07-05T11:44:54Z</time>
      </trkpt>
      <trkpt lat="36.695497125372285" lon="117.22361270342043">
        <ele>78.2</ele>
        <time>2023-07-05T11:44:55Z</time>
      </trkpt>
      <trkpt lat="36.69549934328249" lon="117.22357909733059">
        <ele>78.2</ele>
        <time>2023-07-05T11:44:56Z</time>
      </trkpt>
      <trkpt lat="36.695501643214605" lon="117.2235456340673">
        <ele>78.2</ele>
        <time>2023-07-05T11:44:57Z</time>
      </trkpt>
      <trkpt lat="36.69550395790846" lon="117.22351180870696">
        <ele>78.2</ele>
        <time>2023-07-05T11:44:58Z</time>
      </trkpt>
      <trkpt lat="36.695506179541304" lon="117.22347806223843">
        <ele>78.2</ele>
        <time>2023-07-05T11:44:59Z</time>
      </trkpt>
      <trkpt lat="36.69550823368964" lon="117.22344435075514">
        <ele>78.2</ele>
        <time>2023-07-05T11:45:00Z</time>
      </trkpt>
      <trkpt lat="36.69551003457082" lon="117.22341031193771">
        <ele>78.2</ele>
        <time>2023-07-05T11:45:01Z</time>
      </trkpt>
      <trkpt lat="36.695511543333005" lon="117.2233764909577">
        <ele>78.2</ele>
        <time>2023-07-05T11:45:02Z</time>
      </trkpt>
      <trkpt lat="36.69551275939127" lon="117.22334283631989">
        <ele>78.3</ele>
        <time>2023-07-05T11:45:03Z</time>
      </trkpt>
      <trkpt lat="36.695513753136" lon="117.22330953849912">
        <ele>78.3</ele>
        <time>2023-07-05T11:45:04Z</time>
      </trkpt>
      <trkpt lat="36.69551451180405" lon="117.2232762984307">
        <ele>78.3</ele>
        <time>2023-07-05T11:45:05Z</time>
      </trkpt>
      <trkpt lat="36.69551506698571" lon="117.22324301541742">
        <ele>78.3</ele>
        <time>2023-07-05T11:45:06Z</time>
      </trkpt>
      <trkpt lat="36.69551547606923" lon="117.22320956343745">
        <ele>78.3</ele>
        <time>2023-07-05T11:45:07Z</time>
      </trkpt>
      <trkpt lat="36.69551579006176" lon="117.22317606895005">
        <ele>78.3</ele>
        <time>2023-07-05T11:45:08Z</time>
      </trkpt>
      <trkpt lat="36.69551601030113" lon="117.22314298913399">
        <ele>78.3</ele>
        <time>2023-07-05T11:45:09Z</time>
      </trkpt>
      <trkpt lat="36.69551620088354" lon="117.22310988365894">
        <ele>78.3</ele>
        <time>2023-07-05T11:45:10Z</time>
      </trkpt>
      <trkpt lat="36.69551639124853" lon="117.22307683741754">
        <ele>78.3</ele>
        <time>2023-07-05T11:45:11Z</time>
      </trkpt>
      <trkpt lat="36.69551660288341" lon="117.22304427953313">
        <ele>78.3</ele>
        <time>2023-07-05T11:45:12Z</time>
      </trkpt>
      <trkpt lat="36.69551680896866" lon="117.22301181925499">
        <ele>78.7</ele>
        <time>2023-07-05T11:45:13Z</time>
      </trkpt>
      <trkpt lat="36.69551699565741" lon="117.22297957303218">
        <ele>78.7</ele>
        <time>2023-07-05T11:45:15Z</time>
      </trkpt>
      <trkpt lat="36.69551710486301" lon="117.22294753085234">
        <ele>78.7</ele>
        <time>2023-07-05T11:45:16Z</time>
      </trkpt>
      <trkpt lat="36.69551718684553" lon="117.22291563448691">
        <ele>78.7</ele>
        <time>2023-07-05T11:45:17Z</time>
      </trkpt>
      <trkpt lat="36.69551732131256" lon="117.22288403549878">
        <ele>78.7</ele>
        <time>2023-07-05T11:45:18Z</time>
      </trkpt>
      <trkpt lat="36.69551751711208" lon="117.22285298051611">
        <ele>78.7</ele>
        <time>2023-07-05T11:45:19Z</time>
      </trkpt>
      <trkpt lat="36.69551778477677" lon="117.22282201786952">
        <ele>78.7</ele>
        <time>2023-07-05T11:45:20Z</time>
      </trkpt>
      <trkpt lat="36.695518162006465" lon="117.22279119648933">
        <ele>78.7</ele>
        <time>2023-07-05T11:45:21Z</time>
      </trkpt>
      <trkpt lat="36.69551863272804" lon="117.22276092636986">
        <ele>78.7</ele>
        <time>2023-07-05T11:45:22Z</time>
      </trkpt>
      <trkpt lat="36.695519167426696" lon="117.22273069738729">
        <ele>78.6</ele>
        <time>2023-07-05T11:45:23Z</time>
      </trkpt>
      <trkpt lat="36.69551975900502" lon="117.22270050227235">
        <ele>78.6</ele>
        <time>2023-07-05T11:45:24Z</time>
      </trkpt>
      <trkpt lat="36.69552049902825" lon="117.22267026456821">
        <ele>78.6</ele>
        <time>2023-07-05T11:45:25Z</time>
      </trkpt>
      <trkpt lat="36.6955213931039" lon="117.22263989822692">
        <ele>78.6</ele>
        <time>2023-07-05T11:45:26Z</time>
      </trkpt>
      <trkpt lat="36.69552243997791" lon="117.22260896964072">
        <ele>78.6</ele>
        <time>2023-07-05T11:45:27Z</time>
      </trkpt>
      <trkpt lat="36.69552360225389" lon="117.22257797255499">
        <ele>78.6</ele>
        <time>2023-07-05T11:45:28Z</time>
      </trkpt>
      <trkpt lat="36.69552481642662" lon="117.22254685782443">
        <ele>78.6</ele>
        <time>2023-07-05T11:45:29Z</time>
      </trkpt>
      <trkpt lat="36.69552597634007" lon="117.22251522261058">
        <ele>78.6</ele>
        <time>2023-07-05T11:45:30Z</time>
      </trkpt>
      <trkpt lat="36.6955270442373" lon="117.222483590985">
        <ele>78.6</ele>
        <time>2023-07-05T11:45:31Z</time>
      </trkpt>
      <trkpt lat="36.69552790604666" lon="117.22245197590128">
        <ele>78.6</ele>
        <time>2023-07-05T11:45:32Z</time>
      </trkpt>
      <trkpt lat="36.695528522760945" lon="117.22241999014034">
        <ele>78.2</ele>
        <time>2023-07-05T11:45:33Z</time>
      </trkpt>
      <trkpt lat="36.69552885992031" lon="117.22238810669714">
        <ele>78.2</ele>
        <time>2023-07-05T11:45:34Z</time>
      </trkpt>
      <trkpt lat="36.695528907407486" lon="117.22235592223895">
        <ele>78.2</ele>
        <time>2023-07-05T11:45:35Z</time>
      </trkpt>
      <trkpt lat="36.6955286241049" lon="117.22232368264143">
        <ele>78.2</ele>
        <time>2023-07-05T11:45:36Z</time>
      </trkpt>
      <trkpt lat="36.695528035341205" lon="117.22229117595741">
        <ele>78.2</ele>
        <time>2023-07-05T11:45:37Z</time>
      </trkpt>
      <trkpt lat="36.69552717537388" lon="117.22225863227125">
        <ele>78.2</ele>
        <time>2023-07-05T11:45:38Z</time>
      </trkpt>
      <trkpt lat="36.69552634625416" lon="117.22222628320718">
        <ele>78.2</ele>
        <time>2023-07-05T11:45:39Z</time>
      </trkpt>
      <trkpt lat="36.69552556501122" lon="117.22219401138102">
        <ele>78.2</ele>
        <time>2023-07-05T11:45:40Z</time>
      </trkpt>
      <trkpt lat="36.695524806216" lon="117.22216212157902">
        <ele>78.2</ele>
        <time>2023-07-05T11:45:41Z</time>
      </trkpt>
      <trkpt lat="36.695524037126795" lon="117.22213004867007">
        <ele>78.2</ele>
        <time>2023-07-05T11:45:42Z</time>
      </trkpt>
      <trkpt lat="36.69552332133073" lon="117.22209775601438">
        <ele>78</ele>
        <time>2023-07-05T11:45:43Z</time>
      </trkpt>
      <trkpt lat="36.695522650225634" lon="117.22206560239644">
        <ele>78</ele>
        <time>2023-07-05T11:45:44Z</time>
      </trkpt>
      <trkpt lat="36.69552209047234" lon="117.22203309250128">
        <ele>78</ele>
        <time>2023-07-05T11:45:45Z</time>
      </trkpt>
      <trkpt lat="36.695521686272336" lon="117.2220006785054">
        <ele>78</ele>
        <time>2023-07-05T11:45:46Z</time>
      </trkpt>
      <trkpt lat="36.695521373330614" lon="117.22196844609321">
        <ele>78</ele>
        <time>2023-07-05T11:45:47Z</time>
      </trkpt>
      <trkpt lat="36.695521132406355" lon="117.22193610463447">
        <ele>78</ele>
        <time>2023-07-05T11:45:48Z</time>
      </trkpt>
      <trkpt lat="36.69552102052663" lon="117.22190383352336">
        <ele>78</ele>
        <time>2023-07-05T11:45:49Z</time>
      </trkpt>
      <trkpt lat="36.695520818168234" lon="117.22187130980667">
        <ele>78</ele>
        <time>2023-07-05T11:45:50Z</time>
      </trkpt>
      <trkpt lat="36.69552049657696" lon="117.22183820497723">
        <ele>78</ele>
        <time>2023-07-05T11:45:51Z</time>
      </trkpt>
      <trkpt lat="36.69552017056374" lon="117.22180467179392">
        <ele>78</ele>
        <time>2023-07-05T11:45:52Z</time>
      </trkpt>
      <trkpt lat="36.695519890165166" lon="117.22177083008896">
        <ele>78.6</ele>
        <time>2023-07-05T11:45:53Z</time>
      </trkpt>
      <trkpt lat="36.695519638732264" lon="117.22173675735336">
        <ele>78.6</ele>
        <time>2023-07-05T11:45:54Z</time>
      </trkpt>
      <trkpt lat="36.695519430763504" lon="117.22170250556591">
        <ele>78.6</ele>
        <time>2023-07-05T11:45:55Z</time>
      </trkpt>
      <trkpt lat="36.69551928003288" lon="117.22166852717764">
        <ele>78.6</ele>
        <time>2023-07-05T11:45:56Z</time>
      </trkpt>
      <trkpt lat="36.69551923894934" lon="117.22163470023062">
        <ele>78.6</ele>
        <time>2023-07-05T11:45:57Z</time>
      </trkpt>
      <trkpt lat="36.695519408230766" lon="117.22160061970473">
        <ele>78.6</ele>
        <time>2023-07-05T11:45:58Z</time>
      </trkpt>
      <trkpt lat="36.6955198234926" lon="117.22156675877439">
        <ele>78.6</ele>
        <time>2023-07-05T11:45:59Z</time>
      </trkpt>
      <trkpt lat="36.6955204463574" lon="117.2215331090558">
        <ele>78.6</ele>
        <time>2023-07-05T11:46:00Z</time>
      </trkpt>
      <trkpt lat="36.69552135773218" lon="117.22149930955727">
        <ele>78.6</ele>
        <time>2023-07-05T11:46:01Z</time>
      </trkpt>
      <trkpt lat="36.6955227535524" lon="117.22146594318055">
        <ele>78.6</ele>
        <time>2023-07-05T11:46:02Z</time>
      </trkpt>
      <trkpt lat="36.6955248228407" lon="117.22143308770804">
        <ele>79.3</ele>
        <time>2023-07-05T11:46:03Z</time>
      </trkpt>
      <trkpt lat="36.695527609295844" lon="117.22140078968148">
        <ele>79.3</ele>
        <time>2023-07-05T11:46:04Z</time>
      </trkpt>
      <trkpt lat="36.69553182171282" lon="117.22136954482583">
        <ele>79.3</ele>
        <time>2023-07-05T11:46:05Z</time>
      </trkpt>
      <trkpt lat="36.69553770003392" lon="117.2213396663782">
        <ele>79.3</ele>
        <time>2023-07-05T11:46:06Z</time>
      </trkpt>
      <trkpt lat="36.69554541689833" lon="117.22131087962282">
        <ele>79.3</ele>
        <time>2023-07-05T11:46:07Z</time>
      </trkpt>
      <trkpt lat="36.695555157523735" lon="117.22128396632797">
        <ele>79.3</ele>
        <time>2023-07-05T11:46:08Z</time>
      </trkpt>
      <trkpt lat="36.69556717414695" lon="117.22125960544233">
        <ele>79.3</ele>
        <time>2023-07-05T11:46:09Z</time>
      </trkpt>
      <trkpt lat="36.69558132659903" lon="117.22123812988826">
        <ele>79.3</ele>
        <time>2023-07-05T11:46:10Z</time>
      </trkpt>
      <trkpt lat="36.6955974574054" lon="117.22121961460446">
        <ele>79.3</ele>
        <time>2023-07-05T11:46:11Z</time>
      </trkpt>
      <trkpt lat="36.695615602635556" lon="117.2212044947799">
        <ele>79.3</ele>
        <time>2023-07-05T11:46:12Z</time>
      </trkpt>
      <trkpt lat="36.69563541572622" lon="117.22119241254848">
        <ele>79.1</ele>
        <time>2023-07-05T11:46:13Z</time>
      </trkpt>
      <trkpt lat="36.69565684962311" lon="117.22118281711657">
        <ele>79.1</ele>
        <time>2023-07-05T11:46:14Z</time>
      </trkpt>
      <trkpt lat="36.6956795999083" lon="117.22117535912322">
        <ele>79.1</ele>
        <time>2023-07-05T11:46:15Z</time>
      </trkpt>
      <trkpt lat="36.69570270519356" lon="117.22116877400893">
        <ele>79.1</ele>
        <time>2023-07-05T11:46:16Z</time>
      </trkpt>
      <trkpt lat="36.69572573347366" lon="117.22116183987579">
        <ele>79.1</ele>
        <time>2023-07-05T11:46:17Z</time>
      </trkpt>
      <trkpt lat="36.69574797978937" lon="117.22115438727754">
        <ele>79.1</ele>
        <time>2023-07-05T11:46:18Z</time>
      </trkpt>
      <trkpt lat="36.6957687639551" lon="117.22114538167243">
        <ele>79.1</ele>
        <time>2023-07-05T11:46:19Z</time>
      </trkpt>
      <trkpt lat="36.69578757809728" lon="117.22113403504981">
        <ele>79.1</ele>
        <time>2023-07-05T11:46:20Z</time>
      </trkpt>
      <trkpt lat="36.69580440606607" lon="117.22111994037124">
        <ele>79.1</ele>
        <time>2023-07-05T11:46:21Z</time>
      </trkpt>
      <trkpt lat="36.69581937292555" lon="117.22110300645376">
        <ele>79.1</ele>
        <time>2023-07-05T11:46:22Z</time>
      </trkpt>
      <trkpt lat="36.69583209695012" lon="117.22108302459601">
        <ele>78.6</ele>
        <time>2023-07-05T11:46:23Z</time>
      </trkpt>
      <trkpt lat="36.695842716914356" lon="117.22106013301227">
        <ele>78.6</ele>
        <time>2023-07-05T11:46:24Z</time>
      </trkpt>
      <trkpt lat="36.69585100642227" lon="117.22103480997461">
        <ele>78.6</ele>
        <time>2023-07-05T11:46:25Z</time>
      </trkpt>
      <trkpt lat="36.69585723468424" lon="117.22100766867537">
        <ele>78.6</ele>
        <time>2023-07-05T11:46:26Z</time>
      </trkpt>
      <trkpt lat="36.695861749248024" lon="117.22097932236227">
        <ele>78.6</ele>
        <time>2023-07-05T11:46:27Z</time>
      </trkpt>
      <trkpt lat="36.69586481452634" lon="117.2209502345915">
        <ele>78.6</ele>
        <time>2023-07-05T11:46:28Z</time>
      </trkpt>
      <trkpt lat="36.69586696733016" lon="117.22092088582451">
        <ele>78.6</ele>
        <time>2023-07-05T11:46:29Z</time>
      </trkpt>
      <trkpt lat="36.69586865122599" lon="117.2208915394679">
        <ele>78.6</ele>
        <time>2023-07-05T11:46:30Z</time>
      </trkpt>
      <trkpt lat="36.69587010957775" lon="117.22086237145395">
        <ele>78.6</ele>
        <time>2023-07-05T11:46:31Z</time>
      </trkpt>
      <trkpt lat="36.69587146168207" lon="117.22083347333863">
        <ele>78.6</ele>
        <time>2023-07-05T11:46:32Z</time>
      </trkpt>
      <trkpt lat="36.69587273304304" lon="117.22080446650855">
        <ele>78.6</ele>
        <time>2023-07-05T11:46:33Z</time>
      </trkpt>
      <trkpt lat="36.69587408347494" lon="117.22077558553855">
        <ele>78.6</ele>
        <time>2023-07-05T11:46:34Z</time>
      </trkpt>
      <trkpt lat="36.695875500396056" lon="117.22074693141444">
        <ele>78.6</ele>
        <time>2023-07-05T11:46:35Z</time>
      </trkpt>
      <trkpt lat="36.695877011175114" lon="117.22071805026472">
        <ele>78.6</ele>
        <time>2023-07-05T11:46:36Z</time>
      </trkpt>
      <trkpt lat="36.69587853909231" lon="117.22068907508577">
        <ele>78.6</ele>
        <time>2023-07-05T11:46:37Z</time>
      </trkpt>
      <trkpt lat="36.69588001145396" lon="117.22066008738769">
        <ele>78.6</ele>
        <time>2023-07-05T11:46:38Z</time>
      </trkpt>
      <trkpt lat="36.69588137395083" lon="117.22063108789128">
        <ele>78.6</ele>
        <time>2023-07-05T11:46:39Z</time>
      </trkpt>
      <trkpt lat="36.69588261054256" lon="117.22060205876286">
        <ele>78.6</ele>
        <time>2023-07-05T11:46:40Z</time>
      </trkpt>
      <trkpt lat="36.695883686130365" lon="117.2205726142447">
        <ele>78.6</ele>
        <time>2023-07-05T11:46:41Z</time>
      </trkpt>
      <trkpt lat="36.695884600608466" lon="117.22054317875134">
        <ele>78.6</ele>
        <time>2023-07-05T11:46:42Z</time>
      </trkpt>
      <trkpt lat="36.695885386191996" lon="117.22051331055533">
        <ele>78.4</ele>
        <time>2023-07-05T11:46:43Z</time>
      </trkpt>
      <trkpt lat="36.69588606737656" lon="117.220483422293">
        <ele>78.4</ele>
        <time>2023-07-05T11:46:44Z</time>
      </trkpt>
      <trkpt lat="36.695886718970755" lon="117.22045341840816">
        <ele>78.4</ele>
        <time>2023-07-05T11:46:45Z</time>
      </trkpt>
      <trkpt lat="36.69588738228101" lon="117.22042325340577">
        <ele>78.4</ele>
        <time>2023-07-05T11:46:46Z</time>
      </trkpt>
      <trkpt lat="36.69588807595893" lon="117.22039326817895">
        <ele>78.4</ele>
        <time>2023-07-05T11:46:47Z</time>
      </trkpt>
      <trkpt lat="36.69588882737995" lon="117.22036343594081">
        <ele>78.4</ele>
        <time>2023-07-05T11:46:48Z</time>
      </trkpt>
      <trkpt lat="36.69588964501638" lon="117.22033366689135">
        <ele>78.4</ele>
        <time>2023-07-05T11:46:49Z</time>
      </trkpt>
      <trkpt lat="36.69589051783365" lon="117.2203042272618">
        <ele>78.4</ele>
        <time>2023-07-05T11:46:50Z</time>
      </trkpt>
      <trkpt lat="36.69589142952913" lon="117.22027497965219">
        <ele>78.4</ele>
        <time>2023-07-05T11:46:51Z</time>
      </trkpt>
      <trkpt lat="36.6958923972709" lon="117.22024586235094">
        <ele>78.4</ele>
        <time>2023-07-05T11:46:52Z</time>
      </trkpt>
      <trkpt lat="36.695893371113435" lon="117.22021687141803">
        <ele>78.5</ele>
        <time>2023-07-05T11:46:53Z</time>
      </trkpt>
      <trkpt lat="36.69589429153787" lon="117.22018839175836">
        <ele>78.5</ele>
        <time>2023-07-05T11:46:54Z</time>
      </trkpt>
      <trkpt lat="36.69589509256915" lon="117.22015997493934">
        <ele>78.5</ele>
        <time>2023-07-05T11:46:55Z</time>
      </trkpt>
      <trkpt lat="36.69589576244164" lon="117.22013169911057">
        <ele>78.5</ele>
        <time>2023-07-05T11:46:56Z</time>
      </trkpt>
      <trkpt lat="36.69589633790036" lon="117.22010318875331">
        <ele>78.5</ele>
        <time>2023-07-05T11:46:57Z</time>
      </trkpt>
      <trkpt lat="36.69589680558441" lon="117.22007460712507">
        <ele>78.5</ele>
        <time>2023-07-05T11:46:58Z</time>
      </trkpt>
      <trkpt lat="36.695897438931596" lon="117.22004557342729">
        <ele>78.5</ele>
        <time>2023-07-05T11:46:59Z</time>
      </trkpt>
      <trkpt lat="36.695898314269364" lon="117.22001628698256">
        <ele>78.5</ele>
        <time>2023-07-05T11:47:00Z</time>
      </trkpt>
      <trkpt lat="36.695899453487876" lon="117.21998694258392">
        <ele>78.5</ele>
        <time>2023-07-05T11:47:01Z</time>
      </trkpt>
      <trkpt lat="36.69590090031384" lon="117.21995728545866">
        <ele>78.5</ele>
        <time>2023-07-05T11:47:02Z</time>
      </trkpt>
      <trkpt lat="36.69590260652223" lon="117.21992788213488">
        <ele>78.3</ele>
        <time>2023-07-05T11:47:03Z</time>
      </trkpt>
      <trkpt lat="36.69590445715751" lon="117.21989874278745">
        <ele>78.3</ele>
        <time>2023-07-05T11:47:04Z</time>
      </trkpt>
      <trkpt lat="36.695906427561674" lon="117.21986949345515">
        <ele>78.3</ele>
        <time>2023-07-05T11:47:05Z</time>
      </trkpt>
      <trkpt lat="36.69590846977733" lon="117.21984064765802">
        <ele>78.3</ele>
        <time>2023-07-05T11:47:06Z</time>
      </trkpt>
      <trkpt lat="36.6959105815137" lon="117.2198117987118">
        <ele>78.3</ele>
        <time>2023-07-05T11:47:07Z</time>
      </trkpt>
      <trkpt lat="36.69591264284089" lon="117.21978342130477">
        <ele>78.3</ele>
        <time>2023-07-05T11:47:08Z</time>
      </trkpt>
      <trkpt lat="36.69591470366715" lon="117.21975543100683">
        <ele>78.3</ele>
        <time>2023-07-05T11:47:09Z</time>
      </trkpt>
      <trkpt lat="36.69591655879705" lon="117.21972774006056">
        <ele>78.3</ele>
        <time>2023-07-05T11:47:10Z</time>
      </trkpt>
      <trkpt lat="36.695918178355655" lon="117.21970027404976">
        <ele>78.3</ele>
        <time>2023-07-05T11:47:11Z</time>
      </trkpt>
      <trkpt lat="36.69591952825718" lon="117.21967257983616">
        <ele>78.3</ele>
        <time>2023-07-05T11:47:12Z</time>
      </trkpt>
      <trkpt lat="36.69592058850318" lon="117.21964509760706">
        <ele>79.1</ele>
        <time>2023-07-05T11:47:13Z</time>
      </trkpt>
      <trkpt lat="36.69592147328291" lon="117.21961736373457">
        <ele>79.1</ele>
        <time>2023-07-05T11:47:14Z</time>
      </trkpt>
      <trkpt lat="36.695922325060984" lon="117.21958941051807">
        <ele>79.1</ele>
        <time>2023-07-05T11:47:15Z</time>
      </trkpt>
      <trkpt lat="36.6959232061809" lon="117.21956163395048">
        <ele>79.1</ele>
        <time>2023-07-05T11:47:16Z</time>
      </trkpt>
      <trkpt lat="36.69592423683942" lon="117.21953352689854">
        <ele>79.1</ele>
        <time>2023-07-05T11:47:17Z</time>
      </trkpt>
      <trkpt lat="36.69592539395951" lon="117.21950550714804">
        <ele>79.1</ele>
        <time>2023-07-05T11:47:18Z</time>
      </trkpt>
      <trkpt lat="36.69592671504802" lon="117.21947751046584">
        <ele>79.1</ele>
        <time>2023-07-05T11:47:19Z</time>
      </trkpt>
      <trkpt lat="36.69592814385901" lon="117.21944910157877">
        <ele>79.1</ele>
        <time>2023-07-05T11:47:20Z</time>
      </trkpt>
      <trkpt lat="36.69592956421853" lon="117.21942080496028">
        <ele>79.1</ele>
        <time>2023-07-05T11:47:21Z</time>
      </trkpt>
      <trkpt lat="36.69593088204503" lon="117.21939222946546">
        <ele>79.1</ele>
        <time>2023-07-05T11:47:22Z</time>
      </trkpt>
      <trkpt lat="36.69593212046961" lon="117.21936390166658">
        <ele>78.6</ele>
        <time>2023-07-05T11:47:23Z</time>
      </trkpt>
      <trkpt lat="36.69593330080586" lon="117.21933582109597">
        <ele>78.6</ele>
        <time>2023-07-05T11:47:24Z</time>
      </trkpt>
      <trkpt lat="36.69593441599429" lon="117.21930798144729">
        <ele>78.6</ele>
        <time>2023-07-05T11:47:25Z</time>
      </trkpt>
      <trkpt lat="36.69593548347075" lon="117.2192804011462">
        <ele>78.6</ele>
        <time>2023-07-05T11:47:26Z</time>
      </trkpt>
      <trkpt lat="36.695936570479745" lon="117.21925307362935">
        <ele>78.6</ele>
        <time>2023-07-05T11:47:27Z</time>
      </trkpt>
      <trkpt lat="36.69593765316406" lon="117.21922635814597">
        <ele>78.6</ele>
        <time>2023-07-05T11:47:28Z</time>
      </trkpt>
      <trkpt lat="36.69593874868446" lon="117.21919970714183">
        <ele>78.6</ele>
        <time>2023-07-05T11:47:29Z</time>
      </trkpt>
      <trkpt lat="36.69593985651677" lon="117.21917309044437">
        <ele>78.6</ele>
        <time>2023-07-05T11:47:30Z</time>
      </trkpt>
      <trkpt lat="36.695940963768386" lon="117.2191468704405">
        <ele>78.6</ele>
        <time>2023-07-05T11:47:31Z</time>
      </trkpt>
      <trkpt lat="36.69594205946065" lon="117.21912049305111">
        <ele>78.6</ele>
        <time>2023-07-05T11:47:32Z</time>
      </trkpt>
      <trkpt lat="36.69594310242194" lon="117.21909435068409">
        <ele>79</ele>
        <time>2023-07-05T11:47:33Z</time>
      </trkpt>
      <trkpt lat="36.6959441047341" lon="117.2190683311612">
        <ele>79</ele>
        <time>2023-07-05T11:47:34Z</time>
      </trkpt>
      <trkpt lat="36.695944979431864" lon="117.21904197782689">
        <ele>79</ele>
        <time>2023-07-05T11:47:35Z</time>
      </trkpt>
      <trkpt lat="36.695945760706316" lon="117.21901568345399">
        <ele>79</ele>
        <time>2023-07-05T11:47:36Z</time>
      </trkpt>
      <trkpt lat="36.69594650909253" lon="117.21898935481316">
        <ele>79</ele>
        <time>2023-07-05T11:47:37Z</time>
      </trkpt>
      <trkpt lat="36.69594726700018" lon="117.21896253920967">
        <ele>79</ele>
        <time>2023-07-05T11:47:38Z</time>
      </trkpt>
      <trkpt lat="36.6959480346354" lon="117.21893528785239">
        <ele>79</ele>
        <time>2023-07-05T11:47:39Z</time>
      </trkpt>
      <trkpt lat="36.69594871703189" lon="117.21890801080748">
        <ele>79</ele>
        <time>2023-07-05T11:47:40Z</time>
      </trkpt>
      <trkpt lat="36.69594924773142" lon="117.2188806608494">
        <ele>79</ele>
        <time>2023-07-05T11:47:41Z</time>
      </trkpt>
      <trkpt lat="36.69594960435893" lon="117.21885319186603">
        <ele>79</ele>
        <time>2023-07-05T11:47:42Z</time>
      </trkpt>
      <trkpt lat="36.69594982182315" lon="117.21882559993769">
        <ele>78.4</ele>
        <time>2023-07-05T11:47:43Z</time>
      </trkpt>
      <trkpt lat="36.69594995658239" lon="117.21879788101786">
        <ele>78.4</ele>
        <time>2023-07-05T11:47:44Z</time>
      </trkpt>
      <trkpt lat="36.69595000700048" lon="117.21877004237773">
        <ele>78.4</ele>
        <time>2023-07-05T11:47:45Z</time>
      </trkpt>
      <trkpt lat="36.69595007325348" lon="117.21874242184786">
        <ele>78.4</ele>
        <time>2023-07-05T11:47:46Z</time>
      </trkpt>
      <trkpt lat="36.69595010889456" lon="117.21871494908149">
        <ele>78.4</ele>
        <time>2023-07-05T11:47:47Z</time>
      </trkpt>
      <trkpt lat="36.69595005026771" lon="117.2186875521175">
        <ele>78.4</ele>
        <time>2023-07-05T11:47:48Z</time>
      </trkpt>
      <trkpt lat="36.695949865851105" lon="117.21866016887265">
        <ele>78.4</ele>
        <time>2023-07-05T11:47:49Z</time>
      </trkpt>
      <trkpt lat="36.695949611304194" lon="117.21863277827202">
        <ele>78.4</ele>
        <time>2023-07-05T11:47:50Z</time>
      </trkpt>
      <trkpt lat="36.69594941340155" lon="117.21860498304218">
        <ele>78.4</ele>
        <time>2023-07-05T11:47:51Z</time>
      </trkpt>
      <trkpt lat="36.695949356143956" lon="117.21857689908101">
        <ele>78.4</ele>
        <time>2023-07-05T11:47:52Z</time>
      </trkpt>
      <trkpt lat="36.695949461587745" lon="117.21854856460705">
        <ele>78.9</ele>
        <time>2023-07-05T11:47:53Z</time>
      </trkpt>
      <trkpt lat="36.695949751316455" lon="117.21852000397955">
        <ele>78.9</ele>
        <time>2023-07-05T11:47:54Z</time>
      </trkpt>
      <trkpt lat="36.69595024696567" lon="117.21849124398189">
        <ele>78.9</ele>
        <time>2023-07-05T11:47:55Z</time>
      </trkpt>
      <trkpt lat="36.69595092685747" lon="117.21846229474626">
        <ele>78.9</ele>
        <time>2023-07-05T11:47:56Z</time>
      </trkpt>
      <trkpt lat="36.69595177812369" lon="117.21843319461988">
        <ele>78.9</ele>
        <time>2023-07-05T11:47:57Z</time>
      </trkpt>
      <trkpt lat="36.69595284407975" lon="117.21840357977179">
        <ele>78.9</ele>
        <time>2023-07-05T11:47:58Z</time>
      </trkpt>
      <trkpt lat="36.6959541506239" lon="117.21837360892822">
        <ele>78.9</ele>
        <time>2023-07-05T11:47:59Z</time>
      </trkpt>
      <trkpt lat="36.69595563049175" lon="117.218343799122">
        <ele>78.9</ele>
        <time>2023-07-05T11:48:00Z</time>
      </trkpt>
      <trkpt lat="36.69595737651989" lon="117.2183137475481">
        <ele>78.9</ele>
        <time>2023-07-05T11:48:01Z</time>
      </trkpt>
      <trkpt lat="36.69595933858548" lon="117.21828395209664">
        <ele>78.9</ele>
        <time>2023-07-05T11:48:02Z</time>
      </trkpt>
      <trkpt lat="36.695961568643995" lon="117.21825397373311">
        <ele>79.6</ele>
        <time>2023-07-05T11:48:03Z</time>
      </trkpt>
      <trkpt lat="36.695963988173496" lon="117.21822393552347">
        <ele>79.6</ele>
        <time>2023-07-05T11:48:04Z</time>
      </trkpt>
      <trkpt lat="36.69596651398243" lon="117.21819432218821">
        <ele>79.6</ele>
        <time>2023-07-05T11:48:05Z</time>
      </trkpt>
      <trkpt lat="36.695968927265724" lon="117.21816468695374">
        <ele>79.6</ele>
        <time>2023-07-05T11:48:06Z</time>
      </trkpt>
      <trkpt lat="36.6959711828927" lon="117.21813509415095">
        <ele>79.6</ele>
        <time>2023-07-05T11:48:07Z</time>
      </trkpt>
      <trkpt lat="36.69597320913175" lon="117.21810518878367">
        <ele>79.6</ele>
        <time>2023-07-05T11:48:08Z</time>
      </trkpt>
      <trkpt lat="36.695974989068255" lon="117.21807549254586">
        <ele>79.6</ele>
        <time>2023-07-05T11:48:09Z</time>
      </trkpt>
      <trkpt lat="36.69597648737106" lon="117.21804591507508">
        <ele>79.6</ele>
        <time>2023-07-05T11:48:10Z</time>
      </trkpt>
      <trkpt lat="36.695977811790506" lon="117.2180160398243">
        <ele>79.6</ele>
        <time>2023-07-05T11:48:11Z</time>
      </trkpt>
      <trkpt lat="36.695978726173564" lon="117.21798595998364">
        <ele>79.6</ele>
        <time>2023-07-05T11:48:12Z</time>
      </trkpt>
      <trkpt lat="36.69597919219868" lon="117.21795574361211">
        <ele>79.7</ele>
        <time>2023-07-05T11:48:13Z</time>
      </trkpt>
      <trkpt lat="36.69597914334798" lon="117.21792579177777">
        <ele>79.7</ele>
        <time>2023-07-05T11:48:14Z</time>
      </trkpt>
      <trkpt lat="36.69597865732388" lon="117.21789562186893">
        <ele>79.7</ele>
        <time>2023-07-05T11:48:15Z</time>
      </trkpt>
      <trkpt lat="36.69597789370911" lon="117.21786522149858">
        <ele>79.7</ele>
        <time>2023-07-05T11:48:16Z</time>
      </trkpt>
      <trkpt lat="36.695977172884376" lon="117.21783457422153">
        <ele>79.7</ele>
        <time>2023-07-05T11:48:17Z</time>
      </trkpt>
      <trkpt lat="36.69597658046513" lon="117.21780368226459">
        <ele>79.7</ele>
        <time>2023-07-05T11:48:18Z</time>
      </trkpt>
      <trkpt lat="36.69597618711411" lon="117.2177729116911">
        <ele>79.7</ele>
        <time>2023-07-05T11:48:19Z</time>
      </trkpt>
      <trkpt lat="36.695976034321404" lon="117.21774176335762">
        <ele>79.7</ele>
        <time>2023-07-05T11:48:20Z</time>
      </trkpt>
      <trkpt lat="36.69597617698257" lon="117.21771030624485">
        <ele>79.7</ele>
        <time>2023-07-05T11:48:21Z</time>
      </trkpt>
      <trkpt lat="36.6959765041666" lon="117.21767898406534">
        <ele>79.7</ele>
        <time>2023-07-05T11:48:22Z</time>
      </trkpt>
      <trkpt lat="36.69597713239369" lon="117.21764774298288">
        <ele>79</ele>
        <time>2023-07-05T11:48:23Z</time>
      </trkpt>
      <trkpt lat="36.69597808679984" lon="117.21761653271405">
        <ele>79</ele>
        <time>2023-07-05T11:48:24Z</time>
      </trkpt>
      <trkpt lat="36.69597932273594" lon="117.21758494741194">
        <ele>79</ele>
        <time>2023-07-05T11:48:25Z</time>
      </trkpt>
      <trkpt lat="36.69598074655679" lon="117.21755348610435">
        <ele>79</ele>
        <time>2023-07-05T11:48:26Z</time>
      </trkpt>
      <trkpt lat="36.695982270479284" lon="117.21752174649119">
        <ele>79</ele>
        <time>2023-07-05T11:48:27Z</time>
      </trkpt>
      <trkpt lat="36.695983816295715" lon="117.21749020957601">
        <ele>79</ele>
        <time>2023-07-05T11:48:28Z</time>
      </trkpt>
      <trkpt lat="36.69598531448138" lon="117.21745836093329">
        <ele>79</ele>
        <time>2023-07-05T11:48:29Z</time>
      </trkpt>
      <trkpt lat="36.69598686489739" lon="117.21742624200611">
        <ele>79</ele>
        <time>2023-07-05T11:48:30Z</time>
      </trkpt>
      <trkpt lat="36.69598843507795" lon="117.21739424485457">
        <ele>79</ele>
        <time>2023-07-05T11:48:31Z</time>
      </trkpt>
      <trkpt lat="36.695990034522225" lon="117.21736186131933">
        <ele>79</ele>
        <time>2023-07-05T11:48:32Z</time>
      </trkpt>
      <trkpt lat="36.69599179694155" lon="117.21732904899565">
        <ele>79.1</ele>
        <time>2023-07-05T11:48:33Z</time>
      </trkpt>
      <trkpt lat="36.69599371584357" lon="117.21729614058576">
        <ele>79.1</ele>
        <time>2023-07-05T11:48:34Z</time>
      </trkpt>
      <trkpt lat="36.695995826447025" lon="117.21726261909886">
        <ele>79.1</ele>
        <time>2023-07-05T11:48:35Z</time>
      </trkpt>
      <trkpt lat="36.69599818197916" lon="117.21722891940975">
        <ele>79.1</ele>
        <time>2023-07-05T11:48:36Z</time>
      </trkpt>
      <trkpt lat="36.69600095721319" lon="117.21719458249869">
        <ele>79.1</ele>
        <time>2023-07-05T11:48:37Z</time>
      </trkpt>
      <trkpt lat="36.69600404054397" lon="117.21716009534448">
        <ele>79.1</ele>
        <time>2023-07-05T11:48:38Z</time>
      </trkpt>
      <trkpt lat="36.696007346338185" lon="117.21712549058657">
        <ele>79.1</ele>
        <time>2023-07-05T11:48:39Z</time>
      </trkpt>
      <trkpt lat="36.69601081116173" lon="117.21709088166125">
        <ele>79.1</ele>
        <time>2023-07-05T11:48:40Z</time>
      </trkpt>
      <trkpt lat="36.69601417166112" lon="117.21705636878946">
        <ele>79.1</ele>
        <time>2023-07-05T11:48:41Z</time>
      </trkpt>
      <trkpt lat="36.69601728582066" lon="117.21702205422999">
        <ele>79.1</ele>
        <time>2023-07-05T11:48:42Z</time>
      </trkpt>
      <trkpt lat="36.696020052445355" lon="117.21698842813693">
        <ele>79.8</ele>
        <time>2023-07-05T11:48:43Z</time>
      </trkpt>
      <trkpt lat="36.696022294592126" lon="117.21695508119028">
        <ele>79.8</ele>
        <time>2023-07-05T11:48:44Z</time>
      </trkpt>
      <trkpt lat="36.69602398004515" lon="117.21692211290265">
        <ele>79.8</ele>
        <time>2023-07-05T11:48:45Z</time>
      </trkpt>
      <trkpt lat="36.696025082082166" lon="117.21689000528016">
        <ele>79.8</ele>
        <time>2023-07-05T11:48:46Z</time>
      </trkpt>
      <trkpt lat="36.69602566892999" lon="117.21685827034942">
        <ele>79.8</ele>
        <time>2023-07-05T11:48:47Z</time>
      </trkpt>
      <trkpt lat="36.69602576677996" lon="117.21682733460823">
        <ele>79.8</ele>
        <time>2023-07-05T11:48:48Z</time>
      </trkpt>
      <trkpt lat="36.696025609038095" lon="117.21679669620262">
        <ele>79.8</ele>
        <time>2023-07-05T11:48:49Z</time>
      </trkpt>
      <trkpt lat="36.69602538362584" lon="117.21676633702552">
        <ele>79.8</ele>
        <time>2023-07-05T11:48:50Z</time>
      </trkpt>
      <trkpt lat="36.69602530073315" lon="117.2167366102132">
        <ele>79.8</ele>
        <time>2023-07-05T11:48:51Z</time>
      </trkpt>
      <trkpt lat="36.69602560203894" lon="117.21670700197468">
        <ele>79.8</ele>
        <time>2023-07-05T11:48:52Z</time>
      </trkpt>
      <trkpt lat="36.696026466572654" lon="117.2166775377111">
        <ele>79.5</ele>
        <time>2023-07-05T11:48:53Z</time>
      </trkpt>
      <trkpt lat="36.69602815018773" lon="117.21664831367077">
        <ele>79.5</ele>
        <time>2023-07-05T11:48:54Z</time>
      </trkpt>
      <trkpt lat="36.69603117374343" lon="117.21661967139548">
        <ele>79.5</ele>
        <time>2023-07-05T11:48:55Z</time>
      </trkpt>
      <trkpt lat="36.6960358847708" lon="117.21659210802042">
        <ele>79.5</ele>
        <time>2023-07-05T11:48:56Z</time>
      </trkpt>
      <trkpt lat="36.696042526881605" lon="117.21656609036347">
        <ele>79.5</ele>
        <time>2023-07-05T11:48:57Z</time>
      </trkpt>
      <trkpt lat="36.69605110581289" lon="117.21654238466931">
        <ele>79.5</ele>
        <time>2023-07-05T11:48:58Z</time>
      </trkpt>
      <trkpt lat="36.696061552861174" lon="117.21652112825163">
        <ele>79.5</ele>
        <time>2023-07-05T11:48:59Z</time>
      </trkpt>
      <trkpt lat="36.696074072886624" lon="117.21650259848914">
        <ele>79.5</ele>
        <time>2023-07-05T11:49:00Z</time>
      </trkpt>
      <trkpt lat="36.696088444099644" lon="117.2164865507724">
        <ele>79.5</ele>
        <time>2023-07-05T11:49:01Z</time>
      </trkpt>
      <trkpt lat="36.696104480556635" lon="117.21647279313149">
        <ele>79.5</ele>
        <time>2023-07-05T11:49:02Z</time>
      </trkpt>
      <trkpt lat="36.69612230405909" lon="117.216461481751">
        <ele>79.6</ele>
        <time>2023-07-05T11:49:03Z</time>
      </trkpt>
      <trkpt lat="36.69614165744749" lon="117.21645240322407">
        <ele>79.6</ele>
        <time>2023-07-05T11:49:04Z</time>
      </trkpt>
      <trkpt lat="36.696162242139074" lon="117.21644531574303">
        <ele>79.6</ele>
        <time>2023-07-05T11:49:05Z</time>
      </trkpt>
      <trkpt lat="36.69618383557525" lon="117.21644027496328">
        <ele>79.6</ele>
        <time>2023-07-05T11:49:06Z</time>
      </trkpt>
      <trkpt lat="36.69620592589224" lon="117.21643670961778">
        <ele>79.6</ele>
        <time>2023-07-05T11:49:07Z</time>
      </trkpt>
      <trkpt lat="36.696228140223766" lon="117.21643409423099">
        <ele>79.6</ele>
        <time>2023-07-05T11:49:08Z</time>
      </trkpt>
      <trkpt lat="36.696250611599176" lon="117.21643203105981">
        <ele>79.6</ele>
        <time>2023-07-05T11:49:09Z</time>
      </trkpt>
      <trkpt lat="36.696273143882934" lon="117.21643034304772">
        <ele>79.6</ele>
        <time>2023-07-05T11:49:10Z</time>
      </trkpt>
      <trkpt lat="36.696295291472346" lon="117.21642914374006">
        <ele>79.6</ele>
        <time>2023-07-05T11:49:11Z</time>
      </trkpt>
      <trkpt lat="36.69631703293517" lon="117.21642852811183">
        <ele>79.6</ele>
        <time>2023-07-05T11:49:12Z</time>
      </trkpt>
      <trkpt lat="36.69633840135811" lon="117.2164284737836">
        <ele>78.1</ele>
        <time>2023-07-05T11:49:13Z</time>
      </trkpt>
      <trkpt lat="36.69635911061379" lon="117.21642885678908">
        <ele>78.1</ele>
        <time>2023-07-05T11:49:14Z</time>
      </trkpt>
      <trkpt lat="36.69637922289604" lon="117.21642940463472">
        <ele>78.1</ele>
        <time>2023-07-05T11:49:15Z</time>
      </trkpt>
      <trkpt lat="36.69639894037168" lon="117.2164298313856">
        <ele>78.1</ele>
        <time>2023-07-05T11:49:16Z</time>
      </trkpt>
      <trkpt lat="36.69641778113039" lon="117.2164295850378">
        <ele>78.1</ele>
        <time>2023-07-05T11:49:17Z</time>
      </trkpt>
      <trkpt lat="36.69643586974119" lon="117.21642877913395">
        <ele>78.1</ele>
        <time>2023-07-05T11:49:18Z</time>
      </trkpt>
      <trkpt lat="36.69645644889432" lon="117.21643809447681">
        <ele>78.1</ele>
        <time>2023-07-05T11:49:19Z</time>
      </trkpt>
      <trkpt lat="36.69647215742222" lon="117.21643633489263">
        <ele>78.1</ele>
        <time>2023-07-05T11:49:20Z</time>
      </trkpt>
      <trkpt lat="36.69648923467331" lon="117.21643157985267">
        <ele>78.1</ele>
        <time>2023-07-05T11:49:21Z</time>
      </trkpt>
      <trkpt lat="36.696503812701835" lon="117.21642194619413">
        <ele>78.1</ele>
        <time>2023-07-05T11:49:22Z</time>
      </trkpt>
    </trkseg>
  </trk>
</gpx>