<?xml version="1.0" encoding="UTF-8"?>
<gpx xmlns="http://www.topografix.com/GPX/1/1" xmlns:gpxtpx="http://www.garmin.com/xmlschemas/TrackPointExtension/v1" xmlns:xsi="http://www.w3.org/2001/XMLSchema-instance" xsi:schemaLocation="http://www.topografix.com/GPX/1/1 http://www.topografix.com/GPX/1/1/gpx.xsd" version="1.1" creator="gpx.py -- https://github.com/tkrajina/gpxpy">
  <trk>
    <name>gpx from codoon</name>
    <type>Run</type>
    <trkseg>
      <trkpt lat="36.68671985268481" lon="117.22075488885963">
        <ele>87.3</ele>
        <time>2023-07-13T11:44:18Z</time>
      </trkpt>
      <trkpt lat="36.686733379332665" lon="117.22074606428058">
        <ele>87.3</ele>
        <time>2023-07-13T11:44:19Z</time>
      </trkpt>
      <trkpt lat="36.68674980601007" lon="117.22073576576135">
        <ele>87.3</ele>
        <time>2023-07-13T11:44:20Z</time>
      </trkpt>
      <trkpt lat="36.6867746608352" lon="117.2207331985892">
        <ele>87.3</ele>
        <time>2023-07-13T11:44:21Z</time>
      </trkpt>
      <trkpt lat="36.686801234473926" lon="117.22073341100183">
        <ele>87.3</ele>
        <time>2023-07-13T11:44:22Z</time>
      </trkpt>
      <trkpt lat="36.68683571555899" lon="117.22073750948414">
        <ele>87.3</ele>
        <time>2023-07-13T11:44:24Z</time>
      </trkpt>
      <trkpt lat="36.68686176605717" lon="117.22073685975715">
        <ele>87.3</ele>
        <time>2023-07-13T11:44:25Z</time>
      </trkpt>
      <trkpt lat="36.686889112866794" lon="117.22073740234231">
        <ele>87</ele>
        <time>2023-07-13T11:44:26Z</time>
      </trkpt>
      <trkpt lat="36.68691773558623" lon="117.22073930410617">
        <ele>87</ele>
        <time>2023-07-13T11:44:27Z</time>
      </trkpt>
      <trkpt lat="36.686946702787104" lon="117.22074160709813">
        <ele>87</ele>
        <time>2023-07-13T11:44:28Z</time>
      </trkpt>
      <trkpt lat="36.686975656046336" lon="117.22074394212314">
        <ele>87</ele>
        <time>2023-07-13T11:44:29Z</time>
      </trkpt>
      <trkpt lat="36.68700485537482" lon="117.22074636720177">
        <ele>87</ele>
        <time>2023-07-13T11:44:30Z</time>
      </trkpt>
      <trkpt lat="36.68703376837975" lon="117.22074905391719">
        <ele>87</ele>
        <time>2023-07-13T11:44:31Z</time>
      </trkpt>
      <trkpt lat="36.68706231438311" lon="117.22075204188948">
        <ele>87</ele>
        <time>2023-07-13T11:44:32Z</time>
      </trkpt>
      <trkpt lat="36.68709058774588" lon="117.22075511165707">
        <ele>87</ele>
        <time>2023-07-13T11:44:33Z</time>
      </trkpt>
      <trkpt lat="36.68711905813313" lon="117.22075801901394">
        <ele>87</ele>
        <time>2023-07-13T11:44:34Z</time>
      </trkpt>
      <trkpt lat="36.68714764442655" lon="117.22076085568861">
        <ele>87</ele>
        <time>2023-07-13T11:44:35Z</time>
      </trkpt>
      <trkpt lat="36.68717605339765" lon="117.22076355361443">
        <ele>87.6</ele>
        <time>2023-07-13T11:44:36Z</time>
      </trkpt>
      <trkpt lat="36.68720477995588" lon="117.22076612583685">
        <ele>87.6</ele>
        <time>2023-07-13T11:44:37Z</time>
      </trkpt>
      <trkpt lat="36.68723335471166" lon="117.22076848363838">
        <ele>87.6</ele>
        <time>2023-07-13T11:44:38Z</time>
      </trkpt>
      <trkpt lat="36.68726211812725" lon="117.22077088989343">
        <ele>87.6</ele>
        <time>2023-07-13T11:44:39Z</time>
      </trkpt>
      <trkpt lat="36.687291147084196" lon="117.22077349225026">
        <ele>87.6</ele>
        <time>2023-07-13T11:44:40Z</time>
      </trkpt>
      <trkpt lat="36.68732004734279" lon="117.22077630209535">
        <ele>87.6</ele>
        <time>2023-07-13T11:44:41Z</time>
      </trkpt>
      <trkpt lat="36.687349143200116" lon="117.22077927953406">
        <ele>87.6</ele>
        <time>2023-07-13T11:44:42Z</time>
      </trkpt>
      <trkpt lat="36.68737847885423" lon="117.22078236885758">
        <ele>87.6</ele>
        <time>2023-07-13T11:44:43Z</time>
      </trkpt>
      <trkpt lat="36.68740753288882" lon="117.22078562394644">
        <ele>87.6</ele>
        <time>2023-07-13T11:44:44Z</time>
      </trkpt>
      <trkpt lat="36.68743628680795" lon="117.22078898414416">
        <ele>87.6</ele>
        <time>2023-07-13T11:44:45Z</time>
      </trkpt>
      <trkpt lat="36.68746483460404" lon="117.22079267563235">
        <ele>86.3</ele>
        <time>2023-07-13T11:44:46Z</time>
      </trkpt>
      <trkpt lat="36.687493479061786" lon="117.22079688366055">
        <ele>86.3</ele>
        <time>2023-07-13T11:44:47Z</time>
      </trkpt>
      <trkpt lat="36.68752165442881" lon="117.22080159307956">
        <ele>86.3</ele>
        <time>2023-07-13T11:44:48Z</time>
      </trkpt>
      <trkpt lat="36.687549524953766" lon="117.2208068410017">
        <ele>86.3</ele>
        <time>2023-07-13T11:44:49Z</time>
      </trkpt>
      <trkpt lat="36.68757710907035" lon="117.22081268849736">
        <ele>86.3</ele>
        <time>2023-07-13T11:44:50Z</time>
      </trkpt>
      <trkpt lat="36.687604475795354" lon="117.22081908351923">
        <ele>86.3</ele>
        <time>2023-07-13T11:44:51Z</time>
      </trkpt>
      <trkpt lat="36.68763169768541" lon="117.22082598153689">
        <ele>86.3</ele>
        <time>2023-07-13T11:44:52Z</time>
      </trkpt>
      <trkpt lat="36.68765883443273" lon="117.22083341404968">
        <ele>86.3</ele>
        <time>2023-07-13T11:44:54Z</time>
      </trkpt>
      <trkpt lat="36.68768582579133" lon="117.22084131277136">
        <ele>86.3</ele>
        <time>2023-07-13T11:44:55Z</time>
      </trkpt>
      <trkpt lat="36.68771299202165" lon="117.22084966175127">
        <ele>86.2</ele>
        <time>2023-07-13T11:44:56Z</time>
      </trkpt>
      <trkpt lat="36.68773990096707" lon="117.22085836816878">
        <ele>86.2</ele>
        <time>2023-07-13T11:44:57Z</time>
      </trkpt>
      <trkpt lat="36.68776645188349" lon="117.22086715446282">
        <ele>86.2</ele>
        <time>2023-07-13T11:44:58Z</time>
      </trkpt>
      <trkpt lat="36.68779265058625" lon="117.22087586861929">
        <ele>86.2</ele>
        <time>2023-07-13T11:44:59Z</time>
      </trkpt>
      <trkpt lat="36.68781865807206" lon="117.22088453452456">
        <ele>86.2</ele>
        <time>2023-07-13T11:45:00Z</time>
      </trkpt>
      <trkpt lat="36.68784481957201" lon="117.22089293908685">
        <ele>86.2</ele>
        <time>2023-07-13T11:45:01Z</time>
      </trkpt>
      <trkpt lat="36.687870783235866" lon="117.22090089627476">
        <ele>86.2</ele>
        <time>2023-07-13T11:45:02Z</time>
      </trkpt>
      <trkpt lat="36.68789649945078" lon="117.2209082628982">
        <ele>86.2</ele>
        <time>2023-07-13T11:45:03Z</time>
      </trkpt>
      <trkpt lat="36.68792188748531" lon="117.22091494755666">
        <ele>86.2</ele>
        <time>2023-07-13T11:45:04Z</time>
      </trkpt>
      <trkpt lat="36.68794694709141" lon="117.22092078484724">
        <ele>86.2</ele>
        <time>2023-07-13T11:45:05Z</time>
      </trkpt>
      <trkpt lat="36.68797175939144" lon="117.2209257281873">
        <ele>86.2</ele>
        <time>2023-07-13T11:45:06Z</time>
      </trkpt>
      <trkpt lat="36.68799621381301" lon="117.22092988401602">
        <ele>86.2</ele>
        <time>2023-07-13T11:45:07Z</time>
      </trkpt>
      <trkpt lat="36.68802078016765" lon="117.22093325346688">
        <ele>86.2</ele>
        <time>2023-07-13T11:45:08Z</time>
      </trkpt>
      <trkpt lat="36.68804557035313" lon="117.22093575976434">
        <ele>86.2</ele>
        <time>2023-07-13T11:45:09Z</time>
      </trkpt>
      <trkpt lat="36.68807060689859" lon="117.22093729264303">
        <ele>86.2</ele>
        <time>2023-07-13T11:45:10Z</time>
      </trkpt>
      <trkpt lat="36.688095787253836" lon="117.22093783469296">
        <ele>86.2</ele>
        <time>2023-07-13T11:45:11Z</time>
      </trkpt>
      <trkpt lat="36.68812068120628" lon="117.22093761251269">
        <ele>86.2</ele>
        <time>2023-07-13T11:45:12Z</time>
      </trkpt>
      <trkpt lat="36.68814566577887" lon="117.22093658118827">
        <ele>86.2</ele>
        <time>2023-07-13T11:45:13Z</time>
      </trkpt>
      <trkpt lat="36.688170647557136" lon="117.22093501387333">
        <ele>86.2</ele>
        <time>2023-07-13T11:45:14Z</time>
      </trkpt>
      <trkpt lat="36.68819575371904" lon="117.22093299397496">
        <ele>86.2</ele>
        <time>2023-07-13T11:45:15Z</time>
      </trkpt>
      <trkpt lat="36.68822095596808" lon="117.2209304124166">
        <ele>86.1</ele>
        <time>2023-07-13T11:45:16Z</time>
      </trkpt>
      <trkpt lat="36.68824614735044" lon="117.22092720801452">
        <ele>86.1</ele>
        <time>2023-07-13T11:45:17Z</time>
      </trkpt>
      <trkpt lat="36.68827153290446" lon="117.22092314447276">
        <ele>86.1</ele>
        <time>2023-07-13T11:45:18Z</time>
      </trkpt>
      <trkpt lat="36.68829674023508" lon="117.22091846225332">
        <ele>86.1</ele>
        <time>2023-07-13T11:45:19Z</time>
      </trkpt>
      <trkpt lat="36.688322097808815" lon="117.2209140573584">
        <ele>86.1</ele>
        <time>2023-07-13T11:45:20Z</time>
      </trkpt>
      <trkpt lat="36.68834720016052" lon="117.22090993002641">
        <ele>86.1</ele>
        <time>2023-07-13T11:45:21Z</time>
      </trkpt>
      <trkpt lat="36.68837257102132" lon="117.22090618899713">
        <ele>86.1</ele>
        <time>2023-07-13T11:45:22Z</time>
      </trkpt>
      <trkpt lat="36.68839820331674" lon="117.22090282524218">
        <ele>86.1</ele>
        <time>2023-07-13T11:45:23Z</time>
      </trkpt>
      <trkpt lat="36.68842376873766" lon="117.22089994691949">
        <ele>86.1</ele>
        <time>2023-07-13T11:45:24Z</time>
      </trkpt>
      <trkpt lat="36.68844968555215" lon="117.22089723731948">
        <ele>86.1</ele>
        <time>2023-07-13T11:45:25Z</time>
      </trkpt>
      <trkpt lat="36.68847581946066" lon="117.22089475808836">
        <ele>86</ele>
        <time>2023-07-13T11:45:26Z</time>
      </trkpt>
      <trkpt lat="36.688502180308774" lon="117.22089254388523">
        <ele>86</ele>
        <time>2023-07-13T11:45:27Z</time>
      </trkpt>
      <trkpt lat="36.68852885290919" lon="117.22089093413335">
        <ele>86</ele>
        <time>2023-07-13T11:45:28Z</time>
      </trkpt>
      <trkpt lat="36.6885557805553" lon="117.22088996459762">
        <ele>86</ele>
        <time>2023-07-13T11:45:29Z</time>
      </trkpt>
      <trkpt lat="36.68858291080905" lon="117.22088943143169">
        <ele>86</ele>
        <time>2023-07-13T11:45:30Z</time>
      </trkpt>
      <trkpt lat="36.68860994970636" lon="117.22088859058302">
        <ele>86</ele>
        <time>2023-07-13T11:45:31Z</time>
      </trkpt>
      <trkpt lat="36.68863727860309" lon="117.22088749138045">
        <ele>86</ele>
        <time>2023-07-13T11:45:32Z</time>
      </trkpt>
      <trkpt lat="36.68866443517977" lon="117.22088608163523">
        <ele>86</ele>
        <time>2023-07-13T11:45:33Z</time>
      </trkpt>
      <trkpt lat="36.68869186208302" lon="117.22088435132002">
        <ele>86</ele>
        <time>2023-07-13T11:45:34Z</time>
      </trkpt>
      <trkpt lat="36.688719768812895" lon="117.22088229909926">
        <ele>86</ele>
        <time>2023-07-13T11:45:35Z</time>
      </trkpt>
      <trkpt lat="36.68874769986391" lon="117.2208801384142">
        <ele>85.2</ele>
        <time>2023-07-13T11:45:36Z</time>
      </trkpt>
      <trkpt lat="36.688775862293184" lon="117.22087780257435">
        <ele>85.2</ele>
        <time>2023-07-13T11:45:37Z</time>
      </trkpt>
      <trkpt lat="36.68880421076331" lon="117.22087542927908">
        <ele>85.2</ele>
        <time>2023-07-13T11:45:38Z</time>
      </trkpt>
      <trkpt lat="36.68883268275351" lon="117.22087274912086">
        <ele>85.2</ele>
        <time>2023-07-13T11:45:39Z</time>
      </trkpt>
      <trkpt lat="36.6888613138756" lon="117.22086975003258">
        <ele>85.2</ele>
        <time>2023-07-13T11:45:40Z</time>
      </trkpt>
      <trkpt lat="36.68889002392549" lon="117.2208664599367">
        <ele>85.2</ele>
        <time>2023-07-13T11:45:41Z</time>
      </trkpt>
      <trkpt lat="36.68891866947973" lon="117.22086289080748">
        <ele>85.2</ele>
        <time>2023-07-13T11:45:42Z</time>
      </trkpt>
      <trkpt lat="36.68894727636309" lon="117.22085914173799">
        <ele>85.2</ele>
        <time>2023-07-13T11:45:43Z</time>
      </trkpt>
      <trkpt lat="36.68897580084398" lon="117.22085533621204">
        <ele>85.2</ele>
        <time>2023-07-13T11:45:44Z</time>
      </trkpt>
      <trkpt lat="36.68900415958067" lon="117.22085146928403">
        <ele>85.2</ele>
        <time>2023-07-13T11:45:45Z</time>
      </trkpt>
      <trkpt lat="36.689032141895886" lon="117.22084769832921">
        <ele>84.7</ele>
        <time>2023-07-13T11:45:46Z</time>
      </trkpt>
      <trkpt lat="36.689059734293885" lon="117.22084402809296">
        <ele>84.7</ele>
        <time>2023-07-13T11:45:47Z</time>
      </trkpt>
      <trkpt lat="36.689087159026506" lon="117.22084029024303">
        <ele>84.7</ele>
        <time>2023-07-13T11:45:48Z</time>
      </trkpt>
      <trkpt lat="36.68911415225864" lon="117.22083695151629">
        <ele>84.7</ele>
        <time>2023-07-13T11:45:49Z</time>
      </trkpt>
      <trkpt lat="36.68914065200076" lon="117.22083415863362">
        <ele>84.7</ele>
        <time>2023-07-13T11:45:50Z</time>
      </trkpt>
      <trkpt lat="36.68916631257301" lon="117.2208319723587">
        <ele>84.7</ele>
        <time>2023-07-13T11:45:51Z</time>
      </trkpt>
      <trkpt lat="36.68919123118649" lon="117.2208303479962">
        <ele>84.7</ele>
        <time>2023-07-13T11:45:52Z</time>
      </trkpt>
      <trkpt lat="36.689215557823175" lon="117.22082926040757">
        <ele>84.7</ele>
        <time>2023-07-13T11:45:53Z</time>
      </trkpt>
      <trkpt lat="36.68924544885413" lon="117.22082425311716">
        <ele>84.7</ele>
        <time>2023-07-13T11:45:54Z</time>
      </trkpt>
      <trkpt lat="36.689268513630495" lon="117.22082583730113">
        <ele>84.7</ele>
        <time>2023-07-13T11:45:55Z</time>
      </trkpt>
      <trkpt lat="36.68928984081462" lon="117.22082745857624">
        <ele>84.2</ele>
        <time>2023-07-13T11:45:56Z</time>
      </trkpt>
      <trkpt lat="36.68930930354894" lon="117.2208286397238">
        <ele>84.2</ele>
        <time>2023-07-13T11:45:57Z</time>
      </trkpt>
      <trkpt lat="36.689328408481344" lon="117.22082977296974">
        <ele>84.2</ele>
        <time>2023-07-13T11:45:58Z</time>
      </trkpt>
      <trkpt lat="36.68972617678522" lon="117.22032897028274">
        <ele>81.4</ele>
        <time>2023-07-13T11:47:24Z</time>
      </trkpt>
      <trkpt lat="36.689739422432446" lon="117.22033925228396">
        <ele>81.4</ele>
        <time>2023-07-13T11:47:25Z</time>
      </trkpt>
      <trkpt lat="36.689758573799764" lon="117.22035502192479">
        <ele>80.9</ele>
        <time>2023-07-13T11:47:26Z</time>
      </trkpt>
      <trkpt lat="36.68978224055854" lon="117.22036561015764">
        <ele>80.9</ele>
        <time>2023-07-13T11:47:27Z</time>
      </trkpt>
      <trkpt lat="36.68980780458944" lon="117.22037248792986">
        <ele>80.9</ele>
        <time>2023-07-13T11:47:28Z</time>
      </trkpt>
      <trkpt lat="36.68984445701709" lon="117.2203646103385">
        <ele>80.9</ele>
        <time>2023-07-13T11:47:29Z</time>
      </trkpt>
      <trkpt lat="36.6898710136338" lon="117.22036988108461">
        <ele>80.9</ele>
        <time>2023-07-13T11:47:30Z</time>
      </trkpt>
      <trkpt lat="36.68989901728959" lon="117.22037487872564">
        <ele>80.9</ele>
        <time>2023-07-13T11:47:31Z</time>
      </trkpt>
      <trkpt lat="36.68992815280604" lon="117.22037840569304">
        <ele>80.9</ele>
        <time>2023-07-13T11:47:32Z</time>
      </trkpt>
      <trkpt lat="36.68995785238492" lon="117.22038098659621">
        <ele>80.9</ele>
        <time>2023-07-13T11:47:33Z</time>
      </trkpt>
      <trkpt lat="36.68998783873696" lon="117.22038279272095">
        <ele>80.9</ele>
        <time>2023-07-13T11:47:34Z</time>
      </trkpt>
      <trkpt lat="36.690017936767035" lon="117.22038470243325">
        <ele>80.9</ele>
        <time>2023-07-13T11:47:35Z</time>
      </trkpt>
      <trkpt lat="36.690048017732224" lon="117.22038624197063">
        <ele>80.4</ele>
        <time>2023-07-13T11:47:36Z</time>
      </trkpt>
      <trkpt lat="36.6900783127716" lon="117.22038732417005">
        <ele>80.4</ele>
        <time>2023-07-13T11:47:37Z</time>
      </trkpt>
      <trkpt lat="36.69010837414065" lon="117.2203887661274">
        <ele>80.4</ele>
        <time>2023-07-13T11:47:38Z</time>
      </trkpt>
      <trkpt lat="36.6901384217197" lon="117.22038982613296">
        <ele>80.4</ele>
        <time>2023-07-13T11:47:39Z</time>
      </trkpt>
      <trkpt lat="36.69016846644562" lon="117.22039008771989">
        <ele>80.4</ele>
        <time>2023-07-13T11:47:40Z</time>
      </trkpt>
      <trkpt lat="36.6901981222857" lon="117.22038974892666">
        <ele>80.4</ele>
        <time>2023-07-13T11:47:41Z</time>
      </trkpt>
      <trkpt lat="36.690227745236086" lon="117.22038861213306">
        <ele>80.4</ele>
        <time>2023-07-13T11:47:42Z</time>
      </trkpt>
      <trkpt lat="36.69025694820526" lon="117.22038781227992">
        <ele>80.4</ele>
        <time>2023-07-13T11:47:43Z</time>
      </trkpt>
      <trkpt lat="36.69028604725871" lon="117.22038724676338">
        <ele>80.4</ele>
        <time>2023-07-13T11:47:44Z</time>
      </trkpt>
      <trkpt lat="36.6903150326163" lon="117.22038691485184">
        <ele>80.4</ele>
        <time>2023-07-13T11:47:45Z</time>
      </trkpt>
      <trkpt lat="36.69034361010693" lon="117.22038659380483">
        <ele>80.1</ele>
        <time>2023-07-13T11:47:46Z</time>
      </trkpt>
      <trkpt lat="36.69037201992825" lon="117.22038651808893">
        <ele>80.1</ele>
        <time>2023-07-13T11:47:47Z</time>
      </trkpt>
      <trkpt lat="36.69039997518564" lon="117.22038651029894">
        <ele>80.1</ele>
        <time>2023-07-13T11:47:48Z</time>
      </trkpt>
      <trkpt lat="36.690427619188355" lon="117.2203865452591">
        <ele>80.1</ele>
        <time>2023-07-13T11:47:49Z</time>
      </trkpt>
      <trkpt lat="36.69045493847601" lon="117.22038638939777">
        <ele>80.1</ele>
        <time>2023-07-13T11:47:50Z</time>
      </trkpt>
      <trkpt lat="36.69048231229576" lon="117.22038644576162">
        <ele>80.1</ele>
        <time>2023-07-13T11:47:51Z</time>
      </trkpt>
      <trkpt lat="36.69050976469961" lon="117.22038651687681">
        <ele>80.1</ele>
        <time>2023-07-13T11:47:52Z</time>
      </trkpt>
      <trkpt lat="36.69053689640484" lon="117.22038674085644">
        <ele>80.1</ele>
        <time>2023-07-13T11:47:53Z</time>
      </trkpt>
      <trkpt lat="36.690564062320306" lon="117.22038637622491">
        <ele>80.1</ele>
        <time>2023-07-13T11:47:54Z</time>
      </trkpt>
      <trkpt lat="36.690590935227874" lon="117.22038525840051">
        <ele>80.1</ele>
        <time>2023-07-13T11:47:55Z</time>
      </trkpt>
      <trkpt lat="36.69061749287303" lon="117.22038379091269">
        <ele>79.9</ele>
        <time>2023-07-13T11:47:56Z</time>
      </trkpt>
      <trkpt lat="36.6906440995665" lon="117.22038226671278">
        <ele>79.9</ele>
        <time>2023-07-13T11:47:57Z</time>
      </trkpt>
      <trkpt lat="36.69067047602665" lon="117.22038069448833">
        <ele>79.9</ele>
        <time>2023-07-13T11:47:58Z</time>
      </trkpt>
      <trkpt lat="36.69069698467396" lon="117.22037905130684">
        <ele>79.9</ele>
        <time>2023-07-13T11:47:59Z</time>
      </trkpt>
      <trkpt lat="36.69072353786486" lon="117.2203771811402">
        <ele>79.9</ele>
        <time>2023-07-13T11:48:00Z</time>
      </trkpt>
      <trkpt lat="36.69074987534303" lon="117.22037558797305">
        <ele>79.9</ele>
        <time>2023-07-13T11:48:01Z</time>
      </trkpt>
      <trkpt lat="36.690776027335474" lon="117.22037359232971">
        <ele>79.9</ele>
        <time>2023-07-13T11:48:02Z</time>
      </trkpt>
      <trkpt lat="36.69080203766487" lon="117.22037159387826">
        <ele>79.9</ele>
        <time>2023-07-13T11:48:03Z</time>
      </trkpt>
      <trkpt lat="36.69082832576219" lon="117.22036923151236">
        <ele>79.9</ele>
        <time>2023-07-13T11:48:04Z</time>
      </trkpt>
      <trkpt lat="36.69085454310733" lon="117.22036695844231">
        <ele>79.9</ele>
        <time>2023-07-13T11:48:05Z</time>
      </trkpt>
      <trkpt lat="36.69088111417591" lon="117.22036500958683">
        <ele>79.4</ele>
        <time>2023-07-13T11:48:06Z</time>
      </trkpt>
      <trkpt lat="36.690908004581345" lon="117.22036329326505">
        <ele>79.4</ele>
        <time>2023-07-13T11:48:07Z</time>
      </trkpt>
      <trkpt lat="36.690935153895225" lon="117.2203615258495">
        <ele>79.4</ele>
        <time>2023-07-13T11:48:08Z</time>
      </trkpt>
      <trkpt lat="36.6909624979795" lon="117.22035933318358">
        <ele>79.4</ele>
        <time>2023-07-13T11:48:09Z</time>
      </trkpt>
      <trkpt lat="36.69098972004316" lon="117.22035697138423">
        <ele>79.4</ele>
        <time>2023-07-13T11:48:10Z</time>
      </trkpt>
      <trkpt lat="36.69101716307653" lon="117.22035452604871">
        <ele>79.4</ele>
        <time>2023-07-13T11:48:11Z</time>
      </trkpt>
      <trkpt lat="36.69104479317217" lon="117.22035179539536">
        <ele>79.4</ele>
        <time>2023-07-13T11:48:12Z</time>
      </trkpt>
      <trkpt lat="36.69107260377071" lon="117.22034883559391">
        <ele>79.4</ele>
        <time>2023-07-13T11:48:13Z</time>
      </trkpt>
      <trkpt lat="36.69110042012877" lon="117.22034519815072">
        <ele>79.4</ele>
        <time>2023-07-13T11:48:14Z</time>
      </trkpt>
      <trkpt lat="36.69112795492104" lon="117.2203410613539">
        <ele>79.4</ele>
        <time>2023-07-13T11:48:15Z</time>
      </trkpt>
      <trkpt lat="36.69115556555221" lon="117.22033612114744">
        <ele>79.2</ele>
        <time>2023-07-13T11:48:16Z</time>
      </trkpt>
      <trkpt lat="36.69118282138328" lon="117.22033060885298">
        <ele>79.2</ele>
        <time>2023-07-13T11:48:17Z</time>
      </trkpt>
      <trkpt lat="36.691209592381114" lon="117.22032392136153">
        <ele>79.2</ele>
        <time>2023-07-13T11:48:18Z</time>
      </trkpt>
      <trkpt lat="36.69123563328696" lon="117.2203155605679">
        <ele>79.2</ele>
        <time>2023-07-13T11:48:19Z</time>
      </trkpt>
      <trkpt lat="36.69126126087278" lon="117.22030647758852">
        <ele>79.2</ele>
        <time>2023-07-13T11:48:20Z</time>
      </trkpt>
      <trkpt lat="36.691286387106956" lon="117.22029647811434">
        <ele>79.2</ele>
        <time>2023-07-13T11:48:21Z</time>
      </trkpt>
      <trkpt lat="36.691310599061296" lon="117.22028528613563">
        <ele>79.2</ele>
        <time>2023-07-13T11:48:22Z</time>
      </trkpt>
      <trkpt lat="36.6913341330411" lon="117.22027262909874">
        <ele>79.2</ele>
        <time>2023-07-13T11:48:23Z</time>
      </trkpt>
      <trkpt lat="36.6913566537472" lon="117.2202587928564">
        <ele>79.2</ele>
        <time>2023-07-13T11:48:24Z</time>
      </trkpt>
      <trkpt lat="36.69137867857298" lon="117.22024395441582">
        <ele>79.2</ele>
        <time>2023-07-13T11:48:25Z</time>
      </trkpt>
      <trkpt lat="36.69140027183721" lon="117.22022804852726">
        <ele>79.4</ele>
        <time>2023-07-13T11:48:26Z</time>
      </trkpt>
      <trkpt lat="36.69142139837253" lon="117.22021183178585">
        <ele>79.4</ele>
        <time>2023-07-13T11:48:27Z</time>
      </trkpt>
      <trkpt lat="36.69144204272198" lon="117.22019449534548">
        <ele>79.4</ele>
        <time>2023-07-13T11:48:28Z</time>
      </trkpt>
      <trkpt lat="36.69146223845854" lon="117.22017628028826">
        <ele>79.4</ele>
        <time>2023-07-13T11:48:29Z</time>
      </trkpt>
      <trkpt lat="36.691481963333544" lon="117.22015775590111">
        <ele>79.4</ele>
        <time>2023-07-13T11:48:30Z</time>
      </trkpt>
      <trkpt lat="36.691501189315005" lon="117.22013790088651">
        <ele>79.4</ele>
        <time>2023-07-13T11:48:31Z</time>
      </trkpt>
      <trkpt lat="36.691520050175825" lon="117.22011700425847">
        <ele>79.4</ele>
        <time>2023-07-13T11:48:32Z</time>
      </trkpt>
      <trkpt lat="36.69153866197524" lon="117.22009543175797">
        <ele>79.4</ele>
        <time>2023-07-13T11:48:33Z</time>
      </trkpt>
      <trkpt lat="36.69155690270806" lon="117.22007302775624">
        <ele>79.4</ele>
        <time>2023-07-13T11:48:34Z</time>
      </trkpt>
      <trkpt lat="36.691574832953584" lon="117.22004993819095">
        <ele>79.4</ele>
        <time>2023-07-13T11:48:35Z</time>
      </trkpt>
      <trkpt lat="36.69159207437429" lon="117.22002640118583">
        <ele>78.3</ele>
        <time>2023-07-13T11:48:36Z</time>
      </trkpt>
      <trkpt lat="36.69160866426618" lon="117.22000257119993">
        <ele>78.3</ele>
        <time>2023-07-13T11:48:37Z</time>
      </trkpt>
      <trkpt lat="36.691624594188276" lon="117.2199781963196">
        <ele>78.3</ele>
        <time>2023-07-13T11:48:38Z</time>
      </trkpt>
      <trkpt lat="36.69164062137538" lon="117.21995418391799">
        <ele>78.3</ele>
        <time>2023-07-13T11:48:39Z</time>
      </trkpt>
      <trkpt lat="36.69165711816293" lon="117.21993137804363">
        <ele>78.3</ele>
        <time>2023-07-13T11:48:40Z</time>
      </trkpt>
      <trkpt lat="36.69167440480445" lon="117.21991008552948">
        <ele>78.3</ele>
        <time>2023-07-13T11:48:41Z</time>
      </trkpt>
      <trkpt lat="36.691692239827944" lon="117.21989059771602">
        <ele>78.3</ele>
        <time>2023-07-13T11:48:42Z</time>
      </trkpt>
      <trkpt lat="36.6917105795775" lon="117.21987266899357">
        <ele>78.3</ele>
        <time>2023-07-13T11:48:43Z</time>
      </trkpt>
      <trkpt lat="36.69172984399177" lon="117.2198569505697">
        <ele>78.3</ele>
        <time>2023-07-13T11:48:44Z</time>
      </trkpt>
      <trkpt lat="36.691749896878" lon="117.21984388462924">
        <ele>78.3</ele>
        <time>2023-07-13T11:48:45Z</time>
      </trkpt>
      <trkpt lat="36.69177072652978" lon="117.21983331034835">
        <ele>78.1</ele>
        <time>2023-07-13T11:48:46Z</time>
      </trkpt>
      <trkpt lat="36.69179268130109" lon="117.21982525231086">
        <ele>78.1</ele>
        <time>2023-07-13T11:48:47Z</time>
      </trkpt>
      <trkpt lat="36.69181558583998" lon="117.21981963047588">
        <ele>78.1</ele>
        <time>2023-07-13T11:48:48Z</time>
      </trkpt>
      <trkpt lat="36.69183948773207" lon="117.21981646566147">
        <ele>78.1</ele>
        <time>2023-07-13T11:48:49Z</time>
      </trkpt>
      <trkpt lat="36.69186369304315" lon="117.21981505198934">
        <ele>78.1</ele>
        <time>2023-07-13T11:48:50Z</time>
      </trkpt>
      <trkpt lat="36.69188827246527" lon="117.21981487968254">
        <ele>78.1</ele>
        <time>2023-07-13T11:48:51Z</time>
      </trkpt>
      <trkpt lat="36.69191280234373" lon="117.21981581913984">
        <ele>78.1</ele>
        <time>2023-07-13T11:48:52Z</time>
      </trkpt>
      <trkpt lat="36.69193762332171" lon="117.21981784431173">
        <ele>78.1</ele>
        <time>2023-07-13T11:48:53Z</time>
      </trkpt>
      <trkpt lat="36.69196260700568" lon="117.21982112493626">
        <ele>78.1</ele>
        <time>2023-07-13T11:48:54Z</time>
      </trkpt>
      <trkpt lat="36.69198734575445" lon="117.21982492656626">
        <ele>78.1</ele>
        <time>2023-07-13T11:48:55Z</time>
      </trkpt>
      <trkpt lat="36.69201228537182" lon="117.21982840062593">
        <ele>78.2</ele>
        <time>2023-07-13T11:48:56Z</time>
      </trkpt>
      <trkpt lat="36.69203735836061" lon="117.21983156305107">
        <ele>78.2</ele>
        <time>2023-07-13T11:48:57Z</time>
      </trkpt>
      <trkpt lat="36.692062584189514" lon="117.2198343955502">
        <ele>78.2</ele>
        <time>2023-07-13T11:48:58Z</time>
      </trkpt>
      <trkpt lat="36.692087885802785" lon="117.21983689615527">
        <ele>78.2</ele>
        <time>2023-07-13T11:48:59Z</time>
      </trkpt>
      <trkpt lat="36.69211292338928" lon="117.21983877161053">
        <ele>78.2</ele>
        <time>2023-07-13T11:49:00Z</time>
      </trkpt>
      <trkpt lat="36.692138081395605" lon="117.219840451244">
        <ele>78.2</ele>
        <time>2023-07-13T11:49:01Z</time>
      </trkpt>
      <trkpt lat="36.69216297588233" lon="117.21984199280665">
        <ele>78.2</ele>
        <time>2023-07-13T11:49:02Z</time>
      </trkpt>
      <trkpt lat="36.69218803234635" lon="117.21984336820441">
        <ele>78.2</ele>
        <time>2023-07-13T11:49:03Z</time>
      </trkpt>
      <trkpt lat="36.69221291013538" lon="117.21984462184587">
        <ele>78.2</ele>
        <time>2023-07-13T11:49:04Z</time>
      </trkpt>
      <trkpt lat="36.69223769705814" lon="117.21984562907052">
        <ele>78.2</ele>
        <time>2023-07-13T11:49:05Z</time>
      </trkpt>
      <trkpt lat="36.692262773675466" lon="117.21984656966069">
        <ele>77.9</ele>
        <time>2023-07-13T11:49:06Z</time>
      </trkpt>
      <trkpt lat="36.69228771227379" lon="117.21984807565676">
        <ele>77.9</ele>
        <time>2023-07-13T11:49:07Z</time>
      </trkpt>
      <trkpt lat="36.69231276821056" lon="117.2198500837139">
        <ele>77.9</ele>
        <time>2023-07-13T11:49:08Z</time>
      </trkpt>
      <trkpt lat="36.69233758352436" lon="117.21985270805214">
        <ele>77.9</ele>
        <time>2023-07-13T11:49:09Z</time>
      </trkpt>
      <trkpt lat="36.692362580275166" lon="117.21985585972821">
        <ele>77.9</ele>
        <time>2023-07-13T11:49:10Z</time>
      </trkpt>
      <trkpt lat="36.69238765128184" lon="117.21985938922704">
        <ele>77.9</ele>
        <time>2023-07-13T11:49:11Z</time>
      </trkpt>
      <trkpt lat="36.69241240349806" lon="117.21986341306794">
        <ele>77.9</ele>
        <time>2023-07-13T11:49:12Z</time>
      </trkpt>
      <trkpt lat="36.69243734785088" lon="117.21986735734372">
        <ele>77.9</ele>
        <time>2023-07-13T11:49:13Z</time>
      </trkpt>
      <trkpt lat="36.69246201075631" lon="117.21987129538996">
        <ele>77.9</ele>
        <time>2023-07-13T11:49:14Z</time>
      </trkpt>
      <trkpt lat="36.69248676458334" lon="117.21987528594359">
        <ele>77.9</ele>
        <time>2023-07-13T11:49:15Z</time>
      </trkpt>
      <trkpt lat="36.69251162516983" lon="117.21987934231292">
        <ele>76.8</ele>
        <time>2023-07-13T11:49:16Z</time>
      </trkpt>
      <trkpt lat="36.69253619900873" lon="117.2198833637395">
        <ele>76.8</ele>
        <time>2023-07-13T11:49:17Z</time>
      </trkpt>
      <trkpt lat="36.692560869501364" lon="117.21988756356598">
        <ele>76.8</ele>
        <time>2023-07-13T11:49:18Z</time>
      </trkpt>
      <trkpt lat="36.69258535181996" lon="117.21989196793226">
        <ele>76.8</ele>
        <time>2023-07-13T11:49:19Z</time>
      </trkpt>
      <trkpt lat="36.692609986887724" lon="117.21989638463516">
        <ele>76.8</ele>
        <time>2023-07-13T11:49:20Z</time>
      </trkpt>
      <trkpt lat="36.69263440075656" lon="117.219900770528">
        <ele>76.8</ele>
        <time>2023-07-13T11:49:21Z</time>
      </trkpt>
      <trkpt lat="36.69265902861006" lon="117.21990516330521">
        <ele>76.8</ele>
        <time>2023-07-13T11:49:22Z</time>
      </trkpt>
      <trkpt lat="36.692683787465135" lon="117.21990945411797">
        <ele>76.8</ele>
        <time>2023-07-13T11:49:23Z</time>
      </trkpt>
      <trkpt lat="36.69270830341151" lon="117.21991378845735">
        <ele>76.8</ele>
        <time>2023-07-13T11:49:24Z</time>
      </trkpt>
      <trkpt lat="36.69273302386598" lon="117.21991804787541">
        <ele>76.8</ele>
        <time>2023-07-13T11:49:25Z</time>
      </trkpt>
      <trkpt lat="36.69275747501919" lon="117.21992227516456">
        <ele>76.7</ele>
        <time>2023-07-13T11:49:26Z</time>
      </trkpt>
      <trkpt lat="36.69278201556075" lon="117.21992653733975">
        <ele>76.7</ele>
        <time>2023-07-13T11:49:27Z</time>
      </trkpt>
      <trkpt lat="36.69280667701436" lon="117.21993056829528">
        <ele>76.7</ele>
        <time>2023-07-13T11:49:28Z</time>
      </trkpt>
      <trkpt lat="36.69283106785866" lon="117.21993423197195">
        <ele>76.7</ele>
        <time>2023-07-13T11:49:29Z</time>
      </trkpt>
      <trkpt lat="36.69285561090195" lon="117.21993744101165">
        <ele>76.7</ele>
        <time>2023-07-13T11:49:30Z</time>
      </trkpt>
      <trkpt lat="36.69288002601688" lon="117.21994030510851">
        <ele>76.7</ele>
        <time>2023-07-13T11:49:31Z</time>
      </trkpt>
      <trkpt lat="36.69290463434665" lon="117.2199430407423">
        <ele>76.7</ele>
        <time>2023-07-13T11:49:32Z</time>
      </trkpt>
      <trkpt lat="36.69292910738309" lon="117.21994563504028">
        <ele>76.7</ele>
        <time>2023-07-13T11:49:33Z</time>
      </trkpt>
      <trkpt lat="36.69295358297872" lon="117.21994793569499">
        <ele>76.7</ele>
        <time>2023-07-13T11:49:34Z</time>
      </trkpt>
      <trkpt lat="36.69297831718868" lon="117.21995011201956">
        <ele>76.7</ele>
        <time>2023-07-13T11:49:35Z</time>
      </trkpt>
      <trkpt lat="36.693002962774905" lon="117.21995218935331">
        <ele>76.9</ele>
        <time>2023-07-13T11:49:36Z</time>
      </trkpt>
      <trkpt lat="36.69302798960869" lon="117.21995405951878">
        <ele>76.9</ele>
        <time>2023-07-13T11:49:37Z</time>
      </trkpt>
      <trkpt lat="36.6930529165239" lon="117.21995571773137">
        <ele>76.9</ele>
        <time>2023-07-13T11:49:38Z</time>
      </trkpt>
      <trkpt lat="36.69307806369151" lon="117.21995749466532">
        <ele>76.9</ele>
        <time>2023-07-13T11:49:39Z</time>
      </trkpt>
      <trkpt lat="36.69310342018157" lon="117.21995944165536">
        <ele>76.9</ele>
        <time>2023-07-13T11:49:40Z</time>
      </trkpt>
      <trkpt lat="36.69312855998348" lon="117.2199615679198">
        <ele>76.9</ele>
        <time>2023-07-13T11:49:41Z</time>
      </trkpt>
      <trkpt lat="36.69315379066486" lon="117.21996392944116">
        <ele>76.9</ele>
        <time>2023-07-13T11:49:42Z</time>
      </trkpt>
      <trkpt lat="36.693178827533934" lon="117.21996633370725">
        <ele>76.9</ele>
        <time>2023-07-13T11:49:43Z</time>
      </trkpt>
      <trkpt lat="36.69320365215338" lon="117.219968840975">
        <ele>76.9</ele>
        <time>2023-07-13T11:49:44Z</time>
      </trkpt>
      <trkpt lat="36.693228585600934" lon="117.21997153386512">
        <ele>76.9</ele>
        <time>2023-07-13T11:49:45Z</time>
      </trkpt>
      <trkpt lat="36.693253298937826" lon="117.21997453570548">
        <ele>75.9</ele>
        <time>2023-07-13T11:49:46Z</time>
      </trkpt>
      <trkpt lat="36.69327813281175" lon="117.21997779689866">
        <ele>75.9</ele>
        <time>2023-07-13T11:49:47Z</time>
      </trkpt>
      <trkpt lat="36.693302736848075" lon="117.21998128346534">
        <ele>75.9</ele>
        <time>2023-07-13T11:49:48Z</time>
      </trkpt>
      <trkpt lat="36.69332723947542" lon="117.2199848805361">
        <ele>75.9</ele>
        <time>2023-07-13T11:49:49Z</time>
      </trkpt>
      <trkpt lat="36.69335163546495" lon="117.21998855541686">
        <ele>75.9</ele>
        <time>2023-07-13T11:49:50Z</time>
      </trkpt>
      <trkpt lat="36.69337595505338" lon="117.21999236897648">
        <ele>75.9</ele>
        <time>2023-07-13T11:49:51Z</time>
      </trkpt>
      <trkpt lat="36.693400582607694" lon="117.2199963269038">
        <ele>75.9</ele>
        <time>2023-07-13T11:49:52Z</time>
      </trkpt>
      <trkpt lat="36.69342507114084" lon="117.22000038139612">
        <ele>75.9</ele>
        <time>2023-07-13T11:49:53Z</time>
      </trkpt>
      <trkpt lat="36.69344978328427" lon="117.22000464085049">
        <ele>75.9</ele>
        <time>2023-07-13T11:49:54Z</time>
      </trkpt>
      <trkpt lat="36.69347473967394" lon="117.22000891002887">
        <ele>75.9</ele>
        <time>2023-07-13T11:49:55Z</time>
      </trkpt>
      <trkpt lat="36.69349951404602" lon="117.22001316387023">
        <ele>75.7</ele>
        <time>2023-07-13T11:49:56Z</time>
      </trkpt>
      <trkpt lat="36.693524196432335" lon="117.22001740306352">
        <ele>75.7</ele>
        <time>2023-07-13T11:49:57Z</time>
      </trkpt>
      <trkpt lat="36.6935484796817" lon="117.22002214514532">
        <ele>75.7</ele>
        <time>2023-07-13T11:49:58Z</time>
      </trkpt>
      <trkpt lat="36.69357233157316" lon="117.22002739522625">
        <ele>75.7</ele>
        <time>2023-07-13T11:49:59Z</time>
      </trkpt>
      <trkpt lat="36.693595813127786" lon="117.22003310115012">
        <ele>75.7</ele>
        <time>2023-07-13T11:50:00Z</time>
      </trkpt>
      <trkpt lat="36.69361876034893" lon="117.22003919397477">
        <ele>75.7</ele>
        <time>2023-07-13T11:50:01Z</time>
      </trkpt>
      <trkpt lat="36.69364150087794" lon="117.2200457209646">
        <ele>75.7</ele>
        <time>2023-07-13T11:50:02Z</time>
      </trkpt>
      <trkpt lat="36.69366377631929" lon="117.22005256898179">
        <ele>75.7</ele>
        <time>2023-07-13T11:50:03Z</time>
      </trkpt>
      <trkpt lat="36.69368610402658" lon="117.22005975004424">
        <ele>75.7</ele>
        <time>2023-07-13T11:50:04Z</time>
      </trkpt>
      <trkpt lat="36.69370806522555" lon="117.22006738411814">
        <ele>75.7</ele>
        <time>2023-07-13T11:50:05Z</time>
      </trkpt>
      <trkpt lat="36.69372974972002" lon="117.22007561326345">
        <ele>75.3</ele>
        <time>2023-07-13T11:50:06Z</time>
      </trkpt>
      <trkpt lat="36.693751284374954" lon="117.22008438568909">
        <ele>75.3</ele>
        <time>2023-07-13T11:50:07Z</time>
      </trkpt>
      <trkpt lat="36.69377268658982" lon="117.22009341674078">
        <ele>75.3</ele>
        <time>2023-07-13T11:50:08Z</time>
      </trkpt>
      <trkpt lat="36.69379430240332" lon="117.22010232566537">
        <ele>75.3</ele>
        <time>2023-07-13T11:50:09Z</time>
      </trkpt>
      <trkpt lat="36.69381619127292" lon="117.22011112289802">
        <ele>75.3</ele>
        <time>2023-07-13T11:50:10Z</time>
      </trkpt>
      <trkpt lat="36.69383854593575" lon="117.22011999357895">
        <ele>75.3</ele>
        <time>2023-07-13T11:50:11Z</time>
      </trkpt>
      <trkpt lat="36.69386124270655" lon="117.22012875027646">
        <ele>75.3</ele>
        <time>2023-07-13T11:50:12Z</time>
      </trkpt>
      <trkpt lat="36.693883932894735" lon="117.2201374365414">
        <ele>75.3</ele>
        <time>2023-07-13T11:50:13Z</time>
      </trkpt>
      <trkpt lat="36.69390682281431" lon="117.22014622612075">
        <ele>75.3</ele>
        <time>2023-07-13T11:50:14Z</time>
      </trkpt>
      <trkpt lat="36.69392957829378" lon="117.22015485495483">
        <ele>75.3</ele>
        <time>2023-07-13T11:50:15Z</time>
      </trkpt>
      <trkpt lat="36.69395225082356" lon="117.22016327016684">
        <ele>75.3</ele>
        <time>2023-07-13T11:50:16Z</time>
      </trkpt>
      <trkpt lat="36.69397508051375" lon="117.220171473959">
        <ele>75.3</ele>
        <time>2023-07-13T11:50:17Z</time>
      </trkpt>
      <trkpt lat="36.69399794205132" lon="117.22017973410365">
        <ele>75.3</ele>
        <time>2023-07-13T11:50:18Z</time>
      </trkpt>
      <trkpt lat="36.69402111748514" lon="117.22018832682427">
        <ele>75.3</ele>
        <time>2023-07-13T11:50:19Z</time>
      </trkpt>
      <trkpt lat="36.69404421750434" lon="117.22019684627061">
        <ele>75.3</ele>
        <time>2023-07-13T11:50:20Z</time>
      </trkpt>
      <trkpt lat="36.69406719280432" lon="117.22020534043838">
        <ele>75.3</ele>
        <time>2023-07-13T11:50:21Z</time>
      </trkpt>
      <trkpt lat="36.6940897653634" lon="117.22021379173613">
        <ele>75.3</ele>
        <time>2023-07-13T11:50:22Z</time>
      </trkpt>
      <trkpt lat="36.694111909301675" lon="117.22022231692938">
        <ele>75.3</ele>
        <time>2023-07-13T11:50:23Z</time>
      </trkpt>
      <trkpt lat="36.69413399380552" lon="117.22023100846734">
        <ele>75.3</ele>
        <time>2023-07-13T11:50:24Z</time>
      </trkpt>
      <trkpt lat="36.694155683483444" lon="117.22023983520344">
        <ele>75.3</ele>
        <time>2023-07-13T11:50:25Z</time>
      </trkpt>
      <trkpt lat="36.69417697162891" lon="117.2202488116416">
        <ele>75.2</ele>
        <time>2023-07-13T11:50:26Z</time>
      </trkpt>
      <trkpt lat="36.69419823440489" lon="117.22025786499815">
        <ele>75.2</ele>
        <time>2023-07-13T11:50:27Z</time>
      </trkpt>
      <trkpt lat="36.694219208069434" lon="117.22026679707879">
        <ele>75.2</ele>
        <time>2023-07-13T11:50:28Z</time>
      </trkpt>
      <trkpt lat="36.69424021940385" lon="117.22027569758879">
        <ele>75.2</ele>
        <time>2023-07-13T11:50:29Z</time>
      </trkpt>
      <trkpt lat="36.69426089283633" lon="117.22028451481754">
        <ele>75.2</ele>
        <time>2023-07-13T11:50:30Z</time>
      </trkpt>
      <trkpt lat="36.69428129381256" lon="117.22029345452752">
        <ele>75.2</ele>
        <time>2023-07-13T11:50:31Z</time>
      </trkpt>
      <trkpt lat="36.69430179025905" lon="117.2203025910535">
        <ele>75.2</ele>
        <time>2023-07-13T11:50:32Z</time>
      </trkpt>
      <trkpt lat="36.694322483997276" lon="117.2203116248569">
        <ele>75.2</ele>
        <time>2023-07-13T11:50:33Z</time>
      </trkpt>
      <trkpt lat="36.69434368242683" lon="117.22032082605655">
        <ele>75.2</ele>
        <time>2023-07-13T11:50:34Z</time>
      </trkpt>
      <trkpt lat="36.69436495616506" lon="117.22032992388289">
        <ele>75.2</ele>
        <time>2023-07-13T11:50:35Z</time>
      </trkpt>
      <trkpt lat="36.69438636187506" lon="117.22033900857463">
        <ele>75.5</ele>
        <time>2023-07-13T11:50:36Z</time>
      </trkpt>
      <trkpt lat="36.69440819814025" lon="117.22034834217322">
        <ele>75.5</ele>
        <time>2023-07-13T11:50:37Z</time>
      </trkpt>
      <trkpt lat="36.69442997650333" lon="117.22035791947953">
        <ele>75.5</ele>
        <time>2023-07-13T11:50:38Z</time>
      </trkpt>
      <trkpt lat="36.694451987679926" lon="117.22036796836439">
        <ele>75.5</ele>
        <time>2023-07-13T11:50:39Z</time>
      </trkpt>
      <trkpt lat="36.69447394216211" lon="117.22037812999814">
        <ele>75.5</ele>
        <time>2023-07-13T11:50:40Z</time>
      </trkpt>
      <trkpt lat="36.69449612010881" lon="117.22038841897704">
        <ele>75.5</ele>
        <time>2023-07-13T11:50:41Z</time>
      </trkpt>
      <trkpt lat="36.694518388002464" lon="117.22039890784696">
        <ele>75.5</ele>
        <time>2023-07-13T11:50:42Z</time>
      </trkpt>
      <trkpt lat="36.69454041830417" lon="117.22040934569027">
        <ele>75.5</ele>
        <time>2023-07-13T11:50:43Z</time>
      </trkpt>
      <trkpt lat="36.69456242541461" lon="117.22042002556677">
        <ele>75.5</ele>
        <time>2023-07-13T11:50:44Z</time>
      </trkpt>
      <trkpt lat="36.69458413008757" lon="117.22043059872978">
        <ele>75.5</ele>
        <time>2023-07-13T11:50:45Z</time>
      </trkpt>
      <trkpt lat="36.69460594922765" lon="117.22044129459981">
        <ele>76</ele>
        <time>2023-07-13T11:50:46Z</time>
      </trkpt>
      <trkpt lat="36.69462782554008" lon="117.22045186334444">
        <ele>76</ele>
        <time>2023-07-13T11:50:47Z</time>
      </trkpt>
      <trkpt lat="36.694649446512294" lon="117.22046234452162">
        <ele>76</ele>
        <time>2023-07-13T11:50:48Z</time>
      </trkpt>
      <trkpt lat="36.69467131229752" lon="117.22047271442362">
        <ele>76</ele>
        <time>2023-07-13T11:50:49Z</time>
      </trkpt>
      <trkpt lat="36.69469299341708" lon="117.22048305967895">
        <ele>76</ele>
        <time>2023-07-13T11:50:50Z</time>
      </trkpt>
      <trkpt lat="36.69471458352093" lon="117.2204933632438">
        <ele>76</ele>
        <time>2023-07-13T11:50:51Z</time>
      </trkpt>
      <trkpt lat="36.6947361727369" lon="117.22050385873636">
        <ele>76</ele>
        <time>2023-07-13T11:50:52Z</time>
      </trkpt>
      <trkpt lat="36.69475808831407" lon="117.22051457195555">
        <ele>76</ele>
        <time>2023-07-13T11:50:53Z</time>
      </trkpt>
      <trkpt lat="36.69478030296137" lon="117.22052542250219">
        <ele>76</ele>
        <time>2023-07-13T11:50:54Z</time>
      </trkpt>
      <trkpt lat="36.69480255334545" lon="117.220536163112">
        <ele>76</ele>
        <time>2023-07-13T11:50:55Z</time>
      </trkpt>
      <trkpt lat="36.69482503048134" lon="117.22054721365927">
        <ele>75.1</ele>
        <time>2023-07-13T11:50:56Z</time>
      </trkpt>
      <trkpt lat="36.69484735777007" lon="117.22055833570005">
        <ele>75.1</ele>
        <time>2023-07-13T11:50:57Z</time>
      </trkpt>
      <trkpt lat="36.69486995068667" lon="117.22056941998699">
        <ele>75.1</ele>
        <time>2023-07-13T11:50:58Z</time>
      </trkpt>
      <trkpt lat="36.69489266902537" lon="117.22058045688388">
        <ele>75.1</ele>
        <time>2023-07-13T11:50:59Z</time>
      </trkpt>
      <trkpt lat="36.6949151940463" lon="117.22059141921899">
        <ele>75.1</ele>
        <time>2023-07-13T11:51:00Z</time>
      </trkpt>
      <trkpt lat="36.69493800121724" lon="117.22060234246356">
        <ele>75.1</ele>
        <time>2023-07-13T11:51:01Z</time>
      </trkpt>
      <trkpt lat="36.694961001552386" lon="117.2206132863295">
        <ele>75.1</ele>
        <time>2023-07-13T11:51:02Z</time>
      </trkpt>
      <trkpt lat="36.69498391305473" lon="117.220624061469">
        <ele>75.1</ele>
        <time>2023-07-13T11:51:03Z</time>
      </trkpt>
      <trkpt lat="36.695006766340576" lon="117.22063521429597">
        <ele>75.1</ele>
        <time>2023-07-13T11:51:04Z</time>
      </trkpt>
      <trkpt lat="36.695029505036196" lon="117.22064700042633">
        <ele>75.1</ele>
        <time>2023-07-13T11:51:05Z</time>
      </trkpt>
      <trkpt lat="36.69505241070538" lon="117.22065962808584">
        <ele>75.7</ele>
        <time>2023-07-13T11:51:06Z</time>
      </trkpt>
      <trkpt lat="36.695075238299154" lon="117.2206728728859">
        <ele>75.7</ele>
        <time>2023-07-13T11:51:07Z</time>
      </trkpt>
      <trkpt lat="36.69509821709731" lon="117.22068703024895">
        <ele>75.7</ele>
        <time>2023-07-13T11:51:08Z</time>
      </trkpt>
      <trkpt lat="36.695121026978995" lon="117.22070214921345">
        <ele>75.7</ele>
        <time>2023-07-13T11:51:09Z</time>
      </trkpt>
      <trkpt lat="36.69514374901553" lon="117.22071817001833">
        <ele>75.7</ele>
        <time>2023-07-13T11:51:10Z</time>
      </trkpt>
      <trkpt lat="36.69516657856233" lon="117.22073517139877">
        <ele>75.7</ele>
        <time>2023-07-13T11:51:11Z</time>
      </trkpt>
      <trkpt lat="36.69518914076864" lon="117.2207529221358">
        <ele>75.7</ele>
        <time>2023-07-13T11:51:12Z</time>
      </trkpt>
      <trkpt lat="36.69521174119898" lon="117.22077164697426">
        <ele>75.7</ele>
        <time>2023-07-13T11:51:13Z</time>
      </trkpt>
      <trkpt lat="36.695234317156036" lon="117.22079100156247">
        <ele>75.7</ele>
        <time>2023-07-13T11:51:14Z</time>
      </trkpt>
      <trkpt lat="36.69525653738099" lon="117.22081038721483">
        <ele>75.7</ele>
        <time>2023-07-13T11:51:15Z</time>
      </trkpt>
      <trkpt lat="36.69527879367649" lon="117.22082989480758">
        <ele>75.4</ele>
        <time>2023-07-13T11:51:16Z</time>
      </trkpt>
      <trkpt lat="36.69530092689371" lon="117.22084887633721">
        <ele>75.4</ele>
        <time>2023-07-13T11:51:17Z</time>
      </trkpt>
      <trkpt lat="36.69532306815571" lon="117.2208669494339">
        <ele>75.4</ele>
        <time>2023-07-13T11:51:18Z</time>
      </trkpt>
      <trkpt lat="36.695345460137055" lon="117.22088363498739">
        <ele>75.4</ele>
        <time>2023-07-13T11:51:19Z</time>
      </trkpt>
      <trkpt lat="36.695368066071865" lon="117.22089912655744">
        <ele>75.4</ele>
        <time>2023-07-13T11:51:20Z</time>
      </trkpt>
      <trkpt lat="36.69539087995347" lon="117.22091374174863">
        <ele>75.4</ele>
        <time>2023-07-13T11:51:21Z</time>
      </trkpt>
      <trkpt lat="36.695413669731884" lon="117.22092750347583">
        <ele>75.4</ele>
        <time>2023-07-13T11:51:22Z</time>
      </trkpt>
      <trkpt lat="36.695436784120425" lon="117.22094069485716">
        <ele>75.4</ele>
        <time>2023-07-13T11:51:23Z</time>
      </trkpt>
      <trkpt lat="36.69545994768377" lon="117.22095317385742">
        <ele>75.4</ele>
        <time>2023-07-13T11:51:24Z</time>
      </trkpt>
      <trkpt lat="36.69548314384097" lon="117.22096529195844">
        <ele>75.4</ele>
        <time>2023-07-13T11:51:25Z</time>
      </trkpt>
      <trkpt lat="36.69550671279386" lon="117.22097727187409">
        <ele>75.9</ele>
        <time>2023-07-13T11:51:26Z</time>
      </trkpt>
      <trkpt lat="36.69553030248417" lon="117.22098899693043">
        <ele>75.9</ele>
        <time>2023-07-13T11:51:27Z</time>
      </trkpt>
      <trkpt lat="36.695553733001866" lon="117.22100107498832">
        <ele>75.9</ele>
        <time>2023-07-13T11:51:28Z</time>
      </trkpt>
      <trkpt lat="36.69557711539729" lon="117.22101407182116">
        <ele>75.9</ele>
        <time>2023-07-13T11:51:29Z</time>
      </trkpt>
      <trkpt lat="36.69560002137131" lon="117.22102805914655">
        <ele>75.9</ele>
        <time>2023-07-13T11:51:30Z</time>
      </trkpt>
      <trkpt lat="36.695622499229266" lon="117.22104283279343">
        <ele>75.9</ele>
        <time>2023-07-13T11:51:31Z</time>
      </trkpt>
      <trkpt lat="36.69564486854117" lon="117.22105809954519">
        <ele>75.9</ele>
        <time>2023-07-13T11:51:32Z</time>
      </trkpt>
      <trkpt lat="36.69566712484206" lon="117.22107351362938">
        <ele>75.9</ele>
        <time>2023-07-13T11:51:33Z</time>
      </trkpt>
      <trkpt lat="36.69568926960937" lon="117.22108759952931">
        <ele>75.9</ele>
        <time>2023-07-13T11:51:34Z</time>
      </trkpt>
      <trkpt lat="36.69571035715793" lon="117.22109842932737">
        <ele>75.9</ele>
        <time>2023-07-13T11:51:35Z</time>
      </trkpt>
      <trkpt lat="36.69573014775813" lon="117.22110588305588">
        <ele>75.9</ele>
        <time>2023-07-13T11:51:36Z</time>
      </trkpt>
      <trkpt lat="36.69574793815964" lon="117.22110932255889">
        <ele>75.9</ele>
        <time>2023-07-13T11:51:37Z</time>
      </trkpt>
      <trkpt lat="36.69576435660277" lon="117.22110924849869">
        <ele>75.9</ele>
        <time>2023-07-13T11:51:38Z</time>
      </trkpt>
      <trkpt lat="36.695779591417775" lon="117.22110518287256">
        <ele>75.9</ele>
        <time>2023-07-13T11:51:39Z</time>
      </trkpt>
      <trkpt lat="36.69579308112244" lon="117.22109701250467">
        <ele>75.9</ele>
        <time>2023-07-13T11:51:40Z</time>
      </trkpt>
      <trkpt lat="36.69580483697571" lon="117.22108505871728">
        <ele>75.9</ele>
        <time>2023-07-13T11:51:41Z</time>
      </trkpt>
      <trkpt lat="36.69581491672615" lon="117.22106910543097">
        <ele>75.9</ele>
        <time>2023-07-13T11:51:42Z</time>
      </trkpt>
      <trkpt lat="36.69582316455144" lon="117.22104928489657">
        <ele>75.9</ele>
        <time>2023-07-13T11:51:43Z</time>
      </trkpt>
      <trkpt lat="36.69582970748409" lon="117.22102563516634">
        <ele>75.9</ele>
        <time>2023-07-13T11:51:44Z</time>
      </trkpt>
      <trkpt lat="36.695834266186274" lon="117.22099957330889">
        <ele>75.9</ele>
        <time>2023-07-13T11:51:45Z</time>
      </trkpt>
      <trkpt lat="36.69583804590121" lon="117.22097316256158">
        <ele>75.9</ele>
        <time>2023-07-13T11:51:46Z</time>
      </trkpt>
      <trkpt lat="36.69584151982901" lon="117.22094628572016">
        <ele>75.9</ele>
        <time>2023-07-13T11:51:47Z</time>
      </trkpt>
      <trkpt lat="36.69584517607243" lon="117.22091951569752">
        <ele>75.9</ele>
        <time>2023-07-13T11:51:48Z</time>
      </trkpt>
      <trkpt lat="36.695848429371026" lon="117.22089251045209">
        <ele>75.9</ele>
        <time>2023-07-13T11:51:49Z</time>
      </trkpt>
      <trkpt lat="36.69585110348844" lon="117.22086544348875">
        <ele>75.9</ele>
        <time>2023-07-13T11:51:50Z</time>
      </trkpt>
      <trkpt lat="36.69585362308694" lon="117.22083836098946">
        <ele>75.9</ele>
        <time>2023-07-13T11:51:51Z</time>
      </trkpt>
      <trkpt lat="36.6958560962235" lon="117.2208108546471">
        <ele>75.9</ele>
        <time>2023-07-13T11:51:52Z</time>
      </trkpt>
      <trkpt lat="36.695858536220555" lon="117.22078350663439">
        <ele>75.9</ele>
        <time>2023-07-13T11:51:53Z</time>
      </trkpt>
      <trkpt lat="36.69586093277398" lon="117.22075577506509">
        <ele>75.9</ele>
        <time>2023-07-13T11:51:54Z</time>
      </trkpt>
      <trkpt lat="36.69586328282223" lon="117.220728049">
        <ele>75.9</ele>
        <time>2023-07-13T11:51:55Z</time>
      </trkpt>
      <trkpt lat="36.6958656274496" lon="117.22070035884256">
        <ele>75.9</ele>
        <time>2023-07-13T11:51:56Z</time>
      </trkpt>
      <trkpt lat="36.69586783181183" lon="117.22067214154309">
        <ele>75.9</ele>
        <time>2023-07-13T11:51:57Z</time>
      </trkpt>
      <trkpt lat="36.69586981892203" lon="117.22064376229109">
        <ele>75.9</ele>
        <time>2023-07-13T11:51:58Z</time>
      </trkpt>
      <trkpt lat="36.69587166738251" lon="117.22061488597015">
        <ele>75.9</ele>
        <time>2023-07-13T11:51:59Z</time>
      </trkpt>
      <trkpt lat="36.6958734499095" lon="117.22058557919989">
        <ele>75.9</ele>
        <time>2023-07-13T11:52:00Z</time>
      </trkpt>
      <trkpt lat="36.69587531992681" lon="117.22055624465163">
        <ele>75.9</ele>
        <time>2023-07-13T11:52:01Z</time>
      </trkpt>
      <trkpt lat="36.695877289181716" lon="117.2205265287896">
        <ele>75.9</ele>
        <time>2023-07-13T11:52:02Z</time>
      </trkpt>
      <trkpt lat="36.69587929968794" lon="117.22049684049001">
        <ele>75.9</ele>
        <time>2023-07-13T11:52:03Z</time>
      </trkpt>
      <trkpt lat="36.69588133802719" lon="117.2204667290304">
        <ele>75.9</ele>
        <time>2023-07-13T11:52:04Z</time>
      </trkpt>
      <trkpt lat="36.695883341755675" lon="117.22043674637587">
        <ele>75.9</ele>
        <time>2023-07-13T11:52:05Z</time>
      </trkpt>
      <trkpt lat="36.69588528200447" lon="117.22040682917122">
        <ele>75.9</ele>
        <time>2023-07-13T11:52:06Z</time>
      </trkpt>
      <trkpt lat="36.69588712457941" lon="117.2203765605683">
        <ele>75.9</ele>
        <time>2023-07-13T11:52:07Z</time>
      </trkpt>
      <trkpt lat="36.69588885160644" lon="117.22034658113874">
        <ele>75.9</ele>
        <time>2023-07-13T11:52:08Z</time>
      </trkpt>
      <trkpt lat="36.69589042460688" lon="117.22031682190601">
        <ele>75.9</ele>
        <time>2023-07-13T11:52:09Z</time>
      </trkpt>
      <trkpt lat="36.69589184550389" lon="117.2202875548326">
        <ele>75.9</ele>
        <time>2023-07-13T11:52:10Z</time>
      </trkpt>
      <trkpt lat="36.695893166574926" lon="117.22025833300185">
        <ele>75.9</ele>
        <time>2023-07-13T11:52:11Z</time>
      </trkpt>
      <trkpt lat="36.69589435453035" lon="117.22022916264991">
        <ele>75.9</ele>
        <time>2023-07-13T11:52:12Z</time>
      </trkpt>
      <trkpt lat="36.695895478756924" lon="117.22020034760631">
        <ele>75.9</ele>
        <time>2023-07-13T11:52:13Z</time>
      </trkpt>
      <trkpt lat="36.69589664723528" lon="117.22017145748445">
        <ele>75.9</ele>
        <time>2023-07-13T11:52:14Z</time>
      </trkpt>
      <trkpt lat="36.695897830381" lon="117.22014293404379">
        <ele>75.9</ele>
        <time>2023-07-13T11:52:15Z</time>
      </trkpt>
      <trkpt lat="36.69589908650168" lon="117.22011428463462">
        <ele>75.9</ele>
        <time>2023-07-13T11:52:16Z</time>
      </trkpt>
      <trkpt lat="36.695900408725976" lon="117.22008562235791">
        <ele>75.9</ele>
        <time>2023-07-13T11:52:17Z</time>
      </trkpt>
      <trkpt lat="36.69590183289436" lon="117.22005736323811">
        <ele>75.9</ele>
        <time>2023-07-13T11:52:18Z</time>
      </trkpt>
      <trkpt lat="36.69590338546209" lon="117.22002895733769">
        <ele>75.9</ele>
        <time>2023-07-13T11:52:19Z</time>
      </trkpt>
      <trkpt lat="36.6959050617452" lon="117.22000051462147">
        <ele>75.9</ele>
        <time>2023-07-13T11:52:20Z</time>
      </trkpt>
      <trkpt lat="36.69590683435815" lon="117.21997202014136">
        <ele>75.9</ele>
        <time>2023-07-13T11:52:21Z</time>
      </trkpt>
      <trkpt lat="36.69590869474422" lon="117.21994342014293">
        <ele>75.9</ele>
        <time>2023-07-13T11:52:22Z</time>
      </trkpt>
      <trkpt lat="36.69591058569893" lon="117.2199148068189">
        <ele>75.9</ele>
        <time>2023-07-13T11:52:23Z</time>
      </trkpt>
      <trkpt lat="36.69591244343994" lon="117.21988626216792">
        <ele>75.9</ele>
        <time>2023-07-13T11:52:24Z</time>
      </trkpt>
      <trkpt lat="36.695914179795096" lon="117.21985815289665">
        <ele>75.9</ele>
        <time>2023-07-13T11:52:25Z</time>
      </trkpt>
      <trkpt lat="36.6959158358037" lon="117.21983005081869">
        <ele>75.9</ele>
        <time>2023-07-13T11:52:26Z</time>
      </trkpt>
      <trkpt lat="36.69591732764344" lon="117.21980234517544">
        <ele>75.9</ele>
        <time>2023-07-13T11:52:27Z</time>
      </trkpt>
      <trkpt lat="36.695918671800946" lon="117.21977447420976">
        <ele>75.9</ele>
        <time>2023-07-13T11:52:28Z</time>
      </trkpt>
      <trkpt lat="36.69591988943384" lon="117.21974644544969">
        <ele>75.9</ele>
        <time>2023-07-13T11:52:29Z</time>
      </trkpt>
      <trkpt lat="36.69592097887702" lon="117.21971863533822">
        <ele>75.9</ele>
        <time>2023-07-13T11:52:30Z</time>
      </trkpt>
      <trkpt lat="36.69592201100671" lon="117.21969053349804">
        <ele>75.9</ele>
        <time>2023-07-13T11:52:31Z</time>
      </trkpt>
      <trkpt lat="36.69592298131817" lon="117.21966228341732">
        <ele>75.9</ele>
        <time>2023-07-13T11:52:32Z</time>
      </trkpt>
      <trkpt lat="36.69592392792925" lon="117.21963428098289">
        <ele>75.9</ele>
        <time>2023-07-13T11:52:33Z</time>
      </trkpt>
      <trkpt lat="36.6959249368698" lon="117.21960598778738">
        <ele>75.9</ele>
        <time>2023-07-13T11:52:34Z</time>
      </trkpt>
      <trkpt lat="36.69592599647707" lon="117.21957744248044">
        <ele>75.9</ele>
        <time>2023-07-13T11:52:35Z</time>
      </trkpt>
      <trkpt lat="36.695927169308" lon="117.21954824403822">
        <ele>75.9</ele>
        <time>2023-07-13T11:52:36Z</time>
      </trkpt>
      <trkpt lat="36.69592849648898" lon="117.21951881404355">
        <ele>75.9</ele>
        <time>2023-07-13T11:52:37Z</time>
      </trkpt>
      <trkpt lat="36.69593007837775" lon="117.21948923835119">
        <ele>75.9</ele>
        <time>2023-07-13T11:52:38Z</time>
      </trkpt>
      <trkpt lat="36.69593190052319" lon="117.21945995167312">
        <ele>75.9</ele>
        <time>2023-07-13T11:52:39Z</time>
      </trkpt>
      <trkpt lat="36.69593393949772" lon="117.2194304568394">
        <ele>75.9</ele>
        <time>2023-07-13T11:52:40Z</time>
      </trkpt>
      <trkpt lat="36.69593608762377" lon="117.21940089234137">
        <ele>75.9</ele>
        <time>2023-07-13T11:52:41Z</time>
      </trkpt>
      <trkpt lat="36.69593827172477" lon="117.2193716926199">
        <ele>75.9</ele>
        <time>2023-07-13T11:52:42Z</time>
      </trkpt>
      <trkpt lat="36.69594040536848" lon="117.21934230775815">
        <ele>75.9</ele>
        <time>2023-07-13T11:52:43Z</time>
      </trkpt>
      <trkpt lat="36.695942358191196" lon="117.21931288507508">
        <ele>75.9</ele>
        <time>2023-07-13T11:52:44Z</time>
      </trkpt>
      <trkpt lat="36.69594410507478" lon="117.21928383718743">
        <ele>75.9</ele>
        <time>2023-07-13T11:52:45Z</time>
      </trkpt>
      <trkpt lat="36.69594566536716" lon="117.21925464124374">
        <ele>75.9</ele>
        <time>2023-07-13T11:52:46Z</time>
      </trkpt>
      <trkpt lat="36.69594703438406" lon="117.21922585470962">
        <ele>75.9</ele>
        <time>2023-07-13T11:52:47Z</time>
      </trkpt>
      <trkpt lat="36.69594815395131" lon="117.21919742569474">
        <ele>75.9</ele>
        <time>2023-07-13T11:52:48Z</time>
      </trkpt>
      <trkpt lat="36.695949076888134" lon="117.21916880727657">
        <ele>75.9</ele>
        <time>2023-07-13T11:52:49Z</time>
      </trkpt>
      <trkpt lat="36.695949869744034" lon="117.21914012277273">
        <ele>75.9</ele>
        <time>2023-07-13T11:52:50Z</time>
      </trkpt>
      <trkpt lat="36.6959505177535" lon="117.21911183926343">
        <ele>75.9</ele>
        <time>2023-07-13T11:52:51Z</time>
      </trkpt>
      <trkpt lat="36.69595153060724" lon="117.21908346458407">
        <ele>75.9</ele>
        <time>2023-07-13T11:52:52Z</time>
      </trkpt>
      <trkpt lat="36.69595318824338" lon="117.21905521274456">
        <ele>75.9</ele>
        <time>2023-07-13T11:52:53Z</time>
      </trkpt>
      <trkpt lat="36.69595555981623" lon="117.21902750430245">
        <ele>75.9</ele>
        <time>2023-07-13T11:52:54Z</time>
      </trkpt>
      <trkpt lat="36.69595865501478" lon="117.21900004021732">
        <ele>75.9</ele>
        <time>2023-07-13T11:52:55Z</time>
      </trkpt>
      <trkpt lat="36.69596240375046" lon="117.2189723565005">
        <ele>75.9</ele>
        <time>2023-07-13T11:52:56Z</time>
      </trkpt>
      <trkpt lat="36.6959667728835" lon="117.21894490690687">
        <ele>75.9</ele>
        <time>2023-07-13T11:52:57Z</time>
      </trkpt>
      <trkpt lat="36.695971268644" lon="117.21891739248997">
        <ele>75.9</ele>
        <time>2023-07-13T11:52:58Z</time>
      </trkpt>
      <trkpt lat="36.695975545879" lon="117.21888952501305">
        <ele>75.9</ele>
        <time>2023-07-13T11:52:59Z</time>
      </trkpt>
      <trkpt lat="36.695979411925784" lon="117.2188619071501">
        <ele>75.5</ele>
        <time>2023-07-13T11:53:00Z</time>
      </trkpt>
      <trkpt lat="36.6959827506942" lon="117.21883444881227">
        <ele>75.5</ele>
        <time>2023-07-13T11:53:01Z</time>
      </trkpt>
      <trkpt lat="36.69598538320032" lon="117.21880685336181">
        <ele>75.5</ele>
        <time>2023-07-13T11:53:02Z</time>
      </trkpt>
      <trkpt lat="36.69598690746585" lon="117.21877956617033">
        <ele>75.5</ele>
        <time>2023-07-13T11:53:03Z</time>
      </trkpt>
      <trkpt lat="36.69598734485842" lon="117.21875182962064">
        <ele>75.5</ele>
        <time>2023-07-13T11:53:04Z</time>
      </trkpt>
      <trkpt lat="36.695986724233464" lon="117.2187237443838">
        <ele>75.5</ele>
        <time>2023-07-13T11:53:05Z</time>
      </trkpt>
      <trkpt lat="36.69598539189084" lon="117.21869537924556">
        <ele>75.5</ele>
        <time>2023-07-13T11:53:06Z</time>
      </trkpt>
      <trkpt lat="36.695983610008554" lon="117.21866673287013">
        <ele>75.5</ele>
        <time>2023-07-13T11:53:07Z</time>
      </trkpt>
      <trkpt lat="36.69598143482873" lon="117.21863781034612">
        <ele>75.5</ele>
        <time>2023-07-13T11:53:08Z</time>
      </trkpt>
      <trkpt lat="36.69597933266095" lon="117.2186088102533">
        <ele>75.5</ele>
        <time>2023-07-13T11:53:09Z</time>
      </trkpt>
      <trkpt lat="36.695977598081186" lon="117.21858005949208">
        <ele>75.6</ele>
        <time>2023-07-13T11:53:10Z</time>
      </trkpt>
      <trkpt lat="36.695976368625104" lon="117.21855103557077">
        <ele>75.6</ele>
        <time>2023-07-13T11:53:11Z</time>
      </trkpt>
      <trkpt lat="36.695975692477134" lon="117.21852180376739">
        <ele>75.6</ele>
        <time>2023-07-13T11:53:12Z</time>
      </trkpt>
      <trkpt lat="36.695975491664264" lon="117.21849270951388">
        <ele>75.6</ele>
        <time>2023-07-13T11:53:13Z</time>
      </trkpt>
      <trkpt lat="36.69597568656144" lon="117.21846331871295">
        <ele>75.6</ele>
        <time>2023-07-13T11:53:14Z</time>
      </trkpt>
      <trkpt lat="36.69597599337193" lon="117.21843416091328">
        <ele>75.6</ele>
        <time>2023-07-13T11:53:15Z</time>
      </trkpt>
      <trkpt lat="36.69597663655397" lon="117.21840474601947">
        <ele>75.6</ele>
        <time>2023-07-13T11:53:16Z</time>
      </trkpt>
      <trkpt lat="36.69597749215984" lon="117.2183753213099">
        <ele>75.6</ele>
        <time>2023-07-13T11:53:17Z</time>
      </trkpt>
      <trkpt lat="36.69597836132425" lon="117.21834633364055">
        <ele>75.6</ele>
        <time>2023-07-13T11:53:18Z</time>
      </trkpt>
      <trkpt lat="36.695979285864034" lon="117.21831735787896">
        <ele>75.6</ele>
        <time>2023-07-13T11:53:19Z</time>
      </trkpt>
      <trkpt lat="36.69598024767945" lon="117.21828852038692">
        <ele>75.7</ele>
        <time>2023-07-13T11:53:20Z</time>
      </trkpt>
      <trkpt lat="36.69598133067348" lon="117.21825937826675">
        <ele>75.7</ele>
        <time>2023-07-13T11:53:21Z</time>
      </trkpt>
      <trkpt lat="36.69598246304134" lon="117.21823037933986">
        <ele>75.7</ele>
        <time>2023-07-13T11:53:22Z</time>
      </trkpt>
      <trkpt lat="36.695983643288365" lon="117.21820108702514">
        <ele>75.7</ele>
        <time>2023-07-13T11:53:23Z</time>
      </trkpt>
      <trkpt lat="36.69598509690783" lon="117.2181715483878">
        <ele>75.7</ele>
        <time>2023-07-13T11:53:24Z</time>
      </trkpt>
      <trkpt lat="36.69598686295961" lon="117.21814175512593">
        <ele>75.7</ele>
        <time>2023-07-13T11:53:25Z</time>
      </trkpt>
      <trkpt lat="36.695988854206185" lon="117.21811187750048">
        <ele>75.7</ele>
        <time>2023-07-13T11:53:26Z</time>
      </trkpt>
      <trkpt lat="36.69599085005363" lon="117.21808194779065">
        <ele>75.7</ele>
        <time>2023-07-13T11:53:27Z</time>
      </trkpt>
      <trkpt lat="36.69599250910159" lon="117.21805197806053">
        <ele>75.7</ele>
        <time>2023-07-13T11:53:28Z</time>
      </trkpt>
      <trkpt lat="36.69599381269511" lon="117.21802208521123">
        <ele>75.7</ele>
        <time>2023-07-13T11:53:29Z</time>
      </trkpt>
      <trkpt lat="36.6959946731301" lon="117.21799220196291">
        <ele>76</ele>
        <time>2023-07-13T11:53:30Z</time>
      </trkpt>
      <trkpt lat="36.69599512656474" lon="117.21796224905796">
        <ele>76</ele>
        <time>2023-07-13T11:53:31Z</time>
      </trkpt>
      <trkpt lat="36.695995148493616" lon="117.21793231335009">
        <ele>76</ele>
        <time>2023-07-13T11:53:32Z</time>
      </trkpt>
      <trkpt lat="36.69599480673464" lon="117.21790237702638">
        <ele>76</ele>
        <time>2023-07-13T11:53:33Z</time>
      </trkpt>
      <trkpt lat="36.69599410571675" lon="117.21787281524088">
        <ele>76</ele>
        <time>2023-07-13T11:53:34Z</time>
      </trkpt>
      <trkpt lat="36.69599308365023" lon="117.2178431851567">
        <ele>76</ele>
        <time>2023-07-13T11:53:35Z</time>
      </trkpt>
      <trkpt lat="36.695991767861116" lon="117.2178138652508">
        <ele>76</ele>
        <time>2023-07-13T11:53:36Z</time>
      </trkpt>
      <trkpt lat="36.69599038607303" lon="117.21778419472635">
        <ele>76</ele>
        <time>2023-07-13T11:53:37Z</time>
      </trkpt>
      <trkpt lat="36.69598905640702" lon="117.21775462426584">
        <ele>76</ele>
        <time>2023-07-13T11:53:38Z</time>
      </trkpt>
      <trkpt lat="36.69598801783913" lon="117.21772498063584">
        <ele>76</ele>
        <time>2023-07-13T11:53:39Z</time>
      </trkpt>
      <trkpt lat="36.6959873192095" lon="117.21769512266111">
        <ele>76.5</ele>
        <time>2023-07-13T11:53:40Z</time>
      </trkpt>
      <trkpt lat="36.69598708505891" lon="117.21766517914438">
        <ele>76.5</ele>
        <time>2023-07-13T11:53:41Z</time>
      </trkpt>
      <trkpt lat="36.69598729125595" lon="117.21763515704875">
        <ele>76.5</ele>
        <time>2023-07-13T11:53:42Z</time>
      </trkpt>
      <trkpt lat="36.69598789391856" lon="117.2176054433456">
        <ele>76.5</ele>
        <time>2023-07-13T11:53:43Z</time>
      </trkpt>
      <trkpt lat="36.69598884834121" lon="117.21757565093415">
        <ele>76.5</ele>
        <time>2023-07-13T11:53:44Z</time>
      </trkpt>
      <trkpt lat="36.69599015387369" lon="117.21754577662911">
        <ele>76.5</ele>
        <time>2023-07-13T11:53:45Z</time>
      </trkpt>
      <trkpt lat="36.6959917905171" lon="117.21751572320103">
        <ele>76.5</ele>
        <time>2023-07-13T11:53:46Z</time>
      </trkpt>
      <trkpt lat="36.69599369514205" lon="117.21748562551902">
        <ele>76.5</ele>
        <time>2023-07-13T11:53:47Z</time>
      </trkpt>
      <trkpt lat="36.69599567262072" lon="117.21745597467314">
        <ele>76.5</ele>
        <time>2023-07-13T11:53:48Z</time>
      </trkpt>
      <trkpt lat="36.69599760219397" lon="117.2174262715774">
        <ele>76.5</ele>
        <time>2023-07-13T11:53:49Z</time>
      </trkpt>
      <trkpt lat="36.69599937516529" lon="117.21739667228421">
        <ele>76.2</ele>
        <time>2023-07-13T11:53:50Z</time>
      </trkpt>
      <trkpt lat="36.6960009696937" lon="117.21736681518283">
        <ele>76.2</ele>
        <time>2023-07-13T11:53:51Z</time>
      </trkpt>
      <trkpt lat="36.69600236937867" lon="117.2173370941436">
        <ele>76.2</ele>
        <time>2023-07-13T11:53:52Z</time>
      </trkpt>
      <trkpt lat="36.69600365893963" lon="117.21730752307879">
        <ele>76.2</ele>
        <time>2023-07-13T11:53:53Z</time>
      </trkpt>
      <trkpt lat="36.696004873276365" lon="117.2172780091962">
        <ele>76.2</ele>
        <time>2023-07-13T11:53:54Z</time>
      </trkpt>
      <trkpt lat="36.696006058595145" lon="117.21724841716095">
        <ele>76.2</ele>
        <time>2023-07-13T11:53:55Z</time>
      </trkpt>
      <trkpt lat="36.696007164167845" lon="117.21721883721928">
        <ele>76.2</ele>
        <time>2023-07-13T11:53:56Z</time>
      </trkpt>
      <trkpt lat="36.696008208165935" lon="117.21718969484375">
        <ele>76.2</ele>
        <time>2023-07-13T11:53:57Z</time>
      </trkpt>
      <trkpt lat="36.69600922668311" lon="117.21716037273248">
        <ele>76.2</ele>
        <time>2023-07-13T11:53:58Z</time>
      </trkpt>
      <trkpt lat="36.69601025557062" lon="117.21713099490015">
        <ele>76.2</ele>
        <time>2023-07-13T11:53:59Z</time>
      </trkpt>
      <trkpt lat="36.69601129564846" lon="117.21710158639274">
        <ele>76.3</ele>
        <time>2023-07-13T11:54:00Z</time>
      </trkpt>
      <trkpt lat="36.69601248646016" lon="117.21707203544923">
        <ele>76.3</ele>
        <time>2023-07-13T11:54:01Z</time>
      </trkpt>
      <trkpt lat="36.69601387581541" lon="117.21704284525899">
        <ele>76.3</ele>
        <time>2023-07-13T11:54:02Z</time>
      </trkpt>
      <trkpt lat="36.696015399324054" lon="117.2170135566057">
        <ele>76.3</ele>
        <time>2023-07-13T11:54:03Z</time>
      </trkpt>
      <trkpt lat="36.69601698212021" lon="117.21698410293507">
        <ele>76.3</ele>
        <time>2023-07-13T11:54:04Z</time>
      </trkpt>
      <trkpt lat="36.69601855619502" lon="117.21695456234563">
        <ele>76.3</ele>
        <time>2023-07-13T11:54:05Z</time>
      </trkpt>
      <trkpt lat="36.69602006359707" lon="117.21692501706818">
        <ele>76.3</ele>
        <time>2023-07-13T11:54:06Z</time>
      </trkpt>
      <trkpt lat="36.696021518993575" lon="117.21689545202963">
        <ele>76.3</ele>
        <time>2023-07-13T11:54:07Z</time>
      </trkpt>
      <trkpt lat="36.69602284205656" lon="117.21686560633269">
        <ele>76.3</ele>
        <time>2023-07-13T11:54:08Z</time>
      </trkpt>
      <trkpt lat="36.69602394886539" lon="117.21683603877865">
        <ele>76.3</ele>
        <time>2023-07-13T11:54:09Z</time>
      </trkpt>
      <trkpt lat="36.696025045128266" lon="117.21680645413122">
        <ele>76.4</ele>
        <time>2023-07-13T11:54:10Z</time>
      </trkpt>
      <trkpt lat="36.696025838049245" lon="117.21677710211274">
        <ele>76.4</ele>
        <time>2023-07-13T11:54:11Z</time>
      </trkpt>
      <trkpt lat="36.69602925228158" lon="117.2167476850017">
        <ele>76.4</ele>
        <time>2023-07-13T11:54:12Z</time>
      </trkpt>
      <trkpt lat="36.69602892063775" lon="117.21671715572596">
        <ele>76.4</ele>
        <time>2023-07-13T11:54:13Z</time>
      </trkpt>
      <trkpt lat="36.69602743818843" lon="117.21668886210138">
        <ele>76.4</ele>
        <time>2023-07-13T11:54:14Z</time>
      </trkpt>
      <trkpt lat="36.69602808864874" lon="117.21666006468934">
        <ele>0</ele>
        <time>2023-07-13T11:54:15Z</time>
      </trkpt>
    </trkseg>
  </trk>
</gpx>