<?xml version="1.0" encoding="UTF-8"?>
<gpx xmlns="http://www.topografix.com/GPX/1/1" xmlns:gpxtpx="http://www.garmin.com/xmlschemas/TrackPointExtension/v1" xmlns:xsi="http://www.w3.org/2001/XMLSchema-instance" xsi:schemaLocation="http://www.topografix.com/GPX/1/1 http://www.topografix.com/GPX/1/1/gpx.xsd" version="1.1" creator="gpx.py -- https://github.com/tkrajina/gpxpy">
  <trk>
    <name>gpx from codoon</name>
    <type>Run</type>
    <trkseg>
      <trkpt lat="36.67303286942364" lon="117.20831196876915">
        <ele>106.2</ele>
        <time>2023-07-24T10:47:27Z</time>
      </trkpt>
      <trkpt lat="36.673038871430506" lon="117.20831676457203">
        <ele>106.2</ele>
        <time>2023-07-24T10:47:28Z</time>
      </trkpt>
      <trkpt lat="36.67305537835175" lon="117.20831608039467">
        <ele>106.2</ele>
        <time>2023-07-24T10:47:29Z</time>
      </trkpt>
      <trkpt lat="36.67307471914609" lon="117.20831757703108">
        <ele>106.2</ele>
        <time>2023-07-24T10:47:30Z</time>
      </trkpt>
      <trkpt lat="36.67309566165311" lon="117.20832020318224">
        <ele>106.2</ele>
        <time>2023-07-24T10:47:31Z</time>
      </trkpt>
      <trkpt lat="36.67312044847967" lon="117.20833326512142">
        <ele>106.2</ele>
        <time>2023-07-24T10:47:32Z</time>
      </trkpt>
      <trkpt lat="36.67313977602802" lon="117.20833835630188">
        <ele>106.2</ele>
        <time>2023-07-24T10:47:33Z</time>
      </trkpt>
      <trkpt lat="36.67316069452142" lon="117.20834339546886">
        <ele>106.2</ele>
        <time>2023-07-24T10:47:34Z</time>
      </trkpt>
      <trkpt lat="36.673182184943826" lon="117.20834887065286">
        <ele>105.8</ele>
        <time>2023-07-24T10:47:35Z</time>
      </trkpt>
      <trkpt lat="36.67320426125256" lon="117.20835481481726">
        <ele>105.8</ele>
        <time>2023-07-24T10:47:36Z</time>
      </trkpt>
      <trkpt lat="36.673226689955264" lon="117.20836112368524">
        <ele>105.8</ele>
        <time>2023-07-24T10:47:37Z</time>
      </trkpt>
      <trkpt lat="36.67324907203289" lon="117.20836758292974">
        <ele>105.8</ele>
        <time>2023-07-24T10:47:38Z</time>
      </trkpt>
      <trkpt lat="36.67327180318166" lon="117.20837405045236">
        <ele>105.8</ele>
        <time>2023-07-24T10:47:39Z</time>
      </trkpt>
      <trkpt lat="36.67329486344934" lon="117.20838034638507">
        <ele>105.8</ele>
        <time>2023-07-24T10:47:40Z</time>
      </trkpt>
      <trkpt lat="36.67331816097843" lon="117.20838669383103">
        <ele>105.8</ele>
        <time>2023-07-24T10:47:41Z</time>
      </trkpt>
      <trkpt lat="36.67334185086671" lon="117.20839346740954">
        <ele>105.8</ele>
        <time>2023-07-24T10:47:42Z</time>
      </trkpt>
      <trkpt lat="36.673365797395434" lon="117.2084005885798">
        <ele>105.8</ele>
        <time>2023-07-24T10:47:43Z</time>
      </trkpt>
      <trkpt lat="36.673389580484944" lon="117.20840797250972">
        <ele>105.8</ele>
        <time>2023-07-24T10:47:44Z</time>
      </trkpt>
      <trkpt lat="36.673413149814024" lon="117.20841562706707">
        <ele>102.4</ele>
        <time>2023-07-24T10:47:45Z</time>
      </trkpt>
      <trkpt lat="36.67343651777048" lon="117.20842354469099">
        <ele>102.4</ele>
        <time>2023-07-24T10:47:46Z</time>
      </trkpt>
      <trkpt lat="36.67345964440587" lon="117.20843153341613">
        <ele>102.4</ele>
        <time>2023-07-24T10:47:47Z</time>
      </trkpt>
      <trkpt lat="36.67348247116042" lon="117.20843956258678">
        <ele>102.4</ele>
        <time>2023-07-24T10:47:48Z</time>
      </trkpt>
      <trkpt lat="36.67350499979929" lon="117.2084475798172">
        <ele>102.4</ele>
        <time>2023-07-24T10:47:49Z</time>
      </trkpt>
      <trkpt lat="36.67352724435177" lon="117.20845551918643">
        <ele>102.4</ele>
        <time>2023-07-24T10:47:50Z</time>
      </trkpt>
      <trkpt lat="36.67354922165575" lon="117.20846341157542">
        <ele>102.4</ele>
        <time>2023-07-24T10:47:51Z</time>
      </trkpt>
      <trkpt lat="36.67357091743287" lon="117.20847129202727">
        <ele>102.4</ele>
        <time>2023-07-24T10:47:52Z</time>
      </trkpt>
      <trkpt lat="36.67359208830992" lon="117.20847907474676">
        <ele>102.4</ele>
        <time>2023-07-24T10:47:53Z</time>
      </trkpt>
      <trkpt lat="36.67361306158994" lon="117.20848693256521">
        <ele>102.4</ele>
        <time>2023-07-24T10:47:54Z</time>
      </trkpt>
      <trkpt lat="36.673633769573705" lon="117.20849485730412">
        <ele>98.2</ele>
        <time>2023-07-24T10:47:55Z</time>
      </trkpt>
      <trkpt lat="36.67365423833635" lon="117.20850278440763">
        <ele>98.2</ele>
        <time>2023-07-24T10:47:56Z</time>
      </trkpt>
      <trkpt lat="36.673674691003036" lon="117.20851071430194">
        <ele>98.2</ele>
        <time>2023-07-24T10:47:57Z</time>
      </trkpt>
      <trkpt lat="36.67369476626941" lon="117.20851839497136">
        <ele>98.2</ele>
        <time>2023-07-24T10:47:58Z</time>
      </trkpt>
      <trkpt lat="36.67371451241769" lon="117.20852564203379">
        <ele>98.2</ele>
        <time>2023-07-24T10:47:59Z</time>
      </trkpt>
      <trkpt lat="36.673734258415394" lon="117.20853234216627">
        <ele>98.2</ele>
        <time>2023-07-24T10:48:00Z</time>
      </trkpt>
      <trkpt lat="36.67375366595464" lon="117.20853846808329">
        <ele>98.2</ele>
        <time>2023-07-24T10:48:01Z</time>
      </trkpt>
      <trkpt lat="36.673772823515854" lon="117.20854399659785">
        <ele>98.2</ele>
        <time>2023-07-24T10:48:02Z</time>
      </trkpt>
      <trkpt lat="36.67379214622733" lon="117.20854907868146">
        <ele>98.2</ele>
        <time>2023-07-24T10:48:03Z</time>
      </trkpt>
      <trkpt lat="36.67381162342948" lon="117.20855373240153">
        <ele>98.2</ele>
        <time>2023-07-24T10:48:04Z</time>
      </trkpt>
      <trkpt lat="36.67383100030776" lon="117.20855788901183">
        <ele>98.4</ele>
        <time>2023-07-24T10:48:05Z</time>
      </trkpt>
      <trkpt lat="36.67385071114071" lon="117.20856174188823">
        <ele>98.4</ele>
        <time>2023-07-24T10:48:06Z</time>
      </trkpt>
      <trkpt lat="36.673870732979246" lon="117.2085653734735">
        <ele>98.4</ele>
        <time>2023-07-24T10:48:07Z</time>
      </trkpt>
      <trkpt lat="36.6738908461235" lon="117.2085686864547">
        <ele>98.4</ele>
        <time>2023-07-24T10:48:08Z</time>
      </trkpt>
      <trkpt lat="36.673911438517685" lon="117.20857202858457">
        <ele>98.4</ele>
        <time>2023-07-24T10:48:09Z</time>
      </trkpt>
      <trkpt lat="36.673932496554386" lon="117.20857562375953">
        <ele>98.4</ele>
        <time>2023-07-24T10:48:10Z</time>
      </trkpt>
      <trkpt lat="36.673953712005044" lon="117.20857950135985">
        <ele>98.4</ele>
        <time>2023-07-24T10:48:11Z</time>
      </trkpt>
      <trkpt lat="36.67397533855068" lon="117.20858409783195">
        <ele>98.4</ele>
        <time>2023-07-24T10:48:12Z</time>
      </trkpt>
      <trkpt lat="36.67399703011139" lon="117.20859002515">
        <ele>98.4</ele>
        <time>2023-07-24T10:48:13Z</time>
      </trkpt>
      <trkpt lat="36.674018381409546" lon="117.2085970218506">
        <ele>98.4</ele>
        <time>2023-07-24T10:48:14Z</time>
      </trkpt>
      <trkpt lat="36.67403996287788" lon="117.20860425578536">
        <ele>98</ele>
        <time>2023-07-24T10:48:15Z</time>
      </trkpt>
      <trkpt lat="36.6740617014359" lon="117.20861167532465">
        <ele>98</ele>
        <time>2023-07-24T10:48:16Z</time>
      </trkpt>
      <trkpt lat="36.67408325156039" lon="117.20861913649082">
        <ele>98</ele>
        <time>2023-07-24T10:48:17Z</time>
      </trkpt>
      <trkpt lat="36.67410488915679" lon="117.20862714483854">
        <ele>98</ele>
        <time>2023-07-24T10:48:18Z</time>
      </trkpt>
      <trkpt lat="36.67412654054793" lon="117.20863584417678">
        <ele>98</ele>
        <time>2023-07-24T10:48:19Z</time>
      </trkpt>
      <trkpt lat="36.674147857698614" lon="117.20864502521586">
        <ele>98</ele>
        <time>2023-07-24T10:48:20Z</time>
      </trkpt>
      <trkpt lat="36.67416917871757" lon="117.20865471538193">
        <ele>98</ele>
        <time>2023-07-24T10:48:21Z</time>
      </trkpt>
      <trkpt lat="36.67419044728541" lon="117.208664864261">
        <ele>98</ele>
        <time>2023-07-24T10:48:22Z</time>
      </trkpt>
      <trkpt lat="36.67421146970523" lon="117.20867482935483">
        <ele>98</ele>
        <time>2023-07-24T10:48:23Z</time>
      </trkpt>
      <trkpt lat="36.67423288088581" lon="117.20868403312942">
        <ele>98</ele>
        <time>2023-07-24T10:48:24Z</time>
      </trkpt>
      <trkpt lat="36.674254639091906" lon="117.20869251819008">
        <ele>98.4</ele>
        <time>2023-07-24T10:48:25Z</time>
      </trkpt>
      <trkpt lat="36.67427608614618" lon="117.20870114299365">
        <ele>98.4</ele>
        <time>2023-07-24T10:48:26Z</time>
      </trkpt>
      <trkpt lat="36.6742975071717" lon="117.20871002714534">
        <ele>98.4</ele>
        <time>2023-07-24T10:48:27Z</time>
      </trkpt>
      <trkpt lat="36.67431882429057" lon="117.20871917977117">
        <ele>98.4</ele>
        <time>2023-07-24T10:48:28Z</time>
      </trkpt>
      <trkpt lat="36.67433966579313" lon="117.20872830617192">
        <ele>98.4</ele>
        <time>2023-07-24T10:48:29Z</time>
      </trkpt>
      <trkpt lat="36.67436039518707" lon="117.2087374627376">
        <ele>98.4</ele>
        <time>2023-07-24T10:48:30Z</time>
      </trkpt>
      <trkpt lat="36.67438107508737" lon="117.20874663333369">
        <ele>98.4</ele>
        <time>2023-07-24T10:48:31Z</time>
      </trkpt>
      <trkpt lat="36.674401491877" lon="117.2087556778745">
        <ele>98.4</ele>
        <time>2023-07-24T10:48:32Z</time>
      </trkpt>
      <trkpt lat="36.67442206524511" lon="117.20876462559153">
        <ele>98.4</ele>
        <time>2023-07-24T10:48:33Z</time>
      </trkpt>
      <trkpt lat="36.67444280725761" lon="117.20877338124204">
        <ele>98.4</ele>
        <time>2023-07-24T10:48:34Z</time>
      </trkpt>
      <trkpt lat="36.674463430837505" lon="117.20878179368538">
        <ele>97.5</ele>
        <time>2023-07-24T10:48:35Z</time>
      </trkpt>
      <trkpt lat="36.674484360541996" lon="117.20878979168627">
        <ele>97.5</ele>
        <time>2023-07-24T10:48:36Z</time>
      </trkpt>
      <trkpt lat="36.67450561853267" lon="117.20879718096059">
        <ele>97.5</ele>
        <time>2023-07-24T10:48:37Z</time>
      </trkpt>
      <trkpt lat="36.67452690711597" lon="117.2088037352546">
        <ele>97.5</ele>
        <time>2023-07-24T10:48:38Z</time>
      </trkpt>
      <trkpt lat="36.67454859633509" lon="117.20880954436451">
        <ele>97.5</ele>
        <time>2023-07-24T10:48:39Z</time>
      </trkpt>
      <trkpt lat="36.67457071962122" lon="117.20881450396323">
        <ele>97.5</ele>
        <time>2023-07-24T10:48:40Z</time>
      </trkpt>
      <trkpt lat="36.67459291324922" lon="117.2088186243831">
        <ele>97.5</ele>
        <time>2023-07-24T10:48:41Z</time>
      </trkpt>
      <trkpt lat="36.674615122640624" lon="117.20882215747609">
        <ele>97.5</ele>
        <time>2023-07-24T10:48:42Z</time>
      </trkpt>
      <trkpt lat="36.67463759244468" lon="117.20882541956152">
        <ele>97.5</ele>
        <time>2023-07-24T10:48:43Z</time>
      </trkpt>
      <trkpt lat="36.67465992086697" lon="117.20882850704525">
        <ele>97.5</ele>
        <time>2023-07-24T10:48:44Z</time>
      </trkpt>
      <trkpt lat="36.67468210038166" lon="117.2088317098319">
        <ele>97.7</ele>
        <time>2023-07-24T10:48:45Z</time>
      </trkpt>
      <trkpt lat="36.67470413053093" lon="117.20883528769927">
        <ele>97.7</ele>
        <time>2023-07-24T10:48:46Z</time>
      </trkpt>
      <trkpt lat="36.674725701899426" lon="117.20883927127055">
        <ele>97.7</ele>
        <time>2023-07-24T10:48:47Z</time>
      </trkpt>
      <trkpt lat="36.67474720443132" lon="117.20884392062084">
        <ele>97.7</ele>
        <time>2023-07-24T10:48:48Z</time>
      </trkpt>
      <trkpt lat="36.67476873361923" lon="117.20884871892618">
        <ele>97.7</ele>
        <time>2023-07-24T10:48:49Z</time>
      </trkpt>
      <trkpt lat="36.67478997275804" lon="117.20885335771908">
        <ele>97.7</ele>
        <time>2023-07-24T10:48:50Z</time>
      </trkpt>
      <trkpt lat="36.67481130689373" lon="117.20885779108531">
        <ele>97.7</ele>
        <time>2023-07-24T10:48:51Z</time>
      </trkpt>
      <trkpt lat="36.67483273960668" lon="117.20886210927387">
        <ele>97.7</ele>
        <time>2023-07-24T10:48:52Z</time>
      </trkpt>
      <trkpt lat="36.674854231383456" lon="117.20886613966104">
        <ele>97.7</ele>
        <time>2023-07-24T10:48:53Z</time>
      </trkpt>
      <trkpt lat="36.67487570240595" lon="117.20886948955979">
        <ele>97.7</ele>
        <time>2023-07-24T10:48:54Z</time>
      </trkpt>
      <trkpt lat="36.67489716836175" lon="117.20887228081205">
        <ele>97.8</ele>
        <time>2023-07-24T10:48:55Z</time>
      </trkpt>
      <trkpt lat="36.67491858913135" lon="117.20887464277519">
        <ele>97.8</ele>
        <time>2023-07-24T10:48:56Z</time>
      </trkpt>
      <trkpt lat="36.6749402607973" lon="117.20887623981675">
        <ele>97.8</ele>
        <time>2023-07-24T10:48:57Z</time>
      </trkpt>
      <trkpt lat="36.67496210834601" lon="117.2088774130722">
        <ele>97.8</ele>
        <time>2023-07-24T10:48:58Z</time>
      </trkpt>
      <trkpt lat="36.674983800383885" lon="117.20887804433302">
        <ele>97.8</ele>
        <time>2023-07-24T10:48:59Z</time>
      </trkpt>
      <trkpt lat="36.67500537459932" lon="117.20887877373075">
        <ele>97.8</ele>
        <time>2023-07-24T10:49:00Z</time>
      </trkpt>
      <trkpt lat="36.67502690690858" lon="117.20887986401763">
        <ele>97.8</ele>
        <time>2023-07-24T10:49:01Z</time>
      </trkpt>
      <trkpt lat="36.67504814483283" lon="117.20888122245186">
        <ele>97.8</ele>
        <time>2023-07-24T10:49:02Z</time>
      </trkpt>
      <trkpt lat="36.67506950487924" lon="117.20888261306852">
        <ele>97.8</ele>
        <time>2023-07-24T10:49:03Z</time>
      </trkpt>
      <trkpt lat="36.67509100728407" lon="117.20888396788699">
        <ele>97.8</ele>
        <time>2023-07-24T10:49:04Z</time>
      </trkpt>
      <trkpt lat="36.675112402456136" lon="117.20888545289763">
        <ele>97.4</ele>
        <time>2023-07-24T10:49:05Z</time>
      </trkpt>
      <trkpt lat="36.67513405483731" lon="117.20888714637056">
        <ele>97.4</ele>
        <time>2023-07-24T10:49:06Z</time>
      </trkpt>
      <trkpt lat="36.675155964048926" lon="117.20888889942093">
        <ele>97.4</ele>
        <time>2023-07-24T10:49:07Z</time>
      </trkpt>
      <trkpt lat="36.67517782008156" lon="117.20889103408636">
        <ele>97.4</ele>
        <time>2023-07-24T10:49:08Z</time>
      </trkpt>
      <trkpt lat="36.67519998045562" lon="117.20889341938474">
        <ele>97.4</ele>
        <time>2023-07-24T10:49:09Z</time>
      </trkpt>
      <trkpt lat="36.67522239678473" lon="117.20889596386799">
        <ele>97.4</ele>
        <time>2023-07-24T10:49:10Z</time>
      </trkpt>
      <trkpt lat="36.67524497113524" lon="117.20889871886013">
        <ele>97.4</ele>
        <time>2023-07-24T10:49:11Z</time>
      </trkpt>
      <trkpt lat="36.675267910703525" lon="117.20890177311834">
        <ele>97.4</ele>
        <time>2023-07-24T10:49:12Z</time>
      </trkpt>
      <trkpt lat="36.67529107277726" lon="117.20890510667205">
        <ele>97.4</ele>
        <time>2023-07-24T10:49:13Z</time>
      </trkpt>
      <trkpt lat="36.6753140445792" lon="117.20890876753619">
        <ele>97.4</ele>
        <time>2023-07-24T10:49:14Z</time>
      </trkpt>
      <trkpt lat="36.675337124400755" lon="117.2089128797305">
        <ele>97.7</ele>
        <time>2023-07-24T10:49:15Z</time>
      </trkpt>
      <trkpt lat="36.675360248729206" lon="117.20891735474154">
        <ele>97.7</ele>
        <time>2023-07-24T10:49:16Z</time>
      </trkpt>
      <trkpt lat="36.67538306458515" lon="117.2089219310181">
        <ele>97.7</ele>
        <time>2023-07-24T10:49:17Z</time>
      </trkpt>
      <trkpt lat="36.67540590662509" lon="117.20892655392666">
        <ele>97.7</ele>
        <time>2023-07-24T10:49:18Z</time>
      </trkpt>
      <trkpt lat="36.67542872264086" lon="117.2089310476171">
        <ele>97.7</ele>
        <time>2023-07-24T10:49:19Z</time>
      </trkpt>
      <trkpt lat="36.67545120501965" lon="117.20893525526465">
        <ele>97.7</ele>
        <time>2023-07-24T10:49:20Z</time>
      </trkpt>
      <trkpt lat="36.67547367740478" lon="117.20893928592241">
        <ele>97.7</ele>
        <time>2023-07-24T10:49:21Z</time>
      </trkpt>
      <trkpt lat="36.675496130889876" lon="117.20894310013861">
        <ele>97.7</ele>
        <time>2023-07-24T10:49:22Z</time>
      </trkpt>
      <trkpt lat="36.67551834731022" lon="117.20894636578574">
        <ele>97.7</ele>
        <time>2023-07-24T10:49:23Z</time>
      </trkpt>
      <trkpt lat="36.67554045766119" lon="117.20894906454829">
        <ele>97.7</ele>
        <time>2023-07-24T10:49:24Z</time>
      </trkpt>
      <trkpt lat="36.675562894093005" lon="117.20895122100625">
        <ele>97.6</ele>
        <time>2023-07-24T10:49:25Z</time>
      </trkpt>
      <trkpt lat="36.675585385100234" lon="117.20895292611556">
        <ele>97.6</ele>
        <time>2023-07-24T10:49:26Z</time>
      </trkpt>
      <trkpt lat="36.67560794495547" lon="117.2089545012897">
        <ele>97.6</ele>
        <time>2023-07-24T10:49:27Z</time>
      </trkpt>
      <trkpt lat="36.675630865862125" lon="117.20895620189035">
        <ele>97.6</ele>
        <time>2023-07-24T10:49:28Z</time>
      </trkpt>
      <trkpt lat="36.67565376527624" lon="117.20895807465868">
        <ele>97.6</ele>
        <time>2023-07-24T10:49:29Z</time>
      </trkpt>
      <trkpt lat="36.67567668861592" lon="117.20896020545666">
        <ele>97.6</ele>
        <time>2023-07-24T10:49:30Z</time>
      </trkpt>
      <trkpt lat="36.675699639734155" lon="117.20896252886567">
        <ele>97.6</ele>
        <time>2023-07-24T10:49:31Z</time>
      </trkpt>
      <trkpt lat="36.675722363447235" lon="117.20896494777811">
        <ele>97.6</ele>
        <time>2023-07-24T10:49:32Z</time>
      </trkpt>
      <trkpt lat="36.6757451815727" lon="117.20896749148285">
        <ele>97.6</ele>
        <time>2023-07-24T10:49:33Z</time>
      </trkpt>
      <trkpt lat="36.675767971983454" lon="117.20897039273292">
        <ele>97.6</ele>
        <time>2023-07-24T10:49:34Z</time>
      </trkpt>
      <trkpt lat="36.67579064003416" lon="117.20897343704621">
        <ele>97.4</ele>
        <time>2023-07-24T10:49:35Z</time>
      </trkpt>
      <trkpt lat="36.67581281257351" lon="117.20897659770351">
        <ele>97.4</ele>
        <time>2023-07-24T10:49:36Z</time>
      </trkpt>
      <trkpt lat="36.67583471538855" lon="117.20898039958904">
        <ele>97.4</ele>
        <time>2023-07-24T10:49:37Z</time>
      </trkpt>
      <trkpt lat="36.67585633929085" lon="117.20898477581328">
        <ele>97.4</ele>
        <time>2023-07-24T10:49:38Z</time>
      </trkpt>
      <trkpt lat="36.675877549160624" lon="117.20898877775988">
        <ele>97.4</ele>
        <time>2023-07-24T10:49:39Z</time>
      </trkpt>
      <trkpt lat="36.675898775973195" lon="117.20899238430174">
        <ele>97.4</ele>
        <time>2023-07-24T10:49:40Z</time>
      </trkpt>
      <trkpt lat="36.67591999071441" lon="117.20899549291782">
        <ele>97.4</ele>
        <time>2023-07-24T10:49:41Z</time>
      </trkpt>
      <trkpt lat="36.675941223392336" lon="117.208998287459">
        <ele>97.4</ele>
        <time>2023-07-24T10:49:42Z</time>
      </trkpt>
      <trkpt lat="36.67596277605112" lon="117.20900076402191">
        <ele>97.4</ele>
        <time>2023-07-24T10:49:43Z</time>
      </trkpt>
      <trkpt lat="36.675984350811575" lon="117.20900287199984">
        <ele>97.4</ele>
        <time>2023-07-24T10:49:44Z</time>
      </trkpt>
      <trkpt lat="36.67600603426006" lon="117.20900474630182">
        <ele>97</ele>
        <time>2023-07-24T10:49:45Z</time>
      </trkpt>
      <trkpt lat="36.6760279254368" lon="117.209006779848">
        <ele>97</ele>
        <time>2023-07-24T10:49:46Z</time>
      </trkpt>
      <trkpt lat="36.67605009269715" lon="117.20900901196686">
        <ele>97</ele>
        <time>2023-07-24T10:49:47Z</time>
      </trkpt>
      <trkpt lat="36.67607266839537" lon="117.20901094038155">
        <ele>97</ele>
        <time>2023-07-24T10:49:48Z</time>
      </trkpt>
      <trkpt lat="36.67609569819336" lon="117.20901246051534">
        <ele>97</ele>
        <time>2023-07-24T10:49:49Z</time>
      </trkpt>
      <trkpt lat="36.67611902539577" lon="117.20901427837192">
        <ele>97</ele>
        <time>2023-07-24T10:49:50Z</time>
      </trkpt>
      <trkpt lat="36.67614259845026" lon="117.20901631822922">
        <ele>97</ele>
        <time>2023-07-24T10:49:51Z</time>
      </trkpt>
      <trkpt lat="36.67616638531033" lon="117.20901856344108">
        <ele>97</ele>
        <time>2023-07-24T10:49:52Z</time>
      </trkpt>
      <trkpt lat="36.67619029594421" lon="117.20902086956985">
        <ele>97</ele>
        <time>2023-07-24T10:49:53Z</time>
      </trkpt>
      <trkpt lat="36.676213965073366" lon="117.2090233624118">
        <ele>97</ele>
        <time>2023-07-24T10:49:54Z</time>
      </trkpt>
      <trkpt lat="36.67623775159233" lon="117.20902611200562">
        <ele>97</ele>
        <time>2023-07-24T10:49:55Z</time>
      </trkpt>
      <trkpt lat="36.67626157101459" lon="117.20902905338968">
        <ele>97</ele>
        <time>2023-07-24T10:49:56Z</time>
      </trkpt>
      <trkpt lat="36.676285319054784" lon="117.20903215003648">
        <ele>97</ele>
        <time>2023-07-24T10:49:57Z</time>
      </trkpt>
      <trkpt lat="36.676309256141934" lon="117.2090354120981">
        <ele>97</ele>
        <time>2023-07-24T10:49:58Z</time>
      </trkpt>
      <trkpt lat="36.676333023187595" lon="117.20903883601424">
        <ele>97</ele>
        <time>2023-07-24T10:49:59Z</time>
      </trkpt>
      <trkpt lat="36.67635663927465" lon="117.20904239812499">
        <ele>97</ele>
        <time>2023-07-24T10:50:00Z</time>
      </trkpt>
      <trkpt lat="36.676380458579054" lon="117.20904617643313">
        <ele>97</ele>
        <time>2023-07-24T10:50:01Z</time>
      </trkpt>
      <trkpt lat="36.67640419363915" lon="117.20905015419726">
        <ele>97</ele>
        <time>2023-07-24T10:50:02Z</time>
      </trkpt>
      <trkpt lat="36.676428145982044" lon="117.20905439445451">
        <ele>97</ele>
        <time>2023-07-24T10:50:03Z</time>
      </trkpt>
      <trkpt lat="36.67645226318433" lon="117.20905890423427">
        <ele>97</ele>
        <time>2023-07-24T10:50:04Z</time>
      </trkpt>
      <trkpt lat="36.67647652514765" lon="117.20906364914376">
        <ele>96.9</ele>
        <time>2023-07-24T10:50:05Z</time>
      </trkpt>
      <trkpt lat="36.67650085157028" lon="117.20906865061984">
        <ele>96.9</ele>
        <time>2023-07-24T10:50:06Z</time>
      </trkpt>
      <trkpt lat="36.67652520965144" lon="117.20907390627319">
        <ele>96.9</ele>
        <time>2023-07-24T10:50:07Z</time>
      </trkpt>
      <trkpt lat="36.67654960775108" lon="117.20907939444179">
        <ele>96.9</ele>
        <time>2023-07-24T10:50:08Z</time>
      </trkpt>
      <trkpt lat="36.6765739949205" lon="117.2090852105465">
        <ele>96.9</ele>
        <time>2023-07-24T10:50:09Z</time>
      </trkpt>
      <trkpt lat="36.676598312849286" lon="117.20909118386263">
        <ele>96.9</ele>
        <time>2023-07-24T10:50:10Z</time>
      </trkpt>
      <trkpt lat="36.67662251707566" lon="117.20909736171035">
        <ele>96.9</ele>
        <time>2023-07-24T10:50:11Z</time>
      </trkpt>
      <trkpt lat="36.67664626947708" lon="117.20910377217527">
        <ele>96.9</ele>
        <time>2023-07-24T10:50:12Z</time>
      </trkpt>
      <trkpt lat="36.676669816633364" lon="117.20911076706325">
        <ele>96.9</ele>
        <time>2023-07-24T10:50:13Z</time>
      </trkpt>
      <trkpt lat="36.67669281161587" lon="117.20911846020294">
        <ele>96.9</ele>
        <time>2023-07-24T10:50:14Z</time>
      </trkpt>
      <trkpt lat="36.67671527437625" lon="117.20912699243381">
        <ele>96.2</ele>
        <time>2023-07-24T10:50:15Z</time>
      </trkpt>
      <trkpt lat="36.67673754818151" lon="117.2091365591068">
        <ele>96.2</ele>
        <time>2023-07-24T10:50:16Z</time>
      </trkpt>
      <trkpt lat="36.676759111012274" lon="117.20914741732811">
        <ele>96.2</ele>
        <time>2023-07-24T10:50:17Z</time>
      </trkpt>
      <trkpt lat="36.67678022717452" lon="117.20915971950024">
        <ele>96.2</ele>
        <time>2023-07-24T10:50:18Z</time>
      </trkpt>
      <trkpt lat="36.676800877552495" lon="117.20917331777343">
        <ele>96.2</ele>
        <time>2023-07-24T10:50:19Z</time>
      </trkpt>
      <trkpt lat="36.67682072416885" lon="117.20918800932765">
        <ele>96.2</ele>
        <time>2023-07-24T10:50:20Z</time>
      </trkpt>
      <trkpt lat="36.67683989901137" lon="117.20920383704049">
        <ele>96.2</ele>
        <time>2023-07-24T10:50:21Z</time>
      </trkpt>
      <trkpt lat="36.67685852179377" lon="117.20922073490401">
        <ele>96.2</ele>
        <time>2023-07-24T10:50:22Z</time>
      </trkpt>
      <trkpt lat="36.6768766831066" lon="117.20923865085952">
        <ele>96.2</ele>
        <time>2023-07-24T10:50:23Z</time>
      </trkpt>
      <trkpt lat="36.676893944045375" lon="117.20925696915327">
        <ele>96.2</ele>
        <time>2023-07-24T10:50:24Z</time>
      </trkpt>
      <trkpt lat="36.676910704810595" lon="117.20927577973842">
        <ele>95.8</ele>
        <time>2023-07-24T10:50:25Z</time>
      </trkpt>
      <trkpt lat="36.676926955157555" lon="117.2092917136689">
        <ele>95.8</ele>
        <time>2023-07-24T10:50:26Z</time>
      </trkpt>
      <trkpt lat="36.67694262143203" lon="117.20930479181068">
        <ele>95.8</ele>
        <time>2023-07-24T10:50:27Z</time>
      </trkpt>
      <trkpt lat="36.67695815245524" lon="117.20931480591568">
        <ele>95.8</ele>
        <time>2023-07-24T10:50:28Z</time>
      </trkpt>
      <trkpt lat="36.67697363935583" lon="117.20932183838546">
        <ele>95.8</ele>
        <time>2023-07-24T10:50:29Z</time>
      </trkpt>
      <trkpt lat="36.6769895292588" lon="117.20932584559357">
        <ele>95.8</ele>
        <time>2023-07-24T10:50:30Z</time>
      </trkpt>
      <trkpt lat="36.677006017610516" lon="117.20932724647699">
        <ele>95.8</ele>
        <time>2023-07-24T10:50:31Z</time>
      </trkpt>
      <trkpt lat="36.67702327703571" lon="117.20932587449772">
        <ele>95.8</ele>
        <time>2023-07-24T10:50:32Z</time>
      </trkpt>
      <trkpt lat="36.677041144320334" lon="117.20932171216974">
        <ele>95.8</ele>
        <time>2023-07-24T10:50:33Z</time>
      </trkpt>
      <trkpt lat="36.67705950575519" lon="117.20931479221335">
        <ele>95.8</ele>
        <time>2023-07-24T10:50:34Z</time>
      </trkpt>
      <trkpt lat="36.677078547536816" lon="117.20930522900802">
        <ele>95</ele>
        <time>2023-07-24T10:50:35Z</time>
      </trkpt>
      <trkpt lat="36.67709829356718" lon="117.20929266004927">
        <ele>95</ele>
        <time>2023-07-24T10:50:36Z</time>
      </trkpt>
      <trkpt lat="36.6771188698642" lon="117.20928042350036">
        <ele>95</ele>
        <time>2023-07-24T10:50:37Z</time>
      </trkpt>
      <trkpt lat="36.6771401143984" lon="117.20926840972447">
        <ele>95</ele>
        <time>2023-07-24T10:50:38Z</time>
      </trkpt>
      <trkpt lat="36.67716214137096" lon="117.2092565195028">
        <ele>95</ele>
        <time>2023-07-24T10:50:39Z</time>
      </trkpt>
      <trkpt lat="36.67718465220462" lon="117.20924451327221">
        <ele>95</ele>
        <time>2023-07-24T10:50:40Z</time>
      </trkpt>
      <trkpt lat="36.67720723677455" lon="117.20923259691892">
        <ele>95</ele>
        <time>2023-07-24T10:50:41Z</time>
      </trkpt>
      <trkpt lat="36.67723001797222" lon="117.20922034322636">
        <ele>95</ele>
        <time>2023-07-24T10:50:42Z</time>
      </trkpt>
      <trkpt lat="36.67725268491501" lon="117.20920791878777">
        <ele>95</ele>
        <time>2023-07-24T10:50:43Z</time>
      </trkpt>
      <trkpt lat="36.67727529849452" lon="117.20919538540079">
        <ele>95</ele>
        <time>2023-07-24T10:50:44Z</time>
      </trkpt>
      <trkpt lat="36.67729815748144" lon="117.20918258271165">
        <ele>95.4</ele>
        <time>2023-07-24T10:50:45Z</time>
      </trkpt>
      <trkpt lat="36.67732122879232" lon="117.20916981270142">
        <ele>95.4</ele>
        <time>2023-07-24T10:50:46Z</time>
      </trkpt>
      <trkpt lat="36.67734443500757" lon="117.20915719677453">
        <ele>95.4</ele>
        <time>2023-07-24T10:50:47Z</time>
      </trkpt>
      <trkpt lat="36.67736770136827" lon="117.20914466771174">
        <ele>95.4</ele>
        <time>2023-07-24T10:50:48Z</time>
      </trkpt>
      <trkpt lat="36.67739098078072" lon="117.20913221527078">
        <ele>95.4</ele>
        <time>2023-07-24T10:50:49Z</time>
      </trkpt>
      <trkpt lat="36.67741423932769" lon="117.20911973595265">
        <ele>95.4</ele>
        <time>2023-07-24T10:50:50Z</time>
      </trkpt>
      <trkpt lat="36.67743744320197" lon="117.20910728033171">
        <ele>95.4</ele>
        <time>2023-07-24T10:50:51Z</time>
      </trkpt>
      <trkpt lat="36.677460597302755" lon="117.20909482509944">
        <ele>95.4</ele>
        <time>2023-07-24T10:50:52Z</time>
      </trkpt>
      <trkpt lat="36.67748381977292" lon="117.20908250798112">
        <ele>95.4</ele>
        <time>2023-07-24T10:50:53Z</time>
      </trkpt>
      <trkpt lat="36.67750715564082" lon="117.20907042195138">
        <ele>95.4</ele>
        <time>2023-07-24T10:50:54Z</time>
      </trkpt>
      <trkpt lat="36.67753065173559" lon="117.20905858458336">
        <ele>95.2</ele>
        <time>2023-07-24T10:50:55Z</time>
      </trkpt>
      <trkpt lat="36.677554369300616" lon="117.20904703923111">
        <ele>95.2</ele>
        <time>2023-07-24T10:50:56Z</time>
      </trkpt>
      <trkpt lat="36.67757828461875" lon="117.20903578381939">
        <ele>95.2</ele>
        <time>2023-07-24T10:50:57Z</time>
      </trkpt>
      <trkpt lat="36.677602143466444" lon="117.20902496041677">
        <ele>95.2</ele>
        <time>2023-07-24T10:50:58Z</time>
      </trkpt>
      <trkpt lat="36.67762625811688" lon="117.20901448355639">
        <ele>95.2</ele>
        <time>2023-07-24T10:50:59Z</time>
      </trkpt>
      <trkpt lat="36.677650553439385" lon="117.20900434944019">
        <ele>95.2</ele>
        <time>2023-07-24T10:51:00Z</time>
      </trkpt>
      <trkpt lat="36.67767468121045" lon="117.20899479420348">
        <ele>95.2</ele>
        <time>2023-07-24T10:51:01Z</time>
      </trkpt>
      <trkpt lat="36.67769904325111" lon="117.2089857227935">
        <ele>95.2</ele>
        <time>2023-07-24T10:51:02Z</time>
      </trkpt>
      <trkpt lat="36.67772358965583" lon="117.20897712487537">
        <ele>95.2</ele>
        <time>2023-07-24T10:51:03Z</time>
      </trkpt>
      <trkpt lat="36.67774787695882" lon="117.20896885658013">
        <ele>95.2</ele>
        <time>2023-07-24T10:51:04Z</time>
      </trkpt>
      <trkpt lat="36.677771960354036" lon="117.20896091775415">
        <ele>95.2</ele>
        <time>2023-07-24T10:51:05Z</time>
      </trkpt>
      <trkpt lat="36.67779613713854" lon="117.20895324754142">
        <ele>95.2</ele>
        <time>2023-07-24T10:51:06Z</time>
      </trkpt>
      <trkpt lat="36.67782002701943" lon="117.2089459634894">
        <ele>95.2</ele>
        <time>2023-07-24T10:51:07Z</time>
      </trkpt>
      <trkpt lat="36.67784397102001" lon="117.20893907019018">
        <ele>95.2</ele>
        <time>2023-07-24T10:51:08Z</time>
      </trkpt>
      <trkpt lat="36.67786790379648" lon="117.20893265252411">
        <ele>95.2</ele>
        <time>2023-07-24T10:51:09Z</time>
      </trkpt>
      <trkpt lat="36.677891559038216" lon="117.2089267958646">
        <ele>95.2</ele>
        <time>2023-07-24T10:51:10Z</time>
      </trkpt>
      <trkpt lat="36.67791542232272" lon="117.20892119495214">
        <ele>95.2</ele>
        <time>2023-07-24T10:51:11Z</time>
      </trkpt>
      <trkpt lat="36.67793956266479" lon="117.20891571345749">
        <ele>95.2</ele>
        <time>2023-07-24T10:51:12Z</time>
      </trkpt>
      <trkpt lat="36.67796367421232" lon="117.20891033366239">
        <ele>95.2</ele>
        <time>2023-07-24T10:51:13Z</time>
      </trkpt>
      <trkpt lat="36.67798815584332" lon="117.2089049143091">
        <ele>95.2</ele>
        <time>2023-07-24T10:51:14Z</time>
      </trkpt>
      <trkpt lat="36.678012959876604" lon="117.20889957726591">
        <ele>94.7</ele>
        <time>2023-07-24T10:51:15Z</time>
      </trkpt>
      <trkpt lat="36.67803796444719" lon="117.20889437988863">
        <ele>94.7</ele>
        <time>2023-07-24T10:51:16Z</time>
      </trkpt>
      <trkpt lat="36.67806308331833" lon="117.2088892916457">
        <ele>94.7</ele>
        <time>2023-07-24T10:51:17Z</time>
      </trkpt>
      <trkpt lat="36.678088320583" lon="117.20888432238439">
        <ele>94.7</ele>
        <time>2023-07-24T10:51:18Z</time>
      </trkpt>
      <trkpt lat="36.67811332300483" lon="117.20887940967512">
        <ele>94.7</ele>
        <time>2023-07-24T10:51:19Z</time>
      </trkpt>
      <trkpt lat="36.67813845386139" lon="117.20887435824729">
        <ele>94.7</ele>
        <time>2023-07-24T10:51:20Z</time>
      </trkpt>
      <trkpt lat="36.678163665183554" lon="117.20886913372671">
        <ele>94.7</ele>
        <time>2023-07-24T10:51:21Z</time>
      </trkpt>
      <trkpt lat="36.67818848203367" lon="117.20886407304442">
        <ele>94.7</ele>
        <time>2023-07-24T10:51:22Z</time>
      </trkpt>
      <trkpt lat="36.67821320601687" lon="117.20885934505355">
        <ele>94.7</ele>
        <time>2023-07-24T10:51:23Z</time>
      </trkpt>
      <trkpt lat="36.678237712320545" lon="117.20885479141255">
        <ele>94.7</ele>
        <time>2023-07-24T10:51:24Z</time>
      </trkpt>
      <trkpt lat="36.67826162888827" lon="117.20885054975597">
        <ele>94.8</ele>
        <time>2023-07-24T10:51:25Z</time>
      </trkpt>
      <trkpt lat="36.67828532460273" lon="117.20884657425695">
        <ele>94.8</ele>
        <time>2023-07-24T10:51:26Z</time>
      </trkpt>
      <trkpt lat="36.6783087764058" lon="117.20884289357178">
        <ele>94.8</ele>
        <time>2023-07-24T10:51:27Z</time>
      </trkpt>
      <trkpt lat="36.67833176911835" lon="117.20883948475868">
        <ele>94.8</ele>
        <time>2023-07-24T10:51:28Z</time>
      </trkpt>
      <trkpt lat="36.67835472102051" lon="117.20883636528244">
        <ele>94.8</ele>
        <time>2023-07-24T10:51:29Z</time>
      </trkpt>
      <trkpt lat="36.678377692005036" lon="117.2088333872496">
        <ele>94.8</ele>
        <time>2023-07-24T10:51:30Z</time>
      </trkpt>
      <trkpt lat="36.67840047585635" lon="117.20883057323437">
        <ele>94.8</ele>
        <time>2023-07-24T10:51:31Z</time>
      </trkpt>
      <trkpt lat="36.678423530646086" lon="117.20882787990129">
        <ele>94.8</ele>
        <time>2023-07-24T10:51:32Z</time>
      </trkpt>
      <trkpt lat="36.67844682494345" lon="117.20882516162038">
        <ele>94.8</ele>
        <time>2023-07-24T10:51:33Z</time>
      </trkpt>
      <trkpt lat="36.678470334555996" lon="117.20882220848047">
        <ele>94.8</ele>
        <time>2023-07-24T10:51:34Z</time>
      </trkpt>
      <trkpt lat="36.678494048927014" lon="117.2088192218619">
        <ele>94.2</ele>
        <time>2023-07-24T10:51:35Z</time>
      </trkpt>
      <trkpt lat="36.67851800853567" lon="117.20881633942625">
        <ele>94.2</ele>
        <time>2023-07-24T10:51:36Z</time>
      </trkpt>
      <trkpt lat="36.67854220772125" lon="117.20881369547618">
        <ele>94.2</ele>
        <time>2023-07-24T10:51:37Z</time>
      </trkpt>
      <trkpt lat="36.6785666831589" lon="117.20881112135703">
        <ele>94.2</ele>
        <time>2023-07-24T10:51:38Z</time>
      </trkpt>
      <trkpt lat="36.678591341429964" lon="117.20880865645479">
        <ele>94.2</ele>
        <time>2023-07-24T10:51:39Z</time>
      </trkpt>
      <trkpt lat="36.67861607987199" lon="117.20880618631828">
        <ele>94.2</ele>
        <time>2023-07-24T10:51:40Z</time>
      </trkpt>
      <trkpt lat="36.67864082481874" lon="117.20880374545598">
        <ele>94.2</ele>
        <time>2023-07-24T10:51:41Z</time>
      </trkpt>
      <trkpt lat="36.67866545849368" lon="117.20880139717092">
        <ele>94.2</ele>
        <time>2023-07-24T10:51:42Z</time>
      </trkpt>
      <trkpt lat="36.678689860490614" lon="117.20879921146756">
        <ele>94.2</ele>
        <time>2023-07-24T10:51:43Z</time>
      </trkpt>
      <trkpt lat="36.67871402547814" lon="117.2087971008785">
        <ele>94.2</ele>
        <time>2023-07-24T10:51:44Z</time>
      </trkpt>
      <trkpt lat="36.67873759242002" lon="117.20879501444634">
        <ele>94.4</ele>
        <time>2023-07-24T10:51:45Z</time>
      </trkpt>
      <trkpt lat="36.67876095943186" lon="117.2087929631079">
        <ele>94.4</ele>
        <time>2023-07-24T10:51:46Z</time>
      </trkpt>
      <trkpt lat="36.67878410162205" lon="117.20879102331705">
        <ele>94.4</ele>
        <time>2023-07-24T10:51:47Z</time>
      </trkpt>
      <trkpt lat="36.678807036890035" lon="117.2087892630037">
        <ele>94.4</ele>
        <time>2023-07-24T10:51:48Z</time>
      </trkpt>
      <trkpt lat="36.67882977772775" lon="117.20878772324339">
        <ele>94.4</ele>
        <time>2023-07-24T10:51:49Z</time>
      </trkpt>
      <trkpt lat="36.67885244547693" lon="117.20878611982482">
        <ele>94.4</ele>
        <time>2023-07-24T10:51:50Z</time>
      </trkpt>
      <trkpt lat="36.678875047249726" lon="117.20878469579397">
        <ele>94.4</ele>
        <time>2023-07-24T10:51:51Z</time>
      </trkpt>
      <trkpt lat="36.678897621185534" lon="117.20878334112382">
        <ele>94.4</ele>
        <time>2023-07-24T10:51:52Z</time>
      </trkpt>
      <trkpt lat="36.67892020261485" lon="117.20878238060706">
        <ele>94.4</ele>
        <time>2023-07-24T10:51:53Z</time>
      </trkpt>
      <trkpt lat="36.67894282934768" lon="117.20878176110823">
        <ele>94.4</ele>
        <time>2023-07-24T10:51:54Z</time>
      </trkpt>
      <trkpt lat="36.6789655521961" lon="117.2087816455502">
        <ele>94.1</ele>
        <time>2023-07-24T10:51:55Z</time>
      </trkpt>
      <trkpt lat="36.67898848325609" lon="117.20878188264187">
        <ele>94.1</ele>
        <time>2023-07-24T10:51:56Z</time>
      </trkpt>
      <trkpt lat="36.67901164775251" lon="117.20878267159216">
        <ele>94.1</ele>
        <time>2023-07-24T10:51:57Z</time>
      </trkpt>
      <trkpt lat="36.67903505918396" lon="117.20878361000963">
        <ele>94.1</ele>
        <time>2023-07-24T10:51:58Z</time>
      </trkpt>
      <trkpt lat="36.67905842041361" lon="117.20878435543655">
        <ele>94.1</ele>
        <time>2023-07-24T10:51:59Z</time>
      </trkpt>
      <trkpt lat="36.67908209819716" lon="117.20878507906919">
        <ele>94.1</ele>
        <time>2023-07-24T10:52:00Z</time>
      </trkpt>
      <trkpt lat="36.67910596838587" lon="117.20878613091065">
        <ele>94.1</ele>
        <time>2023-07-24T10:52:01Z</time>
      </trkpt>
      <trkpt lat="36.67912972427512" lon="117.20878744666894">
        <ele>94.1</ele>
        <time>2023-07-24T10:52:02Z</time>
      </trkpt>
      <trkpt lat="36.67915340947063" lon="117.20878907420634">
        <ele>94.1</ele>
        <time>2023-07-24T10:52:03Z</time>
      </trkpt>
      <trkpt lat="36.67917707987542" lon="117.20879065324863">
        <ele>94.1</ele>
        <time>2023-07-24T10:52:04Z</time>
      </trkpt>
      <trkpt lat="36.679200931183054" lon="117.20879239119759">
        <ele>94</ele>
        <time>2023-07-24T10:52:05Z</time>
      </trkpt>
      <trkpt lat="36.67922508429096" lon="117.20879417160305">
        <ele>94</ele>
        <time>2023-07-24T10:52:06Z</time>
      </trkpt>
      <trkpt lat="36.67924958809924" lon="117.20879614031861">
        <ele>94</ele>
        <time>2023-07-24T10:52:07Z</time>
      </trkpt>
      <trkpt lat="36.67927446562046" lon="117.20879786031976">
        <ele>94</ele>
        <time>2023-07-24T10:52:08Z</time>
      </trkpt>
      <trkpt lat="36.67929961923316" lon="117.20879939373025">
        <ele>94</ele>
        <time>2023-07-24T10:52:09Z</time>
      </trkpt>
      <trkpt lat="36.67932485003148" lon="117.20880026353063">
        <ele>94</ele>
        <time>2023-07-24T10:52:10Z</time>
      </trkpt>
      <trkpt lat="36.67934986570181" lon="117.2088005352815">
        <ele>94</ele>
        <time>2023-07-24T10:52:11Z</time>
      </trkpt>
      <trkpt lat="36.67937496561597" lon="117.20880009474617">
        <ele>94</ele>
        <time>2023-07-24T10:52:12Z</time>
      </trkpt>
      <trkpt lat="36.679400118340176" lon="117.20879887632326">
        <ele>94</ele>
        <time>2023-07-24T10:52:13Z</time>
      </trkpt>
      <trkpt lat="36.67942533590262" lon="117.20879719637801">
        <ele>94</ele>
        <time>2023-07-24T10:52:14Z</time>
      </trkpt>
      <trkpt lat="36.6794508221699" lon="117.20879494201698">
        <ele>94</ele>
        <time>2023-07-24T10:52:15Z</time>
      </trkpt>
      <trkpt lat="36.679475963460625" lon="117.20879212995185">
        <ele>94</ele>
        <time>2023-07-24T10:52:16Z</time>
      </trkpt>
      <trkpt lat="36.679500664064115" lon="117.20878896210111">
        <ele>94</ele>
        <time>2023-07-24T10:52:17Z</time>
      </trkpt>
      <trkpt lat="36.67952480965878" lon="117.2087853131608">
        <ele>94</ele>
        <time>2023-07-24T10:52:18Z</time>
      </trkpt>
      <trkpt lat="36.679548128175355" lon="117.2087816508302">
        <ele>94</ele>
        <time>2023-07-24T10:52:19Z</time>
      </trkpt>
      <trkpt lat="36.679571043887144" lon="117.20877796900093">
        <ele>94</ele>
        <time>2023-07-24T10:52:20Z</time>
      </trkpt>
      <trkpt lat="36.67959367287814" lon="117.20877482154576">
        <ele>94</ele>
        <time>2023-07-24T10:52:21Z</time>
      </trkpt>
      <trkpt lat="36.67961602448417" lon="117.20877186190093">
        <ele>94</ele>
        <time>2023-07-24T10:52:22Z</time>
      </trkpt>
      <trkpt lat="36.67963791782156" lon="117.20876944126495">
        <ele>94</ele>
        <time>2023-07-24T10:52:23Z</time>
      </trkpt>
      <trkpt lat="36.679659413746734" lon="117.20876750922696">
        <ele>94</ele>
        <time>2023-07-24T10:52:24Z</time>
      </trkpt>
      <trkpt lat="36.679680948850184" lon="117.20876587395306">
        <ele>93.5</ele>
        <time>2023-07-24T10:52:25Z</time>
      </trkpt>
      <trkpt lat="36.67970234384408" lon="117.20876464237871">
        <ele>93.5</ele>
        <time>2023-07-24T10:52:26Z</time>
      </trkpt>
      <trkpt lat="36.67972366051626" lon="117.20876362899811">
        <ele>93.5</ele>
        <time>2023-07-24T10:52:27Z</time>
      </trkpt>
      <trkpt lat="36.679745244768675" lon="117.2087625519399">
        <ele>93.5</ele>
        <time>2023-07-24T10:52:28Z</time>
      </trkpt>
      <trkpt lat="36.67976708532568" lon="117.20876159394227">
        <ele>93.5</ele>
        <time>2023-07-24T10:52:29Z</time>
      </trkpt>
      <trkpt lat="36.67978912465001" lon="117.20876046339801">
        <ele>93.5</ele>
        <time>2023-07-24T10:52:30Z</time>
      </trkpt>
      <trkpt lat="36.67981136219104" lon="117.20875919885911">
        <ele>93.5</ele>
        <time>2023-07-24T10:52:31Z</time>
      </trkpt>
      <trkpt lat="36.67983385718902" lon="117.20875785402104">
        <ele>93.5</ele>
        <time>2023-07-24T10:52:32Z</time>
      </trkpt>
      <trkpt lat="36.67985661695679" lon="117.2087565908367">
        <ele>93.5</ele>
        <time>2023-07-24T10:52:33Z</time>
      </trkpt>
      <trkpt lat="36.67987961761056" lon="117.20875516684826">
        <ele>93.5</ele>
        <time>2023-07-24T10:52:34Z</time>
      </trkpt>
      <trkpt lat="36.67990288528845" lon="117.2087536309924">
        <ele>93.5</ele>
        <time>2023-07-24T10:52:35Z</time>
      </trkpt>
      <trkpt lat="36.67992631028826" lon="117.20875201505072">
        <ele>93.5</ele>
        <time>2023-07-24T10:52:36Z</time>
      </trkpt>
      <trkpt lat="36.679949774237656" lon="117.20875030107764">
        <ele>93.5</ele>
        <time>2023-07-24T10:52:37Z</time>
      </trkpt>
      <trkpt lat="36.67997331317401" lon="117.20874857518929">
        <ele>93.5</ele>
        <time>2023-07-24T10:52:38Z</time>
      </trkpt>
      <trkpt lat="36.67999691177422" lon="117.2087468832814">
        <ele>93.5</ele>
        <time>2023-07-24T10:52:39Z</time>
      </trkpt>
      <trkpt lat="36.68002058815181" lon="117.20874534677259">
        <ele>93.5</ele>
        <time>2023-07-24T10:52:40Z</time>
      </trkpt>
      <trkpt lat="36.68004434052691" lon="117.20874389315487">
        <ele>93.5</ele>
        <time>2023-07-24T10:52:41Z</time>
      </trkpt>
      <trkpt lat="36.68006787093573" lon="117.20874240153482">
        <ele>93.5</ele>
        <time>2023-07-24T10:52:42Z</time>
      </trkpt>
      <trkpt lat="36.68009158523312" lon="117.2087409038725">
        <ele>93.5</ele>
        <time>2023-07-24T10:52:43Z</time>
      </trkpt>
      <trkpt lat="36.680115424751506" lon="117.20873924396625">
        <ele>93.5</ele>
        <time>2023-07-24T10:52:44Z</time>
      </trkpt>
      <trkpt lat="36.68013936342772" lon="117.2087373526089">
        <ele>93.3</ele>
        <time>2023-07-24T10:52:45Z</time>
      </trkpt>
      <trkpt lat="36.680163661882126" lon="117.20873517242465">
        <ele>93.3</ele>
        <time>2023-07-24T10:52:46Z</time>
      </trkpt>
      <trkpt lat="36.680187968065944" lon="117.20873288191727">
        <ele>93.3</ele>
        <time>2023-07-24T10:52:47Z</time>
      </trkpt>
      <trkpt lat="36.68021234054249" lon="117.20873067450404">
        <ele>93.3</ele>
        <time>2023-07-24T10:52:48Z</time>
      </trkpt>
      <trkpt lat="36.680236792305756" lon="117.20872830701963">
        <ele>93.3</ele>
        <time>2023-07-24T10:52:49Z</time>
      </trkpt>
      <trkpt lat="36.680261052326635" lon="117.20872591331165">
        <ele>93.3</ele>
        <time>2023-07-24T10:52:50Z</time>
      </trkpt>
      <trkpt lat="36.680285493049446" lon="117.20872343029271">
        <ele>93.3</ele>
        <time>2023-07-24T10:52:51Z</time>
      </trkpt>
      <trkpt lat="36.68031007138702" lon="117.2087209507153">
        <ele>93.3</ele>
        <time>2023-07-24T10:52:52Z</time>
      </trkpt>
      <trkpt lat="36.68033476523551" lon="117.2087188392482">
        <ele>93.3</ele>
        <time>2023-07-24T10:52:53Z</time>
      </trkpt>
      <trkpt lat="36.68035954577053" lon="117.20871680137873">
        <ele>93.3</ele>
        <time>2023-07-24T10:52:54Z</time>
      </trkpt>
      <trkpt lat="36.68038441308017" lon="117.20871470431945">
        <ele>93.4</ele>
        <time>2023-07-24T10:52:55Z</time>
      </trkpt>
      <trkpt lat="36.68040936723184" lon="117.20871280926717">
        <ele>93.4</ele>
        <time>2023-07-24T10:52:56Z</time>
      </trkpt>
      <trkpt lat="36.68043442091823" lon="117.20871111752191">
        <ele>93.4</ele>
        <time>2023-07-24T10:52:57Z</time>
      </trkpt>
      <trkpt lat="36.6804596130638" lon="117.20870938671548">
        <ele>93.4</ele>
        <time>2023-07-24T10:52:58Z</time>
      </trkpt>
      <trkpt lat="36.68048496714136" lon="117.20870760188129">
        <ele>93.4</ele>
        <time>2023-07-24T10:52:59Z</time>
      </trkpt>
      <trkpt lat="36.68051077220065" lon="117.20870583831505">
        <ele>93.4</ele>
        <time>2023-07-24T10:53:00Z</time>
      </trkpt>
      <trkpt lat="36.680536942338776" lon="117.2087040946669">
        <ele>93.4</ele>
        <time>2023-07-24T10:53:01Z</time>
      </trkpt>
      <trkpt lat="36.68056314330157" lon="117.20870232499917">
        <ele>93.4</ele>
        <time>2023-07-24T10:53:02Z</time>
      </trkpt>
      <trkpt lat="36.68058938262622" lon="117.20870054754583">
        <ele>93.4</ele>
        <time>2023-07-24T10:53:03Z</time>
      </trkpt>
      <trkpt lat="36.68061567060254" lon="117.20869842341439">
        <ele>93.4</ele>
        <time>2023-07-24T10:53:04Z</time>
      </trkpt>
      <trkpt lat="36.68064163101657" lon="117.20869606728172">
        <ele>93.3</ele>
        <time>2023-07-24T10:53:05Z</time>
      </trkpt>
      <trkpt lat="36.680667630939645" lon="117.20869395197766">
        <ele>93.3</ele>
        <time>2023-07-24T10:53:06Z</time>
      </trkpt>
      <trkpt lat="36.680693639893356" lon="117.20869181463829">
        <ele>93.3</ele>
        <time>2023-07-24T10:53:07Z</time>
      </trkpt>
      <trkpt lat="36.68071934779947" lon="117.20868959958415">
        <ele>93.3</ele>
        <time>2023-07-24T10:53:08Z</time>
      </trkpt>
      <trkpt lat="36.68074505213776" lon="117.20868752109766">
        <ele>93.3</ele>
        <time>2023-07-24T10:53:09Z</time>
      </trkpt>
      <trkpt lat="36.68077066757072" lon="117.2086854282554">
        <ele>93.3</ele>
        <time>2023-07-24T10:53:10Z</time>
      </trkpt>
      <trkpt lat="36.680795849691734" lon="117.20868315222181">
        <ele>93.3</ele>
        <time>2023-07-24T10:53:11Z</time>
      </trkpt>
      <trkpt lat="36.68082062370771" lon="117.20868087694727">
        <ele>93.3</ele>
        <time>2023-07-24T10:53:12Z</time>
      </trkpt>
      <trkpt lat="36.68084530192987" lon="117.20867865263159">
        <ele>93.3</ele>
        <time>2023-07-24T10:53:13Z</time>
      </trkpt>
      <trkpt lat="36.68086983668153" lon="117.2086765630096">
        <ele>93.3</ele>
        <time>2023-07-24T10:53:14Z</time>
      </trkpt>
      <trkpt lat="36.68089417321314" lon="117.20867493351867">
        <ele>93</ele>
        <time>2023-07-24T10:53:15Z</time>
      </trkpt>
      <trkpt lat="36.68091868931548" lon="117.20867392398594">
        <ele>93</ele>
        <time>2023-07-24T10:53:16Z</time>
      </trkpt>
      <trkpt lat="36.68094301148106" lon="117.20867329495678">
        <ele>93</ele>
        <time>2023-07-24T10:53:17Z</time>
      </trkpt>
      <trkpt lat="36.68096718753414" lon="117.20867296123382">
        <ele>93</ele>
        <time>2023-07-24T10:53:18Z</time>
      </trkpt>
      <trkpt lat="36.68099126989249" lon="117.20867284982093">
        <ele>93</ele>
        <time>2023-07-24T10:53:19Z</time>
      </trkpt>
      <trkpt lat="36.68101501935464" lon="117.20867278659706">
        <ele>93</ele>
        <time>2023-07-24T10:53:20Z</time>
      </trkpt>
      <trkpt lat="36.68103884585045" lon="117.20867271656228">
        <ele>93</ele>
        <time>2023-07-24T10:53:21Z</time>
      </trkpt>
      <trkpt lat="36.681062722621114" lon="117.20867326957917">
        <ele>93</ele>
        <time>2023-07-24T10:53:22Z</time>
      </trkpt>
      <trkpt lat="36.68108669448141" lon="117.20867430017903">
        <ele>93</ele>
        <time>2023-07-24T10:53:23Z</time>
      </trkpt>
      <trkpt lat="36.68111076076759" lon="117.20867571245006">
        <ele>93</ele>
        <time>2023-07-24T10:53:24Z</time>
      </trkpt>
      <trkpt lat="36.68113493884412" lon="117.20867729705994">
        <ele>92.8</ele>
        <time>2023-07-24T10:53:25Z</time>
      </trkpt>
      <trkpt lat="36.68115925758046" lon="117.20867901584954">
        <ele>92.8</ele>
        <time>2023-07-24T10:53:26Z</time>
      </trkpt>
      <trkpt lat="36.681183756753626" lon="117.20868038559557">
        <ele>92.8</ele>
        <time>2023-07-24T10:53:27Z</time>
      </trkpt>
      <trkpt lat="36.68120842685931" lon="117.20868136649622">
        <ele>92.8</ele>
        <time>2023-07-24T10:53:28Z</time>
      </trkpt>
      <trkpt lat="36.68123323508607" lon="117.20868211149688">
        <ele>92.8</ele>
        <time>2023-07-24T10:53:29Z</time>
      </trkpt>
      <trkpt lat="36.68125845643913" lon="117.20868268798175">
        <ele>92.8</ele>
        <time>2023-07-24T10:53:30Z</time>
      </trkpt>
      <trkpt lat="36.68128395295287" lon="117.20868304980048">
        <ele>92.8</ele>
        <time>2023-07-24T10:53:31Z</time>
      </trkpt>
      <trkpt lat="36.68130927432508" lon="117.20868328494277">
        <ele>92.8</ele>
        <time>2023-07-24T10:53:32Z</time>
      </trkpt>
      <trkpt lat="36.68133449047327" lon="117.20868305833551">
        <ele>92.8</ele>
        <time>2023-07-24T10:53:33Z</time>
      </trkpt>
      <trkpt lat="36.681359589876216" lon="117.20868243184424">
        <ele>92.8</ele>
        <time>2023-07-24T10:53:34Z</time>
      </trkpt>
      <trkpt lat="36.68138426885632" lon="117.20868149783942">
        <ele>92.5</ele>
        <time>2023-07-24T10:53:35Z</time>
      </trkpt>
      <trkpt lat="36.681408927638635" lon="117.20868048899376">
        <ele>92.5</ele>
        <time>2023-07-24T10:53:36Z</time>
      </trkpt>
      <trkpt lat="36.68143346500875" lon="117.20867991100104">
        <ele>92.5</ele>
        <time>2023-07-24T10:53:37Z</time>
      </trkpt>
      <trkpt lat="36.68145739330714" lon="117.2086804835928">
        <ele>92.5</ele>
        <time>2023-07-24T10:53:38Z</time>
      </trkpt>
      <trkpt lat="36.68148075881641" lon="117.20868228686285">
        <ele>92.5</ele>
        <time>2023-07-24T10:53:39Z</time>
      </trkpt>
      <trkpt lat="36.6815031984127" lon="117.20868629864088">
        <ele>92.5</ele>
        <time>2023-07-24T10:53:40Z</time>
      </trkpt>
      <trkpt lat="36.68152455689299" lon="117.20869245903337">
        <ele>92.5</ele>
        <time>2023-07-24T10:53:41Z</time>
      </trkpt>
      <trkpt lat="36.6815446083223" lon="117.20870106971323">
        <ele>92.5</ele>
        <time>2023-07-24T10:53:42Z</time>
      </trkpt>
      <trkpt lat="36.68156319249122" lon="117.20871229384687">
        <ele>92.5</ele>
        <time>2023-07-24T10:53:43Z</time>
      </trkpt>
      <trkpt lat="36.68158044970517" lon="117.2087264269374">
        <ele>92.5</ele>
        <time>2023-07-24T10:53:44Z</time>
      </trkpt>
      <trkpt lat="36.68159636330468" lon="117.20874327706193">
        <ele>91.9</ele>
        <time>2023-07-24T10:53:45Z</time>
      </trkpt>
      <trkpt lat="36.68161093659748" lon="117.20876274303797">
        <ele>91.9</ele>
        <time>2023-07-24T10:53:46Z</time>
      </trkpt>
      <trkpt lat="36.6816237414591" lon="117.20878502419444">
        <ele>91.9</ele>
        <time>2023-07-24T10:53:47Z</time>
      </trkpt>
      <trkpt lat="36.681634922988486" lon="117.20880927854486">
        <ele>91.9</ele>
        <time>2023-07-24T10:53:48Z</time>
      </trkpt>
      <trkpt lat="36.681644729820896" lon="117.20883545980078">
        <ele>91.9</ele>
        <time>2023-07-24T10:53:49Z</time>
      </trkpt>
      <trkpt lat="36.68165317327473" lon="117.20886317635858">
        <ele>91.9</ele>
        <time>2023-07-24T10:53:50Z</time>
      </trkpt>
      <trkpt lat="36.68166086021988" lon="117.20889118277763">
        <ele>91.9</ele>
        <time>2023-07-24T10:53:51Z</time>
      </trkpt>
      <trkpt lat="36.68166759272714" lon="117.20891993546479">
        <ele>91.9</ele>
        <time>2023-07-24T10:53:52Z</time>
      </trkpt>
      <trkpt lat="36.68167368072339" lon="117.20894899445334">
        <ele>91.9</ele>
        <time>2023-07-24T10:53:53Z</time>
      </trkpt>
      <trkpt lat="36.68167939451945" lon="117.20897816671668">
        <ele>91.9</ele>
        <time>2023-07-24T10:53:54Z</time>
      </trkpt>
      <trkpt lat="36.68168455536878" lon="117.20900730642448">
        <ele>92.5</ele>
        <time>2023-07-24T10:53:55Z</time>
      </trkpt>
      <trkpt lat="36.68169086872036" lon="117.20903630386611">
        <ele>92.5</ele>
        <time>2023-07-24T10:53:56Z</time>
      </trkpt>
      <trkpt lat="36.681695991713" lon="117.20906628662843">
        <ele>92.5</ele>
        <time>2023-07-24T10:53:57Z</time>
      </trkpt>
      <trkpt lat="36.68170052515128" lon="117.20909405807946">
        <ele>92.5</ele>
        <time>2023-07-24T10:53:58Z</time>
      </trkpt>
      <trkpt lat="36.68170434201778" lon="117.2091218906052">
        <ele>92.5</ele>
        <time>2023-07-24T10:53:59Z</time>
      </trkpt>
    </trkseg>
  </trk>
</gpx>