<?xml version="1.0" encoding="UTF-8"?>
<gpx xmlns="http://www.topografix.com/GPX/1/1" xmlns:gpxtpx="http://www.garmin.com/xmlschemas/TrackPointExtension/v1" xmlns:xsi="http://www.w3.org/2001/XMLSchema-instance" xsi:schemaLocation="http://www.topografix.com/GPX/1/1 http://www.topografix.com/GPX/1/1/gpx.xsd" version="1.1" creator="gpx.py -- https://github.com/tkrajina/gpxpy">
  <trk>
    <name>gpx from codoon</name>
    <type>Run</type>
    <trkseg>
      <trkpt lat="39.10997177208215" lon="117.10342297812103">
        <ele>-1.1</ele>
        <time>2023-09-18T11:24:06Z</time>
      </trkpt>
      <trkpt lat="39.10999761944664" lon="117.10337240257252">
        <ele>-1.1</ele>
        <time>2023-09-18T11:24:07Z</time>
      </trkpt>
      <trkpt lat="39.110005803535245" lon="117.10335515685537">
        <ele>-1.1</ele>
        <time>2023-09-18T11:24:08Z</time>
      </trkpt>
      <trkpt lat="39.110021240987834" lon="117.10332335610566">
        <ele>-1.1</ele>
        <time>2023-09-18T11:24:09Z</time>
      </trkpt>
      <trkpt lat="39.11003652742011" lon="117.1032910350307">
        <ele>-1.1</ele>
        <time>2023-09-18T11:24:10Z</time>
      </trkpt>
      <trkpt lat="39.11005140376996" lon="117.1032599001229">
        <ele>-1.1</ele>
        <time>2023-09-18T11:24:11Z</time>
      </trkpt>
      <trkpt lat="39.11006734112093" lon="117.10322685751757">
        <ele>-1.5</ele>
        <time>2023-09-18T11:24:12Z</time>
      </trkpt>
      <trkpt lat="39.11008492598699" lon="117.10319105603288">
        <ele>-1.5</ele>
        <time>2023-09-18T11:24:13Z</time>
      </trkpt>
      <trkpt lat="39.110102747871494" lon="117.10315587220356">
        <ele>-1.5</ele>
        <time>2023-09-18T11:24:14Z</time>
      </trkpt>
      <trkpt lat="39.11012193651725" lon="117.103119566593">
        <ele>-1.5</ele>
        <time>2023-09-18T11:24:15Z</time>
      </trkpt>
      <trkpt lat="39.110138937973595" lon="117.1030886101055">
        <ele>-1.5</ele>
        <time>2023-09-18T11:24:16Z</time>
      </trkpt>
      <trkpt lat="39.11015796141469" lon="117.10305732076172">
        <ele>-1.5</ele>
        <time>2023-09-18T11:24:17Z</time>
      </trkpt>
      <trkpt lat="39.11017528611261" lon="117.10302850966518">
        <ele>-1.5</ele>
        <time>2023-09-18T11:24:18Z</time>
      </trkpt>
      <trkpt lat="39.11019194348914" lon="117.10299879361162">
        <ele>-1.5</ele>
        <time>2023-09-18T11:24:19Z</time>
      </trkpt>
      <trkpt lat="39.11020782235017" lon="117.10296787290244">
        <ele>-1.5</ele>
        <time>2023-09-18T11:24:20Z</time>
      </trkpt>
      <trkpt lat="39.110222376839445" lon="117.10293822979325">
        <ele>-1.5</ele>
        <time>2023-09-18T11:24:21Z</time>
      </trkpt>
      <trkpt lat="39.11023376465368" lon="117.10290922263525">
        <ele>-1.8</ele>
        <time>2023-09-18T11:24:22Z</time>
      </trkpt>
      <trkpt lat="39.110240305810116" lon="117.10287648217609">
        <ele>-1.8</ele>
        <time>2023-09-18T11:24:23Z</time>
      </trkpt>
      <trkpt lat="39.110247165946504" lon="117.10284097985217">
        <ele>-1.8</ele>
        <time>2023-09-18T11:24:24Z</time>
      </trkpt>
      <trkpt lat="39.11025693699449" lon="117.10280131925316">
        <ele>-1.8</ele>
        <time>2023-09-18T11:24:25Z</time>
      </trkpt>
      <trkpt lat="39.11026832473743" lon="117.10276628786907">
        <ele>-1.8</ele>
        <time>2023-09-18T11:24:26Z</time>
      </trkpt>
      <trkpt lat="39.11027839926203" lon="117.10273195300073">
        <ele>-1.8</ele>
        <time>2023-09-18T11:24:27Z</time>
      </trkpt>
      <trkpt lat="39.11028731893895" lon="117.10269791776487">
        <ele>-1.8</ele>
        <time>2023-09-18T11:24:28Z</time>
      </trkpt>
      <trkpt lat="39.110295268439515" lon="117.10266501949737">
        <ele>-1.8</ele>
        <time>2023-09-18T11:24:29Z</time>
      </trkpt>
      <trkpt lat="39.11030362813418" lon="117.10262884261094">
        <ele>-1.8</ele>
        <time>2023-09-18T11:24:30Z</time>
      </trkpt>
      <trkpt lat="39.11031172336172" lon="117.10259515827413">
        <ele>-1.8</ele>
        <time>2023-09-18T11:24:31Z</time>
      </trkpt>
      <trkpt lat="39.11032084631542" lon="117.10255739078951">
        <ele>-2.7</ele>
        <time>2023-09-18T11:24:33Z</time>
      </trkpt>
      <trkpt lat="39.11032867642241" lon="117.10252268725674">
        <ele>-2.7</ele>
        <time>2023-09-18T11:24:34Z</time>
      </trkpt>
      <trkpt lat="39.1103354912954" lon="117.10248597768388">
        <ele>-2.7</ele>
        <time>2023-09-18T11:24:35Z</time>
      </trkpt>
      <trkpt lat="39.110340279414146" lon="117.10245275554821">
        <ele>-2.7</ele>
        <time>2023-09-18T11:24:36Z</time>
      </trkpt>
      <trkpt lat="39.110344260151024" lon="117.10242044553522">
        <ele>-2.7</ele>
        <time>2023-09-18T11:24:37Z</time>
      </trkpt>
      <trkpt lat="39.110347706788964" lon="117.10238787084484">
        <ele>-2.7</ele>
        <time>2023-09-18T11:24:38Z</time>
      </trkpt>
      <trkpt lat="39.1103506902777" lon="117.10235558957604">
        <ele>-2.7</ele>
        <time>2023-09-18T11:24:39Z</time>
      </trkpt>
      <trkpt lat="39.11035317448687" lon="117.10231999872285">
        <ele>-2.7</ele>
        <time>2023-09-18T11:24:40Z</time>
      </trkpt>
      <trkpt lat="39.11035454655487" lon="117.10228685426604">
        <ele>-2.7</ele>
        <time>2023-09-18T11:24:41Z</time>
      </trkpt>
      <trkpt lat="39.11035543907671" lon="117.10225231255698">
        <ele>-2</ele>
        <time>2023-09-18T11:24:42Z</time>
      </trkpt>
      <trkpt lat="39.1103561849439" lon="117.10221741047725">
        <ele>-2</ele>
        <time>2023-09-18T11:24:43Z</time>
      </trkpt>
      <trkpt lat="39.11035700848098" lon="117.10217959540564">
        <ele>-2</ele>
        <time>2023-09-18T11:24:44Z</time>
      </trkpt>
      <trkpt lat="39.11035918028346" lon="117.1021433372819">
        <ele>-2</ele>
        <time>2023-09-18T11:24:45Z</time>
      </trkpt>
      <trkpt lat="39.110360807751384" lon="117.10210945576617">
        <ele>-2</ele>
        <time>2023-09-18T11:24:46Z</time>
      </trkpt>
      <trkpt lat="39.110364258825314" lon="117.1020757578341">
        <ele>-2</ele>
        <time>2023-09-18T11:24:47Z</time>
      </trkpt>
      <trkpt lat="39.110367408866345" lon="117.10204169446632">
        <ele>-2</ele>
        <time>2023-09-18T11:24:48Z</time>
      </trkpt>
      <trkpt lat="39.110371066411126" lon="117.10201008363268">
        <ele>-2</ele>
        <time>2023-09-18T11:24:49Z</time>
      </trkpt>
      <trkpt lat="39.1103697495118" lon="117.10197591808979">
        <ele>-2</ele>
        <time>2023-09-18T11:24:51Z</time>
      </trkpt>
      <trkpt lat="39.11036846704846" lon="117.10193769024384">
        <ele>-2.7</ele>
        <time>2023-09-18T11:24:52Z</time>
      </trkpt>
      <trkpt lat="39.11036793542899" lon="117.10189317286166">
        <ele>-2.7</ele>
        <time>2023-09-18T11:24:53Z</time>
      </trkpt>
      <trkpt lat="39.11037083383063" lon="117.1018546530893">
        <ele>-2.7</ele>
        <time>2023-09-18T11:24:54Z</time>
      </trkpt>
      <trkpt lat="39.110372818878176" lon="117.1018178345812">
        <ele>-2.7</ele>
        <time>2023-09-18T11:24:55Z</time>
      </trkpt>
      <trkpt lat="39.11037357737309" lon="117.10178642618176">
        <ele>-2.7</ele>
        <time>2023-09-18T11:24:56Z</time>
      </trkpt>
      <trkpt lat="39.11037346174989" lon="117.101755504862">
        <ele>-2.7</ele>
        <time>2023-09-18T11:24:57Z</time>
      </trkpt>
      <trkpt lat="39.11037229807924" lon="117.10172408131727">
        <ele>-2.7</ele>
        <time>2023-09-18T11:24:58Z</time>
      </trkpt>
      <trkpt lat="39.110370712949724" lon="117.10169257723942">
        <ele>-2.7</ele>
        <time>2023-09-18T11:24:59Z</time>
      </trkpt>
      <trkpt lat="39.11036879287129" lon="117.10165725261623">
        <ele>-2.7</ele>
        <time>2023-09-18T11:25:00Z</time>
      </trkpt>
      <trkpt lat="39.110366918625964" lon="117.10162459082463">
        <ele>-2.7</ele>
        <time>2023-09-18T11:25:01Z</time>
      </trkpt>
      <trkpt lat="39.110364580480415" lon="117.10158818144937">
        <ele>-2.9</ele>
        <time>2023-09-18T11:25:02Z</time>
      </trkpt>
      <trkpt lat="39.110361957008" lon="117.10155398440479">
        <ele>-2.9</ele>
        <time>2023-09-18T11:25:03Z</time>
      </trkpt>
      <trkpt lat="39.11035902857554" lon="117.1015188632803">
        <ele>-2.9</ele>
        <time>2023-09-18T11:25:04Z</time>
      </trkpt>
      <trkpt lat="39.1103573989294" lon="117.10148344439013">
        <ele>-2.9</ele>
        <time>2023-09-18T11:25:05Z</time>
      </trkpt>
      <trkpt lat="39.11035679019111" lon="117.10144884771185">
        <ele>-2.9</ele>
        <time>2023-09-18T11:25:06Z</time>
      </trkpt>
      <trkpt lat="39.11035718606939" lon="117.10141707108056">
        <ele>-2.9</ele>
        <time>2023-09-18T11:25:07Z</time>
      </trkpt>
      <trkpt lat="39.110352973982636" lon="117.101385567264">
        <ele>-2.9</ele>
        <time>2023-09-18T11:25:09Z</time>
      </trkpt>
      <trkpt lat="39.11034807079451" lon="117.10135020658166">
        <ele>-2.9</ele>
        <time>2023-09-18T11:25:10Z</time>
      </trkpt>
      <trkpt lat="39.11034197533382" lon="117.10130857654188">
        <ele>-2.9</ele>
        <time>2023-09-18T11:25:11Z</time>
      </trkpt>
      <trkpt lat="39.110339258224776" lon="117.10127023513753">
        <ele>-2.1</ele>
        <time>2023-09-18T11:25:12Z</time>
      </trkpt>
      <trkpt lat="39.11033571209067" lon="117.10123285929608">
        <ele>-2.1</ele>
        <time>2023-09-18T11:25:13Z</time>
      </trkpt>
      <trkpt lat="39.11033209490741" lon="117.10120028150332">
        <ele>-2.1</ele>
        <time>2023-09-18T11:25:14Z</time>
      </trkpt>
      <trkpt lat="39.11032790544286" lon="117.10116503615308">
        <ele>-2.1</ele>
        <time>2023-09-18T11:25:15Z</time>
      </trkpt>
      <trkpt lat="39.11032358222642" lon="117.10113041356101">
        <ele>-2.1</ele>
        <time>2023-09-18T11:25:16Z</time>
      </trkpt>
      <trkpt lat="39.11031951936199" lon="117.10109581226392">
        <ele>-2.1</ele>
        <time>2023-09-18T11:25:17Z</time>
      </trkpt>
      <trkpt lat="39.1103159699501" lon="117.10106044080814">
        <ele>-2.1</ele>
        <time>2023-09-18T11:25:18Z</time>
      </trkpt>
      <trkpt lat="39.11031366514481" lon="117.10102673575086">
        <ele>-2.1</ele>
        <time>2023-09-18T11:25:19Z</time>
      </trkpt>
      <trkpt lat="39.110311984476716" lon="117.10099179312515">
        <ele>-2.1</ele>
        <time>2023-09-18T11:25:20Z</time>
      </trkpt>
      <trkpt lat="39.1103130896907" lon="117.10096053295584">
        <ele>-2.1</ele>
        <time>2023-09-18T11:25:21Z</time>
      </trkpt>
      <trkpt lat="39.11031160941614" lon="117.10093044490444">
        <ele>-2.2</ele>
        <time>2023-09-18T11:25:22Z</time>
      </trkpt>
      <trkpt lat="39.110306367044004" lon="117.10089680122073">
        <ele>-2.2</ele>
        <time>2023-09-18T11:25:23Z</time>
      </trkpt>
      <trkpt lat="39.11029916332862" lon="117.10085980777154">
        <ele>-2.2</ele>
        <time>2023-09-18T11:25:24Z</time>
      </trkpt>
      <trkpt lat="39.1102946958045" lon="117.10081965749794">
        <ele>-2.2</ele>
        <time>2023-09-18T11:25:25Z</time>
      </trkpt>
      <trkpt lat="39.1102960460913" lon="117.10078042446273">
        <ele>-2.2</ele>
        <time>2023-09-18T11:25:27Z</time>
      </trkpt>
      <trkpt lat="39.11029384355637" lon="117.10074275162054">
        <ele>-2.2</ele>
        <time>2023-09-18T11:25:28Z</time>
      </trkpt>
      <trkpt lat="39.110287878089274" lon="117.10070335602741">
        <ele>-2.2</ele>
        <time>2023-09-18T11:25:29Z</time>
      </trkpt>
      <trkpt lat="39.110278656795224" lon="117.10066678601189">
        <ele>-2.2</ele>
        <time>2023-09-18T11:25:30Z</time>
      </trkpt>
      <trkpt lat="39.11027067047716" lon="117.10062849538691">
        <ele>-2.2</ele>
        <time>2023-09-18T11:25:31Z</time>
      </trkpt>
      <trkpt lat="39.11026469135581" lon="117.10059506480536">
        <ele>-2.4</ele>
        <time>2023-09-18T11:25:32Z</time>
      </trkpt>
      <trkpt lat="39.110257399074236" lon="117.10055978020111">
        <ele>-2.4</ele>
        <time>2023-09-18T11:25:33Z</time>
      </trkpt>
      <trkpt lat="39.11024977389888" lon="117.10052650055636">
        <ele>-2.4</ele>
        <time>2023-09-18T11:25:34Z</time>
      </trkpt>
      <trkpt lat="39.11024115726755" lon="117.10049149386741">
        <ele>-2.4</ele>
        <time>2023-09-18T11:25:35Z</time>
      </trkpt>
      <trkpt lat="39.11023260443957" lon="117.10046004845843">
        <ele>-2.4</ele>
        <time>2023-09-18T11:25:36Z</time>
      </trkpt>
      <trkpt lat="39.11022356329407" lon="117.10043057211293">
        <ele>-2.4</ele>
        <time>2023-09-18T11:25:37Z</time>
      </trkpt>
      <trkpt lat="39.11021287191706" lon="117.1004011852181">
        <ele>-2.4</ele>
        <time>2023-09-18T11:25:38Z</time>
      </trkpt>
      <trkpt lat="39.110201023217435" lon="117.10037195200438">
        <ele>-2.4</ele>
        <time>2023-09-18T11:25:39Z</time>
      </trkpt>
      <trkpt lat="39.110188471407405" lon="117.1003431656618">
        <ele>-2.4</ele>
        <time>2023-09-18T11:25:40Z</time>
      </trkpt>
      <trkpt lat="39.11017530425062" lon="117.10031364241941">
        <ele>-2.4</ele>
        <time>2023-09-18T11:25:41Z</time>
      </trkpt>
      <trkpt lat="39.110161800066386" lon="117.10028362161265">
        <ele>-1.6</ele>
        <time>2023-09-18T11:25:42Z</time>
      </trkpt>
      <trkpt lat="39.11014832280406" lon="117.10024897858645">
        <ele>-1.6</ele>
        <time>2023-09-18T11:25:43Z</time>
      </trkpt>
      <trkpt lat="39.110136809668504" lon="117.10021707123059">
        <ele>-1.6</ele>
        <time>2023-09-18T11:25:44Z</time>
      </trkpt>
      <trkpt lat="39.110119588058176" lon="117.10018209863556">
        <ele>-1.6</ele>
        <time>2023-09-18T11:25:46Z</time>
      </trkpt>
      <trkpt lat="39.110101100292184" lon="117.10015064937468">
        <ele>-1.6</ele>
        <time>2023-09-18T11:25:47Z</time>
      </trkpt>
      <trkpt lat="39.11008111445006" lon="117.1001193668215">
        <ele>-1.6</ele>
        <time>2023-09-18T11:25:48Z</time>
      </trkpt>
      <trkpt lat="39.11006528421392" lon="117.1000902995592">
        <ele>-1.6</ele>
        <time>2023-09-18T11:25:49Z</time>
      </trkpt>
      <trkpt lat="39.11004913594402" lon="117.10006171219531">
        <ele>-1.6</ele>
        <time>2023-09-18T11:25:50Z</time>
      </trkpt>
      <trkpt lat="39.11003311696871" lon="117.10003488295312">
        <ele>-1.6</ele>
        <time>2023-09-18T11:25:51Z</time>
      </trkpt>
      <trkpt lat="39.110018302217085" lon="117.1000109620155">
        <ele>-2.2</ele>
        <time>2023-09-18T11:25:52Z</time>
      </trkpt>
      <trkpt lat="39.11000315298413" lon="117.09998709452262">
        <ele>-2.2</ele>
        <time>2023-09-18T11:25:53Z</time>
      </trkpt>
      <trkpt lat="39.109988037304866" lon="117.09996304017548">
        <ele>-2.2</ele>
        <time>2023-09-18T11:25:54Z</time>
      </trkpt>
      <trkpt lat="39.10997302705924" lon="117.0999388159377">
        <ele>-2.2</ele>
        <time>2023-09-18T11:25:55Z</time>
      </trkpt>
      <trkpt lat="39.10995798703819" lon="117.09991385573595">
        <ele>-2.2</ele>
        <time>2023-09-18T11:25:56Z</time>
      </trkpt>
      <trkpt lat="39.10994348547812" lon="117.09988882512279">
        <ele>-2.2</ele>
        <time>2023-09-18T11:25:57Z</time>
      </trkpt>
      <trkpt lat="39.109928686464364" lon="117.09986037042766">
        <ele>-2.2</ele>
        <time>2023-09-18T11:25:58Z</time>
      </trkpt>
      <trkpt lat="39.1099172630571" lon="117.0998328407459">
        <ele>-2.2</ele>
        <time>2023-09-18T11:25:59Z</time>
      </trkpt>
      <trkpt lat="39.10990746156998" lon="117.09980253113945">
        <ele>-2.2</ele>
        <time>2023-09-18T11:26:00Z</time>
      </trkpt>
      <trkpt lat="39.109903730292665" lon="117.09977129241142">
        <ele>-2.2</ele>
        <time>2023-09-18T11:26:01Z</time>
      </trkpt>
      <trkpt lat="39.10989761593206" lon="117.09973901912728">
        <ele>-2.4</ele>
        <time>2023-09-18T11:26:03Z</time>
      </trkpt>
      <trkpt lat="39.10989188326259" lon="117.09970340719791">
        <ele>-2.4</ele>
        <time>2023-09-18T11:26:04Z</time>
      </trkpt>
      <trkpt lat="39.109883815528406" lon="117.09966517317389">
        <ele>-2.4</ele>
        <time>2023-09-18T11:26:05Z</time>
      </trkpt>
      <trkpt lat="39.10988129825846" lon="117.09962621172144">
        <ele>-2.4</ele>
        <time>2023-09-18T11:26:06Z</time>
      </trkpt>
      <trkpt lat="39.10988186022155" lon="117.09959034726927">
        <ele>-2.4</ele>
        <time>2023-09-18T11:26:07Z</time>
      </trkpt>
      <trkpt lat="39.10988517689114" lon="117.09955616585769">
        <ele>-2.4</ele>
        <time>2023-09-18T11:26:08Z</time>
      </trkpt>
      <trkpt lat="39.109889770110534" lon="117.0995233059993">
        <ele>-2.4</ele>
        <time>2023-09-18T11:26:09Z</time>
      </trkpt>
      <trkpt lat="39.10989524076756" lon="117.09949180690418">
        <ele>-2.4</ele>
        <time>2023-09-18T11:26:10Z</time>
      </trkpt>
      <trkpt lat="39.10990154851946" lon="117.09946129167074">
        <ele>-2.4</ele>
        <time>2023-09-18T11:26:11Z</time>
      </trkpt>
      <trkpt lat="39.10990756653927" lon="117.09943109729966">
        <ele>-2</ele>
        <time>2023-09-18T11:26:12Z</time>
      </trkpt>
      <trkpt lat="39.10991270002403" lon="117.09940063534364">
        <ele>-2</ele>
        <time>2023-09-18T11:26:13Z</time>
      </trkpt>
      <trkpt lat="39.10991613666308" lon="117.09936940606723">
        <ele>-2</ele>
        <time>2023-09-18T11:26:14Z</time>
      </trkpt>
      <trkpt lat="39.10991738790837" lon="117.09933855699053">
        <ele>-2</ele>
        <time>2023-09-18T11:26:15Z</time>
      </trkpt>
      <trkpt lat="39.10991653840701" lon="117.0993051684463">
        <ele>-2</ele>
        <time>2023-09-18T11:26:16Z</time>
      </trkpt>
      <trkpt lat="39.10991291106715" lon="117.09927483494072">
        <ele>-2</ele>
        <time>2023-09-18T11:26:17Z</time>
      </trkpt>
      <trkpt lat="39.10990912755481" lon="117.09924307939214">
        <ele>-2</ele>
        <time>2023-09-18T11:26:18Z</time>
      </trkpt>
      <trkpt lat="39.109903764283374" lon="117.09920920874235">
        <ele>-2</ele>
        <time>2023-09-18T11:26:19Z</time>
      </trkpt>
      <trkpt lat="39.10989715120751" lon="117.09917811042175">
        <ele>-2</ele>
        <time>2023-09-18T11:26:21Z</time>
      </trkpt>
      <trkpt lat="39.10988503383978" lon="117.09914751930674">
        <ele>-2.4</ele>
        <time>2023-09-18T11:26:22Z</time>
      </trkpt>
      <trkpt lat="39.10986949605702" lon="117.0991200912393">
        <ele>-2.4</ele>
        <time>2023-09-18T11:26:23Z</time>
      </trkpt>
      <trkpt lat="39.10984867287629" lon="117.09908626004786">
        <ele>-2.4</ele>
        <time>2023-09-18T11:26:24Z</time>
      </trkpt>
      <trkpt lat="39.10982903773918" lon="117.09905204366814">
        <ele>-2.4</ele>
        <time>2023-09-18T11:26:25Z</time>
      </trkpt>
      <trkpt lat="39.10981102928529" lon="117.09901987972091">
        <ele>-2.4</ele>
        <time>2023-09-18T11:26:26Z</time>
      </trkpt>
      <trkpt lat="39.10979539866824" lon="117.09898988863641">
        <ele>-2.4</ele>
        <time>2023-09-18T11:26:27Z</time>
      </trkpt>
      <trkpt lat="39.109779445774805" lon="117.09896325012483">
        <ele>-2.4</ele>
        <time>2023-09-18T11:26:28Z</time>
      </trkpt>
      <trkpt lat="39.10976018216078" lon="117.09893762424646">
        <ele>-2.4</ele>
        <time>2023-09-18T11:26:29Z</time>
      </trkpt>
      <trkpt lat="39.1097402202836" lon="117.09891789303774">
        <ele>-2.4</ele>
        <time>2023-09-18T11:26:30Z</time>
      </trkpt>
      <trkpt lat="39.10971821850276" lon="117.09890100057713">
        <ele>-2.4</ele>
        <time>2023-09-18T11:26:31Z</time>
      </trkpt>
      <trkpt lat="39.10969406776603" lon="117.09888821951522">
        <ele>-2.7</ele>
        <time>2023-09-18T11:26:32Z</time>
      </trkpt>
      <trkpt lat="39.10966900365268" lon="117.09887890554187">
        <ele>-2.7</ele>
        <time>2023-09-18T11:26:33Z</time>
      </trkpt>
      <trkpt lat="39.10964344736225" lon="117.0988732645722">
        <ele>-2.7</ele>
        <time>2023-09-18T11:26:34Z</time>
      </trkpt>
      <trkpt lat="39.109619652896335" lon="117.09887146242221">
        <ele>-2.7</ele>
        <time>2023-09-18T11:26:35Z</time>
      </trkpt>
      <trkpt lat="39.109595622939395" lon="117.09887106613544">
        <ele>-2.7</ele>
        <time>2023-09-18T11:26:36Z</time>
      </trkpt>
      <trkpt lat="39.109571420839735" lon="117.09887538558237">
        <ele>-2.7</ele>
        <time>2023-09-18T11:26:37Z</time>
      </trkpt>
      <trkpt lat="39.10954804423436" lon="117.09887596177784">
        <ele>-2.7</ele>
        <time>2023-09-18T11:26:39Z</time>
      </trkpt>
      <trkpt lat="39.109522697705515" lon="117.09887675787482">
        <ele>-2.7</ele>
        <time>2023-09-18T11:26:40Z</time>
      </trkpt>
      <trkpt lat="39.10949486308957" lon="117.09887479916338">
        <ele>-2.7</ele>
        <time>2023-09-18T11:26:41Z</time>
      </trkpt>
      <trkpt lat="39.10946051642249" lon="117.09887880307721">
        <ele>-3</ele>
        <time>2023-09-18T11:26:42Z</time>
      </trkpt>
      <trkpt lat="39.109426702034156" lon="117.09888600265988">
        <ele>-3</ele>
        <time>2023-09-18T11:26:43Z</time>
      </trkpt>
      <trkpt lat="39.10939585352421" lon="117.09889532793677">
        <ele>-3</ele>
        <time>2023-09-18T11:26:44Z</time>
      </trkpt>
      <trkpt lat="39.10936955957387" lon="117.09890694730623">
        <ele>-3</ele>
        <time>2023-09-18T11:26:45Z</time>
      </trkpt>
      <trkpt lat="39.10934548403693" lon="117.09891903436372">
        <ele>-3</ele>
        <time>2023-09-18T11:26:46Z</time>
      </trkpt>
      <trkpt lat="39.109322165025795" lon="117.0989304993815">
        <ele>-3</ele>
        <time>2023-09-18T11:26:47Z</time>
      </trkpt>
      <trkpt lat="39.10929894070357" lon="117.09894129049493">
        <ele>-3</ele>
        <time>2023-09-18T11:26:48Z</time>
      </trkpt>
      <trkpt lat="39.10927660201922" lon="117.09895131320911">
        <ele>-3</ele>
        <time>2023-09-18T11:26:49Z</time>
      </trkpt>
      <trkpt lat="39.10925252999843" lon="117.098962241493">
        <ele>-3</ele>
        <time>2023-09-18T11:26:50Z</time>
      </trkpt>
      <trkpt lat="39.109231535334935" lon="117.09897212757662">
        <ele>-3</ele>
        <time>2023-09-18T11:26:51Z</time>
      </trkpt>
      <trkpt lat="39.10920900155084" lon="117.09898366303928">
        <ele>-3.3</ele>
        <time>2023-09-18T11:26:52Z</time>
      </trkpt>
      <trkpt lat="39.109189133049874" lon="117.09899489165718">
        <ele>-3.3</ele>
        <time>2023-09-18T11:26:53Z</time>
      </trkpt>
      <trkpt lat="39.10916911430954" lon="117.09900679396284">
        <ele>-3.3</ele>
        <time>2023-09-18T11:26:54Z</time>
      </trkpt>
      <trkpt lat="39.10915159779639" lon="117.09902096213001">
        <ele>-3.3</ele>
        <time>2023-09-18T11:26:55Z</time>
      </trkpt>
      <trkpt lat="39.10913411932777" lon="117.09903132537663">
        <ele>-3.3</ele>
        <time>2023-09-18T11:26:57Z</time>
      </trkpt>
      <trkpt lat="39.10910980511225" lon="117.09904252471279">
        <ele>-3.3</ele>
        <time>2023-09-18T11:26:58Z</time>
      </trkpt>
      <trkpt lat="39.10908044017995" lon="117.09905348983261">
        <ele>-3.3</ele>
        <time>2023-09-18T11:26:59Z</time>
      </trkpt>
      <trkpt lat="39.109049128243356" lon="117.09907103562044">
        <ele>-3.3</ele>
        <time>2023-09-18T11:27:00Z</time>
      </trkpt>
      <trkpt lat="39.10902215482502" lon="117.09909173419389">
        <ele>-3.3</ele>
        <time>2023-09-18T11:27:01Z</time>
      </trkpt>
      <trkpt lat="39.10899902238623" lon="117.09911185545789">
        <ele>-3.1</ele>
        <time>2023-09-18T11:27:02Z</time>
      </trkpt>
      <trkpt lat="39.10897658838087" lon="117.09913208377039">
        <ele>-3.1</ele>
        <time>2023-09-18T11:27:03Z</time>
      </trkpt>
      <trkpt lat="39.10895615175355" lon="117.09915127535477">
        <ele>-3.1</ele>
        <time>2023-09-18T11:27:04Z</time>
      </trkpt>
      <trkpt lat="39.10893439349567" lon="117.09917300301068">
        <ele>-3.1</ele>
        <time>2023-09-18T11:27:05Z</time>
      </trkpt>
      <trkpt lat="39.10891423575423" lon="117.09919514154564">
        <ele>-3.1</ele>
        <time>2023-09-18T11:27:06Z</time>
      </trkpt>
      <trkpt lat="39.10889560585548" lon="117.09921763898431">
        <ele>-3.1</ele>
        <time>2023-09-18T11:27:07Z</time>
      </trkpt>
      <trkpt lat="39.10888087984732" lon="117.09924066634723">
        <ele>-3.1</ele>
        <time>2023-09-18T11:27:08Z</time>
      </trkpt>
      <trkpt lat="39.10886796609525" lon="117.0992602393592">
        <ele>-3.1</ele>
        <time>2023-09-18T11:27:09Z</time>
      </trkpt>
      <trkpt lat="39.108854899438995" lon="117.09927642617937">
        <ele>-3.1</ele>
        <time>2023-09-18T11:27:10Z</time>
      </trkpt>
      <trkpt lat="39.10883715730168" lon="117.09928935556628">
        <ele>-3.1</ele>
        <time>2023-09-18T11:27:11Z</time>
      </trkpt>
      <trkpt lat="39.108817612136654" lon="117.09930624892547">
        <ele>-2.8</ele>
        <time>2023-09-18T11:27:12Z</time>
      </trkpt>
      <trkpt lat="39.10879628173001" lon="117.09932943763408">
        <ele>-2.8</ele>
        <time>2023-09-18T11:27:13Z</time>
      </trkpt>
      <trkpt lat="39.10877817827869" lon="117.09935608273527">
        <ele>-2.8</ele>
        <time>2023-09-18T11:27:15Z</time>
      </trkpt>
      <trkpt lat="39.10875894438976" lon="117.0993881803624">
        <ele>-2.8</ele>
        <time>2023-09-18T11:27:16Z</time>
      </trkpt>
      <trkpt lat="39.108740553895544" lon="117.09941912325172">
        <ele>-2.8</ele>
        <time>2023-09-18T11:27:17Z</time>
      </trkpt>
      <trkpt lat="39.108718198979744" lon="117.09944612818778">
        <ele>-2.8</ele>
        <time>2023-09-18T11:27:18Z</time>
      </trkpt>
      <trkpt lat="39.10869616694992" lon="117.09946870658378">
        <ele>-2.8</ele>
        <time>2023-09-18T11:27:19Z</time>
      </trkpt>
      <trkpt lat="39.108672732226054" lon="117.09949267390932">
        <ele>-2.8</ele>
        <time>2023-09-18T11:27:20Z</time>
      </trkpt>
      <trkpt lat="39.1086526362736" lon="117.09951921633393">
        <ele>-2.8</ele>
        <time>2023-09-18T11:27:21Z</time>
      </trkpt>
      <trkpt lat="39.10863271690434" lon="117.09954417769288">
        <ele>-3.1</ele>
        <time>2023-09-18T11:27:22Z</time>
      </trkpt>
      <trkpt lat="39.10861264643196" lon="117.09956690374405">
        <ele>-3.1</ele>
        <time>2023-09-18T11:27:23Z</time>
      </trkpt>
      <trkpt lat="39.10859219632011" lon="117.09958711447231">
        <ele>-3.1</ele>
        <time>2023-09-18T11:27:24Z</time>
      </trkpt>
      <trkpt lat="39.108571423357766" lon="117.09960531403917">
        <ele>-3.1</ele>
        <time>2023-09-18T11:27:25Z</time>
      </trkpt>
      <trkpt lat="39.10855042670794" lon="117.09962196494186">
        <ele>-3.1</ele>
        <time>2023-09-18T11:27:26Z</time>
      </trkpt>
      <trkpt lat="39.1085302193971" lon="117.09963778147755">
        <ele>-3.1</ele>
        <time>2023-09-18T11:27:27Z</time>
      </trkpt>
      <trkpt lat="39.108509944047405" lon="117.09965325190149">
        <ele>-3.1</ele>
        <time>2023-09-18T11:27:28Z</time>
      </trkpt>
      <trkpt lat="39.10848942828279" lon="117.09966956996462">
        <ele>-3.1</ele>
        <time>2023-09-18T11:27:29Z</time>
      </trkpt>
      <trkpt lat="39.1084679690409" lon="117.09968606930208">
        <ele>-3.1</ele>
        <time>2023-09-18T11:27:30Z</time>
      </trkpt>
      <trkpt lat="39.10844792385474" lon="117.09970319471887">
        <ele>-3.1</ele>
        <time>2023-09-18T11:27:31Z</time>
      </trkpt>
      <trkpt lat="39.10842753481458" lon="117.09971518934591">
        <ele>-2.5</ele>
        <time>2023-09-18T11:27:33Z</time>
      </trkpt>
      <trkpt lat="39.10840412591888" lon="117.09972784356644">
        <ele>-2.5</ele>
        <time>2023-09-18T11:27:34Z</time>
      </trkpt>
      <trkpt lat="39.10837771042455" lon="117.09974042572433">
        <ele>-2.5</ele>
        <time>2023-09-18T11:27:35Z</time>
      </trkpt>
      <trkpt lat="39.10835109529181" lon="117.09975610799764">
        <ele>-2.5</ele>
        <time>2023-09-18T11:27:36Z</time>
      </trkpt>
      <trkpt lat="39.108324014105676" lon="117.09977177546182">
        <ele>-2.5</ele>
        <time>2023-09-18T11:27:37Z</time>
      </trkpt>
      <trkpt lat="39.108296868867995" lon="117.09978587956932">
        <ele>-2.5</ele>
        <time>2023-09-18T11:27:38Z</time>
      </trkpt>
      <trkpt lat="39.108269745220376" lon="117.09979797465331">
        <ele>-2.5</ele>
        <time>2023-09-18T11:27:39Z</time>
      </trkpt>
      <trkpt lat="39.1082440430881" lon="117.0998074922731">
        <ele>-2.5</ele>
        <time>2023-09-18T11:27:40Z</time>
      </trkpt>
      <trkpt lat="39.10821768916919" lon="117.09981660867842">
        <ele>-2.5</ele>
        <time>2023-09-18T11:27:41Z</time>
      </trkpt>
      <trkpt lat="39.10819044456899" lon="117.09982686122648">
        <ele>-2.6</ele>
        <time>2023-09-18T11:27:42Z</time>
      </trkpt>
      <trkpt lat="39.10816387536213" lon="117.09983758594618">
        <ele>-2.6</ele>
        <time>2023-09-18T11:27:43Z</time>
      </trkpt>
      <trkpt lat="39.10813839636919" lon="117.09984856449991">
        <ele>-2.6</ele>
        <time>2023-09-18T11:27:44Z</time>
      </trkpt>
      <trkpt lat="39.10811632968204" lon="117.09986019231918">
        <ele>-2.6</ele>
        <time>2023-09-18T11:27:45Z</time>
      </trkpt>
      <trkpt lat="39.10809634329471" lon="117.09987350083054">
        <ele>-2.6</ele>
        <time>2023-09-18T11:27:46Z</time>
      </trkpt>
      <trkpt lat="39.10807670290172" lon="117.09988104753333">
        <ele>-2.6</ele>
        <time>2023-09-18T11:27:47Z</time>
      </trkpt>
      <trkpt lat="39.1080520009038" lon="117.09988880160134">
        <ele>-2.6</ele>
        <time>2023-09-18T11:27:48Z</time>
      </trkpt>
      <trkpt lat="39.10802378948626" lon="117.09990347601784">
        <ele>-2.6</ele>
        <time>2023-09-18T11:27:49Z</time>
      </trkpt>
      <trkpt lat="39.10799611946317" lon="117.09992413191303">
        <ele>-2.6</ele>
        <time>2023-09-18T11:27:50Z</time>
      </trkpt>
      <trkpt lat="39.10797295663676" lon="117.09994561032327">
        <ele>-2.7</ele>
        <time>2023-09-18T11:27:52Z</time>
      </trkpt>
      <trkpt lat="39.107954378377606" lon="117.09996085571892">
        <ele>-2.7</ele>
        <time>2023-09-18T11:27:53Z</time>
      </trkpt>
      <trkpt lat="39.10793573342603" lon="117.09997055345158">
        <ele>-2.7</ele>
        <time>2023-09-18T11:27:54Z</time>
      </trkpt>
      <trkpt lat="39.107909265579835" lon="117.09998299435397">
        <ele>-2.7</ele>
        <time>2023-09-18T11:27:55Z</time>
      </trkpt>
      <trkpt lat="39.10788173492364" lon="117.1000000209839">
        <ele>-2.7</ele>
        <time>2023-09-18T11:27:56Z</time>
      </trkpt>
      <trkpt lat="39.10785169757342" lon="117.1000195488927">
        <ele>-2.7</ele>
        <time>2023-09-18T11:27:58Z</time>
      </trkpt>
      <trkpt lat="39.10782829587601" lon="117.100035903437">
        <ele>-2.7</ele>
        <time>2023-09-18T11:27:59Z</time>
      </trkpt>
      <trkpt lat="39.1078068671933" lon="117.10005087873986">
        <ele>-2.7</ele>
        <time>2023-09-18T11:28:00Z</time>
      </trkpt>
      <trkpt lat="39.107789371430954" lon="117.1000629193618">
        <ele>-2.7</ele>
        <time>2023-09-18T11:28:01Z</time>
      </trkpt>
      <trkpt lat="39.107773637423364" lon="117.10007352150231">
        <ele>-2.6</ele>
        <time>2023-09-18T11:28:02Z</time>
      </trkpt>
      <trkpt lat="39.10775640977053" lon="117.10008487805092">
        <ele>-2.6</ele>
        <time>2023-09-18T11:28:03Z</time>
      </trkpt>
      <trkpt lat="39.1077385565539" lon="117.10009646136714">
        <ele>-2.6</ele>
        <time>2023-09-18T11:28:04Z</time>
      </trkpt>
      <trkpt lat="39.10771963283921" lon="117.10010862001268">
        <ele>-2.6</ele>
        <time>2023-09-18T11:28:05Z</time>
      </trkpt>
      <trkpt lat="39.107700387564016" lon="117.10012092106253">
        <ele>-2.6</ele>
        <time>2023-09-18T11:28:06Z</time>
      </trkpt>
      <trkpt lat="39.10767817169225" lon="117.10013509010128">
        <ele>-2.6</ele>
        <time>2023-09-18T11:28:07Z</time>
      </trkpt>
      <trkpt lat="39.10765266744438" lon="117.10015156471177">
        <ele>-2.6</ele>
        <time>2023-09-18T11:28:08Z</time>
      </trkpt>
      <trkpt lat="39.10762903331602" lon="117.10016679607428">
        <ele>-2.6</ele>
        <time>2023-09-18T11:28:10Z</time>
      </trkpt>
      <trkpt lat="39.10760816643457" lon="117.10018040976456">
        <ele>-2.6</ele>
        <time>2023-09-18T11:28:11Z</time>
      </trkpt>
      <trkpt lat="39.10758843004024" lon="117.10019349082229">
        <ele>-2.6</ele>
        <time>2023-09-18T11:28:12Z</time>
      </trkpt>
      <trkpt lat="39.107569809649945" lon="117.10020617218127">
        <ele>-2.6</ele>
        <time>2023-09-18T11:28:13Z</time>
      </trkpt>
      <trkpt lat="39.1075517260446" lon="117.10021888305948">
        <ele>-2.6</ele>
        <time>2023-09-18T11:28:14Z</time>
      </trkpt>
      <trkpt lat="39.10753678700308" lon="117.10022977631283">
        <ele>-2.6</ele>
        <time>2023-09-18T11:28:15Z</time>
      </trkpt>
      <trkpt lat="39.10751959224281" lon="117.10024251561131">
        <ele>-2.6</ele>
        <time>2023-09-18T11:28:16Z</time>
      </trkpt>
      <trkpt lat="39.107502528008254" lon="117.10025532558006">
        <ele>-2.6</ele>
        <time>2023-09-18T11:28:17Z</time>
      </trkpt>
      <trkpt lat="39.10748196430409" lon="117.10027059071184">
        <ele>-2.6</ele>
        <time>2023-09-18T11:28:18Z</time>
      </trkpt>
      <trkpt lat="39.10746337574773" lon="117.1002843989721">
        <ele>-2.6</ele>
        <time>2023-09-18T11:28:19Z</time>
      </trkpt>
      <trkpt lat="39.10744431534881" lon="117.10029837254768">
        <ele>-2.6</ele>
        <time>2023-09-18T11:28:20Z</time>
      </trkpt>
      <trkpt lat="39.10742562520614" lon="117.10031193792096">
        <ele>-2.6</ele>
        <time>2023-09-18T11:28:21Z</time>
      </trkpt>
      <trkpt lat="39.10740688317513" lon="117.10032540694974">
        <ele>-2.8</ele>
        <time>2023-09-18T11:28:22Z</time>
      </trkpt>
      <trkpt lat="39.10738819330408" lon="117.10033874497142">
        <ele>-2.8</ele>
        <time>2023-09-18T11:28:23Z</time>
      </trkpt>
      <trkpt lat="39.107369491827114" lon="117.10035205708121">
        <ele>-2.8</ele>
        <time>2023-09-18T11:28:24Z</time>
      </trkpt>
      <trkpt lat="39.10734813385133" lon="117.10036730077984">
        <ele>-2.8</ele>
        <time>2023-09-18T11:28:25Z</time>
      </trkpt>
      <trkpt lat="39.107323597277315" lon="117.10038482522359">
        <ele>-2.8</ele>
        <time>2023-09-18T11:28:26Z</time>
      </trkpt>
      <trkpt lat="39.10730050548478" lon="117.1004017564761">
        <ele>-2.8</ele>
        <time>2023-09-18T11:28:28Z</time>
      </trkpt>
      <trkpt lat="39.10728001239501" lon="117.10041820295396">
        <ele>-2.8</ele>
        <time>2023-09-18T11:28:29Z</time>
      </trkpt>
      <trkpt lat="39.10726176168444" lon="117.10043484550738">
        <ele>-2.8</ele>
        <time>2023-09-18T11:28:30Z</time>
      </trkpt>
      <trkpt lat="39.10724523391245" lon="117.10045143532498">
        <ele>-2.8</ele>
        <time>2023-09-18T11:28:31Z</time>
      </trkpt>
      <trkpt lat="39.10722681218975" lon="117.10046862622882">
        <ele>-3</ele>
        <time>2023-09-18T11:28:32Z</time>
      </trkpt>
      <trkpt lat="39.10720944937546" lon="117.10048411011465">
        <ele>-3</ele>
        <time>2023-09-18T11:28:33Z</time>
      </trkpt>
      <trkpt lat="39.10719093436345" lon="117.10049993946846">
        <ele>-3</ele>
        <time>2023-09-18T11:28:34Z</time>
      </trkpt>
      <trkpt lat="39.10717254905015" lon="117.10051743665909">
        <ele>-3</ele>
        <time>2023-09-18T11:28:35Z</time>
      </trkpt>
      <trkpt lat="39.10715369711468" lon="117.10053623386841">
        <ele>-3</ele>
        <time>2023-09-18T11:28:36Z</time>
      </trkpt>
      <trkpt lat="39.107134036471294" lon="117.10055560706729">
        <ele>-3</ele>
        <time>2023-09-18T11:28:37Z</time>
      </trkpt>
      <trkpt lat="39.107116520068544" lon="117.10057666509093">
        <ele>-3</ele>
        <time>2023-09-18T11:28:38Z</time>
      </trkpt>
      <trkpt lat="39.10710053817127" lon="117.10059682725796">
        <ele>-3</ele>
        <time>2023-09-18T11:28:39Z</time>
      </trkpt>
      <trkpt lat="39.10708598650654" lon="117.10061503279348">
        <ele>-3</ele>
        <time>2023-09-18T11:28:40Z</time>
      </trkpt>
      <trkpt lat="39.10706781594173" lon="117.10062829511581">
        <ele>-3</ele>
        <time>2023-09-18T11:28:41Z</time>
      </trkpt>
      <trkpt lat="39.10704687903116" lon="117.10064185782228">
        <ele>-3.1</ele>
        <time>2023-09-18T11:28:42Z</time>
      </trkpt>
      <trkpt lat="39.10701884605873" lon="117.10066501295269">
        <ele>-3.1</ele>
        <time>2023-09-18T11:28:43Z</time>
      </trkpt>
      <trkpt lat="39.10699349746737" lon="117.10069248142372">
        <ele>-3.1</ele>
        <time>2023-09-18T11:28:44Z</time>
      </trkpt>
      <trkpt lat="39.10696951988823" lon="117.10072121834666">
        <ele>-3.1</ele>
        <time>2023-09-18T11:28:46Z</time>
      </trkpt>
      <trkpt lat="39.106951122523974" lon="117.10074152410579">
        <ele>-3.1</ele>
        <time>2023-09-18T11:28:47Z</time>
      </trkpt>
      <trkpt lat="39.10692969554867" lon="117.1007598087014">
        <ele>-3.1</ele>
        <time>2023-09-18T11:28:48Z</time>
      </trkpt>
      <trkpt lat="39.10690756733684" lon="117.10077831254765">
        <ele>-3.1</ele>
        <time>2023-09-18T11:28:49Z</time>
      </trkpt>
      <trkpt lat="39.10688608272613" lon="117.10079884448352">
        <ele>-3.1</ele>
        <time>2023-09-18T11:28:50Z</time>
      </trkpt>
      <trkpt lat="39.106866147915746" lon="117.10082158924854">
        <ele>-3.1</ele>
        <time>2023-09-18T11:28:51Z</time>
      </trkpt>
      <trkpt lat="39.106846880849105" lon="117.10084447502443">
        <ele>-3.1</ele>
        <time>2023-09-18T11:28:52Z</time>
      </trkpt>
      <trkpt lat="39.10682786622224" lon="117.10086724523377">
        <ele>-3.1</ele>
        <time>2023-09-18T11:28:53Z</time>
      </trkpt>
      <trkpt lat="39.10680959011189" lon="117.10088993009198">
        <ele>-3.1</ele>
        <time>2023-09-18T11:28:54Z</time>
      </trkpt>
      <trkpt lat="39.10679193916413" lon="117.10091198323802">
        <ele>-3.1</ele>
        <time>2023-09-18T11:28:55Z</time>
      </trkpt>
      <trkpt lat="39.10677329925563" lon="117.10093573295907">
        <ele>-3.1</ele>
        <time>2023-09-18T11:28:56Z</time>
      </trkpt>
      <trkpt lat="39.106756597834334" lon="117.10095686242427">
        <ele>-3.1</ele>
        <time>2023-09-18T11:28:57Z</time>
      </trkpt>
      <trkpt lat="39.10674021099952" lon="117.10097786591624">
        <ele>-3.1</ele>
        <time>2023-09-18T11:28:58Z</time>
      </trkpt>
      <trkpt lat="39.106724813633285" lon="117.1009990389646">
        <ele>-3.1</ele>
        <time>2023-09-18T11:28:59Z</time>
      </trkpt>
      <trkpt lat="39.10670937318182" lon="117.1010206142796">
        <ele>-3.1</ele>
        <time>2023-09-18T11:29:00Z</time>
      </trkpt>
      <trkpt lat="39.10669061023491" lon="117.10104701066366">
        <ele>-3.1</ele>
        <time>2023-09-18T11:29:01Z</time>
      </trkpt>
      <trkpt lat="39.10667001222271" lon="117.10107434810514">
        <ele>-2.9</ele>
        <time>2023-09-18T11:29:02Z</time>
      </trkpt>
      <trkpt lat="39.106648856242046" lon="117.10110377508283">
        <ele>-2.9</ele>
        <time>2023-09-18T11:29:04Z</time>
      </trkpt>
      <trkpt lat="39.10663095546982" lon="117.10112967093083">
        <ele>-2.9</ele>
        <time>2023-09-18T11:29:05Z</time>
      </trkpt>
      <trkpt lat="39.106614287368785" lon="117.10115441647388">
        <ele>-2.9</ele>
        <time>2023-09-18T11:29:06Z</time>
      </trkpt>
      <trkpt lat="39.10659790908752" lon="117.10117588510947">
        <ele>-2.9</ele>
        <time>2023-09-18T11:29:07Z</time>
      </trkpt>
      <trkpt lat="39.106579464691805" lon="117.10119815648129">
        <ele>-2.9</ele>
        <time>2023-09-18T11:29:08Z</time>
      </trkpt>
      <trkpt lat="39.106562986759954" lon="117.10121610267943">
        <ele>-2.9</ele>
        <time>2023-09-18T11:29:09Z</time>
      </trkpt>
      <trkpt lat="39.10654819204195" lon="117.10122892599209">
        <ele>-2.9</ele>
        <time>2023-09-18T11:29:10Z</time>
      </trkpt>
      <trkpt lat="39.10653686981738" lon="117.10122708624367">
        <ele>-2.9</ele>
        <time>2023-09-18T11:29:11Z</time>
      </trkpt>
      <trkpt lat="39.1065259547066" lon="117.1012160472144">
        <ele>-2.8</ele>
        <time>2023-09-18T11:29:12Z</time>
      </trkpt>
      <trkpt lat="39.106514761715225" lon="117.10119973826647">
        <ele>-2.8</ele>
        <time>2023-09-18T11:29:13Z</time>
      </trkpt>
      <trkpt lat="39.10650262899882" lon="117.10118265791093">
        <ele>-2.8</ele>
        <time>2023-09-18T11:29:14Z</time>
      </trkpt>
      <trkpt lat="39.106491970919016" lon="117.10116628477336">
        <ele>-2.8</ele>
        <time>2023-09-18T11:29:15Z</time>
      </trkpt>
      <trkpt lat="39.10648310354004" lon="117.10115139190938">
        <ele>-2.8</ele>
        <time>2023-09-18T11:29:16Z</time>
      </trkpt>
      <trkpt lat="39.10647726534541" lon="117.10114085529706">
        <ele>-2.8</ele>
        <time>2023-09-18T11:29:17Z</time>
      </trkpt>
      <trkpt lat="39.106473650901215" lon="117.10113352580773">
        <ele>-2.8</ele>
        <time>2023-09-18T11:29:18Z</time>
      </trkpt>
      <trkpt lat="39.10646985244825" lon="117.10112526052288">
        <ele>-2.8</ele>
        <time>2023-09-18T11:29:19Z</time>
      </trkpt>
      <trkpt lat="39.10646429646232" lon="117.10111330732909">
        <ele>-2.8</ele>
        <time>2023-09-18T11:29:20Z</time>
      </trkpt>
      <trkpt lat="39.1064557580195" lon="117.101096315881">
        <ele>-3.5</ele>
        <time>2023-09-18T11:29:22Z</time>
      </trkpt>
      <trkpt lat="39.1064458449377" lon="117.10107734808273">
        <ele>-3.5</ele>
        <time>2023-09-18T11:29:23Z</time>
      </trkpt>
      <trkpt lat="39.10643399630928" lon="117.10105626753375">
        <ele>-3.5</ele>
        <time>2023-09-18T11:29:24Z</time>
      </trkpt>
      <trkpt lat="39.10642181094534" lon="117.10103579737081">
        <ele>-3.5</ele>
        <time>2023-09-18T11:29:25Z</time>
      </trkpt>
      <trkpt lat="39.106410013902" lon="117.10101635282525">
        <ele>-3.5</ele>
        <time>2023-09-18T11:29:26Z</time>
      </trkpt>
      <trkpt lat="39.1064000705765" lon="117.10100084925274">
        <ele>-3.5</ele>
        <time>2023-09-18T11:29:27Z</time>
      </trkpt>
      <trkpt lat="39.10639022306393" lon="117.10098590454508">
        <ele>-3.5</ele>
        <time>2023-09-18T11:29:28Z</time>
      </trkpt>
      <trkpt lat="39.10637962404457" lon="117.10097217697708">
        <ele>-3.5</ele>
        <time>2023-09-18T11:29:29Z</time>
      </trkpt>
      <trkpt lat="39.10636741453295" lon="117.10095884641753">
        <ele>-3.5</ele>
        <time>2023-09-18T11:29:30Z</time>
      </trkpt>
      <trkpt lat="39.106352810972716" lon="117.10094489088749">
        <ele>-3.5</ele>
        <time>2023-09-18T11:29:31Z</time>
      </trkpt>
      <trkpt lat="39.10633673502988" lon="117.10092875494647">
        <ele>-3.5</ele>
        <time>2023-09-18T11:29:32Z</time>
      </trkpt>
      <trkpt lat="39.10632140504907" lon="117.10090870868079">
        <ele>-3.5</ele>
        <time>2023-09-18T11:29:33Z</time>
      </trkpt>
      <trkpt lat="39.10630977544444" lon="117.100882862002">
        <ele>-3.5</ele>
        <time>2023-09-18T11:29:34Z</time>
      </trkpt>
      <trkpt lat="39.1063038847033" lon="117.10085430914575">
        <ele>-3.5</ele>
        <time>2023-09-18T11:29:35Z</time>
      </trkpt>
      <trkpt lat="39.10630418851394" lon="117.10082483906145">
        <ele>-3.5</ele>
        <time>2023-09-18T11:29:36Z</time>
      </trkpt>
      <trkpt lat="39.10631540290226" lon="117.10079204848446">
        <ele>-3.5</ele>
        <time>2023-09-18T11:29:37Z</time>
      </trkpt>
      <trkpt lat="39.10633207528088" lon="117.10076047936528">
        <ele>-3.5</ele>
        <time>2023-09-18T11:29:38Z</time>
      </trkpt>
      <trkpt lat="39.10635293886852" lon="117.10073209183457">
        <ele>-3.5</ele>
        <time>2023-09-18T11:29:40Z</time>
      </trkpt>
      <trkpt lat="39.10636911491055" lon="117.10071424405436">
        <ele>-3.5</ele>
        <time>2023-09-18T11:29:41Z</time>
      </trkpt>
      <trkpt lat="39.10638161476088" lon="117.1006994587158">
        <ele>-3.2</ele>
        <time>2023-09-18T11:29:42Z</time>
      </trkpt>
      <trkpt lat="39.10639001721103" lon="117.10068437091013">
        <ele>-3.2</ele>
        <time>2023-09-18T11:29:43Z</time>
      </trkpt>
      <trkpt lat="39.10639737167694" lon="117.10066718667332">
        <ele>-3.2</ele>
        <time>2023-09-18T11:29:44Z</time>
      </trkpt>
      <trkpt lat="39.106407571258615" lon="117.10064630099835">
        <ele>-3.2</ele>
        <time>2023-09-18T11:29:45Z</time>
      </trkpt>
      <trkpt lat="39.106420643851145" lon="117.10062407277871">
        <ele>-3.2</ele>
        <time>2023-09-18T11:29:46Z</time>
      </trkpt>
      <trkpt lat="39.10643564759207" lon="117.10060239753851">
        <ele>-3.2</ele>
        <time>2023-09-18T11:29:47Z</time>
      </trkpt>
      <trkpt lat="39.10645057307952" lon="117.10058401681113">
        <ele>-3.2</ele>
        <time>2023-09-18T11:29:48Z</time>
      </trkpt>
      <trkpt lat="39.106465245734" lon="117.10056828218802">
        <ele>-3.2</ele>
        <time>2023-09-18T11:29:49Z</time>
      </trkpt>
      <trkpt lat="39.10647974400665" lon="117.10055356364447">
        <ele>-3.2</ele>
        <time>2023-09-18T11:29:50Z</time>
      </trkpt>
      <trkpt lat="39.10649685356002" lon="117.10053723684322">
        <ele>-3.2</ele>
        <time>2023-09-18T11:29:51Z</time>
      </trkpt>
      <trkpt lat="39.10651443685837" lon="117.10052069555489">
        <ele>-3.5</ele>
        <time>2023-09-18T11:29:52Z</time>
      </trkpt>
      <trkpt lat="39.106532646338636" lon="117.10050371643482">
        <ele>-3.5</ele>
        <time>2023-09-18T11:29:53Z</time>
      </trkpt>
      <trkpt lat="39.10655109876685" lon="117.10048657493924">
        <ele>-3.5</ele>
        <time>2023-09-18T11:29:54Z</time>
      </trkpt>
      <trkpt lat="39.10657243724104" lon="117.10046681331963">
        <ele>-3.5</ele>
        <time>2023-09-18T11:29:55Z</time>
      </trkpt>
      <trkpt lat="39.1065973685024" lon="117.10044433981201">
        <ele>-3.5</ele>
        <time>2023-09-18T11:29:56Z</time>
      </trkpt>
      <trkpt lat="39.10662106762649" lon="117.10042312728567">
        <ele>-3.5</ele>
        <time>2023-09-18T11:29:58Z</time>
      </trkpt>
      <trkpt lat="39.10664276189622" lon="117.10040435434861">
        <ele>-3.5</ele>
        <time>2023-09-18T11:29:59Z</time>
      </trkpt>
      <trkpt lat="39.10666378741913" lon="117.1003866493446">
        <ele>-3.5</ele>
        <time>2023-09-18T11:30:00Z</time>
      </trkpt>
      <trkpt lat="39.10668433593145" lon="117.10036978340406">
        <ele>-3.5</ele>
        <time>2023-09-18T11:30:01Z</time>
      </trkpt>
      <trkpt lat="39.10670467342547" lon="117.10035336020005">
        <ele>-3.6</ele>
        <time>2023-09-18T11:30:02Z</time>
      </trkpt>
      <trkpt lat="39.10672229549115" lon="117.10033924305421">
        <ele>-3.6</ele>
        <time>2023-09-18T11:30:03Z</time>
      </trkpt>
      <trkpt lat="39.106739235521516" lon="117.10032576017952">
        <ele>-3.6</ele>
        <time>2023-09-18T11:30:04Z</time>
      </trkpt>
      <trkpt lat="39.10675807266825" lon="117.1003109222118">
        <ele>-3.6</ele>
        <time>2023-09-18T11:30:05Z</time>
      </trkpt>
      <trkpt lat="39.106776998213135" lon="117.10029616444945">
        <ele>-3.6</ele>
        <time>2023-09-18T11:30:06Z</time>
      </trkpt>
      <trkpt lat="39.106799130694476" lon="117.10027919505745">
        <ele>-3.6</ele>
        <time>2023-09-18T11:30:07Z</time>
      </trkpt>
      <trkpt lat="39.10681917941808" lon="117.10026416589477">
        <ele>-3.6</ele>
        <time>2023-09-18T11:30:08Z</time>
      </trkpt>
      <trkpt lat="39.106839476232444" lon="117.1002493500388">
        <ele>-3.6</ele>
        <time>2023-09-18T11:30:09Z</time>
      </trkpt>
      <trkpt lat="39.10685927184547" lon="117.10023537458788">
        <ele>-3.6</ele>
        <time>2023-09-18T11:30:10Z</time>
      </trkpt>
      <trkpt lat="39.106879020206925" lon="117.10022187129482">
        <ele>-3.6</ele>
        <time>2023-09-18T11:30:11Z</time>
      </trkpt>
      <trkpt lat="39.10689868311211" lon="117.10020881269199">
        <ele>-3.7</ele>
        <time>2023-09-18T11:30:12Z</time>
      </trkpt>
      <trkpt lat="39.10692120637209" lon="117.10019445824426">
        <ele>-3.7</ele>
        <time>2023-09-18T11:30:13Z</time>
      </trkpt>
      <trkpt lat="39.10694414148694" lon="117.10018009372361">
        <ele>-3.7</ele>
        <time>2023-09-18T11:30:14Z</time>
      </trkpt>
      <trkpt lat="39.106967537207" lon="117.10016549424124">
        <ele>-3.7</ele>
        <time>2023-09-18T11:30:16Z</time>
      </trkpt>
      <trkpt lat="39.10698804736576" lon="117.10015234063836">
        <ele>0</ele>
        <time>2023-09-18T11:30:17Z</time>
      </trkpt>
      <trkpt lat="39.10700814616722" lon="117.10013902004307">
        <ele>0</ele>
        <time>2023-09-18T11:30:18Z</time>
      </trkpt>
      <trkpt lat="39.10703057293316" lon="117.10012343854775">
        <ele>0</ele>
        <time>2023-09-18T11:30:19Z</time>
      </trkpt>
      <trkpt lat="39.10705072431329" lon="117.10010917313488">
        <ele>0</ele>
        <time>2023-09-18T11:30:20Z</time>
      </trkpt>
      <trkpt lat="39.107072035265894" lon="117.10009394952384">
        <ele>0</ele>
        <time>2023-09-18T11:30:21Z</time>
      </trkpt>
      <trkpt lat="39.107092916329904" lon="117.10007882152095">
        <ele>0</ele>
        <time>2023-09-18T11:30:22Z</time>
      </trkpt>
      <trkpt lat="39.107114166099954" lon="117.1000634146781">
        <ele>0</ele>
        <time>2023-09-18T11:30:23Z</time>
      </trkpt>
      <trkpt lat="39.10713410466997" lon="117.10004908249107">
        <ele>0</ele>
        <time>2023-09-18T11:30:24Z</time>
      </trkpt>
      <trkpt lat="39.10715330517995" lon="117.1000348195868">
        <ele>0</ele>
        <time>2023-09-18T11:30:25Z</time>
      </trkpt>
      <trkpt lat="39.10717196009643" lon="117.10001998630449">
        <ele>0</ele>
        <time>2023-09-18T11:30:26Z</time>
      </trkpt>
      <trkpt lat="39.10719088069506" lon="117.10000319053138">
        <ele>0</ele>
        <time>2023-09-18T11:30:27Z</time>
      </trkpt>
      <trkpt lat="39.10721037107045" lon="117.09998901615707">
        <ele>0</ele>
        <time>2023-09-18T11:30:28Z</time>
      </trkpt>
      <trkpt lat="39.1072290227639" lon="117.09997740480107">
        <ele>0</ele>
        <time>2023-09-18T11:30:29Z</time>
      </trkpt>
      <trkpt lat="39.10724586431532" lon="117.09996758948992">
        <ele>0</ele>
        <time>2023-09-18T11:30:30Z</time>
      </trkpt>
      <trkpt lat="39.10726447925853" lon="117.09995107719864">
        <ele>0</ele>
        <time>2023-09-18T11:30:31Z</time>
      </trkpt>
      <trkpt lat="39.10728698314794" lon="117.09992991471603">
        <ele>0</ele>
        <time>2023-09-18T11:30:32Z</time>
      </trkpt>
      <trkpt lat="39.10731265891035" lon="117.0999069447815">
        <ele>0</ele>
        <time>2023-09-18T11:30:34Z</time>
      </trkpt>
      <trkpt lat="39.10733535977229" lon="117.09988937562994">
        <ele>0</ele>
        <time>2023-09-18T11:30:35Z</time>
      </trkpt>
      <trkpt lat="39.10735790744524" lon="117.09987343688974">
        <ele>0</ele>
        <time>2023-09-18T11:30:36Z</time>
      </trkpt>
      <trkpt lat="39.10737954214411" lon="117.09985889652766">
        <ele>0</ele>
        <time>2023-09-18T11:30:37Z</time>
      </trkpt>
      <trkpt lat="39.10740034595858" lon="117.09984415083804">
        <ele>0</ele>
        <time>2023-09-18T11:30:38Z</time>
      </trkpt>
      <trkpt lat="39.10741842305606" lon="117.09982692572727">
        <ele>0</ele>
        <time>2023-09-18T11:30:39Z</time>
      </trkpt>
      <trkpt lat="39.1074335268358" lon="117.0998065236779">
        <ele>0</ele>
        <time>2023-09-18T11:30:40Z</time>
      </trkpt>
      <trkpt lat="39.107444010443764" lon="117.09978213798864">
        <ele>0</ele>
        <time>2023-09-18T11:30:41Z</time>
      </trkpt>
      <trkpt lat="39.10744813731509" lon="117.09975706007042">
        <ele>0</ele>
        <time>2023-09-18T11:30:42Z</time>
      </trkpt>
      <trkpt lat="39.107444262325636" lon="117.09973468128337">
        <ele>0</ele>
        <time>2023-09-18T11:30:43Z</time>
      </trkpt>
      <trkpt lat="39.10743714346809" lon="117.09971680790575">
        <ele>0</ele>
        <time>2023-09-18T11:30:44Z</time>
      </trkpt>
      <trkpt lat="39.10742902707628" lon="117.09970094698156">
        <ele>0</ele>
        <time>2023-09-18T11:30:45Z</time>
      </trkpt>
      <trkpt lat="39.10742429009579" lon="117.09967875811535">
        <ele>0</ele>
        <time>2023-09-18T11:30:46Z</time>
      </trkpt>
      <trkpt lat="39.10741896641029" lon="117.0996530271101">
        <ele>0</ele>
        <time>2023-09-18T11:30:47Z</time>
      </trkpt>
      <trkpt lat="39.107411628927636" lon="117.0996222140366">
        <ele>0</ele>
        <time>2023-09-18T11:30:48Z</time>
      </trkpt>
      <trkpt lat="39.10740156932161" lon="117.09958994138907">
        <ele>0</ele>
        <time>2023-09-18T11:30:49Z</time>
      </trkpt>
      <trkpt lat="39.10739039278646" lon="117.09955367658316">
        <ele>0</ele>
        <time>2023-09-18T11:30:50Z</time>
      </trkpt>
      <trkpt lat="39.107380016929746" lon="117.09952005983907">
        <ele>0</ele>
        <time>2023-09-18T11:30:52Z</time>
      </trkpt>
      <trkpt lat="39.10737045834239" lon="117.09949115940532">
        <ele>0</ele>
        <time>2023-09-18T11:30:53Z</time>
      </trkpt>
      <trkpt lat="39.10736081480425" lon="117.09946850105673">
        <ele>0</ele>
        <time>2023-09-18T11:30:54Z</time>
      </trkpt>
      <trkpt lat="39.1073514995576" lon="117.0994513526224">
        <ele>0</ele>
        <time>2023-09-18T11:30:55Z</time>
      </trkpt>
      <trkpt lat="39.10734511265796" lon="117.0994379467057">
        <ele>0</ele>
        <time>2023-09-18T11:30:56Z</time>
      </trkpt>
      <trkpt lat="39.10734258260438" lon="117.09942576337477">
        <ele>0</ele>
        <time>2023-09-18T11:30:57Z</time>
      </trkpt>
      <trkpt lat="39.107345366677826" lon="117.09941033120536">
        <ele>0</ele>
        <time>2023-09-18T11:30:58Z</time>
      </trkpt>
      <trkpt lat="39.10734978578088" lon="117.09939341114278">
        <ele>0</ele>
        <time>2023-09-18T11:30:59Z</time>
      </trkpt>
      <trkpt lat="39.10735501610426" lon="117.0993746477914">
        <ele>0</ele>
        <time>2023-09-18T11:31:00Z</time>
      </trkpt>
      <trkpt lat="39.10735831299483" lon="117.09935685908724">
        <ele>0</ele>
        <time>2023-09-18T11:31:01Z</time>
      </trkpt>
      <trkpt lat="39.10736196416242" lon="117.09933687439414">
        <ele>0</ele>
        <time>2023-09-18T11:31:02Z</time>
      </trkpt>
      <trkpt lat="39.107365867442546" lon="117.09931747159703">
        <ele>0</ele>
        <time>2023-09-18T11:31:03Z</time>
      </trkpt>
      <trkpt lat="39.107369889588064" lon="117.09929629649679">
        <ele>0</ele>
        <time>2023-09-18T11:31:04Z</time>
      </trkpt>
      <trkpt lat="39.10737236810164" lon="117.09927956604513">
        <ele>0</ele>
        <time>2023-09-18T11:31:05Z</time>
      </trkpt>
      <trkpt lat="39.107372546307715" lon="117.09926647129537">
        <ele>0</ele>
        <time>2023-09-18T11:31:06Z</time>
      </trkpt>
      <trkpt lat="39.107365705578715" lon="117.09926297916829">
        <ele>0</ele>
        <time>2023-09-18T11:31:07Z</time>
      </trkpt>
      <trkpt lat="39.107349972833156" lon="117.09926484642293">
        <ele>0</ele>
        <time>2023-09-18T11:31:08Z</time>
      </trkpt>
      <trkpt lat="39.1073269673711" lon="117.09927032956429">
        <ele>0</ele>
        <time>2023-09-18T11:31:10Z</time>
      </trkpt>
      <trkpt lat="39.10730119928959" lon="117.09927419379483">
        <ele>0</ele>
        <time>2023-09-18T11:31:11Z</time>
      </trkpt>
      <trkpt lat="39.10727332907805" lon="117.09927601594883">
        <ele>0</ele>
        <time>2023-09-18T11:31:12Z</time>
      </trkpt>
      <trkpt lat="39.107245636942025" lon="117.0992760456014">
        <ele>0</ele>
        <time>2023-09-18T11:31:13Z</time>
      </trkpt>
      <trkpt lat="39.107219728179906" lon="117.09927408186958">
        <ele>0</ele>
        <time>2023-09-18T11:31:14Z</time>
      </trkpt>
      <trkpt lat="39.1071971593836" lon="117.09926726137026">
        <ele>0</ele>
        <time>2023-09-18T11:31:15Z</time>
      </trkpt>
      <trkpt lat="39.10717834923926" lon="117.09925595988378">
        <ele>0</ele>
        <time>2023-09-18T11:31:16Z</time>
      </trkpt>
      <trkpt lat="39.10716116535191" lon="117.09924052943751">
        <ele>0</ele>
        <time>2023-09-18T11:31:17Z</time>
      </trkpt>
      <trkpt lat="39.107145320456354" lon="117.09922542018049">
        <ele>0</ele>
        <time>2023-09-18T11:31:18Z</time>
      </trkpt>
      <trkpt lat="39.107127581015696" lon="117.09921171489063">
        <ele>0</ele>
        <time>2023-09-18T11:31:19Z</time>
      </trkpt>
      <trkpt lat="39.10710839417169" lon="117.0992029064612">
        <ele>0</ele>
        <time>2023-09-18T11:31:20Z</time>
      </trkpt>
      <trkpt lat="39.10708612110963" lon="117.09919998578246">
        <ele>0</ele>
        <time>2023-09-18T11:31:21Z</time>
      </trkpt>
      <trkpt lat="39.10706311339367" lon="117.09920124299789">
        <ele>0</ele>
        <time>2023-09-18T11:31:22Z</time>
      </trkpt>
      <trkpt lat="39.107040513753795" lon="117.09920330882147">
        <ele>0</ele>
        <time>2023-09-18T11:31:23Z</time>
      </trkpt>
      <trkpt lat="39.10703028276654" lon="117.09920416331877">
        <ele>0</ele>
        <time>2023-09-18T11:31:24Z</time>
      </trkpt>
    </trkseg>
  </trk>
</gpx>