<?xml version="1.0" encoding="UTF-8"?>
<gpx xmlns="http://www.topografix.com/GPX/1/1" xmlns:gpxtpx="http://www.garmin.com/xmlschemas/TrackPointExtension/v1" xmlns:xsi="http://www.w3.org/2001/XMLSchema-instance" xsi:schemaLocation="http://www.topografix.com/GPX/1/1 http://www.topografix.com/GPX/1/1/gpx.xsd" version="1.1" creator="gpx.py -- https://github.com/tkrajina/gpxpy">
  <trk>
    <name>gpx from codoon</name>
    <type>Run</type>
    <trkseg>
      <trkpt lat="40.01308943610495" lon="119.74898934314405">
        <ele>49.8</ele>
        <time>2023-10-21T04:26:43Z</time>
      </trkpt>
      <trkpt lat="40.013041679911154" lon="119.74888511816053">
        <ele>49.8</ele>
        <time>2023-10-21T04:26:44Z</time>
      </trkpt>
      <trkpt lat="40.01303151549111" lon="119.74885975581208">
        <ele>49.8</ele>
        <time>2023-10-21T04:26:45Z</time>
      </trkpt>
      <trkpt lat="40.013012793665226" lon="119.74881042230265">
        <ele>49.8</ele>
        <time>2023-10-21T04:26:46Z</time>
      </trkpt>
      <trkpt lat="40.0130045098436" lon="119.74877621492944">
        <ele>49.8</ele>
        <time>2023-10-21T04:26:47Z</time>
      </trkpt>
      <trkpt lat="40.01299686280986" lon="119.74874097077097">
        <ele>49.8</ele>
        <time>2023-10-21T04:26:48Z</time>
      </trkpt>
      <trkpt lat="40.01298809195418" lon="119.74870700837965">
        <ele>49.8</ele>
        <time>2023-10-21T04:26:49Z</time>
      </trkpt>
      <trkpt lat="40.0129777996745" lon="119.74867509185731">
        <ele>49.8</ele>
        <time>2023-10-21T04:26:50Z</time>
      </trkpt>
      <trkpt lat="40.01296677967594" lon="119.74864795466719">
        <ele>49.8</ele>
        <time>2023-10-21T04:26:51Z</time>
      </trkpt>
      <trkpt lat="40.012954046453785" lon="119.74861973414875">
        <ele>49.8</ele>
        <time>2023-10-21T04:26:52Z</time>
      </trkpt>
      <trkpt lat="40.0129409266218" lon="119.74859191225164">
        <ele>49.3</ele>
        <time>2023-10-21T04:26:53Z</time>
      </trkpt>
      <trkpt lat="40.0129271734424" lon="119.74856374128632">
        <ele>49.3</ele>
        <time>2023-10-21T04:26:54Z</time>
      </trkpt>
      <trkpt lat="40.01291415892861" lon="119.7485352661776">
        <ele>49.3</ele>
        <time>2023-10-21T04:26:55Z</time>
      </trkpt>
      <trkpt lat="40.012902403753166" lon="119.74850702157478">
        <ele>49.3</ele>
        <time>2023-10-21T04:26:56Z</time>
      </trkpt>
      <trkpt lat="40.012892987149236" lon="119.74847988732088">
        <ele>49.3</ele>
        <time>2023-10-21T04:26:57Z</time>
      </trkpt>
      <trkpt lat="40.012885258884516" lon="119.74845468239043">
        <ele>49.3</ele>
        <time>2023-10-21T04:26:58Z</time>
      </trkpt>
      <trkpt lat="40.01287849977822" lon="119.74843226499942">
        <ele>49.3</ele>
        <time>2023-10-21T04:26:59Z</time>
      </trkpt>
      <trkpt lat="40.01287211446414" lon="119.74841020114307">
        <ele>49.3</ele>
        <time>2023-10-21T04:27:00Z</time>
      </trkpt>
      <trkpt lat="40.012866004890654" lon="119.74838963010374">
        <ele>49.3</ele>
        <time>2023-10-21T04:27:01Z</time>
      </trkpt>
      <trkpt lat="40.012858938640946" lon="119.74836779498169">
        <ele>49.3</ele>
        <time>2023-10-21T04:27:02Z</time>
      </trkpt>
      <trkpt lat="40.01285124808937" lon="119.74834675903273">
        <ele>49.2</ele>
        <time>2023-10-21T04:27:03Z</time>
      </trkpt>
      <trkpt lat="40.0128441760046" lon="119.74832706708492">
        <ele>49.2</ele>
        <time>2023-10-21T04:27:04Z</time>
      </trkpt>
      <trkpt lat="40.01283835361756" lon="119.7483078834117">
        <ele>49.2</ele>
        <time>2023-10-21T04:27:05Z</time>
      </trkpt>
      <trkpt lat="40.01283349775331" lon="119.7482884850769">
        <ele>49.2</ele>
        <time>2023-10-21T04:27:06Z</time>
      </trkpt>
      <trkpt lat="40.01282989745343" lon="119.74827021448644">
        <ele>49.2</ele>
        <time>2023-10-21T04:27:07Z</time>
      </trkpt>
      <trkpt lat="40.012826688440676" lon="119.7482516598742">
        <ele>49.2</ele>
        <time>2023-10-21T04:27:08Z</time>
      </trkpt>
      <trkpt lat="40.01282370807212" lon="119.74823401984902">
        <ele>49.2</ele>
        <time>2023-10-21T04:27:09Z</time>
      </trkpt>
      <trkpt lat="40.01281969516863" lon="119.74821609282182">
        <ele>49.2</ele>
        <time>2023-10-21T04:27:10Z</time>
      </trkpt>
      <trkpt lat="40.01281501634781" lon="119.74820017121813">
        <ele>49.2</ele>
        <time>2023-10-21T04:27:11Z</time>
      </trkpt>
      <trkpt lat="40.012809877514286" lon="119.74818537773379">
        <ele>49.2</ele>
        <time>2023-10-21T04:27:12Z</time>
      </trkpt>
      <trkpt lat="40.012804616586415" lon="119.74817095511057">
        <ele>48.8</ele>
        <time>2023-10-21T04:27:13Z</time>
      </trkpt>
      <trkpt lat="40.012799650863315" lon="119.74815613276084">
        <ele>48.8</ele>
        <time>2023-10-21T04:27:14Z</time>
      </trkpt>
      <trkpt lat="40.012795258042786" lon="119.74814059490006">
        <ele>48.8</ele>
        <time>2023-10-21T04:27:15Z</time>
      </trkpt>
      <trkpt lat="40.01279132585115" lon="119.7481247923049">
        <ele>48.8</ele>
        <time>2023-10-21T04:27:16Z</time>
      </trkpt>
      <trkpt lat="40.01278727261452" lon="119.7481088797273">
        <ele>48.8</ele>
        <time>2023-10-21T04:27:17Z</time>
      </trkpt>
      <trkpt lat="40.012783533922786" lon="119.74809516063851">
        <ele>48.8</ele>
        <time>2023-10-21T04:27:18Z</time>
      </trkpt>
      <trkpt lat="40.01277916192409" lon="119.74808152624072">
        <ele>48.8</ele>
        <time>2023-10-21T04:27:19Z</time>
      </trkpt>
      <trkpt lat="40.01277410285769" lon="119.74806825761091">
        <ele>48.8</ele>
        <time>2023-10-21T04:27:20Z</time>
      </trkpt>
      <trkpt lat="40.012767444137324" lon="119.74805354615495">
        <ele>48.8</ele>
        <time>2023-10-21T04:27:21Z</time>
      </trkpt>
      <trkpt lat="40.01276051793791" lon="119.74803945217562">
        <ele>48.8</ele>
        <time>2023-10-21T04:27:22Z</time>
      </trkpt>
      <trkpt lat="40.012753206131215" lon="119.74802551275181">
        <ele>48.3</ele>
        <time>2023-10-21T04:27:23Z</time>
      </trkpt>
      <trkpt lat="40.012746787627606" lon="119.74801316246673">
        <ele>48.3</ele>
        <time>2023-10-21T04:27:24Z</time>
      </trkpt>
      <trkpt lat="40.01274054428011" lon="119.74800074552967">
        <ele>48.3</ele>
        <time>2023-10-21T04:27:25Z</time>
      </trkpt>
      <trkpt lat="40.012735513479015" lon="119.74798911936428">
        <ele>48.3</ele>
        <time>2023-10-21T04:27:26Z</time>
      </trkpt>
      <trkpt lat="40.01273046578075" lon="119.74797618447292">
        <ele>48.3</ele>
        <time>2023-10-21T04:27:27Z</time>
      </trkpt>
      <trkpt lat="40.01272585740854" lon="119.74796442617209">
        <ele>48.3</ele>
        <time>2023-10-21T04:27:28Z</time>
      </trkpt>
      <trkpt lat="40.01272030346657" lon="119.74795090196181">
        <ele>48.3</ele>
        <time>2023-10-21T04:27:29Z</time>
      </trkpt>
      <trkpt lat="40.012713860222775" lon="119.74793644848246">
        <ele>48.3</ele>
        <time>2023-10-21T04:27:30Z</time>
      </trkpt>
      <trkpt lat="40.01270659077507" lon="119.74791980439372">
        <ele>48.3</ele>
        <time>2023-10-21T04:27:31Z</time>
      </trkpt>
      <trkpt lat="40.01269957953138" lon="119.74790290911709">
        <ele>48.3</ele>
        <time>2023-10-21T04:27:32Z</time>
      </trkpt>
      <trkpt lat="40.012693109139136" lon="119.74788541146715">
        <ele>0</ele>
        <time>2023-10-21T04:27:33Z</time>
      </trkpt>
      <trkpt lat="40.012686750449454" lon="119.74786652181686">
        <ele>0</ele>
        <time>2023-10-21T04:27:35Z</time>
      </trkpt>
      <trkpt lat="40.01268063864794" lon="119.74784798403495">
        <ele>0</ele>
        <time>2023-10-21T04:27:36Z</time>
      </trkpt>
      <trkpt lat="40.012674715853514" lon="119.74783033158135">
        <ele>0</ele>
        <time>2023-10-21T04:27:37Z</time>
      </trkpt>
      <trkpt lat="40.01266904733114" lon="119.74781424318338">
        <ele>0</ele>
        <time>2023-10-21T04:27:38Z</time>
      </trkpt>
      <trkpt lat="40.01266402010795" lon="119.74779975284096">
        <ele>0</ele>
        <time>2023-10-21T04:27:39Z</time>
      </trkpt>
      <trkpt lat="40.01265903538483" lon="119.74778443959008">
        <ele>0</ele>
        <time>2023-10-21T04:27:40Z</time>
      </trkpt>
      <trkpt lat="40.01265441161571" lon="119.747768726244">
        <ele>0</ele>
        <time>2023-10-21T04:27:41Z</time>
      </trkpt>
      <trkpt lat="40.0126493358403" lon="119.7477518392326">
        <ele>0</ele>
        <time>2023-10-21T04:27:42Z</time>
      </trkpt>
      <trkpt lat="40.01264431104354" lon="119.74773543433047">
        <ele>0</ele>
        <time>2023-10-21T04:27:43Z</time>
      </trkpt>
      <trkpt lat="40.01263995626567" lon="119.74772130576676">
        <ele>0</ele>
        <time>2023-10-21T04:27:44Z</time>
      </trkpt>
      <trkpt lat="40.01263555868907" lon="119.74770744505929">
        <ele>0</ele>
        <time>2023-10-21T04:27:45Z</time>
      </trkpt>
      <trkpt lat="40.01263096489541" lon="119.7476951769645">
        <ele>0</ele>
        <time>2023-10-21T04:27:46Z</time>
      </trkpt>
      <trkpt lat="40.01262573829756" lon="119.74768287237083">
        <ele>0</ele>
        <time>2023-10-21T04:27:47Z</time>
      </trkpt>
      <trkpt lat="40.012620789971336" lon="119.74767154188123">
        <ele>0</ele>
        <time>2023-10-21T04:27:48Z</time>
      </trkpt>
      <trkpt lat="40.01261679982184" lon="119.74766182653399">
        <ele>0</ele>
        <time>2023-10-21T04:27:49Z</time>
      </trkpt>
      <trkpt lat="40.01261277477461" lon="119.74765096222545">
        <ele>0</ele>
        <time>2023-10-21T04:27:50Z</time>
      </trkpt>
      <trkpt lat="40.01260895623431" lon="119.74763950202464">
        <ele>0</ele>
        <time>2023-10-21T04:27:51Z</time>
      </trkpt>
      <trkpt lat="40.012603705851994" lon="119.74762263025184">
        <ele>0</ele>
        <time>2023-10-21T04:27:53Z</time>
      </trkpt>
      <trkpt lat="40.01259926632443" lon="119.74760718835522">
        <ele>0</ele>
        <time>2023-10-21T04:27:54Z</time>
      </trkpt>
      <trkpt lat="40.01259484029346" lon="119.74759129025512">
        <ele>0</ele>
        <time>2023-10-21T04:27:55Z</time>
      </trkpt>
      <trkpt lat="40.01259187670301" lon="119.74757863114093">
        <ele>0</ele>
        <time>2023-10-21T04:27:56Z</time>
      </trkpt>
      <trkpt lat="40.01258886434727" lon="119.74756511196173">
        <ele>0</ele>
        <time>2023-10-21T04:27:57Z</time>
      </trkpt>
      <trkpt lat="40.0125866442065" lon="119.74755278697934">
        <ele>0</ele>
        <time>2023-10-21T04:27:58Z</time>
      </trkpt>
      <trkpt lat="40.01258538934325" lon="119.74754124836721">
        <ele>0</ele>
        <time>2023-10-21T04:27:59Z</time>
      </trkpt>
      <trkpt lat="40.01258544874276" lon="119.74752988773379">
        <ele>0</ele>
        <time>2023-10-21T04:28:00Z</time>
      </trkpt>
      <trkpt lat="40.012585960135375" lon="119.7475196250555">
        <ele>0</ele>
        <time>2023-10-21T04:28:01Z</time>
      </trkpt>
      <trkpt lat="40.01258585151117" lon="119.74750771664023">
        <ele>0</ele>
        <time>2023-10-21T04:28:02Z</time>
      </trkpt>
      <trkpt lat="40.01258390176567" lon="119.74749448044982">
        <ele>0</ele>
        <time>2023-10-21T04:28:03Z</time>
      </trkpt>
      <trkpt lat="40.01258011623834" lon="119.74747865351864">
        <ele>0</ele>
        <time>2023-10-21T04:28:04Z</time>
      </trkpt>
      <trkpt lat="40.01257459156333" lon="119.74746308070631">
        <ele>0</ele>
        <time>2023-10-21T04:28:05Z</time>
      </trkpt>
      <trkpt lat="40.01256809300558" lon="119.74744866358148">
        <ele>0</ele>
        <time>2023-10-21T04:28:06Z</time>
      </trkpt>
      <trkpt lat="40.012561231861326" lon="119.7474359598068">
        <ele>0</ele>
        <time>2023-10-21T04:28:07Z</time>
      </trkpt>
      <trkpt lat="40.012555672929906" lon="119.74742630429171">
        <ele>0</ele>
        <time>2023-10-21T04:28:08Z</time>
      </trkpt>
      <trkpt lat="40.012551535908685" lon="119.74741800062483">
        <ele>0</ele>
        <time>2023-10-21T04:28:09Z</time>
      </trkpt>
      <trkpt lat="40.01254862859871" lon="119.74740861199155">
        <ele>0</ele>
        <time>2023-10-21T04:28:11Z</time>
      </trkpt>
      <trkpt lat="40.01254582312395" lon="119.7473968546858">
        <ele>0</ele>
        <time>2023-10-21T04:28:12Z</time>
      </trkpt>
      <trkpt lat="40.01254294249353" lon="119.74738312669379">
        <ele>0</ele>
        <time>2023-10-21T04:28:13Z</time>
      </trkpt>
      <trkpt lat="40.01254025762941" lon="119.74737067084355">
        <ele>0</ele>
        <time>2023-10-21T04:28:14Z</time>
      </trkpt>
      <trkpt lat="40.01253702322601" lon="119.74735699423242">
        <ele>0</ele>
        <time>2023-10-21T04:28:15Z</time>
      </trkpt>
      <trkpt lat="40.0125333810959" lon="119.7473436434542">
        <ele>0</ele>
        <time>2023-10-21T04:28:16Z</time>
      </trkpt>
      <trkpt lat="40.012528925088546" lon="119.74732887262961">
        <ele>0</ele>
        <time>2023-10-21T04:28:17Z</time>
      </trkpt>
      <trkpt lat="40.01252480525192" lon="119.74731661055601">
        <ele>0</ele>
        <time>2023-10-21T04:28:18Z</time>
      </trkpt>
      <trkpt lat="40.012520849205856" lon="119.7473045886136">
        <ele>0</ele>
        <time>2023-10-21T04:28:19Z</time>
      </trkpt>
      <trkpt lat="40.0125173045227" lon="119.74729410824872">
        <ele>0</ele>
        <time>2023-10-21T04:28:20Z</time>
      </trkpt>
      <trkpt lat="40.012514247133325" lon="119.74728577999572">
        <ele>0</ele>
        <time>2023-10-21T04:28:21Z</time>
      </trkpt>
      <trkpt lat="40.012511566960264" lon="119.74727935821775">
        <ele>0</ele>
        <time>2023-10-21T04:28:22Z</time>
      </trkpt>
      <trkpt lat="40.01250943959917" lon="119.74727591669368">
        <ele>0</ele>
        <time>2023-10-21T04:28:23Z</time>
      </trkpt>
      <trkpt lat="40.01250695837308" lon="119.74727226351389">
        <ele>0</ele>
        <time>2023-10-21T04:28:24Z</time>
      </trkpt>
      <trkpt lat="40.01250441666608" lon="119.747270238884">
        <ele>0</ele>
        <time>2023-10-21T04:28:25Z</time>
      </trkpt>
      <trkpt lat="40.01250233702031" lon="119.74726948837915">
        <ele>0</ele>
        <time>2023-10-21T04:28:26Z</time>
      </trkpt>
      <trkpt lat="40.012501016377435" lon="119.74726961577765">
        <ele>0</ele>
        <time>2023-10-21T04:28:27Z</time>
      </trkpt>
      <trkpt lat="40.0125008395349" lon="119.7472709505471">
        <ele>0</ele>
        <time>2023-10-21T04:28:29Z</time>
      </trkpt>
      <trkpt lat="40.012501007468906" lon="119.74727159344255">
        <ele>0</ele>
        <time>2023-10-21T04:28:30Z</time>
      </trkpt>
      <trkpt lat="40.012501706366685" lon="119.74727284820936">
        <ele>0</ele>
        <time>2023-10-21T04:28:31Z</time>
      </trkpt>
      <trkpt lat="40.012502650140476" lon="119.74727414942504">
        <ele>0</ele>
        <time>2023-10-21T04:28:32Z</time>
      </trkpt>
      <trkpt lat="40.012504105253925" lon="119.74727608875668">
        <ele>0</ele>
        <time>2023-10-21T04:28:33Z</time>
      </trkpt>
      <trkpt lat="40.012505730813956" lon="119.74727828096013">
        <ele>0</ele>
        <time>2023-10-21T04:28:34Z</time>
      </trkpt>
      <trkpt lat="40.01250732631038" lon="119.74728073433991">
        <ele>0</ele>
        <time>2023-10-21T04:28:35Z</time>
      </trkpt>
      <trkpt lat="40.012509347772905" lon="119.74728324859254">
        <ele>0</ele>
        <time>2023-10-21T04:28:36Z</time>
      </trkpt>
      <trkpt lat="40.01251184027685" lon="119.74728685746415">
        <ele>0</ele>
        <time>2023-10-21T04:28:37Z</time>
      </trkpt>
      <trkpt lat="40.012515189557135" lon="119.74729134249704">
        <ele>0</ele>
        <time>2023-10-21T04:28:38Z</time>
      </trkpt>
      <trkpt lat="40.01251937004081" lon="119.74729643829293">
        <ele>0</ele>
        <time>2023-10-21T04:28:39Z</time>
      </trkpt>
      <trkpt lat="40.0125226463755" lon="119.7473003296607">
        <ele>0</ele>
        <time>2023-10-21T04:28:40Z</time>
      </trkpt>
      <trkpt lat="40.012525718155636" lon="119.74730366617074">
        <ele>0</ele>
        <time>2023-10-21T04:28:41Z</time>
      </trkpt>
      <trkpt lat="40.01252587609419" lon="119.74730518494707">
        <ele>0</ele>
        <time>2023-10-21T04:28:42Z</time>
      </trkpt>
      <trkpt lat="40.01252617757074" lon="119.7473064012216">
        <ele>0</ele>
        <time>2023-10-21T04:28:43Z</time>
      </trkpt>
      <trkpt lat="40.012526177481185" lon="119.74730710908753">
        <ele>0</ele>
        <time>2023-10-21T04:28:44Z</time>
      </trkpt>
      <trkpt lat="40.0125261446252" lon="119.74730758908912">
        <ele>0</ele>
        <time>2023-10-21T04:28:45Z</time>
      </trkpt>
      <trkpt lat="40.01252595060868" lon="119.74730795132659">
        <ele>0</ele>
        <time>2023-10-21T04:28:47Z</time>
      </trkpt>
      <trkpt lat="40.01252630042397" lon="119.74730876690403">
        <ele>0</ele>
        <time>2023-10-21T04:28:48Z</time>
      </trkpt>
      <trkpt lat="40.01252842336179" lon="119.74731156092713">
        <ele>0</ele>
        <time>2023-10-21T04:28:49Z</time>
      </trkpt>
      <trkpt lat="40.01253171808033" lon="119.74731637203392">
        <ele>0</ele>
        <time>2023-10-21T04:28:50Z</time>
      </trkpt>
      <trkpt lat="40.01253696977549" lon="119.7473244873353">
        <ele>0</ele>
        <time>2023-10-21T04:28:51Z</time>
      </trkpt>
      <trkpt lat="40.01254187667002" lon="119.74733306886206">
        <ele>0</ele>
        <time>2023-10-21T04:28:52Z</time>
      </trkpt>
      <trkpt lat="40.012547810717415" lon="119.74734367380394">
        <ele>0</ele>
        <time>2023-10-21T04:28:53Z</time>
      </trkpt>
      <trkpt lat="40.012553210366846" lon="119.74735479944208">
        <ele>0</ele>
        <time>2023-10-21T04:28:54Z</time>
      </trkpt>
      <trkpt lat="40.01255862254291" lon="119.74736655685673">
        <ele>0</ele>
        <time>2023-10-21T04:28:55Z</time>
      </trkpt>
      <trkpt lat="40.01256386459408" lon="119.7473788760128">
        <ele>0</ele>
        <time>2023-10-21T04:28:56Z</time>
      </trkpt>
      <trkpt lat="40.01256827505246" lon="119.74738970544028">
        <ele>0</ele>
        <time>2023-10-21T04:28:57Z</time>
      </trkpt>
      <trkpt lat="40.012572964204224" lon="119.74740178652624">
        <ele>0</ele>
        <time>2023-10-21T04:28:58Z</time>
      </trkpt>
      <trkpt lat="40.01257721155926" lon="119.74741372846586">
        <ele>0</ele>
        <time>2023-10-21T04:28:59Z</time>
      </trkpt>
      <trkpt lat="40.01258133666726" lon="119.74742550435641">
        <ele>0</ele>
        <time>2023-10-21T04:29:00Z</time>
      </trkpt>
      <trkpt lat="40.012585447662076" lon="119.74743698557585">
        <ele>0</ele>
        <time>2023-10-21T04:29:01Z</time>
      </trkpt>
      <trkpt lat="40.01259028548121" lon="119.74744831347861">
        <ele>0</ele>
        <time>2023-10-21T04:29:02Z</time>
      </trkpt>
      <trkpt lat="40.012596189051145" lon="119.74746074196779">
        <ele>0</ele>
        <time>2023-10-21T04:29:03Z</time>
      </trkpt>
      <trkpt lat="40.01260169398524" lon="119.74747140242195">
        <ele>0</ele>
        <time>2023-10-21T04:29:05Z</time>
      </trkpt>
      <trkpt lat="40.012606878737024" lon="119.74748116771796">
        <ele>0</ele>
        <time>2023-10-21T04:29:06Z</time>
      </trkpt>
      <trkpt lat="40.01261186839483" lon="119.74749078329168">
        <ele>0</ele>
        <time>2023-10-21T04:29:07Z</time>
      </trkpt>
      <trkpt lat="40.01261674631807" lon="119.74750028437039">
        <ele>0</ele>
        <time>2023-10-21T04:29:08Z</time>
      </trkpt>
      <trkpt lat="40.01262133863064" lon="119.74751036057103">
        <ele>0</ele>
        <time>2023-10-21T04:29:09Z</time>
      </trkpt>
      <trkpt lat="40.012625360858884" lon="119.74752085292327">
        <ele>0</ele>
        <time>2023-10-21T04:29:10Z</time>
      </trkpt>
      <trkpt lat="40.01262883386925" lon="119.74753185794492">
        <ele>0</ele>
        <time>2023-10-21T04:29:11Z</time>
      </trkpt>
      <trkpt lat="40.012631471786776" lon="119.7475440466044">
        <ele>0</ele>
        <time>2023-10-21T04:29:12Z</time>
      </trkpt>
      <trkpt lat="40.01263309605863" lon="119.74755386986975">
        <ele>0</ele>
        <time>2023-10-21T04:29:13Z</time>
      </trkpt>
      <trkpt lat="40.01263525595845" lon="119.74756502836202">
        <ele>0</ele>
        <time>2023-10-21T04:29:14Z</time>
      </trkpt>
      <trkpt lat="40.01263792399668" lon="119.74757474728774">
        <ele>0</ele>
        <time>2023-10-21T04:29:15Z</time>
      </trkpt>
      <trkpt lat="40.01264089410155" lon="119.7475844416642">
        <ele>0</ele>
        <time>2023-10-21T04:29:16Z</time>
      </trkpt>
      <trkpt lat="40.01264403182654" lon="119.7475935621418">
        <ele>0</ele>
        <time>2023-10-21T04:29:17Z</time>
      </trkpt>
      <trkpt lat="40.012647235542474" lon="119.74760225307905">
        <ele>0</ele>
        <time>2023-10-21T04:29:18Z</time>
      </trkpt>
      <trkpt lat="40.01265049705031" lon="119.74761063362244">
        <ele>0</ele>
        <time>2023-10-21T04:29:19Z</time>
      </trkpt>
      <trkpt lat="40.01265302995857" lon="119.74761652610843">
        <ele>0</ele>
        <time>2023-10-21T04:29:20Z</time>
      </trkpt>
      <trkpt lat="40.012654556551354" lon="119.7476195171742">
        <ele>0</ele>
        <time>2023-10-21T04:29:21Z</time>
      </trkpt>
      <trkpt lat="40.012655680440155" lon="119.74762139973149">
        <ele>0</ele>
        <time>2023-10-21T04:29:23Z</time>
      </trkpt>
      <trkpt lat="40.01265636955565" lon="119.74762241571526">
        <ele>0</ele>
        <time>2023-10-21T04:29:24Z</time>
      </trkpt>
      <trkpt lat="40.01265684038421" lon="119.74762300861408">
        <ele>0</ele>
        <time>2023-10-21T04:29:25Z</time>
      </trkpt>
      <trkpt lat="40.012657135220635" lon="119.74762331617224">
        <ele>0</ele>
        <time>2023-10-21T04:29:26Z</time>
      </trkpt>
      <trkpt lat="40.01265730896353" lon="119.74762345392543">
        <ele>0</ele>
        <time>2023-10-21T04:29:27Z</time>
      </trkpt>
      <trkpt lat="40.012657382082104" lon="119.74762347041273">
        <ele>0</ele>
        <time>2023-10-21T04:29:28Z</time>
      </trkpt>
      <trkpt lat="40.01265736862005" lon="119.74762339482044">
        <ele>0</ele>
        <time>2023-10-21T04:29:29Z</time>
      </trkpt>
      <trkpt lat="40.012657272338224" lon="119.74762323737161">
        <ele>0</ele>
        <time>2023-10-21T04:29:30Z</time>
      </trkpt>
      <trkpt lat="40.012657091386885" lon="119.74762299866673">
        <ele>0</ele>
        <time>2023-10-21T04:29:31Z</time>
      </trkpt>
      <trkpt lat="40.01265681819816" lon="119.7476226712656">
        <ele>0</ele>
        <time>2023-10-21T04:29:32Z</time>
      </trkpt>
      <trkpt lat="40.012656440001535" lon="119.74762224139178">
        <ele>0</ele>
        <time>2023-10-21T04:29:33Z</time>
      </trkpt>
      <trkpt lat="40.01265593836096" lon="119.74762168896918">
        <ele>0</ele>
        <time>2023-10-21T04:29:34Z</time>
      </trkpt>
      <trkpt lat="40.01265597740262" lon="119.74762289912307">
        <ele>0</ele>
        <time>2023-10-21T04:29:35Z</time>
      </trkpt>
      <trkpt lat="40.012656773547775" lon="119.74762652764275">
        <ele>0</ele>
        <time>2023-10-21T04:29:36Z</time>
      </trkpt>
      <trkpt lat="40.01265778691197" lon="119.7476310667145">
        <ele>0</ele>
        <time>2023-10-21T04:29:37Z</time>
      </trkpt>
      <trkpt lat="40.01265812185537" lon="119.74763442436152">
        <ele>0</ele>
        <time>2023-10-21T04:29:38Z</time>
      </trkpt>
      <trkpt lat="40.0126580110223" lon="119.74763671895516">
        <ele>0</ele>
        <time>2023-10-21T04:29:39Z</time>
      </trkpt>
      <trkpt lat="40.012657726018" lon="119.74763855890464">
        <ele>0</ele>
        <time>2023-10-21T04:29:41Z</time>
      </trkpt>
      <trkpt lat="40.01265758113255" lon="119.74764015191025">
        <ele>0</ele>
        <time>2023-10-21T04:29:42Z</time>
      </trkpt>
      <trkpt lat="40.01265713823275" lon="119.74764057360115">
        <ele>0</ele>
        <time>2023-10-21T04:29:43Z</time>
      </trkpt>
      <trkpt lat="40.01265673750769" lon="119.7476407295529">
        <ele>0</ele>
        <time>2023-10-21T04:29:44Z</time>
      </trkpt>
      <trkpt lat="40.01265634521023" lon="119.74764060365705">
        <ele>0</ele>
        <time>2023-10-21T04:29:45Z</time>
      </trkpt>
      <trkpt lat="40.012656011450204" lon="119.74764036173576">
        <ele>0</ele>
        <time>2023-10-21T04:29:46Z</time>
      </trkpt>
      <trkpt lat="40.01265611374948" lon="119.74764108336463">
        <ele>0</ele>
        <time>2023-10-21T04:29:47Z</time>
      </trkpt>
      <trkpt lat="40.012656367002876" lon="119.74764199535352">
        <ele>0</ele>
        <time>2023-10-21T04:29:48Z</time>
      </trkpt>
      <trkpt lat="40.012657570800975" lon="119.74764532377017">
        <ele>0</ele>
        <time>2023-10-21T04:29:49Z</time>
      </trkpt>
      <trkpt lat="40.01265976262648" lon="119.74765075209937">
        <ele>0</ele>
        <time>2023-10-21T04:29:50Z</time>
      </trkpt>
      <trkpt lat="40.01266262252814" lon="119.74765745998404">
        <ele>0</ele>
        <time>2023-10-21T04:29:51Z</time>
      </trkpt>
      <trkpt lat="40.01266521156541" lon="119.74766292924065">
        <ele>0</ele>
        <time>2023-10-21T04:29:52Z</time>
      </trkpt>
      <trkpt lat="40.01266680515243" lon="119.7476659184365">
        <ele>0</ele>
        <time>2023-10-21T04:29:53Z</time>
      </trkpt>
      <trkpt lat="40.01266781047602" lon="119.7476678272439">
        <ele>0</ele>
        <time>2023-10-21T04:29:54Z</time>
      </trkpt>
      <trkpt lat="40.01266828308402" lon="119.7476688386856">
        <ele>0</ele>
        <time>2023-10-21T04:29:55Z</time>
      </trkpt>
      <trkpt lat="40.012668461306845" lon="119.74766941617803">
        <ele>0</ele>
        <time>2023-10-21T04:29:56Z</time>
      </trkpt>
      <trkpt lat="40.01266847951469" lon="119.74766979748803">
        <ele>0</ele>
        <time>2023-10-21T04:29:57Z</time>
      </trkpt>
      <trkpt lat="40.01266830028964" lon="119.74767018637606">
        <ele>0</ele>
        <time>2023-10-21T04:29:58Z</time>
      </trkpt>
      <trkpt lat="40.01266772451178" lon="119.74767086827573">
        <ele>0</ele>
        <time>2023-10-21T04:29:59Z</time>
      </trkpt>
      <trkpt lat="40.01266780602036" lon="119.74767152431926">
        <ele>0</ele>
        <time>2023-10-21T04:30:00Z</time>
      </trkpt>
      <trkpt lat="40.012668624254005" lon="119.74767130724351">
        <ele>0</ele>
        <time>2023-10-21T04:30:01Z</time>
      </trkpt>
      <trkpt lat="40.01267000224602" lon="119.74767172618884">
        <ele>0</ele>
        <time>2023-10-21T04:30:02Z</time>
      </trkpt>
      <trkpt lat="40.012670283579624" lon="119.74767073936009">
        <ele>0</ele>
        <time>2023-10-21T04:30:03Z</time>
      </trkpt>
      <trkpt lat="40.01266866636425" lon="119.74767014618666">
        <ele>0</ele>
        <time>2023-10-21T04:30:04Z</time>
      </trkpt>
      <trkpt lat="40.01266432944129" lon="119.74766773908027">
        <ele>0</ele>
        <time>2023-10-21T04:30:05Z</time>
      </trkpt>
      <trkpt lat="40.012659291982075" lon="119.7476674459006">
        <ele>0</ele>
        <time>2023-10-21T04:30:06Z</time>
      </trkpt>
      <trkpt lat="40.012653527288684" lon="119.74766689641466">
        <ele>0</ele>
        <time>2023-10-21T04:30:07Z</time>
      </trkpt>
      <trkpt lat="40.012649393869054" lon="119.74766701256351">
        <ele>0</ele>
        <time>2023-10-21T04:30:08Z</time>
      </trkpt>
      <trkpt lat="40.01264633606497" lon="119.74766469009795">
        <ele>0</ele>
        <time>2023-10-21T04:30:09Z</time>
      </trkpt>
      <trkpt lat="40.012645639175624" lon="119.74766313499157">
        <ele>0</ele>
        <time>2023-10-21T04:30:10Z</time>
      </trkpt>
      <trkpt lat="40.01264589532835" lon="119.74766144063608">
        <ele>0</ele>
        <time>2023-10-21T04:30:11Z</time>
      </trkpt>
      <trkpt lat="40.012646372822914" lon="119.74766122469639">
        <ele>0</ele>
        <time>2023-10-21T04:30:12Z</time>
      </trkpt>
      <trkpt lat="40.0126462773945" lon="119.74766045928128">
        <ele>0</ele>
        <time>2023-10-21T04:30:13Z</time>
      </trkpt>
      <trkpt lat="40.01264716297321" lon="119.74765630111354">
        <ele>0</ele>
        <time>2023-10-21T04:30:14Z</time>
      </trkpt>
      <trkpt lat="40.012647820287114" lon="119.74765131641806">
        <ele>0</ele>
        <time>2023-10-21T04:30:15Z</time>
      </trkpt>
      <trkpt lat="40.01264773877175" lon="119.7476439327768">
        <ele>0</ele>
        <time>2023-10-21T04:30:17Z</time>
      </trkpt>
      <trkpt lat="40.01264618917366" lon="119.7476395633171">
        <ele>0</ele>
        <time>2023-10-21T04:30:18Z</time>
      </trkpt>
      <trkpt lat="40.01264303444396" lon="119.74763482881333">
        <ele>0</ele>
        <time>2023-10-21T04:30:19Z</time>
      </trkpt>
      <trkpt lat="40.01263924756239" lon="119.74763211843243">
        <ele>0</ele>
        <time>2023-10-21T04:30:20Z</time>
      </trkpt>
      <trkpt lat="40.01263414912044" lon="119.74762935126736">
        <ele>0</ele>
        <time>2023-10-21T04:30:21Z</time>
      </trkpt>
      <trkpt lat="40.01262844564139" lon="119.74762692113626">
        <ele>0</ele>
        <time>2023-10-21T04:30:22Z</time>
      </trkpt>
      <trkpt lat="40.01262137994857" lon="119.7476240112404">
        <ele>0</ele>
        <time>2023-10-21T04:30:23Z</time>
      </trkpt>
      <trkpt lat="40.01261426203985" lon="119.74762021649592">
        <ele>0</ele>
        <time>2023-10-21T04:30:24Z</time>
      </trkpt>
      <trkpt lat="40.01260831073931" lon="119.74761830783578">
        <ele>0</ele>
        <time>2023-10-21T04:30:26Z</time>
      </trkpt>
      <trkpt lat="40.01260620900279" lon="119.74761674152045">
        <ele>0</ele>
        <time>2023-10-21T04:30:27Z</time>
      </trkpt>
      <trkpt lat="40.01260607439625" lon="119.74761789097438">
        <ele>0</ele>
        <time>2023-10-21T04:30:28Z</time>
      </trkpt>
      <trkpt lat="40.012608966386004" lon="119.74761882473855">
        <ele>0</ele>
        <time>2023-10-21T04:30:29Z</time>
      </trkpt>
      <trkpt lat="40.01261298633874" lon="119.74762244479491">
        <ele>0</ele>
        <time>2023-10-21T04:30:30Z</time>
      </trkpt>
      <trkpt lat="40.01261933696483" lon="119.7476265649024">
        <ele>0</ele>
        <time>2023-10-21T04:30:31Z</time>
      </trkpt>
      <trkpt lat="40.012627302219904" lon="119.74763198270291">
        <ele>0</ele>
        <time>2023-10-21T04:30:32Z</time>
      </trkpt>
      <trkpt lat="40.01263646461575" lon="119.7476368606451">
        <ele>0</ele>
        <time>2023-10-21T04:30:33Z</time>
      </trkpt>
      <trkpt lat="40.012646959727654" lon="119.74764061839959">
        <ele>0</ele>
        <time>2023-10-21T04:30:34Z</time>
      </trkpt>
      <trkpt lat="40.012657392521945" lon="119.74764252423412">
        <ele>0</ele>
        <time>2023-10-21T04:30:35Z</time>
      </trkpt>
      <trkpt lat="40.0126671747887" lon="119.74764490064203">
        <ele>0</ele>
        <time>2023-10-21T04:30:36Z</time>
      </trkpt>
    </trkseg>
  </trk>
</gpx>