<?xml version="1.0" encoding="UTF-8"?>
<gpx xmlns="http://www.topografix.com/GPX/1/1" xmlns:gpxtpx="http://www.garmin.com/xmlschemas/TrackPointExtension/v1" xmlns:xsi="http://www.w3.org/2001/XMLSchema-instance" xsi:schemaLocation="http://www.topografix.com/GPX/1/1 http://www.topografix.com/GPX/1/1/gpx.xsd" version="1.1" creator="gpx.py -- https://github.com/tkrajina/gpxpy">
  <trk>
    <name>gpx from codoon</name>
    <type>Run</type>
    <trkseg>
      <trkpt lat="39.27743506797882" lon="118.43194246852647">
        <ele>-2.8</ele>
        <time>2024-03-08T00:00:48Z</time>
      </trkpt>
      <trkpt lat="39.277437574652936" lon="118.4319154152455">
        <ele>-2.8</ele>
        <time>2024-03-08T00:00:49Z</time>
      </trkpt>
      <trkpt lat="39.277438864725106" lon="118.43188815736579">
        <ele>-2.8</ele>
        <time>2024-03-08T00:00:50Z</time>
      </trkpt>
      <trkpt lat="39.27743904954677" lon="118.43187447811155">
        <ele>-2.8</ele>
        <time>2024-03-08T00:00:51Z</time>
      </trkpt>
      <trkpt lat="39.27743806654193" lon="118.4318337475136">
        <ele>-2.8</ele>
        <time>2024-03-08T00:00:52Z</time>
      </trkpt>
      <trkpt lat="39.277437627144494" lon="118.43182076118366">
        <ele>-2.8</ele>
        <time>2024-03-08T00:00:53Z</time>
      </trkpt>
      <trkpt lat="39.27743678329252" lon="118.43179582070955">
        <ele>-2.8</ele>
        <time>2024-03-08T00:00:54Z</time>
      </trkpt>
      <trkpt lat="39.2774355959647" lon="118.4317607274139">
        <ele>-3</ele>
        <time>2024-03-08T00:00:55Z</time>
      </trkpt>
      <trkpt lat="39.27743521899146" lon="118.4317495850934">
        <ele>-3</ele>
        <time>2024-03-08T00:00:56Z</time>
      </trkpt>
      <trkpt lat="39.27743449045341" lon="118.43172805105047">
        <ele>-3</ele>
        <time>2024-03-08T00:00:57Z</time>
      </trkpt>
      <trkpt lat="39.27743449045341" lon="118.43172805105047">
        <ele>-3</ele>
        <time>2024-03-08T00:00:58Z</time>
      </trkpt>
      <trkpt lat="39.27743067914509" lon="118.43161538809196">
        <ele>-3</ele>
        <time>2024-03-08T00:00:59Z</time>
      </trkpt>
      <trkpt lat="39.27743449045341" lon="118.43172805105047">
        <ele>-3</ele>
        <time>2024-03-08T00:01:00Z</time>
      </trkpt>
      <trkpt lat="39.277426537043596" lon="118.43149293014933">
        <ele>-3</ele>
        <time>2024-03-08T00:01:01Z</time>
      </trkpt>
      <trkpt lat="39.27743678329252" lon="118.43179582070955">
        <ele>-3</ele>
        <time>2024-03-08T00:01:02Z</time>
      </trkpt>
      <trkpt lat="39.277420416304665" lon="118.43202156506966">
        <ele>-3</ele>
        <time>2024-03-08T00:01:04Z</time>
      </trkpt>
      <trkpt lat="39.277260184611066" lon="118.43227708895405">
        <ele>-2.6</ele>
        <time>2024-03-08T00:01:06Z</time>
      </trkpt>
      <trkpt lat="39.27742468006192" lon="118.43143802431409">
        <ele>-2.6</ele>
        <time>2024-03-08T00:01:09Z</time>
      </trkpt>
      <trkpt lat="39.27742422808681" lon="118.43142466012515">
        <ele>-2.6</ele>
        <time>2024-03-08T00:01:10Z</time>
      </trkpt>
      <trkpt lat="39.277423333490034" lon="118.4313982077026">
        <ele>-2.6</ele>
        <time>2024-03-08T00:01:11Z</time>
      </trkpt>
      <trkpt lat="39.27742244657566" lon="118.43137198164001">
        <ele>-2.6</ele>
        <time>2024-03-08T00:01:12Z</time>
      </trkpt>
      <trkpt lat="39.27742134022824" lon="118.43133926582115">
        <ele>-2.6</ele>
        <time>2024-03-08T00:01:13Z</time>
      </trkpt>
      <trkpt lat="39.2774204502306" lon="118.43131294678334">
        <ele>-2.6</ele>
        <time>2024-03-08T00:01:14Z</time>
      </trkpt>
      <trkpt lat="39.27741954973024" lon="118.43128631633942">
        <ele>-2.5</ele>
        <time>2024-03-08T00:01:15Z</time>
      </trkpt>
      <trkpt lat="39.2774186327918" lon="118.43125919892607">
        <ele>-2.5</ele>
        <time>2024-03-08T00:01:16Z</time>
      </trkpt>
      <trkpt lat="39.27741816619095" lon="118.43124539940744">
        <ele>-2.5</ele>
        <time>2024-03-08T00:01:17Z</time>
      </trkpt>
      <trkpt lat="39.277417212477516" lon="118.43121719305631">
        <ele>-2.5</ele>
        <time>2024-03-08T00:01:18Z</time>
      </trkpt>
      <trkpt lat="39.27741769305054" lon="118.43123140625838">
        <ele>-2.5</ele>
        <time>2024-03-08T00:01:19Z</time>
      </trkpt>
      <trkpt lat="39.277413552200734" lon="118.43110893071622">
        <ele>-2.5</ele>
        <time>2024-03-08T00:01:20Z</time>
      </trkpt>
      <trkpt lat="39.27741769305054" lon="118.43123140625838">
        <ele>-2.5</ele>
        <time>2024-03-08T00:01:21Z</time>
      </trkpt>
      <trkpt lat="39.27740938278182" lon="118.43098559252873">
        <ele>-2.5</ele>
        <time>2024-03-08T00:01:22Z</time>
      </trkpt>
      <trkpt lat="39.27741954973024" lon="118.43128631633942">
        <ele>-2.5</ele>
        <time>2024-03-08T00:01:23Z</time>
      </trkpt>
      <trkpt lat="39.277426063811" lon="118.4314789382965">
        <ele>-2.4</ele>
        <time>2024-03-08T00:01:25Z</time>
      </trkpt>
      <trkpt lat="39.27743379304593" lon="118.43170743665857">
        <ele>-2.4</ele>
        <time>2024-03-08T00:01:27Z</time>
      </trkpt>
      <trkpt lat="39.27740785676049" lon="118.43094044590629">
        <ele>-2.4</ele>
        <time>2024-03-08T00:01:29Z</time>
      </trkpt>
      <trkpt lat="39.277407035327364" lon="118.43091614321023">
        <ele>-2.4</ele>
        <time>2024-03-08T00:01:30Z</time>
      </trkpt>
      <trkpt lat="39.27740660809314" lon="118.43090350290309">
        <ele>-2.4</ele>
        <time>2024-03-08T00:01:31Z</time>
      </trkpt>
      <trkpt lat="39.277405717422056" lon="118.43087715058483">
        <ele>-2.4</ele>
        <time>2024-03-08T00:01:32Z</time>
      </trkpt>
      <trkpt lat="39.27740439144464" lon="118.4308498197004">
        <ele>-2.4</ele>
        <time>2024-03-08T00:01:33Z</time>
      </trkpt>
      <trkpt lat="39.27740327947575" lon="118.43083621221757">
        <ele>-2.4</ele>
        <time>2024-03-08T00:01:34Z</time>
      </trkpt>
      <trkpt lat="39.27740014536817" lon="118.43080919778326">
        <ele>-2.6</ele>
        <time>2024-03-08T00:01:35Z</time>
      </trkpt>
      <trkpt lat="39.27739581306909" lon="118.4307825197298">
        <ele>-2.6</ele>
        <time>2024-03-08T00:01:36Z</time>
      </trkpt>
      <trkpt lat="39.27739320402616" lon="118.43076933252169">
        <ele>-2.6</ele>
        <time>2024-03-08T00:01:37Z</time>
      </trkpt>
      <trkpt lat="39.27738711459965" lon="118.43074331249713">
        <ele>-2.6</ele>
        <time>2024-03-08T00:01:38Z</time>
      </trkpt>
      <trkpt lat="39.27739030351198" lon="118.43075626008681">
        <ele>-2.6</ele>
        <time>2024-03-08T00:01:39Z</time>
      </trkpt>
      <trkpt lat="39.27735165096703" lon="118.43064540150532">
        <ele>-2.6</ele>
        <time>2024-03-08T00:01:40Z</time>
      </trkpt>
      <trkpt lat="39.2773836405476" lon="118.43073049973525">
        <ele>-2.6</ele>
        <time>2024-03-08T00:01:41Z</time>
      </trkpt>
      <trkpt lat="39.277321149374245" lon="118.43059073899015">
        <ele>-2.6</ele>
        <time>2024-03-08T00:01:42Z</time>
      </trkpt>
      <trkpt lat="39.27737988480011" lon="118.43071783168595">
        <ele>-2.6</ele>
        <time>2024-03-08T00:01:43Z</time>
      </trkpt>
      <trkpt lat="39.27730009198045" lon="118.43056090775234">
        <ele>-2.6</ele>
        <time>2024-03-08T00:01:44Z</time>
      </trkpt>
      <trkpt lat="39.277366964616526" lon="118.4306807930199">
        <ele>-2.8</ele>
        <time>2024-03-08T00:01:45Z</time>
      </trkpt>
      <trkpt lat="39.277277159433" lon="118.43053355858298">
        <ele>-2.8</ele>
        <time>2024-03-08T00:01:46Z</time>
      </trkpt>
      <trkpt lat="39.27734017220009" lon="118.43062284436643">
        <ele>-2.8</ele>
        <time>2024-03-08T00:01:47Z</time>
      </trkpt>
      <trkpt lat="39.27725252337333" lon="118.43050888217257">
        <ele>-2.8</ele>
        <time>2024-03-08T00:01:48Z</time>
      </trkpt>
      <trkpt lat="39.27730732759531" lon="118.43057058564015">
        <ele>-2.8</ele>
        <time>2024-03-08T00:01:49Z</time>
      </trkpt>
      <trkpt lat="39.27725252337333" lon="118.43050888217257">
        <ele>-2.8</ele>
        <time>2024-03-08T00:01:50Z</time>
      </trkpt>
      <trkpt lat="39.277260913604444" lon="118.43051679965009">
        <ele>-2.8</ele>
        <time>2024-03-08T00:01:51Z</time>
      </trkpt>
      <trkpt lat="39.27723524280003" lon="118.43049400188157">
        <ele>-2.8</ele>
        <time>2024-03-08T00:01:52Z</time>
      </trkpt>
      <trkpt lat="39.27722636663667" lon="118.43048705060433">
        <ele>-2.8</ele>
        <time>2024-03-08T00:01:53Z</time>
      </trkpt>
      <trkpt lat="39.277208178867525" lon="118.43047415272643">
        <ele>-2.8</ele>
        <time>2024-03-08T00:01:54Z</time>
      </trkpt>
      <trkpt lat="39.27717992071367" lon="118.43045739059211">
        <ele>-2.6</ele>
        <time>2024-03-08T00:01:55Z</time>
      </trkpt>
      <trkpt lat="39.27717992071367" lon="118.43045739059211">
        <ele>-2.6</ele>
        <time>2024-03-08T00:01:56Z</time>
      </trkpt>
      <trkpt lat="39.27715067519273" lon="118.43044383232076">
        <ele>-2.6</ele>
        <time>2024-03-08T00:01:57Z</time>
      </trkpt>
      <trkpt lat="39.27715067519273" lon="118.43044383232076">
        <ele>-2.6</ele>
        <time>2024-03-08T00:01:58Z</time>
      </trkpt>
      <trkpt lat="39.277110514944404" lon="118.43043089833827">
        <ele>-2.6</ele>
        <time>2024-03-08T00:01:59Z</time>
      </trkpt>
      <trkpt lat="39.27710032061091" lon="118.43042860098744">
        <ele>-2.6</ele>
        <time>2024-03-08T00:02:00Z</time>
      </trkpt>
      <trkpt lat="39.2770694989849" lon="118.43042398518664">
        <ele>-2.6</ele>
        <time>2024-03-08T00:02:01Z</time>
      </trkpt>
      <trkpt lat="39.27704883542262" lon="118.43042281593375">
        <ele>-2.6</ele>
        <time>2024-03-08T00:02:02Z</time>
      </trkpt>
      <trkpt lat="39.277028157019814" lon="118.4304231778279">
        <ele>-2.6</ele>
        <time>2024-03-08T00:02:03Z</time>
      </trkpt>
      <trkpt lat="39.27700753053599" lon="118.43042506961314">
        <ele>-2.6</ele>
        <time>2024-03-08T00:02:04Z</time>
      </trkpt>
      <trkpt lat="39.2769768337485" lon="118.43043076137322">
        <ele>-2.7</ele>
        <time>2024-03-08T00:02:05Z</time>
      </trkpt>
      <trkpt lat="39.2769768337485" lon="118.43043076137322">
        <ele>-2.7</ele>
        <time>2024-03-08T00:02:06Z</time>
      </trkpt>
      <trkpt lat="39.276936704420734" lon="118.43044360914517">
        <ele>-2.7</ele>
        <time>2024-03-08T00:02:07Z</time>
      </trkpt>
      <trkpt lat="39.276936704420734" lon="118.43044360914517">
        <ele>-2.7</ele>
        <time>2024-03-08T00:02:08Z</time>
      </trkpt>
      <trkpt lat="39.276907491046885" lon="118.43045710100994">
        <ele>-2.7</ele>
        <time>2024-03-08T00:02:09Z</time>
      </trkpt>
      <trkpt lat="39.276907491046885" lon="118.43045710100994">
        <ele>-2.7</ele>
        <time>2024-03-08T00:02:10Z</time>
      </trkpt>
      <trkpt lat="39.27687927221359" lon="118.43047379471527">
        <ele>-2.7</ele>
        <time>2024-03-08T00:02:11Z</time>
      </trkpt>
      <trkpt lat="39.2768611143586" lon="118.43048664560594">
        <ele>-2.7</ele>
        <time>2024-03-08T00:02:12Z</time>
      </trkpt>
      <trkpt lat="39.2768435495379" lon="118.43050082769236">
        <ele>-2.7</ele>
        <time>2024-03-08T00:02:13Z</time>
      </trkpt>
      <trkpt lat="39.2768435495379" lon="118.43050082769236">
        <ele>-2.7</ele>
        <time>2024-03-08T00:02:14Z</time>
      </trkpt>
      <trkpt lat="39.27681843929656" lon="118.43052449884816">
        <ele>-2.3</ele>
        <time>2024-03-08T00:02:15Z</time>
      </trkpt>
      <trkpt lat="39.27681843929656" lon="118.43052449884816">
        <ele>-2.3</ele>
        <time>2024-03-08T00:02:16Z</time>
      </trkpt>
      <trkpt lat="39.27678033873103" lon="118.43056992320282">
        <ele>-2.3</ele>
        <time>2024-03-08T00:02:17Z</time>
      </trkpt>
      <trkpt lat="39.276787553710506" lon="118.4305602731151">
        <ele>-2.3</ele>
        <time>2024-03-08T00:02:18Z</time>
      </trkpt>
      <trkpt lat="39.27676000604245" lon="118.43060044960085">
        <ele>-2.3</ele>
        <time>2024-03-08T00:02:19Z</time>
      </trkpt>
      <trkpt lat="39.27676000604245" lon="118.43060044960085">
        <ele>-2.3</ele>
        <time>2024-03-08T00:02:20Z</time>
      </trkpt>
      <trkpt lat="39.27673082416001" lon="118.43065609317362">
        <ele>-2.3</ele>
        <time>2024-03-08T00:02:21Z</time>
      </trkpt>
      <trkpt lat="39.276741759622105" lon="118.43063317153604">
        <ele>-2.3</ele>
        <time>2024-03-08T00:02:22Z</time>
      </trkpt>
      <trkpt lat="39.276716359153994" lon="118.43069195760278">
        <ele>-2.3</ele>
        <time>2024-03-08T00:02:23Z</time>
      </trkpt>
      <trkpt lat="39.27672573959067" lon="118.43066785955351">
        <ele>-2.3</ele>
        <time>2024-03-08T00:02:24Z</time>
      </trkpt>
      <trkpt lat="39.276694812620086" lon="118.43076808657077">
        <ele>-2.8</ele>
        <time>2024-03-08T00:02:25Z</time>
      </trkpt>
      <trkpt lat="39.27672573959067" lon="118.43066785955351">
        <ele>-2.8</ele>
        <time>2024-03-08T00:02:26Z</time>
      </trkpt>
      <trkpt lat="39.276682756577024" lon="118.43091660017366">
        <ele>-2.8</ele>
        <time>2024-03-08T00:02:27Z</time>
      </trkpt>
      <trkpt lat="39.27676000604245" lon="118.43060044960085">
        <ele>-2.8</ele>
        <time>2024-03-08T00:02:28Z</time>
      </trkpt>
      <trkpt lat="39.27683500752848" lon="118.43050840425401">
        <ele>-2.8</ele>
        <time>2024-03-08T00:02:30Z</time>
      </trkpt>
      <trkpt lat="39.276888555100975" lon="118.43046788117697">
        <ele>-2.8</ele>
        <time>2024-03-08T00:02:32Z</time>
      </trkpt>
      <trkpt lat="39.27668017423254" lon="118.43093265962754">
        <ele>-2.8</ele>
        <time>2024-03-08T00:02:34Z</time>
      </trkpt>
      <trkpt lat="39.27668407402244" lon="118.43095557742124">
        <ele>-2.8</ele>
        <time>2024-03-08T00:02:35Z</time>
      </trkpt>
      <trkpt lat="39.27668489519103" lon="118.43097987118757">
        <ele>-2.8</ele>
        <time>2024-03-08T00:02:36Z</time>
      </trkpt>
      <trkpt lat="39.276685290413624" lon="118.43099156335904">
        <ele>-2.8</ele>
        <time>2024-03-08T00:02:37Z</time>
      </trkpt>
      <trkpt lat="39.27668642076599" lon="118.431025002556">
        <ele>-2.8</ele>
        <time>2024-03-08T00:02:38Z</time>
      </trkpt>
      <trkpt lat="39.276687132746154" lon="118.43104606438563">
        <ele>-2.8</ele>
        <time>2024-03-08T00:02:39Z</time>
      </trkpt>
      <trkpt lat="39.27668781518552" lon="118.43106625185307">
        <ele>-2.8</ele>
        <time>2024-03-08T00:02:40Z</time>
      </trkpt>
      <trkpt lat="39.27668878950455" lon="118.43109507268828">
        <ele>-2.8</ele>
        <time>2024-03-08T00:02:41Z</time>
      </trkpt>
      <trkpt lat="39.27668910235705" lon="118.43110432681341">
        <ele>-2.8</ele>
        <time>2024-03-08T00:02:42Z</time>
      </trkpt>
      <trkpt lat="39.276689409718166" lon="118.43111341840756">
        <ele>-2.8</ele>
        <time>2024-03-08T00:02:43Z</time>
      </trkpt>
      <trkpt lat="39.27669000899387" lon="118.43113114441812">
        <ele>-2.8</ele>
        <time>2024-03-08T00:02:44Z</time>
      </trkpt>
      <trkpt lat="39.276689409718166" lon="118.43111341840756">
        <ele>-2.8</ele>
        <time>2024-03-08T00:02:45Z</time>
      </trkpt>
      <trkpt lat="39.276693261897115" lon="118.43122735585281">
        <ele>-2.8</ele>
        <time>2024-03-08T00:02:46Z</time>
      </trkpt>
      <trkpt lat="39.27668878950455" lon="118.43109507268828">
        <ele>-2.8</ele>
        <time>2024-03-08T00:02:47Z</time>
      </trkpt>
      <trkpt lat="39.276697932689" lon="118.43136548549832">
        <ele>-2.8</ele>
        <time>2024-03-08T00:02:48Z</time>
      </trkpt>
      <trkpt lat="39.276708897608934" lon="118.43168966483505">
        <ele>-2.8</ele>
        <time>2024-03-08T00:02:50Z</time>
      </trkpt>
      <trkpt lat="39.276806943756746" lon="118.43218319435535">
        <ele>-2.8</ele>
        <time>2024-03-08T00:02:52Z</time>
      </trkpt>
      <trkpt lat="39.27669837674348" lon="118.43137861639788">
        <ele>-2.9</ele>
        <time>2024-03-08T00:02:55Z</time>
      </trkpt>
      <trkpt lat="39.276699261939804" lon="118.43140479147158">
        <ele>-2.9</ele>
        <time>2024-03-08T00:02:56Z</time>
      </trkpt>
      <trkpt lat="39.276699704465784" lon="118.43141787657589">
        <ele>-2.9</ele>
        <time>2024-03-08T00:02:57Z</time>
      </trkpt>
      <trkpt lat="39.276700592835816" lon="118.43144414429689">
        <ele>-2.9</ele>
        <time>2024-03-08T00:02:58Z</time>
      </trkpt>
      <trkpt lat="39.2767014903311" lon="118.43147068102438">
        <ele>-2.9</ele>
        <time>2024-03-08T00:02:59Z</time>
      </trkpt>
      <trkpt lat="39.276702402808944" lon="118.43149765991195">
        <ele>-2.9</ele>
        <time>2024-03-08T00:03:00Z</time>
      </trkpt>
      <trkpt lat="39.2767028665984" lon="118.43151137227578">
        <ele>-2.9</ele>
        <time>2024-03-08T00:03:01Z</time>
      </trkpt>
      <trkpt lat="39.276703813431354" lon="118.4315393655902">
        <ele>-2.9</ele>
        <time>2024-03-08T00:03:02Z</time>
      </trkpt>
      <trkpt lat="39.27670479199113" lon="118.43156829596015">
        <ele>-2.9</ele>
        <time>2024-03-08T00:03:03Z</time>
      </trkpt>
      <trkpt lat="39.27670429826483" lon="118.4315536994417">
        <ele>-2.9</ele>
        <time>2024-03-08T00:03:04Z</time>
      </trkpt>
      <trkpt lat="39.27671049377106" lon="118.43173684543147">
        <ele>-3.1</ele>
        <time>2024-03-08T00:03:05Z</time>
      </trkpt>
      <trkpt lat="39.276702402808944" lon="118.43149765991195">
        <ele>-3.1</ele>
        <time>2024-03-08T00:03:06Z</time>
      </trkpt>
      <trkpt lat="39.276694249093126" lon="118.43125655211556">
        <ele>-3.1</ele>
        <time>2024-03-08T00:03:08Z</time>
      </trkpt>
      <trkpt lat="39.276682756577024" lon="118.43091660017366">
        <ele>-3.1</ele>
        <time>2024-03-08T00:03:10Z</time>
      </trkpt>
      <trkpt lat="39.27671382323701" lon="118.43183525207658">
        <ele>-3.1</ele>
        <time>2024-03-08T00:03:13Z</time>
      </trkpt>
      <trkpt lat="39.27671466744943" lon="118.43186020208002">
        <ele>-3.1</ele>
        <time>2024-03-08T00:03:14Z</time>
      </trkpt>
      <trkpt lat="39.27671510704166" lon="118.43187319358167">
        <ele>-3</ele>
        <time>2024-03-08T00:03:15Z</time>
      </trkpt>
      <trkpt lat="39.2767160798833" lon="118.43190022689605">
        <ele>-3</ele>
        <time>2024-03-08T00:03:16Z</time>
      </trkpt>
      <trkpt lat="39.276717998890966" lon="118.43192749632006">
        <ele>-3</ele>
        <time>2024-03-08T00:03:17Z</time>
      </trkpt>
      <trkpt lat="39.27671941558748" lon="118.43194104119293">
        <ele>-3</ele>
        <time>2024-03-08T00:03:18Z</time>
      </trkpt>
      <trkpt lat="39.276723152487364" lon="118.43196789933793">
        <ele>-3</ele>
        <time>2024-03-08T00:03:19Z</time>
      </trkpt>
      <trkpt lat="39.27672807751223" lon="118.43199438001223">
        <ele>-3</ele>
        <time>2024-03-08T00:03:20Z</time>
      </trkpt>
      <trkpt lat="39.2767309786888" lon="118.43200745328222">
        <ele>-3</ele>
        <time>2024-03-08T00:03:21Z</time>
      </trkpt>
      <trkpt lat="39.27673416827087" lon="118.43202040171647">
        <ele>-3</ele>
        <time>2024-03-08T00:03:22Z</time>
      </trkpt>
      <trkpt lat="39.27675432167958" lon="118.43208292551564">
        <ele>-3</ele>
        <time>2024-03-08T00:03:23Z</time>
      </trkpt>
      <trkpt lat="39.27674974267814" lon="118.43207074893694">
        <ele>-3</ele>
        <time>2024-03-08T00:03:24Z</time>
      </trkpt>
      <trkpt lat="39.27677525372789" lon="118.4321297087475">
        <ele>-3</ele>
        <time>2024-03-08T00:03:25Z</time>
      </trkpt>
      <trkpt lat="39.27676427350482" lon="118.43210672007721">
        <ele>-3</ele>
        <time>2024-03-08T00:03:26Z</time>
      </trkpt>
      <trkpt lat="39.27680014241429" lon="118.43217298648129">
        <ele>-3</ele>
        <time>2024-03-08T00:03:27Z</time>
      </trkpt>
      <trkpt lat="39.27678722380833" lon="118.43215182037339">
        <ele>-3</ele>
        <time>2024-03-08T00:03:28Z</time>
      </trkpt>
      <trkpt lat="39.27682120177282" lon="118.43220282020177">
        <ele>-3</ele>
        <time>2024-03-08T00:03:29Z</time>
      </trkpt>
      <trkpt lat="39.27681396551263" lon="118.43219314149842">
        <ele>-3</ele>
        <time>2024-03-08T00:03:30Z</time>
      </trkpt>
      <trkpt lat="39.276844136185126" lon="118.43223017172825">
        <ele>-3</ele>
        <time>2024-03-08T00:03:31Z</time>
      </trkpt>
      <trkpt lat="39.276844136185126" lon="118.43223017172825">
        <ele>-3</ele>
        <time>2024-03-08T00:03:32Z</time>
      </trkpt>
      <trkpt lat="39.27686877397962" lon="118.43225485033203">
        <ele>-3</ele>
        <time>2024-03-08T00:03:33Z</time>
      </trkpt>
      <trkpt lat="39.27688605562302" lon="118.43226973197625">
        <ele>-3</ele>
        <time>2024-03-08T00:03:34Z</time>
      </trkpt>
      <trkpt lat="39.27690395654619" lon="118.43228330260274">
        <ele>-3.1</ele>
        <time>2024-03-08T00:03:35Z</time>
      </trkpt>
      <trkpt lat="39.276913121011056" lon="118.4322895829724">
        <ele>-3.1</ele>
        <time>2024-03-08T00:03:36Z</time>
      </trkpt>
      <trkpt lat="39.276941380419146" lon="118.43230634669354">
        <ele>-3.1</ele>
        <time>2024-03-08T00:03:37Z</time>
      </trkpt>
      <trkpt lat="39.276960781494395" lon="118.43231574872769">
        <ele>-3.1</ele>
        <time>2024-03-08T00:03:38Z</time>
      </trkpt>
      <trkpt lat="39.276980558456096" lon="118.43232369711001">
        <ele>-3.1</ele>
        <time>2024-03-08T00:03:39Z</time>
      </trkpt>
      <trkpt lat="39.27700064720854" lon="118.43233016723458">
        <ele>-3.1</ele>
        <time>2024-03-08T00:03:40Z</time>
      </trkpt>
      <trkpt lat="39.277020982730285" lon="118.4323351390937">
        <ele>-3.1</ele>
        <time>2024-03-08T00:03:41Z</time>
      </trkpt>
      <trkpt lat="39.27704149926764" lon="118.43233859734123">
        <ele>-3.1</ele>
        <time>2024-03-08T00:03:42Z</time>
      </trkpt>
      <trkpt lat="39.27706213053095" lon="118.43234053134157">
        <ele>-3.1</ele>
        <time>2024-03-08T00:03:43Z</time>
      </trkpt>
      <trkpt lat="39.27708280989291" lon="118.43234093520338">
        <ele>-3.1</ele>
        <time>2024-03-08T00:03:44Z</time>
      </trkpt>
      <trkpt lat="39.27710347058823" lon="118.43233980779874">
        <ele>-3.2</ele>
        <time>2024-03-08T00:03:45Z</time>
      </trkpt>
      <trkpt lat="39.27712404591375" lon="118.43233715276712">
        <ele>-3.2</ele>
        <time>2024-03-08T00:03:46Z</time>
      </trkpt>
      <trkpt lat="39.27714446942858" lon="118.43233297850448">
        <ele>-3.2</ele>
        <time>2024-03-08T00:03:47Z</time>
      </trkpt>
      <trkpt lat="39.27716467515319" lon="118.43232729813741">
        <ele>-3.2</ele>
        <time>2024-03-08T00:03:48Z</time>
      </trkpt>
      <trkpt lat="39.27718459776704" lon="118.43232012948248">
        <ele>-3.2</ele>
        <time>2024-03-08T00:03:49Z</time>
      </trkpt>
      <trkpt lat="39.27718459776704" lon="118.43232012948248">
        <ele>-3.2</ele>
        <time>2024-03-08T00:03:50Z</time>
      </trkpt>
      <trkpt lat="39.27721381011602" lon="118.43230663632237">
        <ele>-3.2</ele>
        <time>2024-03-08T00:03:51Z</time>
      </trkpt>
      <trkpt lat="39.277232745253514" lon="118.4322958551335">
        <ele>-3.2</ele>
        <time>2024-03-08T00:03:52Z</time>
      </trkpt>
      <trkpt lat="39.277260184611066" lon="118.43227708895405">
        <ele>-3.2</ele>
        <time>2024-03-08T00:03:53Z</time>
      </trkpt>
      <trkpt lat="39.277260184611066" lon="118.43227708895405">
        <ele>-3.2</ele>
        <time>2024-03-08T00:03:54Z</time>
      </trkpt>
      <trkpt lat="39.277286289870986" lon="118.4322553283212">
        <ele>-3.2</ele>
        <time>2024-03-08T00:03:55Z</time>
      </trkpt>
      <trkpt lat="39.27730285696609" lon="118.43223923229016">
        <ele>-3.2</ele>
        <time>2024-03-08T00:03:56Z</time>
      </trkpt>
      <trkpt lat="39.27730285696609" lon="118.43223923229016">
        <ele>-3.2</ele>
        <time>2024-03-08T00:03:57Z</time>
      </trkpt>
      <trkpt lat="39.277333740100396" lon="118.43220345492458">
        <ele>-3.2</ele>
        <time>2024-03-08T00:03:58Z</time>
      </trkpt>
      <trkpt lat="39.27734795393337" lon="118.43218388523049">
        <ele>-3.2</ele>
        <time>2024-03-08T00:03:59Z</time>
      </trkpt>
      <trkpt lat="39.27734795393337" lon="118.43218388523049">
        <ele>-3.2</ele>
        <time>2024-03-08T00:04:00Z</time>
      </trkpt>
      <trkpt lat="39.27737368880645" lon="118.43214168885827">
        <ele>-3.2</ele>
        <time>2024-03-08T00:04:01Z</time>
      </trkpt>
      <trkpt lat="39.27737368880645" lon="118.43214168885827">
        <ele>-3.2</ele>
        <time>2024-03-08T00:04:02Z</time>
      </trkpt>
      <trkpt lat="39.277395547471876" lon="118.43209585996085">
        <ele>-3.2</ele>
        <time>2024-03-08T00:04:03Z</time>
      </trkpt>
      <trkpt lat="39.27739046359488" lon="118.43210762721507">
        <ele>-3.2</ele>
        <time>2024-03-08T00:04:04Z</time>
      </trkpt>
      <trkpt lat="39.27741696182712" lon="118.4320343390765">
        <ele>-2.9</ele>
        <time>2024-03-08T00:04:05Z</time>
      </trkpt>
      <trkpt lat="39.27740492652565" lon="118.43207176016541">
        <ele>-2.9</ele>
        <time>2024-03-08T00:04:06Z</time>
      </trkpt>
      <trkpt lat="39.2774290611172" lon="118.43198248126977">
        <ele>-2.9</ele>
        <time>2024-03-08T00:04:07Z</time>
      </trkpt>
      <trkpt lat="39.27741696182712" lon="118.4320343390765">
        <ele>-2.9</ele>
        <time>2024-03-08T00:04:08Z</time>
      </trkpt>
      <trkpt lat="39.2774383726063" lon="118.4319018066052">
        <ele>-2.9</ele>
        <time>2024-03-08T00:04:09Z</time>
      </trkpt>
      <trkpt lat="39.277420416304665" lon="118.43202156506966">
        <ele>-2.9</ele>
        <time>2024-03-08T00:04:10Z</time>
      </trkpt>
      <trkpt lat="39.277436377611664" lon="118.43178383034973">
        <ele>-2.9</ele>
        <time>2024-03-08T00:04:11Z</time>
      </trkpt>
      <trkpt lat="39.277409213310044" lon="118.4320594463993">
        <ele>-2.9</ele>
        <time>2024-03-08T00:04:12Z</time>
      </trkpt>
      <trkpt lat="39.27737368880645" lon="118.43214168885827">
        <ele>-2.9</ele>
        <time>2024-03-08T00:04:14Z</time>
      </trkpt>
      <trkpt lat="39.27730285696609" lon="118.43223923229016">
        <ele>-3.2</ele>
        <time>2024-03-08T00:04:16Z</time>
      </trkpt>
      <trkpt lat="39.277260184611066" lon="118.43227708895405">
        <ele>-3.2</ele>
        <time>2024-03-08T00:04:18Z</time>
      </trkpt>
      <trkpt lat="39.27742870553386" lon="118.4316879209245">
        <ele>-3.2</ele>
        <time>2024-03-08T00:04:20Z</time>
      </trkpt>
      <trkpt lat="39.277432480041696" lon="118.43166862475073">
        <ele>-3.2</ele>
        <time>2024-03-08T00:04:21Z</time>
      </trkpt>
      <trkpt lat="39.27743155708647" lon="118.43164134149984">
        <ele>-3.2</ele>
        <time>2024-03-08T00:04:22Z</time>
      </trkpt>
      <trkpt lat="39.27743067914509" lon="118.43161538809196">
        <ele>-3.2</ele>
        <time>2024-03-08T00:04:23Z</time>
      </trkpt>
      <trkpt lat="39.27742984013038" lon="118.43159058469182">
        <ele>-3.2</ele>
        <time>2024-03-08T00:04:24Z</time>
      </trkpt>
      <trkpt lat="39.27742877293812" lon="118.43155903475538">
        <ele>-3.5</ele>
        <time>2024-03-08T00:04:25Z</time>
      </trkpt>
      <trkpt lat="39.277428258340855" lon="118.4315438210477">
        <ele>-3.5</ele>
        <time>2024-03-08T00:04:26Z</time>
      </trkpt>
      <trkpt lat="39.27742750678867" lon="118.43152160145144">
        <ele>-3.5</ele>
        <time>2024-03-08T00:04:27Z</time>
      </trkpt>
      <trkpt lat="39.277426537043596" lon="118.43149293014933">
        <ele>-3.5</ele>
        <time>2024-03-08T00:04:28Z</time>
      </trkpt>
      <trkpt lat="39.277426063811" lon="118.4314789382965">
        <ele>-3.5</ele>
        <time>2024-03-08T00:04:29Z</time>
      </trkpt>
      <trkpt lat="39.27742513614998" lon="118.43145150990621">
        <ele>-3.5</ele>
        <time>2024-03-08T00:04:30Z</time>
      </trkpt>
      <trkpt lat="39.277426063811" lon="118.4314789382965">
        <ele>-3.5</ele>
        <time>2024-03-08T00:04:31Z</time>
      </trkpt>
      <trkpt lat="39.27742134022824" lon="118.43133926582115">
        <ele>-3.5</ele>
        <time>2024-03-08T00:04:32Z</time>
      </trkpt>
      <trkpt lat="39.277426537043596" lon="118.43149293014933">
        <ele>-3.5</ele>
        <time>2024-03-08T00:04:33Z</time>
      </trkpt>
      <trkpt lat="39.27741672352693" lon="118.43120273184222">
        <ele>-3.5</ele>
        <time>2024-03-08T00:04:34Z</time>
      </trkpt>
      <trkpt lat="39.27740785676049" lon="118.43094044590629">
        <ele>-3.4</ele>
        <time>2024-03-08T00:04:36Z</time>
      </trkpt>
      <trkpt lat="39.27729264791442" lon="118.43055150579193">
        <ele>-3.4</ele>
        <time>2024-03-08T00:04:38Z</time>
      </trkpt>
      <trkpt lat="39.27742692020011" lon="118.43123277209075">
        <ele>-3.4</ele>
        <time>2024-03-08T00:04:40Z</time>
      </trkpt>
      <trkpt lat="39.27741672352693" lon="118.43120273184222">
        <ele>-3.4</ele>
        <time>2024-03-08T00:04:41Z</time>
      </trkpt>
      <trkpt lat="39.277416225193946" lon="118.43118799288366">
        <ele>-3.4</ele>
        <time>2024-03-08T00:04:42Z</time>
      </trkpt>
      <trkpt lat="39.27741545773251" lon="118.4311652935463">
        <ele>-3.4</ele>
        <time>2024-03-08T00:04:43Z</time>
      </trkpt>
      <trkpt lat="39.27741493107045" lon="118.43114971602621">
        <ele>-3.4</ele>
        <time>2024-03-08T00:04:44Z</time>
      </trkpt>
      <trkpt lat="39.27741411531048" lon="118.43112558705997">
        <ele>-3.3</ele>
        <time>2024-03-08T00:04:45Z</time>
      </trkpt>
      <trkpt lat="39.27741297182854" lon="118.43109176342502">
        <ele>-3.3</ele>
        <time>2024-03-08T00:04:46Z</time>
      </trkpt>
      <trkpt lat="39.27741206501543" lon="118.4310649393909">
        <ele>-3.3</ele>
        <time>2024-03-08T00:04:47Z</time>
      </trkpt>
      <trkpt lat="39.27741175209731" lon="118.4310556829049">
        <ele>-3.3</ele>
        <time>2024-03-08T00:04:48Z</time>
      </trkpt>
      <trkpt lat="39.277410777558075" lon="118.43102685424961">
        <ele>-3.3</ele>
        <time>2024-03-08T00:04:49Z</time>
      </trkpt>
      <trkpt lat="39.277409742749256" lon="118.43099624164941">
        <ele>-3.3</ele>
        <time>2024-03-08T00:04:50Z</time>
      </trkpt>
      <trkpt lat="39.277410777558075" lon="118.43102685424961">
        <ele>-3.3</ele>
        <time>2024-03-08T00:04:51Z</time>
      </trkpt>
      <trkpt lat="39.277405717422056" lon="118.43087715058483">
        <ele>-3.3</ele>
        <time>2024-03-08T00:04:52Z</time>
      </trkpt>
      <trkpt lat="39.27741110866539" lon="118.43103664911892">
        <ele>-3.3</ele>
        <time>2024-03-08T00:04:53Z</time>
      </trkpt>
      <trkpt lat="39.27739030351198" lon="118.43075626008681">
        <ele>-3.3</ele>
        <time>2024-03-08T00:04:54Z</time>
      </trkpt>
      <trkpt lat="39.277413552200734" lon="118.43110893071622">
        <ele>-3.7</ele>
        <time>2024-03-08T00:04:55Z</time>
      </trkpt>
      <trkpt lat="39.27741816619095" lon="118.43124539940744">
        <ele>-3.7</ele>
        <time>2024-03-08T00:04:57Z</time>
      </trkpt>
      <trkpt lat="39.27741816619095" lon="118.43124539940744">
        <ele>-3.7</ele>
        <time>2024-03-08T00:04:59Z</time>
      </trkpt>
      <trkpt lat="39.27741493107045" lon="118.43114971602621">
        <ele>-3.7</ele>
        <time>2024-03-08T00:05:01Z</time>
      </trkpt>
      <trkpt lat="39.27741110866539" lon="118.43103664911892">
        <ele>-3.7</ele>
        <time>2024-03-08T00:05:03Z</time>
      </trkpt>
      <trkpt lat="39.27740785676049" lon="118.43094044590629">
        <ele>-3.4</ele>
        <time>2024-03-08T00:05:05Z</time>
      </trkpt>
      <trkpt lat="39.27740186339221" lon="118.43082266811668">
        <ele>-3.4</ele>
        <time>2024-03-08T00:05:07Z</time>
      </trkpt>
      <trkpt lat="39.27737988480011" lon="118.43071783168595">
        <ele>-3.4</ele>
        <time>2024-03-08T00:05:09Z</time>
      </trkpt>
      <trkpt lat="39.27723524280003" lon="118.43049400188157">
        <ele>-3.4</ele>
        <time>2024-03-08T00:05:10Z</time>
      </trkpt>
      <trkpt lat="39.27734017220009" lon="118.43062284436643">
        <ele>-3.4</ele>
        <time>2024-03-08T00:05:11Z</time>
      </trkpt>
      <trkpt lat="39.27725252337333" lon="118.43050888217257">
        <ele>-3.4</ele>
        <time>2024-03-08T00:05:12Z</time>
      </trkpt>
      <trkpt lat="39.27726912788314" lon="118.4305250272464">
        <ele>-3.4</ele>
        <time>2024-03-08T00:05:13Z</time>
      </trkpt>
      <trkpt lat="39.27724396409527" lon="118.43050128095204">
        <ele>-3.4</ele>
        <time>2024-03-08T00:05:14Z</time>
      </trkpt>
      <trkpt lat="39.27724396409527" lon="118.43050128095204">
        <ele>-3.5</ele>
        <time>2024-03-08T00:05:15Z</time>
      </trkpt>
      <trkpt lat="39.27721734286842" lon="118.43048043250921">
        <ele>-3.5</ele>
        <time>2024-03-08T00:05:16Z</time>
      </trkpt>
      <trkpt lat="39.277208178867525" lon="118.43047415272643">
        <ele>-3.5</ele>
        <time>2024-03-08T00:05:17Z</time>
      </trkpt>
      <trkpt lat="39.27717992071367" lon="118.43045739059211">
        <ele>-3.5</ele>
        <time>2024-03-08T00:05:18Z</time>
      </trkpt>
      <trkpt lat="39.27716052035196" lon="118.43044798946092">
        <ele>-3.5</ele>
        <time>2024-03-08T00:05:19Z</time>
      </trkpt>
      <trkpt lat="39.27715067519273" lon="118.43044383232076">
        <ele>-3.5</ele>
        <time>2024-03-08T00:05:20Z</time>
      </trkpt>
      <trkpt lat="39.27713073481612" lon="118.43043662097958">
        <ele>-3.5</ele>
        <time>2024-03-08T00:05:21Z</time>
      </trkpt>
      <trkpt lat="39.277110514944404" lon="118.43043089833827">
        <ele>-3.5</ele>
        <time>2024-03-08T00:05:22Z</time>
      </trkpt>
      <trkpt lat="39.27710032061091" lon="118.43042860098744">
        <ele>-3.5</ele>
        <time>2024-03-08T00:05:23Z</time>
      </trkpt>
      <trkpt lat="39.2770694989849" lon="118.43042398518664">
        <ele>-3.5</ele>
        <time>2024-03-08T00:05:24Z</time>
      </trkpt>
      <trkpt lat="39.27704883542262" lon="118.43042281593375">
        <ele>-3.6</ele>
        <time>2024-03-08T00:05:25Z</time>
      </trkpt>
      <trkpt lat="39.277028157019814" lon="118.4304231778279">
        <ele>-3.6</ele>
        <time>2024-03-08T00:05:26Z</time>
      </trkpt>
      <trkpt lat="39.277017833119515" lon="118.43042393274881">
        <ele>-3.6</ele>
        <time>2024-03-08T00:05:27Z</time>
      </trkpt>
      <trkpt lat="39.2769768337485" lon="118.43043076137322">
        <ele>-3.6</ele>
        <time>2024-03-08T00:05:28Z</time>
      </trkpt>
      <trkpt lat="39.2769768337485" lon="118.43043076137322">
        <ele>-3.6</ele>
        <time>2024-03-08T00:05:29Z</time>
      </trkpt>
      <trkpt lat="39.27695662758496" lon="118.43043644118575">
        <ele>-3.6</ele>
        <time>2024-03-08T00:05:30Z</time>
      </trkpt>
      <trkpt lat="39.276936704420734" lon="118.43044360914517">
        <ele>-3.6</ele>
        <time>2024-03-08T00:05:31Z</time>
      </trkpt>
      <trkpt lat="39.276907491046885" lon="118.43045710100994">
        <ele>-3.6</ele>
        <time>2024-03-08T00:05:32Z</time>
      </trkpt>
      <trkpt lat="39.276907491046885" lon="118.43045710100994">
        <ele>-3.6</ele>
        <time>2024-03-08T00:05:33Z</time>
      </trkpt>
      <trkpt lat="39.27687927221359" lon="118.43047379471527">
        <ele>-3.6</ele>
        <time>2024-03-08T00:05:34Z</time>
      </trkpt>
      <trkpt lat="39.2768611143586" lon="118.43048664560594">
        <ele>-3.2</ele>
        <time>2024-03-08T00:05:35Z</time>
      </trkpt>
      <trkpt lat="39.2768611143586" lon="118.43048664560594">
        <ele>-3.2</ele>
        <time>2024-03-08T00:05:36Z</time>
      </trkpt>
      <trkpt lat="39.27681843929656" lon="118.43052449884816">
        <ele>-3.2</ele>
        <time>2024-03-08T00:05:37Z</time>
      </trkpt>
      <trkpt lat="39.27682663515739" lon="118.43051629669259">
        <ele>-3.2</ele>
        <time>2024-03-08T00:05:38Z</time>
      </trkpt>
      <trkpt lat="39.27680260393369" lon="118.43054180647083">
        <ele>-3.2</ele>
        <time>2024-03-08T00:05:39Z</time>
      </trkpt>
      <trkpt lat="39.276787553710506" lon="118.4305602731151">
        <ele>-3.2</ele>
        <time>2024-03-08T00:05:40Z</time>
      </trkpt>
      <trkpt lat="39.27678033873103" lon="118.43056992320282">
        <ele>-3.2</ele>
        <time>2024-03-08T00:05:41Z</time>
      </trkpt>
      <trkpt lat="39.27676000604245" lon="118.43060044960085">
        <ele>-3.2</ele>
        <time>2024-03-08T00:05:42Z</time>
      </trkpt>
      <trkpt lat="39.27675368488681" lon="118.43061112399494">
        <ele>-3.2</ele>
        <time>2024-03-08T00:05:43Z</time>
      </trkpt>
      <trkpt lat="39.27673082416001" lon="118.43065609317362">
        <ele>-3.2</ele>
        <time>2024-03-08T00:05:44Z</time>
      </trkpt>
      <trkpt lat="39.276741759622105" lon="118.43063317153604">
        <ele>-3.4</ele>
        <time>2024-03-08T00:05:45Z</time>
      </trkpt>
      <trkpt lat="39.276716359153994" lon="118.43069195760278">
        <ele>-3.4</ele>
        <time>2024-03-08T00:05:46Z</time>
      </trkpt>
      <trkpt lat="39.2767209164917" lon="118.43067981746854">
        <ele>-3.4</ele>
        <time>2024-03-08T00:05:47Z</time>
      </trkpt>
      <trkpt lat="39.27669769587043" lon="118.43075505609237">
        <ele>-3.4</ele>
        <time>2024-03-08T00:05:48Z</time>
      </trkpt>
      <trkpt lat="39.27671207168118" lon="118.4307042704998">
        <ele>-3.4</ele>
        <time>2024-03-08T00:05:49Z</time>
      </trkpt>
      <trkpt lat="39.27668480594838" lon="118.43083473592287">
        <ele>-3.4</ele>
        <time>2024-03-08T00:05:50Z</time>
      </trkpt>
      <trkpt lat="39.276716359153994" lon="118.43069195760278">
        <ele>-3.4</ele>
        <time>2024-03-08T00:05:51Z</time>
      </trkpt>
      <trkpt lat="39.27668489519103" lon="118.43097987118757">
        <ele>-3.4</ele>
        <time>2024-03-08T00:05:52Z</time>
      </trkpt>
      <trkpt lat="39.276741759622105" lon="118.43063317153604">
        <ele>-3.4</ele>
        <time>2024-03-08T00:05:53Z</time>
      </trkpt>
      <trkpt lat="39.27681042668694" lon="118.43053300431984">
        <ele>-3.5</ele>
        <time>2024-03-08T00:05:55Z</time>
      </trkpt>
      <trkpt lat="39.27668350996823" lon="118.43094101353101">
        <ele>-3.5</ele>
        <time>2024-03-08T00:05:57Z</time>
      </trkpt>
      <trkpt lat="39.276684489911645" lon="118.430967881333">
        <ele>-3.5</ele>
        <time>2024-03-08T00:05:58Z</time>
      </trkpt>
      <trkpt lat="39.27668489519103" lon="118.43097987118757">
        <ele>-3.5</ele>
        <time>2024-03-08T00:05:59Z</time>
      </trkpt>
      <trkpt lat="39.27668605272955" lon="118.4310141150826">
        <ele>-3.5</ele>
        <time>2024-03-08T00:06:00Z</time>
      </trkpt>
      <trkpt lat="39.27668678063667" lon="118.43103564833149">
        <ele>-3.5</ele>
        <time>2024-03-08T00:06:01Z</time>
      </trkpt>
      <trkpt lat="39.27668781518552" lon="118.43106625185307">
        <ele>-3.5</ele>
        <time>2024-03-08T00:06:02Z</time>
      </trkpt>
      <trkpt lat="39.27668878950455" lon="118.43109507268828">
        <ele>-3.5</ele>
        <time>2024-03-08T00:06:03Z</time>
      </trkpt>
      <trkpt lat="39.276689711848" lon="118.43112235516922">
        <ele>-3.5</ele>
        <time>2024-03-08T00:06:04Z</time>
      </trkpt>
      <trkpt lat="39.27669058926409" lon="118.43114830791599">
        <ele>-3.5</ele>
        <time>2024-03-08T00:06:05Z</time>
      </trkpt>
      <trkpt lat="39.27669142782841" lon="118.43117311074928">
        <ele>-3.5</ele>
        <time>2024-03-08T00:06:06Z</time>
      </trkpt>
      <trkpt lat="39.27669196792555" lon="118.43118908522027">
        <ele>-3.5</ele>
        <time>2024-03-08T00:06:07Z</time>
      </trkpt>
      <trkpt lat="39.27669196792555" lon="118.43118908522027">
        <ele>-3.5</ele>
        <time>2024-03-08T00:06:08Z</time>
      </trkpt>
      <trkpt lat="39.276695436797596" lon="118.43129167709093">
        <ele>-3.5</ele>
        <time>2024-03-08T00:06:09Z</time>
      </trkpt>
      <trkpt lat="39.27669223282769" lon="118.4311969201312">
        <ele>-3.5</ele>
        <time>2024-03-08T00:06:10Z</time>
      </trkpt>
      <trkpt lat="39.276699704465784" lon="118.43141787657589">
        <ele>-3.5</ele>
        <time>2024-03-08T00:06:11Z</time>
      </trkpt>
      <trkpt lat="39.276689711848" lon="118.43112235516922">
        <ele>-3.5</ele>
        <time>2024-03-08T00:06:12Z</time>
      </trkpt>
      <trkpt lat="39.276687916607386" lon="118.4308078180486">
        <ele>-3.5</ele>
        <time>2024-03-08T00:06:14Z</time>
      </trkpt>
      <trkpt lat="39.27685225418763" lon="118.43049357292175">
        <ele>-3.2</ele>
        <time>2024-03-08T00:06:16Z</time>
      </trkpt>
      <trkpt lat="39.27670194431789" lon="118.43148410398574">
        <ele>-3.2</ele>
        <time>2024-03-08T00:06:19Z</time>
      </trkpt>
      <trkpt lat="39.2767028665984" lon="118.43151137227578">
        <ele>-3.2</ele>
        <time>2024-03-08T00:06:20Z</time>
      </trkpt>
      <trkpt lat="39.27670405479884" lon="118.43154650152509">
        <ele>-3.2</ele>
        <time>2024-03-08T00:06:21Z</time>
      </trkpt>
      <trkpt lat="39.27670479199113" lon="118.43156829596015">
        <ele>-3.2</ele>
        <time>2024-03-08T00:06:22Z</time>
      </trkpt>
      <trkpt lat="39.27670529564978" lon="118.43158318586396">
        <ele>-3.2</ele>
        <time>2024-03-08T00:06:23Z</time>
      </trkpt>
      <trkpt lat="39.276706072219426" lon="118.43160614346391">
        <ele>-3.2</ele>
        <time>2024-03-08T00:06:24Z</time>
      </trkpt>
      <trkpt lat="39.27670715354545" lon="118.43163810950898">
        <ele>-3.6</ele>
        <time>2024-03-08T00:06:25Z</time>
      </trkpt>
      <trkpt lat="39.2767080051323" lon="118.43166328319602">
        <ele>-3.6</ele>
        <time>2024-03-08T00:06:26Z</time>
      </trkpt>
      <trkpt lat="39.276708897608934" lon="118.43168966483505">
        <ele>-3.6</ele>
        <time>2024-03-08T00:06:27Z</time>
      </trkpt>
      <trkpt lat="39.2767080051323" lon="118.43166328319602">
        <ele>-3.6</ele>
        <time>2024-03-08T00:06:28Z</time>
      </trkpt>
      <trkpt lat="39.276713021627764" lon="118.43181156050866">
        <ele>-3.6</ele>
        <time>2024-03-08T00:06:29Z</time>
      </trkpt>
      <trkpt lat="39.27670715354545" lon="118.43163810950898">
        <ele>-3.6</ele>
        <time>2024-03-08T00:06:30Z</time>
      </trkpt>
      <trkpt lat="39.27672807751223" lon="118.43199438001223">
        <ele>-3.6</ele>
        <time>2024-03-08T00:06:31Z</time>
      </trkpt>
      <trkpt lat="39.276852168329164" lon="118.43223870381598">
        <ele>-3.6</ele>
        <time>2024-03-08T00:06:33Z</time>
      </trkpt>
      <trkpt lat="39.27672042361969" lon="118.43188799956526">
        <ele>-3.6</ele>
        <time>2024-03-08T00:06:35Z</time>
      </trkpt>
      <trkpt lat="39.276716886321225" lon="118.4319138880807">
        <ele>-3.6</ele>
        <time>2024-03-08T00:06:36Z</time>
      </trkpt>
      <trkpt lat="39.27671941558748" lon="118.43194104119293">
        <ele>-3.6</ele>
        <time>2024-03-08T00:06:37Z</time>
      </trkpt>
      <trkpt lat="39.276723152487364" lon="118.43196789933793">
        <ele>-3.6</ele>
        <time>2024-03-08T00:06:38Z</time>
      </trkpt>
      <trkpt lat="39.27672546781516" lon="118.43198119197955">
        <ele>-3.6</ele>
        <time>2024-03-08T00:06:39Z</time>
      </trkpt>
      <trkpt lat="39.2767309786888" lon="118.43200745328222">
        <ele>-3.6</ele>
        <time>2024-03-08T00:06:40Z</time>
      </trkpt>
      <trkpt lat="39.27673416827087" lon="118.43202040171647">
        <ele>-3.6</ele>
        <time>2024-03-08T00:06:41Z</time>
      </trkpt>
      <trkpt lat="39.27674139942823" lon="118.43204588424035">
        <ele>-3.6</ele>
        <time>2024-03-08T00:06:42Z</time>
      </trkpt>
      <trkpt lat="39.27675432167958" lon="118.43208292551564">
        <ele>-3.6</ele>
        <time>2024-03-08T00:06:43Z</time>
      </trkpt>
      <trkpt lat="39.27676427350482" lon="118.43210672007721">
        <ele>-3.6</ele>
        <time>2024-03-08T00:06:44Z</time>
      </trkpt>
      <trkpt lat="39.27677525372789" lon="118.4321297087475">
        <ele>-3.7</ele>
        <time>2024-03-08T00:06:45Z</time>
      </trkpt>
      <trkpt lat="39.27676427350482" lon="118.43210672007721">
        <ele>-3.7</ele>
        <time>2024-03-08T00:06:46Z</time>
      </trkpt>
      <trkpt lat="39.276806943756746" lon="118.43218319435535">
        <ele>-3.7</ele>
        <time>2024-03-08T00:06:47Z</time>
      </trkpt>
      <trkpt lat="39.27681396551263" lon="118.43219314149842">
        <ele>-3.7</ele>
        <time>2024-03-08T00:06:48Z</time>
      </trkpt>
      <trkpt lat="39.27682120177282" lon="118.43220282020177">
        <ele>-3.7</ele>
        <time>2024-03-08T00:06:49Z</time>
      </trkpt>
      <trkpt lat="39.276852168329164" lon="118.43223870381598">
        <ele>-3.7</ele>
        <time>2024-03-08T00:06:50Z</time>
      </trkpt>
      <trkpt lat="39.276852168329164" lon="118.43223870381598">
        <ele>-3.7</ele>
        <time>2024-03-08T00:06:51Z</time>
      </trkpt>
      <trkpt lat="39.27686877397962" lon="118.43225485033203">
        <ele>-3.7</ele>
        <time>2024-03-08T00:06:52Z</time>
      </trkpt>
      <trkpt lat="39.27688605562302" lon="118.43226973197625">
        <ele>-3.7</ele>
        <time>2024-03-08T00:06:53Z</time>
      </trkpt>
      <trkpt lat="39.27690395654619" lon="118.43228330260274">
        <ele>-3.7</ele>
        <time>2024-03-08T00:06:54Z</time>
      </trkpt>
      <trkpt lat="39.27692241821028" lon="118.43229552013382">
        <ele>-3.9</ele>
        <time>2024-03-08T00:06:55Z</time>
      </trkpt>
      <trkpt lat="39.276931840568864" lon="118.43230110948485">
        <ele>-3.9</ele>
        <time>2024-03-08T00:06:56Z</time>
      </trkpt>
      <trkpt lat="39.276941380419146" lon="118.43230634669354">
        <ele>-3.9</ele>
        <time>2024-03-08T00:06:57Z</time>
      </trkpt>
      <trkpt lat="39.276970626971476" lon="118.43231990627011">
        <ele>-3.9</ele>
        <time>2024-03-08T00:06:58Z</time>
      </trkpt>
      <trkpt lat="39.276970626971476" lon="118.43231990627011">
        <ele>-3.9</ele>
        <time>2024-03-08T00:06:59Z</time>
      </trkpt>
      <trkpt lat="39.276980558456096" lon="118.43232369711001">
        <ele>-3.9</ele>
        <time>2024-03-08T00:07:00Z</time>
      </trkpt>
      <trkpt lat="39.27701078821798" lon="118.43233284151636">
        <ele>-3.9</ele>
        <time>2024-03-08T00:07:01Z</time>
      </trkpt>
      <trkpt lat="39.27701078821798" lon="118.43233284151636">
        <ele>-3.9</ele>
        <time>2024-03-08T00:07:02Z</time>
      </trkpt>
      <trkpt lat="39.27703122250487" lon="118.4323370581945">
        <ele>-3.9</ele>
        <time>2024-03-08T00:07:03Z</time>
      </trkpt>
      <trkpt lat="39.27704149926764" lon="118.43233859734123">
        <ele>-3.9</ele>
        <time>2024-03-08T00:07:04Z</time>
      </trkpt>
      <trkpt lat="39.27706213053095" lon="118.43234053134157">
        <ele>-4</ele>
        <time>2024-03-08T00:07:05Z</time>
      </trkpt>
      <trkpt lat="39.27708280989291" lon="118.43234093520338">
        <ele>-4</ele>
        <time>2024-03-08T00:07:06Z</time>
      </trkpt>
      <trkpt lat="39.27709314674665" lon="118.43234056279358">
        <ele>-4</ele>
        <time>2024-03-08T00:07:07Z</time>
      </trkpt>
      <trkpt lat="39.27711377308326" lon="118.43233867082282">
        <ele>-4</ele>
        <time>2024-03-08T00:07:08Z</time>
      </trkpt>
      <trkpt lat="39.27713428078436" lon="118.43233525482974">
        <ele>-4</ele>
        <time>2024-03-08T00:07:09Z</time>
      </trkpt>
      <trkpt lat="39.27714446942858" lon="118.43233297850448">
        <ele>-4</ele>
        <time>2024-03-08T00:07:10Z</time>
      </trkpt>
      <trkpt lat="39.2771746759004" lon="118.4323238985506">
        <ele>-4</ele>
        <time>2024-03-08T00:07:11Z</time>
      </trkpt>
      <trkpt lat="39.27718459776704" lon="118.43232012948248">
        <ele>-4</ele>
        <time>2024-03-08T00:07:12Z</time>
      </trkpt>
      <trkpt lat="39.27721381011602" lon="118.43230663632237">
        <ele>-4</ele>
        <time>2024-03-08T00:07:13Z</time>
      </trkpt>
      <trkpt lat="39.27721381011602" lon="118.43230663632237">
        <ele>-4</ele>
        <time>2024-03-08T00:07:14Z</time>
      </trkpt>
      <trkpt lat="39.277232745253514" lon="118.4322958551335">
        <ele>-3.8</ele>
        <time>2024-03-08T00:07:15Z</time>
      </trkpt>
      <trkpt lat="39.277260184611066" lon="118.43227708895405">
        <ele>-3.8</ele>
        <time>2024-03-08T00:07:16Z</time>
      </trkpt>
      <trkpt lat="39.277260184611066" lon="118.43227708895405">
        <ele>-3.8</ele>
        <time>2024-03-08T00:07:17Z</time>
      </trkpt>
      <trkpt lat="39.277286289870986" lon="118.4322553283212">
        <ele>-3.8</ele>
        <time>2024-03-08T00:07:18Z</time>
      </trkpt>
      <trkpt lat="39.277286289870986" lon="118.4322553283212">
        <ele>-3.8</ele>
        <time>2024-03-08T00:07:19Z</time>
      </trkpt>
      <trkpt lat="39.27730285696609" lon="118.43223923229016">
        <ele>-3.8</ele>
        <time>2024-03-08T00:07:20Z</time>
      </trkpt>
      <trkpt lat="39.27732631694177" lon="118.43221283040542">
        <ele>-3.8</ele>
        <time>2024-03-08T00:07:21Z</time>
      </trkpt>
      <trkpt lat="39.27732631694177" lon="118.43221283040542">
        <ele>-3.8</ele>
        <time>2024-03-08T00:07:22Z</time>
      </trkpt>
      <trkpt lat="39.27734795393337" lon="118.43218388523049">
        <ele>-3.8</ele>
        <time>2024-03-08T00:07:23Z</time>
      </trkpt>
      <trkpt lat="39.27734795393337" lon="118.43218388523049">
        <ele>-3.8</ele>
        <time>2024-03-08T00:07:24Z</time>
      </trkpt>
      <trkpt lat="39.27737368880645" lon="118.43214168885827">
        <ele>-3.3</ele>
        <time>2024-03-08T00:07:25Z</time>
      </trkpt>
      <trkpt lat="39.27737368880645" lon="118.43214168885827">
        <ele>-3.3</ele>
        <time>2024-03-08T00:07:26Z</time>
      </trkpt>
      <trkpt lat="39.27739046359488" lon="118.43210762721507">
        <ele>-3.3</ele>
        <time>2024-03-08T00:07:27Z</time>
      </trkpt>
      <trkpt lat="39.277395547471876" lon="118.43209585996085">
        <ele>-3.3</ele>
        <time>2024-03-08T00:07:28Z</time>
      </trkpt>
      <trkpt lat="39.277409213310044" lon="118.4320594463993">
        <ele>-3.3</ele>
        <time>2024-03-08T00:07:29Z</time>
      </trkpt>
      <trkpt lat="39.277409213310044" lon="118.4320594463993">
        <ele>-3.3</ele>
        <time>2024-03-08T00:07:30Z</time>
      </trkpt>
      <trkpt lat="39.277420416304665" lon="118.43202156506966">
        <ele>-3.3</ele>
        <time>2024-03-08T00:07:31Z</time>
      </trkpt>
      <trkpt lat="39.27742358641132" lon="118.43200865738721">
        <ele>-3.3</ele>
        <time>2024-03-08T00:07:32Z</time>
      </trkpt>
      <trkpt lat="39.27743136000074" lon="118.43196923319786">
        <ele>-3.3</ele>
        <time>2024-03-08T00:07:33Z</time>
      </trkpt>
      <trkpt lat="39.27743136000074" lon="118.43196923319786">
        <ele>-3.3</ele>
        <time>2024-03-08T00:07:34Z</time>
      </trkpt>
      <trkpt lat="39.2774383726063" lon="118.4319018066052">
        <ele>-3.9</ele>
        <time>2024-03-08T00:07:35Z</time>
      </trkpt>
      <trkpt lat="39.27743506797882" lon="118.43194246852647">
        <ele>-3.9</ele>
        <time>2024-03-08T00:07:36Z</time>
      </trkpt>
      <trkpt lat="39.277437627144494" lon="118.43182076118366">
        <ele>-3.9</ele>
        <time>2024-03-08T00:07:37Z</time>
      </trkpt>
      <trkpt lat="39.27743647250395" lon="118.4319289727276">
        <ele>-3.9</ele>
        <time>2024-03-08T00:07:38Z</time>
      </trkpt>
      <trkpt lat="39.27743379304593" lon="118.43170743665857">
        <ele>-3.9</ele>
        <time>2024-03-08T00:07:39Z</time>
      </trkpt>
      <trkpt lat="39.2774290611172" lon="118.43198248126977">
        <ele>-3.9</ele>
        <time>2024-03-08T00:07:40Z</time>
      </trkpt>
      <trkpt lat="39.2773851227228" lon="118.43211919376515">
        <ele>-3.9</ele>
        <time>2024-03-08T00:07:42Z</time>
      </trkpt>
      <trkpt lat="39.277260184611066" lon="118.43227708895405">
        <ele>-3.9</ele>
        <time>2024-03-08T00:07:44Z</time>
      </trkpt>
      <trkpt lat="39.277443697923054" lon="118.43165959593594">
        <ele>-4</ele>
        <time>2024-03-08T00:07:46Z</time>
      </trkpt>
      <trkpt lat="39.27743155708647" lon="118.43164134149984">
        <ele>-4</ele>
        <time>2024-03-08T00:07:47Z</time>
      </trkpt>
      <trkpt lat="39.27743067914509" lon="118.43161538809196">
        <ele>-4</ele>
        <time>2024-03-08T00:07:48Z</time>
      </trkpt>
      <trkpt lat="39.27743011581822" lon="118.43159873480117">
        <ele>-4</ele>
        <time>2024-03-08T00:07:49Z</time>
      </trkpt>
      <trkpt lat="39.277429299769885" lon="118.43157460988938">
        <ele>-4</ele>
        <time>2024-03-08T00:07:50Z</time>
      </trkpt>
      <trkpt lat="39.277428258340855" lon="118.4315438210477">
        <ele>-4</ele>
        <time>2024-03-08T00:07:51Z</time>
      </trkpt>
      <trkpt lat="39.27742750678867" lon="118.43152160145144">
        <ele>-4</ele>
        <time>2024-03-08T00:07:52Z</time>
      </trkpt>
      <trkpt lat="39.27742701772092" lon="118.43150714188475">
        <ele>-4</ele>
        <time>2024-03-08T00:07:53Z</time>
      </trkpt>
      <trkpt lat="39.277426063811" lon="118.4314789382965">
        <ele>-4</ele>
        <time>2024-03-08T00:07:54Z</time>
      </trkpt>
      <trkpt lat="39.27742513614998" lon="118.43145150990621">
        <ele>-4</ele>
        <time>2024-03-08T00:07:55Z</time>
      </trkpt>
      <trkpt lat="39.27742422808681" lon="118.43142466012515">
        <ele>-4</ele>
        <time>2024-03-08T00:07:56Z</time>
      </trkpt>
      <trkpt lat="39.27742513614998" lon="118.43145150990621">
        <ele>-4</ele>
        <time>2024-03-08T00:07:57Z</time>
      </trkpt>
      <trkpt lat="39.2774204502306" lon="118.43131294678334">
        <ele>-4</ele>
        <time>2024-03-08T00:07:58Z</time>
      </trkpt>
      <trkpt lat="39.27742559712944" lon="118.43146513991267">
        <ele>-4</ele>
        <time>2024-03-08T00:07:59Z</time>
      </trkpt>
      <trkpt lat="39.277415972176485" lon="118.43118050940937">
        <ele>-4</ele>
        <time>2024-03-08T00:08:00Z</time>
      </trkpt>
      <trkpt lat="39.277428258340855" lon="118.4315438210477">
        <ele>-4</ele>
        <time>2024-03-08T00:08:01Z</time>
      </trkpt>
      <trkpt lat="39.277437627144494" lon="118.43182076118366">
        <ele>-4</ele>
        <time>2024-03-08T00:08:03Z</time>
      </trkpt>
      <trkpt lat="39.27734795393337" lon="118.43218388523049">
        <ele>-4</ele>
        <time>2024-03-08T00:08:05Z</time>
      </trkpt>
      <trkpt lat="39.27741439089743" lon="118.43113373858779">
        <ele>-4</ele>
        <time>2024-03-08T00:08:08Z</time>
      </trkpt>
      <trkpt lat="39.277413552200734" lon="118.43110893071622">
        <ele>-4</ele>
        <time>2024-03-08T00:08:09Z</time>
      </trkpt>
      <trkpt lat="39.277412674627186" lon="118.43108297213644">
        <ele>-4</ele>
        <time>2024-03-08T00:08:10Z</time>
      </trkpt>
      <trkpt lat="39.27741175209731" lon="118.4310556829049">
        <ele>-4</ele>
        <time>2024-03-08T00:08:11Z</time>
      </trkpt>
      <trkpt lat="39.27741110866539" lon="118.43103664911892">
        <ele>-4</ele>
        <time>2024-03-08T00:08:12Z</time>
      </trkpt>
      <trkpt lat="39.27741043976646" lon="118.43101686152886">
        <ele>-4</ele>
        <time>2024-03-08T00:08:13Z</time>
      </trkpt>
      <trkpt lat="39.27740938278182" lon="118.43098559252873">
        <ele>-4</ele>
        <time>2024-03-08T00:08:14Z</time>
      </trkpt>
      <trkpt lat="39.277408252104344" lon="118.4309521421962">
        <ele>-4</ele>
        <time>2024-03-08T00:08:15Z</time>
      </trkpt>
      <trkpt lat="39.27740745135267" lon="118.43092845170743">
        <ele>-4</ele>
        <time>2024-03-08T00:08:16Z</time>
      </trkpt>
      <trkpt lat="39.27740785676049" lon="118.43094044590629">
        <ele>-4</ele>
        <time>2024-03-08T00:08:17Z</time>
      </trkpt>
      <trkpt lat="39.27740327947575" lon="118.43083621221757">
        <ele>-4</ele>
        <time>2024-03-08T00:08:18Z</time>
      </trkpt>
      <trkpt lat="39.27740745135267" lon="118.43092845170743">
        <ele>-4</ele>
        <time>2024-03-08T00:08:19Z</time>
      </trkpt>
      <trkpt lat="39.27738711459965" lon="118.43074331249713">
        <ele>-4</ele>
        <time>2024-03-08T00:08:20Z</time>
      </trkpt>
      <trkpt lat="39.27740785676049" lon="118.43094044590629">
        <ele>-4</ele>
        <time>2024-03-08T00:08:21Z</time>
      </trkpt>
      <trkpt lat="39.27733406663014" lon="118.43061190339255">
        <ele>-4</ele>
        <time>2024-03-08T00:08:22Z</time>
      </trkpt>
      <trkpt lat="39.277277159433" lon="118.43053355858298">
        <ele>-4</ele>
        <time>2024-03-08T00:08:24Z</time>
      </trkpt>
      <trkpt lat="39.27725252337333" lon="118.43050888217257">
        <ele>-3.3</ele>
        <time>2024-03-08T00:08:26Z</time>
      </trkpt>
      <trkpt lat="39.27723524280003" lon="118.43049400188157">
        <ele>-3.3</ele>
        <time>2024-03-08T00:08:28Z</time>
      </trkpt>
      <trkpt lat="39.27723524280003" lon="118.43049400188157">
        <ele>-3.3</ele>
        <time>2024-03-08T00:08:30Z</time>
      </trkpt>
      <trkpt lat="39.277366964616526" lon="118.4306807930199">
        <ele>-3.3</ele>
        <time>2024-03-08T00:08:31Z</time>
      </trkpt>
      <trkpt lat="39.27723524280003" lon="118.43049400188157">
        <ele>-3.3</ele>
        <time>2024-03-08T00:08:32Z</time>
      </trkpt>
      <trkpt lat="39.277314348695896" lon="118.43058053195519">
        <ele>-3.3</ele>
        <time>2024-03-08T00:08:33Z</time>
      </trkpt>
      <trkpt lat="39.27723524280003" lon="118.43049400188157">
        <ele>-3.3</ele>
        <time>2024-03-08T00:08:34Z</time>
      </trkpt>
      <trkpt lat="39.277260913604444" lon="118.43051679965009">
        <ele>-4</ele>
        <time>2024-03-08T00:08:35Z</time>
      </trkpt>
      <trkpt lat="39.27721734286842" lon="118.43048043250921">
        <ele>-4</ele>
        <time>2024-03-08T00:08:36Z</time>
      </trkpt>
      <trkpt lat="39.277208178867525" lon="118.43047415272643">
        <ele>-4</ele>
        <time>2024-03-08T00:08:37Z</time>
      </trkpt>
      <trkpt lat="39.27718946016964" lon="118.43046262730189">
        <ele>-4</ele>
        <time>2024-03-08T00:08:38Z</time>
      </trkpt>
      <trkpt lat="39.27717992071367" lon="118.43045739059211">
        <ele>-4</ele>
        <time>2024-03-08T00:08:39Z</time>
      </trkpt>
      <trkpt lat="39.277140743999176" lon="118.43044004184931">
        <ele>-4</ele>
        <time>2024-03-08T00:08:40Z</time>
      </trkpt>
      <trkpt lat="39.27713073481612" lon="118.43043662097958">
        <ele>-4</ele>
        <time>2024-03-08T00:08:41Z</time>
      </trkpt>
      <trkpt lat="39.277110514944404" lon="118.43043089833827">
        <ele>-4</ele>
        <time>2024-03-08T00:08:42Z</time>
      </trkpt>
      <trkpt lat="39.27710032061091" lon="118.43042860098744">
        <ele>-4</ele>
        <time>2024-03-08T00:08:43Z</time>
      </trkpt>
      <trkpt lat="39.2770694989849" lon="118.43042398518664">
        <ele>-4</ele>
        <time>2024-03-08T00:08:44Z</time>
      </trkpt>
      <trkpt lat="39.27704883542262" lon="118.43042281593375">
        <ele>-3.1</ele>
        <time>2024-03-08T00:08:45Z</time>
      </trkpt>
      <trkpt lat="39.277028157019814" lon="118.4304231778279">
        <ele>-3.1</ele>
        <time>2024-03-08T00:08:46Z</time>
      </trkpt>
      <trkpt lat="39.27700753053599" lon="118.43042506961314">
        <ele>-3.1</ele>
        <time>2024-03-08T00:08:47Z</time>
      </trkpt>
      <trkpt lat="39.2769768337485" lon="118.43043076137322">
        <ele>-3.1</ele>
        <time>2024-03-08T00:08:48Z</time>
      </trkpt>
      <trkpt lat="39.27696669935684" lon="118.43043341403853">
        <ele>-3.1</ele>
        <time>2024-03-08T00:08:49Z</time>
      </trkpt>
      <trkpt lat="39.27695662758496" lon="118.43043644118575">
        <ele>-3.1</ele>
        <time>2024-03-08T00:08:50Z</time>
      </trkpt>
      <trkpt lat="39.276936704420734" lon="118.43044360914517">
        <ele>-3.1</ele>
        <time>2024-03-08T00:08:51Z</time>
      </trkpt>
      <trkpt lat="39.276907491046885" lon="118.43045710100994">
        <ele>-3.1</ele>
        <time>2024-03-08T00:08:52Z</time>
      </trkpt>
      <trkpt lat="39.27689796392712" lon="118.43046231515875">
        <ele>-3.1</ele>
        <time>2024-03-08T00:08:53Z</time>
      </trkpt>
      <trkpt lat="39.27687927221359" lon="118.43047379471527">
        <ele>-3.1</ele>
        <time>2024-03-08T00:08:54Z</time>
      </trkpt>
      <trkpt lat="39.2768435495379" lon="118.43050082769236">
        <ele>-3.4</ele>
        <time>2024-03-08T00:08:55Z</time>
      </trkpt>
      <trkpt lat="39.2768435495379" lon="118.43050082769236">
        <ele>-3.4</ele>
        <time>2024-03-08T00:08:56Z</time>
      </trkpt>
      <trkpt lat="39.27681843929656" lon="118.43052449884816">
        <ele>-3.4</ele>
        <time>2024-03-08T00:08:57Z</time>
      </trkpt>
      <trkpt lat="39.27680260393369" lon="118.43054180647083">
        <ele>-3.4</ele>
        <time>2024-03-08T00:08:58Z</time>
      </trkpt>
      <trkpt lat="39.27680260393369" lon="118.43054180647083">
        <ele>-3.4</ele>
        <time>2024-03-08T00:08:59Z</time>
      </trkpt>
      <trkpt lat="39.27677333858032" lon="118.43057984116994">
        <ele>-3.4</ele>
        <time>2024-03-08T00:09:00Z</time>
      </trkpt>
      <trkpt lat="39.27678033873103" lon="118.43056992320282">
        <ele>-3.4</ele>
        <time>2024-03-08T00:09:01Z</time>
      </trkpt>
      <trkpt lat="39.27674760101578" lon="118.43062203414168">
        <ele>-3.4</ele>
        <time>2024-03-08T00:09:02Z</time>
      </trkpt>
      <trkpt lat="39.27675368488681" lon="118.43061112399494">
        <ele>-3.4</ele>
        <time>2024-03-08T00:09:03Z</time>
      </trkpt>
      <trkpt lat="39.2767209164917" lon="118.43067981746854">
        <ele>-3.4</ele>
        <time>2024-03-08T00:09:04Z</time>
      </trkpt>
      <trkpt lat="39.27673616572357" lon="118.43064452749687">
        <ele>-3.3</ele>
        <time>2024-03-08T00:09:05Z</time>
      </trkpt>
      <trkpt lat="39.27669769587043" lon="118.43075505609237">
        <ele>-3.3</ele>
        <time>2024-03-08T00:09:06Z</time>
      </trkpt>
      <trkpt lat="39.27673616572357" lon="118.43064452749687">
        <ele>-3.3</ele>
        <time>2024-03-08T00:09:07Z</time>
      </trkpt>
      <trkpt lat="39.276682226583226" lon="118.43088922761342">
        <ele>-3.3</ele>
        <time>2024-03-08T00:09:08Z</time>
      </trkpt>
      <trkpt lat="39.27676000604245" lon="118.43060044960085">
        <ele>-3.3</ele>
        <time>2024-03-08T00:09:09Z</time>
      </trkpt>
      <trkpt lat="39.276794977501595" lon="118.43055089843355">
        <ele>-3.3</ele>
        <time>2024-03-08T00:09:11Z</time>
      </trkpt>
      <trkpt lat="39.27685225418763" lon="118.43049357292175">
        <ele>-3.3</ele>
        <time>2024-03-08T00:09:13Z</time>
      </trkpt>
      <trkpt lat="39.27667517034416" lon="118.43091769017222">
        <ele>-3.4</ele>
        <time>2024-03-08T00:09:15Z</time>
      </trkpt>
      <trkpt lat="39.27668364693251" lon="118.43094294195737">
        <ele>-3.4</ele>
        <time>2024-03-08T00:09:16Z</time>
      </trkpt>
      <trkpt lat="39.276684489911645" lon="118.430967881333">
        <ele>-3.4</ele>
        <time>2024-03-08T00:09:17Z</time>
      </trkpt>
      <trkpt lat="39.27668489519103" lon="118.43097987118757">
        <ele>-3.4</ele>
        <time>2024-03-08T00:09:18Z</time>
      </trkpt>
      <trkpt lat="39.27668605272955" lon="118.4310141150826">
        <ele>-3.4</ele>
        <time>2024-03-08T00:09:19Z</time>
      </trkpt>
      <trkpt lat="39.27668678063667" lon="118.43103564833149">
        <ele>-3.4</ele>
        <time>2024-03-08T00:09:20Z</time>
      </trkpt>
      <trkpt lat="39.276687132746154" lon="118.43104606438563">
        <ele>-3.4</ele>
        <time>2024-03-08T00:09:21Z</time>
      </trkpt>
      <trkpt lat="39.27668814621534" lon="118.43107604398605">
        <ele>-3.4</ele>
        <time>2024-03-08T00:09:22Z</time>
      </trkpt>
      <trkpt lat="39.27668910235705" lon="118.43110432681341">
        <ele>-3.4</ele>
        <time>2024-03-08T00:09:23Z</time>
      </trkpt>
      <trkpt lat="39.27669000899387" lon="118.43113114441812">
        <ele>-3.4</ele>
        <time>2024-03-08T00:09:24Z</time>
      </trkpt>
      <trkpt lat="39.276690872826634" lon="118.43115669513382">
        <ele>-3.5</ele>
        <time>2024-03-08T00:09:25Z</time>
      </trkpt>
      <trkpt lat="39.27669000899387" lon="118.43113114441812">
        <ele>-3.5</ele>
        <time>2024-03-08T00:09:26Z</time>
      </trkpt>
      <trkpt lat="39.27669496706021" lon="118.43127778532656">
        <ele>-3.5</ele>
        <time>2024-03-08T00:09:27Z</time>
      </trkpt>
      <trkpt lat="39.27668910235705" lon="118.43110432681341">
        <ele>-3.5</ele>
        <time>2024-03-08T00:09:28Z</time>
      </trkpt>
      <trkpt lat="39.276701040083914" lon="118.43145736842497">
        <ele>-3.5</ele>
        <time>2024-03-08T00:09:29Z</time>
      </trkpt>
      <trkpt lat="39.276715559182456" lon="118.4318865557346">
        <ele>-3.5</ele>
        <time>2024-03-08T00:09:31Z</time>
      </trkpt>
      <trkpt lat="39.27690395654619" lon="118.43228330260274">
        <ele>-3.5</ele>
        <time>2024-03-08T00:09:33Z</time>
      </trkpt>
      <trkpt lat="39.276699704465784" lon="118.43141787657589">
        <ele>-3.4</ele>
        <time>2024-03-08T00:09:36Z</time>
      </trkpt>
      <trkpt lat="39.27670014786543" lon="118.43143098731422">
        <ele>-3.4</ele>
        <time>2024-03-08T00:09:37Z</time>
      </trkpt>
      <trkpt lat="39.276701040083914" lon="118.43145736842497">
        <ele>-3.4</ele>
        <time>2024-03-08T00:09:38Z</time>
      </trkpt>
      <trkpt lat="39.2767014903311" lon="118.43147068102438">
        <ele>-3.4</ele>
        <time>2024-03-08T00:09:39Z</time>
      </trkpt>
      <trkpt lat="39.276702402808944" lon="118.43149765991195">
        <ele>-3.4</ele>
        <time>2024-03-08T00:09:40Z</time>
      </trkpt>
      <trkpt lat="39.2767033365156" lon="118.4315252655896">
        <ele>-3.4</ele>
        <time>2024-03-08T00:09:41Z</time>
      </trkpt>
      <trkpt lat="39.27670429826483" lon="118.4315536994417">
        <ele>-3.4</ele>
        <time>2024-03-08T00:09:42Z</time>
      </trkpt>
      <trkpt lat="39.27670479199113" lon="118.43156829596015">
        <ele>-3.4</ele>
        <time>2024-03-08T00:09:43Z</time>
      </trkpt>
      <trkpt lat="39.27670581035424" lon="118.43159840205479">
        <ele>-3.4</ele>
        <time>2024-03-08T00:09:44Z</time>
      </trkpt>
      <trkpt lat="39.27670479199113" lon="118.43156829596015">
        <ele>-3.4</ele>
        <time>2024-03-08T00:09:45Z</time>
      </trkpt>
      <trkpt lat="39.27671049377106" lon="118.43173684543147">
        <ele>-3.4</ele>
        <time>2024-03-08T00:09:46Z</time>
      </trkpt>
      <trkpt lat="39.2767028665984" lon="118.43151137227578">
        <ele>-3.4</ele>
        <time>2024-03-08T00:09:47Z</time>
      </trkpt>
      <trkpt lat="39.276694249093126" lon="118.43125655211556">
        <ele>-3.4</ele>
        <time>2024-03-08T00:09:49Z</time>
      </trkpt>
      <trkpt lat="39.276682756577024" lon="118.43091660017366">
        <ele>-3.4</ele>
        <time>2024-03-08T00:09:51Z</time>
      </trkpt>
      <trkpt lat="39.27671382323701" lon="118.43183525207658">
        <ele>-3.4</ele>
        <time>2024-03-08T00:09:54Z</time>
      </trkpt>
      <trkpt lat="39.27671466744943" lon="118.43186020208002">
        <ele>-3.7</ele>
        <time>2024-03-08T00:09:55Z</time>
      </trkpt>
      <trkpt lat="39.27671510704166" lon="118.43187319358167">
        <ele>-3.7</ele>
        <time>2024-03-08T00:09:56Z</time>
      </trkpt>
      <trkpt lat="39.2767160798833" lon="118.43190022689605">
        <ele>-3.7</ele>
        <time>2024-03-08T00:09:57Z</time>
      </trkpt>
      <trkpt lat="39.276717998890966" lon="118.43192749632006">
        <ele>-3.7</ele>
        <time>2024-03-08T00:09:58Z</time>
      </trkpt>
      <trkpt lat="39.27672113423593" lon="118.43195451231293">
        <ele>-3.7</ele>
        <time>2024-03-08T00:09:59Z</time>
      </trkpt>
      <trkpt lat="39.276723152487364" lon="118.43196789933793">
        <ele>-3.7</ele>
        <time>2024-03-08T00:10:00Z</time>
      </trkpt>
      <trkpt lat="39.27672807751223" lon="118.43199438001223">
        <ele>-3.7</ele>
        <time>2024-03-08T00:10:01Z</time>
      </trkpt>
      <trkpt lat="39.27673416827087" lon="118.43202040171647">
        <ele>-3.7</ele>
        <time>2024-03-08T00:10:02Z</time>
      </trkpt>
      <trkpt lat="39.27672807751223" lon="118.43199438001223">
        <ele>-3.7</ele>
        <time>2024-03-08T00:10:03Z</time>
      </trkpt>
      <trkpt lat="39.276769637409025" lon="118.43211831965597">
        <ele>-3.7</ele>
        <time>2024-03-08T00:10:04Z</time>
      </trkpt>
      <trkpt lat="39.27672546781516" lon="118.43198119197955">
        <ele>-3.8</ele>
        <time>2024-03-08T00:10:05Z</time>
      </trkpt>
      <trkpt lat="39.276806943756746" lon="118.43218319435535">
        <ele>-3.8</ele>
        <time>2024-03-08T00:10:06Z</time>
      </trkpt>
      <trkpt lat="39.27672546781516" lon="118.43198119197955">
        <ele>-3.8</ele>
        <time>2024-03-08T00:10:07Z</time>
      </trkpt>
      <trkpt lat="39.276852168329164" lon="118.43223870381598">
        <ele>-3.8</ele>
        <time>2024-03-08T00:10:08Z</time>
      </trkpt>
      <trkpt lat="39.27672546781516" lon="118.43198119197955">
        <ele>-3.8</ele>
        <time>2024-03-08T00:10:09Z</time>
      </trkpt>
      <trkpt lat="39.27686877397962" lon="118.43225485033203">
        <ele>-3.8</ele>
        <time>2024-03-08T00:10:10Z</time>
      </trkpt>
      <trkpt lat="39.27674974267814" lon="118.43207074893694">
        <ele>-3.8</ele>
        <time>2024-03-08T00:10:11Z</time>
      </trkpt>
      <trkpt lat="39.27686877397962" lon="118.43225485033203">
        <ele>-3.8</ele>
        <time>2024-03-08T00:10:12Z</time>
      </trkpt>
      <trkpt lat="39.27678722380833" lon="118.43215182037339">
        <ele>-3.8</ele>
        <time>2024-03-08T00:10:13Z</time>
      </trkpt>
      <trkpt lat="39.27686877397962" lon="118.43225485033203">
        <ele>-3.8</ele>
        <time>2024-03-08T00:10:14Z</time>
      </trkpt>
      <trkpt lat="39.27682864647308" lon="118.43221222296374">
        <ele>-3.8</ele>
        <time>2024-03-08T00:10:15Z</time>
      </trkpt>
      <trkpt lat="39.27686877397962" lon="118.43225485033203">
        <ele>-3.8</ele>
        <time>2024-03-08T00:10:16Z</time>
      </trkpt>
      <trkpt lat="39.27686877397962" lon="118.43225485033203">
        <ele>-3.8</ele>
        <time>2024-03-08T00:10:17Z</time>
      </trkpt>
      <trkpt lat="39.27688605562302" lon="118.43226973197625">
        <ele>-3.8</ele>
        <time>2024-03-08T00:10:18Z</time>
      </trkpt>
      <trkpt lat="39.27690395654619" lon="118.43228330260274">
        <ele>-3.8</ele>
        <time>2024-03-08T00:10:19Z</time>
      </trkpt>
      <trkpt lat="39.27692241821028" lon="118.43229552013382">
        <ele>-3.8</ele>
        <time>2024-03-08T00:10:20Z</time>
      </trkpt>
      <trkpt lat="39.27692241821028" lon="118.43229552013382">
        <ele>-3.8</ele>
        <time>2024-03-08T00:10:21Z</time>
      </trkpt>
      <trkpt lat="39.276941380419146" lon="118.43230634669354">
        <ele>-3.8</ele>
        <time>2024-03-08T00:10:22Z</time>
      </trkpt>
      <trkpt lat="39.276941380419146" lon="118.43230634669354">
        <ele>-3.8</ele>
        <time>2024-03-08T00:10:23Z</time>
      </trkpt>
      <trkpt lat="39.276941380419146" lon="118.43230634669354">
        <ele>-3.8</ele>
        <time>2024-03-08T00:10:24Z</time>
      </trkpt>
      <trkpt lat="39.276941380419146" lon="118.43230634669354">
        <ele>-4.3</ele>
        <time>2024-03-08T00:10:25Z</time>
      </trkpt>
      <trkpt lat="39.27664059567205" lon="118.43255323949576">
        <ele>0</ele>
        <time>2024-03-08T00:11:26Z</time>
      </trkpt>
      <trkpt lat="39.27682864647308" lon="118.43221222296374">
        <ele>0</ele>
        <time>2024-03-08T00:11:28Z</time>
      </trkpt>
      <trkpt lat="39.27682864647308" lon="118.43221222296374">
        <ele>0</ele>
        <time>2024-03-08T00:11:29Z</time>
      </trkpt>
      <trkpt lat="39.27682864647308" lon="118.43221222296374">
        <ele>0</ele>
        <time>2024-03-08T00:11:30Z</time>
      </trkpt>
      <trkpt lat="39.276806943756746" lon="118.43218319435535">
        <ele>0</ele>
        <time>2024-03-08T00:11:31Z</time>
      </trkpt>
      <trkpt lat="39.276806943756746" lon="118.43218319435535">
        <ele>0</ele>
        <time>2024-03-08T00:11:32Z</time>
      </trkpt>
      <trkpt lat="39.276806943756746" lon="118.43218319435535">
        <ele>0</ele>
        <time>2024-03-08T00:11:33Z</time>
      </trkpt>
      <trkpt lat="39.276806943756746" lon="118.43218319435535">
        <ele>0</ele>
        <time>2024-03-08T00:11:34Z</time>
      </trkpt>
      <trkpt lat="39.276806943756746" lon="118.43218319435535">
        <ele>0</ele>
        <time>2024-03-08T00:11:35Z</time>
      </trkpt>
      <trkpt lat="39.276806943756746" lon="118.43218319435535">
        <ele>0</ele>
        <time>2024-03-08T00:11:36Z</time>
      </trkpt>
      <trkpt lat="39.276781117554734" lon="118.43214087853603">
        <ele>0</ele>
        <time>2024-03-08T00:11:37Z</time>
      </trkpt>
      <trkpt lat="39.276852168329164" lon="118.43223870381598">
        <ele>0</ele>
        <time>2024-03-08T00:11:38Z</time>
      </trkpt>
      <trkpt lat="39.276806943756746" lon="118.43218319435535">
        <ele>0</ele>
        <time>2024-03-08T00:11:39Z</time>
      </trkpt>
      <trkpt lat="39.276806943756746" lon="118.43218319435535">
        <ele>0</ele>
        <time>2024-03-08T00:11:40Z</time>
      </trkpt>
      <trkpt lat="39.276781117554734" lon="118.43214087853603">
        <ele>0</ele>
        <time>2024-03-08T00:11:41Z</time>
      </trkpt>
      <trkpt lat="39.276781117554734" lon="118.43214087853603">
        <ele>0</ele>
        <time>2024-03-08T00:11:42Z</time>
      </trkpt>
      <trkpt lat="39.27677525372789" lon="118.4321297087475">
        <ele>0</ele>
        <time>2024-03-08T00:11:43Z</time>
      </trkpt>
      <trkpt lat="39.276769637409025" lon="118.43211831965597">
        <ele>0</ele>
        <time>2024-03-08T00:11:44Z</time>
      </trkpt>
      <trkpt lat="39.27674543392695" lon="118.43205839866411">
        <ele>0</ele>
        <time>2024-03-08T00:11:45Z</time>
      </trkpt>
      <trkpt lat="39.27674543392695" lon="118.43205839866411">
        <ele>0</ele>
        <time>2024-03-08T00:11:46Z</time>
      </trkpt>
      <trkpt lat="39.27673416827087" lon="118.43202040171647">
        <ele>0</ele>
        <time>2024-03-08T00:11:47Z</time>
      </trkpt>
      <trkpt lat="39.27672807751223" lon="118.43199438001223">
        <ele>0</ele>
        <time>2024-03-08T00:11:48Z</time>
      </trkpt>
      <trkpt lat="39.27672113423593" lon="118.43195451231293">
        <ele>0</ele>
        <time>2024-03-08T00:11:49Z</time>
      </trkpt>
      <trkpt lat="39.276717998890966" lon="118.43192749632006">
        <ele>0</ele>
        <time>2024-03-08T00:11:50Z</time>
      </trkpt>
      <trkpt lat="39.27671466744943" lon="118.43186020208002">
        <ele>0</ele>
        <time>2024-03-08T00:11:51Z</time>
      </trkpt>
      <trkpt lat="39.2767160798833" lon="118.43190022689605">
        <ele>0</ele>
        <time>2024-03-08T00:11:52Z</time>
      </trkpt>
      <trkpt lat="39.27671049377106" lon="118.43173684543147">
        <ele>0</ele>
        <time>2024-03-08T00:11:53Z</time>
      </trkpt>
      <trkpt lat="39.2767160798833" lon="118.43190022689605">
        <ele>0</ele>
        <time>2024-03-08T00:11:54Z</time>
      </trkpt>
      <trkpt lat="39.27673416827087" lon="118.43202040171647">
        <ele>0</ele>
        <time>2024-03-08T00:11:56Z</time>
      </trkpt>
      <trkpt lat="39.27682864647308" lon="118.43221222296374">
        <ele>0</ele>
        <time>2024-03-08T00:11:58Z</time>
      </trkpt>
      <trkpt lat="39.27661366945992" lon="118.43155290259294">
        <ele>0</ele>
        <time>2024-03-08T00:12:00Z</time>
      </trkpt>
      <trkpt lat="39.27661032572713" lon="118.43151288906442">
        <ele>0</ele>
        <time>2024-03-08T00:12:01Z</time>
      </trkpt>
      <trkpt lat="39.27660698199129" lon="118.4314728755297">
        <ele>0</ele>
        <time>2024-03-08T00:12:02Z</time>
      </trkpt>
      <trkpt lat="39.276603638252446" lon="118.43143286198884">
        <ele>0</ele>
        <time>2024-03-08T00:12:03Z</time>
      </trkpt>
      <trkpt lat="39.27660362868588" lon="118.43139618291468">
        <ele>0</ele>
        <time>2024-03-08T00:12:04Z</time>
      </trkpt>
      <trkpt lat="39.27660195246727" lon="118.4313595038117">
        <ele>0</ele>
        <time>2024-03-08T00:12:05Z</time>
      </trkpt>
      <trkpt lat="39.27660194465132" lon="118.43132949362742">
        <ele>0</ele>
        <time>2024-03-08T00:12:06Z</time>
      </trkpt>
    </trkseg>
  </trk>
</gpx>