<?xml version="1.0" encoding="UTF-8"?>
<gpx xmlns="http://www.topografix.com/GPX/1/1" xmlns:gpxtpx="http://www.garmin.com/xmlschemas/TrackPointExtension/v1" xmlns:xsi="http://www.w3.org/2001/XMLSchema-instance" xsi:schemaLocation="http://www.topografix.com/GPX/1/1 http://www.topografix.com/GPX/1/1/gpx.xsd" version="1.1" creator="gpx.py -- https://github.com/tkrajina/gpxpy">
  <trk>
    <name>gpx from codoon</name>
    <type>Run</type>
    <trkseg>
      <trkpt lat="39.27663369529296" lon="118.43050268803066">
        <ele>-5.9</ele>
        <time>2024-03-08T00:12:36Z</time>
      </trkpt>
      <trkpt lat="39.276657939994244" lon="118.43043736970964">
        <ele>-5.9</ele>
        <time>2024-03-08T00:12:37Z</time>
      </trkpt>
      <trkpt lat="39.27666384074074" lon="118.43041926666123">
        <ele>-5.9</ele>
        <time>2024-03-08T00:12:38Z</time>
      </trkpt>
      <trkpt lat="39.2766793435949" lon="118.43038445749265">
        <ele>-5.9</ele>
        <time>2024-03-08T00:12:39Z</time>
      </trkpt>
      <trkpt lat="39.27669331209056" lon="118.43036001759076">
        <ele>-5.9</ele>
        <time>2024-03-08T00:12:40Z</time>
      </trkpt>
      <trkpt lat="39.276711874479346" lon="118.43033581652809">
        <ele>-5.1</ele>
        <time>2024-03-08T00:12:41Z</time>
      </trkpt>
      <trkpt lat="39.2767312951696" lon="118.43031182109922">
        <ele>-5.1</ele>
        <time>2024-03-08T00:12:42Z</time>
      </trkpt>
      <trkpt lat="39.276754828962986" lon="118.43028271052736">
        <ele>-5.1</ele>
        <time>2024-03-08T00:12:43Z</time>
      </trkpt>
      <trkpt lat="39.27678115871286" lon="118.43025317949234">
        <ele>-5.1</ele>
        <time>2024-03-08T00:12:44Z</time>
      </trkpt>
      <trkpt lat="39.27680744383518" lon="118.4302259503925">
        <ele>-5.1</ele>
        <time>2024-03-08T00:12:45Z</time>
      </trkpt>
      <trkpt lat="39.27683324934705" lon="118.43020432565915">
        <ele>-5.1</ele>
        <time>2024-03-08T00:12:46Z</time>
      </trkpt>
      <trkpt lat="39.27685980357457" lon="118.43018942491133">
        <ele>-5.1</ele>
        <time>2024-03-08T00:12:47Z</time>
      </trkpt>
      <trkpt lat="39.276888416956886" lon="118.43017944625579">
        <ele>-5.1</ele>
        <time>2024-03-08T00:12:48Z</time>
      </trkpt>
      <trkpt lat="39.2769183118471" lon="118.43017333905988">
        <ele>-5.1</ele>
        <time>2024-03-08T00:12:49Z</time>
      </trkpt>
      <trkpt lat="39.276948944086264" lon="118.43017013992161">
        <ele>-5.1</ele>
        <time>2024-03-08T00:12:50Z</time>
      </trkpt>
      <trkpt lat="39.276980125992374" lon="118.4301680910874">
        <ele>-4.8</ele>
        <time>2024-03-08T00:12:51Z</time>
      </trkpt>
      <trkpt lat="39.27701262060413" lon="118.43016720741748">
        <ele>-4.8</ele>
        <time>2024-03-08T00:12:52Z</time>
      </trkpt>
      <trkpt lat="39.277045581491734" lon="118.43016625896504">
        <ele>-4.8</ele>
        <time>2024-03-08T00:12:53Z</time>
      </trkpt>
      <trkpt lat="39.27707811935818" lon="118.43016607823452">
        <ele>-4.8</ele>
        <time>2024-03-08T00:12:54Z</time>
      </trkpt>
      <trkpt lat="39.277109134107484" lon="118.43016694499593">
        <ele>-4.8</ele>
        <time>2024-03-08T00:12:55Z</time>
      </trkpt>
      <trkpt lat="39.27713885315135" lon="118.43017100065735">
        <ele>-4.8</ele>
        <time>2024-03-08T00:12:56Z</time>
      </trkpt>
      <trkpt lat="39.2771679774278" lon="118.43017757265214">
        <ele>-4.8</ele>
        <time>2024-03-08T00:12:57Z</time>
      </trkpt>
      <trkpt lat="39.277196753112406" lon="118.43018668344283">
        <ele>-4.8</ele>
        <time>2024-03-08T00:12:58Z</time>
      </trkpt>
      <trkpt lat="39.277225458461466" lon="118.43019853179575">
        <ele>-4.8</ele>
        <time>2024-03-08T00:12:59Z</time>
      </trkpt>
      <trkpt lat="39.27725361186697" lon="118.4302119430974">
        <ele>-4.8</ele>
        <time>2024-03-08T00:13:00Z</time>
      </trkpt>
      <trkpt lat="39.27728056729147" lon="118.43022589012702">
        <ele>-4.7</ele>
        <time>2024-03-08T00:13:01Z</time>
      </trkpt>
      <trkpt lat="39.277305891566755" lon="118.43023977619195">
        <ele>-4.7</ele>
        <time>2024-03-08T00:13:02Z</time>
      </trkpt>
      <trkpt lat="39.27733001804651" lon="118.43025281010947">
        <ele>-4.7</ele>
        <time>2024-03-08T00:13:03Z</time>
      </trkpt>
      <trkpt lat="39.2773535182725" lon="118.43026496344775">
        <ele>-4.7</ele>
        <time>2024-03-08T00:13:04Z</time>
      </trkpt>
      <trkpt lat="39.27737695435844" lon="118.43027577113627">
        <ele>-4.7</ele>
        <time>2024-03-08T00:13:05Z</time>
      </trkpt>
      <trkpt lat="39.277400448322155" lon="118.43028414504829">
        <ele>-4.7</ele>
        <time>2024-03-08T00:13:06Z</time>
      </trkpt>
      <trkpt lat="39.27742380467257" lon="118.43028872284816">
        <ele>-4.7</ele>
        <time>2024-03-08T00:13:07Z</time>
      </trkpt>
      <trkpt lat="39.27744618841902" lon="118.43028573685528">
        <ele>-4.7</ele>
        <time>2024-03-08T00:13:08Z</time>
      </trkpt>
      <trkpt lat="39.27746549733712" lon="118.43027451833694">
        <ele>-4.7</ele>
        <time>2024-03-08T00:13:09Z</time>
      </trkpt>
      <trkpt lat="39.277481366603" lon="118.43024986725946">
        <ele>-4.9</ele>
        <time>2024-03-08T00:13:11Z</time>
      </trkpt>
      <trkpt lat="39.277488401911455" lon="118.43021888098214">
        <ele>-4.9</ele>
        <time>2024-03-08T00:13:12Z</time>
      </trkpt>
      <trkpt lat="39.27748948773169" lon="118.4301817971735">
        <ele>-4.9</ele>
        <time>2024-03-08T00:13:13Z</time>
      </trkpt>
      <trkpt lat="39.27748560627021" lon="118.43014765759072">
        <ele>-4.9</ele>
        <time>2024-03-08T00:13:14Z</time>
      </trkpt>
      <trkpt lat="39.27748144234307" lon="118.43011255816668">
        <ele>-4.9</ele>
        <time>2024-03-08T00:13:15Z</time>
      </trkpt>
      <trkpt lat="39.277478252909916" lon="118.43007649154939">
        <ele>-4.9</ele>
        <time>2024-03-08T00:13:16Z</time>
      </trkpt>
      <trkpt lat="39.27747606472707" lon="118.43003991228247">
        <ele>-4.9</ele>
        <time>2024-03-08T00:13:17Z</time>
      </trkpt>
      <trkpt lat="39.277474637018564" lon="118.43000319405806">
        <ele>-4.9</ele>
        <time>2024-03-08T00:13:18Z</time>
      </trkpt>
      <trkpt lat="39.277474118107186" lon="118.42996646899284">
        <ele>-4.9</ele>
        <time>2024-03-08T00:13:19Z</time>
      </trkpt>
      <trkpt lat="39.27747444491682" lon="118.42992962382526">
        <ele>-4.9</ele>
        <time>2024-03-08T00:13:20Z</time>
      </trkpt>
      <trkpt lat="39.277475541048176" lon="118.4298926284798">
        <ele>-4.9</ele>
        <time>2024-03-08T00:13:21Z</time>
      </trkpt>
      <trkpt lat="39.27747718365904" lon="118.42985586040803">
        <ele>-4.9</ele>
        <time>2024-03-08T00:13:22Z</time>
      </trkpt>
      <trkpt lat="39.277478857097236" lon="118.42981949381405">
        <ele>-4.9</ele>
        <time>2024-03-08T00:13:23Z</time>
      </trkpt>
      <trkpt lat="39.277480114545675" lon="118.42978315900723">
        <ele>-4.9</ele>
        <time>2024-03-08T00:13:24Z</time>
      </trkpt>
      <trkpt lat="39.27748057740261" lon="118.42974589121513">
        <ele>-4.9</ele>
        <time>2024-03-08T00:13:25Z</time>
      </trkpt>
      <trkpt lat="39.27748004175864" lon="118.42970726551538">
        <ele>-4.9</ele>
        <time>2024-03-08T00:13:26Z</time>
      </trkpt>
      <trkpt lat="39.27747806349866" lon="118.42966426519799">
        <ele>-4.9</ele>
        <time>2024-03-08T00:13:27Z</time>
      </trkpt>
      <trkpt lat="39.27747419247709" lon="118.42961759513163">
        <ele>-4.9</ele>
        <time>2024-03-08T00:13:29Z</time>
      </trkpt>
      <trkpt lat="39.27746927315826" lon="118.42956862659945">
        <ele>-4.9</ele>
        <time>2024-03-08T00:13:30Z</time>
      </trkpt>
      <trkpt lat="39.2774643335691" lon="118.42951837443925">
        <ele>-4.9</ele>
        <time>2024-03-08T00:13:32Z</time>
      </trkpt>
      <trkpt lat="39.27746172510625" lon="118.42947608019527">
        <ele>-4.9</ele>
        <time>2024-03-08T00:13:33Z</time>
      </trkpt>
      <trkpt lat="39.27745722769023" lon="118.42944280551802">
        <ele>-4.9</ele>
        <time>2024-03-08T00:13:34Z</time>
      </trkpt>
      <trkpt lat="39.277447996301696" lon="118.42941997510893">
        <ele>-4.9</ele>
        <time>2024-03-08T00:13:35Z</time>
      </trkpt>
      <trkpt lat="39.277432616038624" lon="118.42940107714912">
        <ele>-4.9</ele>
        <time>2024-03-08T00:13:36Z</time>
      </trkpt>
      <trkpt lat="39.27741283960337" lon="118.42938145051787">
        <ele>-4.9</ele>
        <time>2024-03-08T00:13:37Z</time>
      </trkpt>
      <trkpt lat="39.27739214994113" lon="118.42936487467273">
        <ele>-4.9</ele>
        <time>2024-03-08T00:13:38Z</time>
      </trkpt>
      <trkpt lat="39.2773698452258" lon="118.42935303816454">
        <ele>-4.9</ele>
        <time>2024-03-08T00:13:39Z</time>
      </trkpt>
      <trkpt lat="39.27734517504992" lon="118.4293476503769">
        <ele>-4.9</ele>
        <time>2024-03-08T00:13:40Z</time>
      </trkpt>
      <trkpt lat="39.277319219658274" lon="118.42934767609562">
        <ele>-4.9</ele>
        <time>2024-03-08T00:13:41Z</time>
      </trkpt>
      <trkpt lat="39.27728974688749" lon="118.42935238449239">
        <ele>-4.9</ele>
        <time>2024-03-08T00:13:42Z</time>
      </trkpt>
      <trkpt lat="39.277260884812925" lon="118.42935959449085">
        <ele>-4.9</ele>
        <time>2024-03-08T00:13:43Z</time>
      </trkpt>
      <trkpt lat="39.277229929531806" lon="118.42936693796605">
        <ele>-4.9</ele>
        <time>2024-03-08T00:13:44Z</time>
      </trkpt>
      <trkpt lat="39.27719752054612" lon="118.4293732109053">
        <ele>-4.9</ele>
        <time>2024-03-08T00:13:45Z</time>
      </trkpt>
      <trkpt lat="39.27716071744386" lon="118.4293783428099">
        <ele>-4.9</ele>
        <time>2024-03-08T00:13:47Z</time>
      </trkpt>
      <trkpt lat="39.2771231030048" lon="118.42938240291086">
        <ele>-4.9</ele>
        <time>2024-03-08T00:13:48Z</time>
      </trkpt>
      <trkpt lat="39.277089228449825" lon="118.42938601145765">
        <ele>-4.9</ele>
        <time>2024-03-08T00:13:49Z</time>
      </trkpt>
      <trkpt lat="39.27706091019393" lon="118.42939016898912">
        <ele>-4.9</ele>
        <time>2024-03-08T00:13:50Z</time>
      </trkpt>
      <trkpt lat="39.277034973732" lon="118.42939873774525">
        <ele>-4.9</ele>
        <time>2024-03-08T00:13:51Z</time>
      </trkpt>
      <trkpt lat="39.27701201460279" lon="118.42940883942276">
        <ele>-4.9</ele>
        <time>2024-03-08T00:13:52Z</time>
      </trkpt>
      <trkpt lat="39.276991647766856" lon="118.42941796848379">
        <ele>-4.9</ele>
        <time>2024-03-08T00:13:53Z</time>
      </trkpt>
      <trkpt lat="39.27697044542866" lon="118.42942211020298">
        <ele>-4.9</ele>
        <time>2024-03-08T00:13:54Z</time>
      </trkpt>
      <trkpt lat="39.27694732335906" lon="118.42942724493646">
        <ele>-4.9</ele>
        <time>2024-03-08T00:13:55Z</time>
      </trkpt>
      <trkpt lat="39.27692051230193" lon="118.42943591366355">
        <ele>-4.9</ele>
        <time>2024-03-08T00:13:56Z</time>
      </trkpt>
      <trkpt lat="39.27689586081753" lon="118.42944806194411">
        <ele>-4.9</ele>
        <time>2024-03-08T00:13:57Z</time>
      </trkpt>
      <trkpt lat="39.276871953065005" lon="118.42945996953006">
        <ele>-4.9</ele>
        <time>2024-03-08T00:13:58Z</time>
      </trkpt>
      <trkpt lat="39.27684956609309" lon="118.42947146700027">
        <ele>-4.9</ele>
        <time>2024-03-08T00:13:59Z</time>
      </trkpt>
      <trkpt lat="39.2768288381012" lon="118.42948300810376">
        <ele>-4.9</ele>
        <time>2024-03-08T00:14:00Z</time>
      </trkpt>
      <trkpt lat="39.276809849855496" lon="118.42949543268801">
        <ele>-5.6</ele>
        <time>2024-03-08T00:14:01Z</time>
      </trkpt>
      <trkpt lat="39.27679314915262" lon="118.42951150018702">
        <ele>-5.6</ele>
        <time>2024-03-08T00:14:02Z</time>
      </trkpt>
      <trkpt lat="39.27677922461556" lon="118.42953133672084">
        <ele>-5.6</ele>
        <time>2024-03-08T00:14:03Z</time>
      </trkpt>
      <trkpt lat="39.27676916947676" lon="118.42955796400697">
        <ele>-5.6</ele>
        <time>2024-03-08T00:14:05Z</time>
      </trkpt>
      <trkpt lat="39.2767614607841" lon="118.42958922928264">
        <ele>-5.6</ele>
        <time>2024-03-08T00:14:06Z</time>
      </trkpt>
      <trkpt lat="39.276753769523395" lon="118.42962406425501">
        <ele>-5.6</ele>
        <time>2024-03-08T00:14:07Z</time>
      </trkpt>
      <trkpt lat="39.27674468338855" lon="118.42966038509115">
        <ele>-5.6</ele>
        <time>2024-03-08T00:14:08Z</time>
      </trkpt>
      <trkpt lat="39.27673687527827" lon="118.42969944532173">
        <ele>-5.6</ele>
        <time>2024-03-08T00:14:09Z</time>
      </trkpt>
      <trkpt lat="39.27673043401616" lon="118.42973904935735">
        <ele>-5.6</ele>
        <time>2024-03-08T00:14:10Z</time>
      </trkpt>
      <trkpt lat="39.276724740522546" lon="118.42977765317569">
        <ele>-5.6</ele>
        <time>2024-03-08T00:14:11Z</time>
      </trkpt>
      <trkpt lat="39.276719049448324" lon="118.42981216442301">
        <ele>-5.6</ele>
        <time>2024-03-08T00:14:12Z</time>
      </trkpt>
      <trkpt lat="39.27671154922872" lon="118.4298477148393">
        <ele>-5.6</ele>
        <time>2024-03-08T00:14:13Z</time>
      </trkpt>
      <trkpt lat="39.276702148889335" lon="118.42987962172725">
        <ele>-5.6</ele>
        <time>2024-03-08T00:14:14Z</time>
      </trkpt>
      <trkpt lat="39.27668956129841" lon="118.42990800959673">
        <ele>-5.6</ele>
        <time>2024-03-08T00:14:15Z</time>
      </trkpt>
      <trkpt lat="39.27667514644335" lon="118.42993051834996">
        <ele>-5.6</ele>
        <time>2024-03-08T00:14:16Z</time>
      </trkpt>
      <trkpt lat="39.27665680660849" lon="118.42995175398023">
        <ele>-5.6</ele>
        <time>2024-03-08T00:14:17Z</time>
      </trkpt>
      <trkpt lat="39.27663710170329" lon="118.42997139317627">
        <ele>-5.6</ele>
        <time>2024-03-08T00:14:18Z</time>
      </trkpt>
      <trkpt lat="39.27661734013806" lon="118.42999013316398">
        <ele>-5.6</ele>
        <time>2024-03-08T00:14:19Z</time>
      </trkpt>
      <trkpt lat="39.276598797343006" lon="118.43001131027637">
        <ele>-5.6</ele>
        <time>2024-03-08T00:14:20Z</time>
      </trkpt>
      <trkpt lat="39.27658412527064" lon="118.4300357471986">
        <ele>-5.6</ele>
        <time>2024-03-08T00:14:21Z</time>
      </trkpt>
      <trkpt lat="39.27657276611576" lon="118.43007184668981">
        <ele>-5.6</ele>
        <time>2024-03-08T00:14:23Z</time>
      </trkpt>
      <trkpt lat="39.27656859374486" lon="118.43010878066924">
        <ele>-5.6</ele>
        <time>2024-03-08T00:14:24Z</time>
      </trkpt>
      <trkpt lat="39.276568441113945" lon="118.43014721366299">
        <ele>-5.6</ele>
        <time>2024-03-08T00:14:25Z</time>
      </trkpt>
      <trkpt lat="39.27657237126813" lon="118.4301784537854">
        <ele>-5.6</ele>
        <time>2024-03-08T00:14:26Z</time>
      </trkpt>
      <trkpt lat="39.27657786114752" lon="118.43020959405598">
        <ele>-5.6</ele>
        <time>2024-03-08T00:14:27Z</time>
      </trkpt>
      <trkpt lat="39.27658532758292" lon="118.43024180806765">
        <ele>-5.6</ele>
        <time>2024-03-08T00:14:28Z</time>
      </trkpt>
      <trkpt lat="39.27659381375169" lon="118.43027190637747">
        <ele>-5.6</ele>
        <time>2024-03-08T00:14:29Z</time>
      </trkpt>
      <trkpt lat="39.27660370591624" lon="118.43029950008653">
        <ele>-5.6</ele>
        <time>2024-03-08T00:14:30Z</time>
      </trkpt>
      <trkpt lat="39.276613923244895" lon="118.43032513983233">
        <ele>-5.5</ele>
        <time>2024-03-08T00:14:31Z</time>
      </trkpt>
      <trkpt lat="39.27662304950081" lon="118.43034923404622">
        <ele>-5.5</ele>
        <time>2024-03-08T00:14:32Z</time>
      </trkpt>
      <trkpt lat="39.276629122959925" lon="118.43037237813272">
        <ele>-5.5</ele>
        <time>2024-03-08T00:14:33Z</time>
      </trkpt>
      <trkpt lat="39.27662944762275" lon="118.43039403461042">
        <ele>-5.5</ele>
        <time>2024-03-08T00:14:34Z</time>
      </trkpt>
      <trkpt lat="39.27662298987351" lon="118.43041462997164">
        <ele>-5.5</ele>
        <time>2024-03-08T00:14:35Z</time>
      </trkpt>
      <trkpt lat="39.27660919359399" lon="118.43043325628369">
        <ele>-5.5</ele>
        <time>2024-03-08T00:14:36Z</time>
      </trkpt>
      <trkpt lat="39.27658905505695" lon="118.4304500325486">
        <ele>-5.5</ele>
        <time>2024-03-08T00:14:37Z</time>
      </trkpt>
      <trkpt lat="39.27656470945699" lon="118.43046412329929">
        <ele>-5.5</ele>
        <time>2024-03-08T00:14:38Z</time>
      </trkpt>
      <trkpt lat="39.27653720248686" lon="118.43047569606539">
        <ele>-5.5</ele>
        <time>2024-03-08T00:14:39Z</time>
      </trkpt>
      <trkpt lat="39.27650439034879" lon="118.43048274911561">
        <ele>-5.6</ele>
        <time>2024-03-08T00:14:41Z</time>
      </trkpt>
      <trkpt lat="39.27646963923788" lon="118.43048767296146">
        <ele>-5.6</ele>
        <time>2024-03-08T00:14:42Z</time>
      </trkpt>
      <trkpt lat="39.27643301339894" lon="118.43049155948489">
        <ele>-5.6</ele>
        <time>2024-03-08T00:14:44Z</time>
      </trkpt>
      <trkpt lat="39.27640027275475" lon="118.43049521803749">
        <ele>-5.6</ele>
        <time>2024-03-08T00:14:45Z</time>
      </trkpt>
      <trkpt lat="39.276370128199574" lon="118.43049938808296">
        <ele>-5.6</ele>
        <time>2024-03-08T00:14:46Z</time>
      </trkpt>
      <trkpt lat="39.27634342516146" lon="118.4305038140264">
        <ele>-5.6</ele>
        <time>2024-03-08T00:14:47Z</time>
      </trkpt>
      <trkpt lat="39.27631620068354" lon="118.4305081776307">
        <ele>-5.6</ele>
        <time>2024-03-08T00:14:48Z</time>
      </trkpt>
      <trkpt lat="39.27628955958492" lon="118.43051294579068">
        <ele>-5.6</ele>
        <time>2024-03-08T00:14:49Z</time>
      </trkpt>
      <trkpt lat="39.276261461503225" lon="118.43051933347907">
        <ele>-5.6</ele>
        <time>2024-03-08T00:14:50Z</time>
      </trkpt>
      <trkpt lat="39.27623638874808" lon="118.43052766462095">
        <ele>-5.6</ele>
        <time>2024-03-08T00:14:51Z</time>
      </trkpt>
      <trkpt lat="39.276212213039884" lon="118.43053869523737">
        <ele>-5.6</ele>
        <time>2024-03-08T00:14:52Z</time>
      </trkpt>
      <trkpt lat="39.27619016038947" lon="118.43055357476084">
        <ele>-5.6</ele>
        <time>2024-03-08T00:14:53Z</time>
      </trkpt>
      <trkpt lat="39.2761715983095" lon="118.43057200401147">
        <ele>-5.6</ele>
        <time>2024-03-08T00:14:54Z</time>
      </trkpt>
      <trkpt lat="39.276156336822666" lon="118.43059301475436">
        <ele>-5.6</ele>
        <time>2024-03-08T00:14:55Z</time>
      </trkpt>
      <trkpt lat="39.27614675826967" lon="118.43061354515204">
        <ele>-5.6</ele>
        <time>2024-03-08T00:14:56Z</time>
      </trkpt>
      <trkpt lat="39.27614215560897" lon="118.43063560015108">
        <ele>-5.6</ele>
        <time>2024-03-08T00:14:58Z</time>
      </trkpt>
      <trkpt lat="39.27614316404366" lon="118.43066272312605">
        <ele>-5.6</ele>
        <time>2024-03-08T00:14:59Z</time>
      </trkpt>
      <trkpt lat="39.27614612117532" lon="118.43069318311467">
        <ele>-5.6</ele>
        <time>2024-03-08T00:15:00Z</time>
      </trkpt>
      <trkpt lat="39.276147856669034" lon="118.43072842699594">
        <ele>-6.1</ele>
        <time>2024-03-08T00:15:01Z</time>
      </trkpt>
      <trkpt lat="39.27614694124579" lon="118.43076308306769">
        <ele>-6.1</ele>
        <time>2024-03-08T00:15:02Z</time>
      </trkpt>
      <trkpt lat="39.2761456147767" lon="118.43080008935624">
        <ele>-6.1</ele>
        <time>2024-03-08T00:15:03Z</time>
      </trkpt>
      <trkpt lat="39.27614381998772" lon="118.4308393086709">
        <ele>-6.1</ele>
        <time>2024-03-08T00:15:04Z</time>
      </trkpt>
      <trkpt lat="39.27614175033131" lon="118.43087893244066">
        <ele>-6.1</ele>
        <time>2024-03-08T00:15:05Z</time>
      </trkpt>
      <trkpt lat="39.27613846591701" lon="118.43091774526647">
        <ele>-6.1</ele>
        <time>2024-03-08T00:15:06Z</time>
      </trkpt>
      <trkpt lat="39.27613381385828" lon="118.43095380566757">
        <ele>-6.1</ele>
        <time>2024-03-08T00:15:07Z</time>
      </trkpt>
      <trkpt lat="39.27612629963823" lon="118.43098495913627">
        <ele>-6.1</ele>
        <time>2024-03-08T00:15:08Z</time>
      </trkpt>
      <trkpt lat="39.2761138360102" lon="118.43100853266287">
        <ele>-6.1</ele>
        <time>2024-03-08T00:15:09Z</time>
      </trkpt>
      <trkpt lat="39.27609235188231" lon="118.43102206256196">
        <ele>-6.1</ele>
        <time>2024-03-08T00:15:10Z</time>
      </trkpt>
      <trkpt lat="39.276066499253545" lon="118.43103353167821">
        <ele>-6</ele>
        <time>2024-03-08T00:15:11Z</time>
      </trkpt>
      <trkpt lat="39.27603850893107" lon="118.43104992834982">
        <ele>-6</ele>
        <time>2024-03-08T00:15:12Z</time>
      </trkpt>
      <trkpt lat="39.276015214160715" lon="118.43107209846575">
        <ele>-6</ele>
        <time>2024-03-08T00:15:13Z</time>
      </trkpt>
      <trkpt lat="39.275994368133254" lon="118.43110001903507">
        <ele>-6</ele>
        <time>2024-03-08T00:15:14Z</time>
      </trkpt>
      <trkpt lat="39.2759751740962" lon="118.43113052693192">
        <ele>-6</ele>
        <time>2024-03-08T00:15:15Z</time>
      </trkpt>
      <trkpt lat="39.275960320043815" lon="118.43116671707705">
        <ele>-6</ele>
        <time>2024-03-08T00:15:17Z</time>
      </trkpt>
      <trkpt lat="39.27595023259504" lon="118.43120778165395">
        <ele>-6</ele>
        <time>2024-03-08T00:15:18Z</time>
      </trkpt>
      <trkpt lat="39.275944820983014" lon="118.4312486104391">
        <ele>-6</ele>
        <time>2024-03-08T00:15:19Z</time>
      </trkpt>
      <trkpt lat="39.27593959283029" lon="118.43128807327152">
        <ele>-6</ele>
        <time>2024-03-08T00:15:20Z</time>
      </trkpt>
      <trkpt lat="39.275934196574134" lon="118.43132132677567">
        <ele>-6.1</ele>
        <time>2024-03-08T00:15:21Z</time>
      </trkpt>
      <trkpt lat="39.27593121378695" lon="118.43135242904307">
        <ele>-6.1</ele>
        <time>2024-03-08T00:15:22Z</time>
      </trkpt>
      <trkpt lat="39.275931604797464" lon="118.431381688448">
        <ele>-6.1</ele>
        <time>2024-03-08T00:15:23Z</time>
      </trkpt>
      <trkpt lat="39.275936774919494" lon="118.43140873463426">
        <ele>-6.1</ele>
        <time>2024-03-08T00:15:24Z</time>
      </trkpt>
      <trkpt lat="39.27594761273175" lon="118.43143308168072">
        <ele>-6.1</ele>
        <time>2024-03-08T00:15:25Z</time>
      </trkpt>
      <trkpt lat="39.275965569054556" lon="118.4314520702959">
        <ele>-6.1</ele>
        <time>2024-03-08T00:15:26Z</time>
      </trkpt>
      <trkpt lat="39.27598949015299" lon="118.43146670696068">
        <ele>-6.1</ele>
        <time>2024-03-08T00:15:27Z</time>
      </trkpt>
      <trkpt lat="39.27601608402" lon="118.43147599528969">
        <ele>-6.1</ele>
        <time>2024-03-08T00:15:28Z</time>
      </trkpt>
      <trkpt lat="39.27604249491537" lon="118.43148010883574">
        <ele>-6.1</ele>
        <time>2024-03-08T00:15:29Z</time>
      </trkpt>
      <trkpt lat="39.276069365956" lon="118.43148119065614">
        <ele>-6.1</ele>
        <time>2024-03-08T00:15:30Z</time>
      </trkpt>
      <trkpt lat="39.276095682624664" lon="118.43148085918345">
        <ele>-5.7</ele>
        <time>2024-03-08T00:15:31Z</time>
      </trkpt>
      <trkpt lat="39.276120835559475" lon="118.43147947831835">
        <ele>-5.7</ele>
        <time>2024-03-08T00:15:32Z</time>
      </trkpt>
      <trkpt lat="39.27614613071381" lon="118.4314779073196">
        <ele>-5.7</ele>
        <time>2024-03-08T00:15:34Z</time>
      </trkpt>
      <trkpt lat="39.27617191334695" lon="118.43147900077778">
        <ele>-5.7</ele>
        <time>2024-03-08T00:15:35Z</time>
      </trkpt>
      <trkpt lat="39.27619986131075" lon="118.43148398502197">
        <ele>-5.7</ele>
        <time>2024-03-08T00:15:36Z</time>
      </trkpt>
      <trkpt lat="39.27622315089609" lon="118.4314990354226">
        <ele>-5.7</ele>
        <time>2024-03-08T00:15:38Z</time>
      </trkpt>
      <trkpt lat="39.27624623384306" lon="118.43151961295148">
        <ele>-5.7</ele>
        <time>2024-03-08T00:15:39Z</time>
      </trkpt>
      <trkpt lat="39.27625916266235" lon="118.431550349819">
        <ele>-5.7</ele>
        <time>2024-03-08T00:15:40Z</time>
      </trkpt>
      <trkpt lat="39.27627116567006" lon="118.4315819512179">
        <ele>-5.6</ele>
        <time>2024-03-08T00:15:41Z</time>
      </trkpt>
      <trkpt lat="39.276281056956286" lon="118.43161424989476">
        <ele>-5.6</ele>
        <time>2024-03-08T00:15:42Z</time>
      </trkpt>
      <trkpt lat="39.276288182968806" lon="118.43164687299013">
        <ele>-5.6</ele>
        <time>2024-03-08T00:15:43Z</time>
      </trkpt>
      <trkpt lat="39.27629106852372" lon="118.43167857384572">
        <ele>-5.6</ele>
        <time>2024-03-08T00:15:44Z</time>
      </trkpt>
      <trkpt lat="39.27628760295205" lon="118.43170770451769">
        <ele>-5.6</ele>
        <time>2024-03-08T00:15:45Z</time>
      </trkpt>
      <trkpt lat="39.27627955004958" lon="118.4317325766033">
        <ele>-5.6</ele>
        <time>2024-03-08T00:15:46Z</time>
      </trkpt>
      <trkpt lat="39.27626795186803" lon="118.4317515519398">
        <ele>-5.6</ele>
        <time>2024-03-08T00:15:47Z</time>
      </trkpt>
      <trkpt lat="39.27625342100698" lon="118.43176216638372">
        <ele>-5.6</ele>
        <time>2024-03-08T00:15:48Z</time>
      </trkpt>
      <trkpt lat="39.276236072106244" lon="118.43177120520697">
        <ele>-5.6</ele>
        <time>2024-03-08T00:15:49Z</time>
      </trkpt>
      <trkpt lat="39.276215597355865" lon="118.43177924093288">
        <ele>-5.6</ele>
        <time>2024-03-08T00:15:50Z</time>
      </trkpt>
      <trkpt lat="39.276195364803534" lon="118.43178788027518">
        <ele>-5.7</ele>
        <time>2024-03-08T00:15:52Z</time>
      </trkpt>
      <trkpt lat="39.276173118531545" lon="118.43179480031947">
        <ele>-5.7</ele>
        <time>2024-03-08T00:15:53Z</time>
      </trkpt>
      <trkpt lat="39.27615277854885" lon="118.43180291387915">
        <ele>-5.7</ele>
        <time>2024-03-08T00:15:54Z</time>
      </trkpt>
      <trkpt lat="39.27613246530905" lon="118.43181532767467">
        <ele>-5.7</ele>
        <time>2024-03-08T00:15:55Z</time>
      </trkpt>
      <trkpt lat="39.27611688664118" lon="118.43183161068286">
        <ele>-5.7</ele>
        <time>2024-03-08T00:15:56Z</time>
      </trkpt>
      <trkpt lat="39.27610351531227" lon="118.43185184575026">
        <ele>-5.7</ele>
        <time>2024-03-08T00:15:57Z</time>
      </trkpt>
      <trkpt lat="39.27609278419988" lon="118.4318754786124">
        <ele>-5.7</ele>
        <time>2024-03-08T00:15:58Z</time>
      </trkpt>
      <trkpt lat="39.27608204546718" lon="118.43190035787575">
        <ele>-5.7</ele>
        <time>2024-03-08T00:15:59Z</time>
      </trkpt>
      <trkpt lat="39.27606917110753" lon="118.43192843717613">
        <ele>-5.7</ele>
        <time>2024-03-08T00:16:00Z</time>
      </trkpt>
      <trkpt lat="39.27605623793735" lon="118.43195410848182">
        <ele>-5.6</ele>
        <time>2024-03-08T00:16:01Z</time>
      </trkpt>
      <trkpt lat="39.2760449330804" lon="118.43197973203371">
        <ele>-5.6</ele>
        <time>2024-03-08T00:16:02Z</time>
      </trkpt>
      <trkpt lat="39.276037642168355" lon="118.43200510222657">
        <ele>-5.6</ele>
        <time>2024-03-08T00:16:03Z</time>
      </trkpt>
      <trkpt lat="39.27603449574736" lon="118.43203018174161">
        <ele>-5.6</ele>
        <time>2024-03-08T00:16:04Z</time>
      </trkpt>
      <trkpt lat="39.27603452080475" lon="118.43205452015977">
        <ele>-5.6</ele>
        <time>2024-03-08T00:16:05Z</time>
      </trkpt>
      <trkpt lat="39.27603806821547" lon="118.43207780256999">
        <ele>-5.6</ele>
        <time>2024-03-08T00:16:06Z</time>
      </trkpt>
      <trkpt lat="39.27604234032957" lon="118.43210062468462">
        <ele>-5.6</ele>
        <time>2024-03-08T00:16:07Z</time>
      </trkpt>
      <trkpt lat="39.27604379462104" lon="118.43213036273389">
        <ele>-5.6</ele>
        <time>2024-03-08T00:16:08Z</time>
      </trkpt>
      <trkpt lat="39.276042098061566" lon="118.43215829411616">
        <ele>-5.6</ele>
        <time>2024-03-08T00:16:09Z</time>
      </trkpt>
      <trkpt lat="39.27604075157761" lon="118.43218919380674">
        <ele>-5.8</ele>
        <time>2024-03-08T00:16:11Z</time>
      </trkpt>
      <trkpt lat="39.27604403743868" lon="118.43221094152284">
        <ele>-5.8</ele>
        <time>2024-03-08T00:16:12Z</time>
      </trkpt>
      <trkpt lat="39.27605261177371" lon="118.43222789919572">
        <ele>-5.8</ele>
        <time>2024-03-08T00:16:13Z</time>
      </trkpt>
      <trkpt lat="39.276066951348675" lon="118.43223490193522">
        <ele>-5.8</ele>
        <time>2024-03-08T00:16:14Z</time>
      </trkpt>
      <trkpt lat="39.27608397947595" lon="118.43223716713554">
        <ele>-5.8</ele>
        <time>2024-03-08T00:16:15Z</time>
      </trkpt>
      <trkpt lat="39.276102366917605" lon="118.43223738876284">
        <ele>-5.8</ele>
        <time>2024-03-08T00:16:16Z</time>
      </trkpt>
      <trkpt lat="39.27611863849432" lon="118.43224009572103">
        <ele>-5.8</ele>
        <time>2024-03-08T00:16:17Z</time>
      </trkpt>
      <trkpt lat="39.276134871473545" lon="118.43224963828155">
        <ele>-5.8</ele>
        <time>2024-03-08T00:16:18Z</time>
      </trkpt>
      <trkpt lat="39.27614849108521" lon="118.4322659160494">
        <ele>-5.8</ele>
        <time>2024-03-08T00:16:19Z</time>
      </trkpt>
      <trkpt lat="39.2761588121795" lon="118.43228807271615">
        <ele>-5.8</ele>
        <time>2024-03-08T00:16:20Z</time>
      </trkpt>
      <trkpt lat="39.27616357862622" lon="118.43231488555281">
        <ele>-5.8</ele>
        <time>2024-03-08T00:16:21Z</time>
      </trkpt>
      <trkpt lat="39.276164396022025" lon="118.43234330611804">
        <ele>-5.8</ele>
        <time>2024-03-08T00:16:22Z</time>
      </trkpt>
      <trkpt lat="39.27616172175879" lon="118.43237160863883">
        <ele>-5.8</ele>
        <time>2024-03-08T00:16:23Z</time>
      </trkpt>
      <trkpt lat="39.276155969380774" lon="118.43239763179024">
        <ele>-5.8</ele>
        <time>2024-03-08T00:16:24Z</time>
      </trkpt>
      <trkpt lat="39.27615121257187" lon="118.43242611515444">
        <ele>-5.8</ele>
        <time>2024-03-08T00:16:25Z</time>
      </trkpt>
      <trkpt lat="39.276147972561006" lon="118.432455674871">
        <ele>-5.8</ele>
        <time>2024-03-08T00:16:26Z</time>
      </trkpt>
      <trkpt lat="39.27614796079284" lon="118.43248476142624">
        <ele>-5.8</ele>
        <time>2024-03-08T00:16:28Z</time>
      </trkpt>
      <trkpt lat="39.276147317394056" lon="118.43250985779018">
        <ele>-5.8</ele>
        <time>2024-03-08T00:16:29Z</time>
      </trkpt>
      <trkpt lat="39.27614439978129" lon="118.43253472514816">
        <ele>-5.8</ele>
        <time>2024-03-08T00:16:30Z</time>
      </trkpt>
      <trkpt lat="39.27613819082754" lon="118.43255734159308">
        <ele>-6</ele>
        <time>2024-03-08T00:16:31Z</time>
      </trkpt>
      <trkpt lat="39.27612814108224" lon="118.43257952159527">
        <ele>-6</ele>
        <time>2024-03-08T00:16:32Z</time>
      </trkpt>
      <trkpt lat="39.276114027974856" lon="118.43260187540454">
        <ele>-6</ele>
        <time>2024-03-08T00:16:33Z</time>
      </trkpt>
      <trkpt lat="39.27609819731892" lon="118.43262514266074">
        <ele>-6</ele>
        <time>2024-03-08T00:16:34Z</time>
      </trkpt>
      <trkpt lat="39.276081843877634" lon="118.43264946226775">
        <ele>-6</ele>
        <time>2024-03-08T00:16:35Z</time>
      </trkpt>
      <trkpt lat="39.27606785244731" lon="118.43267248427426">
        <ele>-6</ele>
        <time>2024-03-08T00:16:36Z</time>
      </trkpt>
      <trkpt lat="39.276055298129215" lon="118.43269920476043">
        <ele>-6</ele>
        <time>2024-03-08T00:16:37Z</time>
      </trkpt>
      <trkpt lat="39.27604814313741" lon="118.43272673853113">
        <ele>-6</ele>
        <time>2024-03-08T00:16:38Z</time>
      </trkpt>
      <trkpt lat="39.276045647611625" lon="118.43275467650872">
        <ele>-6</ele>
        <time>2024-03-08T00:16:39Z</time>
      </trkpt>
      <trkpt lat="39.27604703599467" lon="118.4327788830667">
        <ele>-6</ele>
        <time>2024-03-08T00:16:40Z</time>
      </trkpt>
      <trkpt lat="39.27604808179163" lon="118.43280127207954">
        <ele>-5.8</ele>
        <time>2024-03-08T00:16:41Z</time>
      </trkpt>
      <trkpt lat="39.276048398195705" lon="118.4328249054798">
        <ele>-5.8</ele>
        <time>2024-03-08T00:16:42Z</time>
      </trkpt>
      <trkpt lat="39.27604613045646" lon="118.43284938917486">
        <ele>-5.8</ele>
        <time>2024-03-08T00:16:43Z</time>
      </trkpt>
      <trkpt lat="39.27604164265445" lon="118.43287911473573">
        <ele>-5.8</ele>
        <time>2024-03-08T00:16:44Z</time>
      </trkpt>
      <trkpt lat="39.27603606412333" lon="118.43290770359641">
        <ele>-5.8</ele>
        <time>2024-03-08T00:16:46Z</time>
      </trkpt>
      <trkpt lat="39.27603191237895" lon="118.43293592831817">
        <ele>-5.8</ele>
        <time>2024-03-08T00:16:47Z</time>
      </trkpt>
      <trkpt lat="39.276029511007025" lon="118.43296272197387">
        <ele>-5.8</ele>
        <time>2024-03-08T00:16:48Z</time>
      </trkpt>
      <trkpt lat="39.276028508025284" lon="118.43299006267867">
        <ele>-5.8</ele>
        <time>2024-03-08T00:16:49Z</time>
      </trkpt>
      <trkpt lat="39.27602801526121" lon="118.4330197207421">
        <ele>-5.8</ele>
        <time>2024-03-08T00:16:50Z</time>
      </trkpt>
      <trkpt lat="39.27602742479067" lon="118.43305203243658">
        <ele>-6</ele>
        <time>2024-03-08T00:16:51Z</time>
      </trkpt>
      <trkpt lat="39.276026338461435" lon="118.43308679003259">
        <ele>-6</ele>
        <time>2024-03-08T00:16:52Z</time>
      </trkpt>
      <trkpt lat="39.276024524433154" lon="118.43312263432205">
        <ele>-6</ele>
        <time>2024-03-08T00:16:53Z</time>
      </trkpt>
      <trkpt lat="39.27602211043296" lon="118.43315786293023">
        <ele>-6</ele>
        <time>2024-03-08T00:16:54Z</time>
      </trkpt>
      <trkpt lat="39.276019462441354" lon="118.43319258331762">
        <ele>-6</ele>
        <time>2024-03-08T00:16:55Z</time>
      </trkpt>
      <trkpt lat="39.27601698180916" lon="118.43322443341712">
        <ele>-6</ele>
        <time>2024-03-08T00:16:56Z</time>
      </trkpt>
      <trkpt lat="39.27601498142323" lon="118.43325111980384">
        <ele>-6</ele>
        <time>2024-03-08T00:16:57Z</time>
      </trkpt>
      <trkpt lat="39.27601437552971" lon="118.4332771829142">
        <ele>-6</ele>
        <time>2024-03-08T00:16:58Z</time>
      </trkpt>
      <trkpt lat="39.27601500986425" lon="118.43330264393848">
        <ele>-6</ele>
        <time>2024-03-08T00:16:59Z</time>
      </trkpt>
      <trkpt lat="39.276018000820905" lon="118.43332758504312">
        <ele>-6</ele>
        <time>2024-03-08T00:17:00Z</time>
      </trkpt>
      <trkpt lat="39.27602128186647" lon="118.43334599278067">
        <ele>-6.1</ele>
        <time>2024-03-08T00:17:01Z</time>
      </trkpt>
      <trkpt lat="39.27602300680412" lon="118.43336403486336">
        <ele>-6.1</ele>
        <time>2024-03-08T00:17:02Z</time>
      </trkpt>
      <trkpt lat="39.27602240373647" lon="118.43338524974641">
        <ele>-6.1</ele>
        <time>2024-03-08T00:17:04Z</time>
      </trkpt>
      <trkpt lat="39.27602170920922" lon="118.43341112174724">
        <ele>-6.1</ele>
        <time>2024-03-08T00:17:05Z</time>
      </trkpt>
      <trkpt lat="39.27602309511798" lon="118.43343746640335">
        <ele>-6.1</ele>
        <time>2024-03-08T00:17:06Z</time>
      </trkpt>
      <trkpt lat="39.27602620282341" lon="118.43346349187662">
        <ele>-6.1</ele>
        <time>2024-03-08T00:17:07Z</time>
      </trkpt>
      <trkpt lat="39.27602938214512" lon="118.43348824944788">
        <ele>-6.1</ele>
        <time>2024-03-08T00:17:08Z</time>
      </trkpt>
      <trkpt lat="39.27603232008154" lon="118.43351235929329">
        <ele>-6.1</ele>
        <time>2024-03-08T00:17:09Z</time>
      </trkpt>
      <trkpt lat="39.27603448983918" lon="118.43353355812891">
        <ele>-6.1</ele>
        <time>2024-03-08T00:17:10Z</time>
      </trkpt>
      <trkpt lat="39.276036079489614" lon="118.43355476237116">
        <ele>-6</ele>
        <time>2024-03-08T00:17:11Z</time>
      </trkpt>
      <trkpt lat="39.27603727802862" lon="118.43357912977385">
        <ele>-6</ele>
        <time>2024-03-08T00:17:12Z</time>
      </trkpt>
      <trkpt lat="39.276038261693536" lon="118.43360409123623">
        <ele>-6</ele>
        <time>2024-03-08T00:17:13Z</time>
      </trkpt>
      <trkpt lat="39.27603914728194" lon="118.4336293816951">
        <ele>-6</ele>
        <time>2024-03-08T00:17:14Z</time>
      </trkpt>
      <trkpt lat="39.276040286214865" lon="118.43365461809084">
        <ele>-6</ele>
        <time>2024-03-08T00:17:15Z</time>
      </trkpt>
      <trkpt lat="39.27604307938474" lon="118.43368073142976">
        <ele>-6</ele>
        <time>2024-03-08T00:17:16Z</time>
      </trkpt>
      <trkpt lat="39.27604664786882" lon="118.43371135867284">
        <ele>-6</ele>
        <time>2024-03-08T00:17:17Z</time>
      </trkpt>
      <trkpt lat="39.27605075836299" lon="118.43373963673055">
        <ele>-6</ele>
        <time>2024-03-08T00:17:18Z</time>
      </trkpt>
      <trkpt lat="39.27605465573984" lon="118.43376479999854">
        <ele>-6</ele>
        <time>2024-03-08T00:17:19Z</time>
      </trkpt>
      <trkpt lat="39.276068862594975" lon="118.43378303892656">
        <ele>-6</ele>
        <time>2024-03-08T00:17:20Z</time>
      </trkpt>
      <trkpt lat="39.276088344999074" lon="118.43379676762109">
        <ele>-5.9</ele>
        <time>2024-03-08T00:17:21Z</time>
      </trkpt>
      <trkpt lat="39.27611302001698" lon="118.4338072997708">
        <ele>-5.9</ele>
        <time>2024-03-08T00:17:23Z</time>
      </trkpt>
      <trkpt lat="39.27613450920906" lon="118.4338141176874">
        <ele>-5.9</ele>
        <time>2024-03-08T00:17:24Z</time>
      </trkpt>
      <trkpt lat="39.27615519256795" lon="118.43381801825454">
        <ele>-5.9</ele>
        <time>2024-03-08T00:17:25Z</time>
      </trkpt>
      <trkpt lat="39.27617724580075" lon="118.43381953823409">
        <ele>-5.9</ele>
        <time>2024-03-08T00:17:26Z</time>
      </trkpt>
      <trkpt lat="39.27619660868164" lon="118.43381990637121">
        <ele>-5.9</ele>
        <time>2024-03-08T00:17:27Z</time>
      </trkpt>
      <trkpt lat="39.27621541854031" lon="118.43382021268415">
        <ele>-5.9</ele>
        <time>2024-03-08T00:17:28Z</time>
      </trkpt>
      <trkpt lat="39.27623290098925" lon="118.43382070802375">
        <ele>-5.9</ele>
        <time>2024-03-08T00:17:29Z</time>
      </trkpt>
      <trkpt lat="39.276250194158386" lon="118.43382069894106">
        <ele>-5.9</ele>
        <time>2024-03-08T00:17:30Z</time>
      </trkpt>
      <trkpt lat="39.27626735474531" lon="118.43381963022374">
        <ele>-6</ele>
        <time>2024-03-08T00:17:31Z</time>
      </trkpt>
      <trkpt lat="39.27628432834173" lon="118.43381899729333">
        <ele>-6</ele>
        <time>2024-03-08T00:17:32Z</time>
      </trkpt>
      <trkpt lat="39.27630007310688" lon="118.43381966373533">
        <ele>-6</ele>
        <time>2024-03-08T00:17:33Z</time>
      </trkpt>
      <trkpt lat="39.276315130268564" lon="118.4338207865869">
        <ele>-6</ele>
        <time>2024-03-08T00:17:34Z</time>
      </trkpt>
      <trkpt lat="39.276330666534086" lon="118.43382002696106">
        <ele>-6</ele>
        <time>2024-03-08T00:17:35Z</time>
      </trkpt>
      <trkpt lat="39.27634801102472" lon="118.43381712480954">
        <ele>-6</ele>
        <time>2024-03-08T00:17:36Z</time>
      </trkpt>
      <trkpt lat="39.276367730873346" lon="118.43381349048407">
        <ele>-6</ele>
        <time>2024-03-08T00:17:37Z</time>
      </trkpt>
      <trkpt lat="39.276393844068" lon="118.43380952086324">
        <ele>-6</ele>
        <time>2024-03-08T00:17:38Z</time>
      </trkpt>
      <trkpt lat="39.27642264621632" lon="118.433801570836">
        <ele>-6</ele>
        <time>2024-03-08T00:17:39Z</time>
      </trkpt>
      <trkpt lat="39.27645138010022" lon="118.43379240784886">
        <ele>-6.1</ele>
        <time>2024-03-08T00:17:41Z</time>
      </trkpt>
      <trkpt lat="39.27647227255076" lon="118.4337854371025">
        <ele>-6.1</ele>
        <time>2024-03-08T00:17:42Z</time>
      </trkpt>
      <trkpt lat="39.2764934197435" lon="118.43378622242429">
        <ele>-6.1</ele>
        <time>2024-03-08T00:17:43Z</time>
      </trkpt>
      <trkpt lat="39.27651536885284" lon="118.4337886678113">
        <ele>-6.1</ele>
        <time>2024-03-08T00:17:44Z</time>
      </trkpt>
      <trkpt lat="39.276538839231215" lon="118.43378995734209">
        <ele>-6.1</ele>
        <time>2024-03-08T00:17:45Z</time>
      </trkpt>
      <trkpt lat="39.27656287976121" lon="118.43378661845567">
        <ele>-6.1</ele>
        <time>2024-03-08T00:17:46Z</time>
      </trkpt>
      <trkpt lat="39.27658674356812" lon="118.43378208069473">
        <ele>-6.1</ele>
        <time>2024-03-08T00:17:47Z</time>
      </trkpt>
      <trkpt lat="39.276610902244784" lon="118.43377766143298">
        <ele>-6.1</ele>
        <time>2024-03-08T00:17:48Z</time>
      </trkpt>
      <trkpt lat="39.27663283599558" lon="118.43377476672711">
        <ele>-6.1</ele>
        <time>2024-03-08T00:17:49Z</time>
      </trkpt>
      <trkpt lat="39.276656819645495" lon="118.43377271817826">
        <ele>-6.1</ele>
        <time>2024-03-08T00:17:50Z</time>
      </trkpt>
      <trkpt lat="39.27668017093129" lon="118.43377059309576">
        <ele>-6.1</ele>
        <time>2024-03-08T00:17:51Z</time>
      </trkpt>
      <trkpt lat="39.27670326660492" lon="118.4337680527016">
        <ele>-6.1</ele>
        <time>2024-03-08T00:17:52Z</time>
      </trkpt>
      <trkpt lat="39.27672568420555" lon="118.43376423813955">
        <ele>-6.1</ele>
        <time>2024-03-08T00:17:53Z</time>
      </trkpt>
      <trkpt lat="39.276747382579465" lon="118.43375830978911">
        <ele>-6.1</ele>
        <time>2024-03-08T00:17:54Z</time>
      </trkpt>
      <trkpt lat="39.27677115953492" lon="118.43375018358724">
        <ele>-6.1</ele>
        <time>2024-03-08T00:17:55Z</time>
      </trkpt>
      <trkpt lat="39.27679102157198" lon="118.43373904207056">
        <ele>-6.1</ele>
        <time>2024-03-08T00:17:56Z</time>
      </trkpt>
      <trkpt lat="39.27680690124704" lon="118.43372469734003">
        <ele>-6.1</ele>
        <time>2024-03-08T00:17:57Z</time>
      </trkpt>
      <trkpt lat="39.27681489707802" lon="118.43370297769482">
        <ele>-6.1</ele>
        <time>2024-03-08T00:17:59Z</time>
      </trkpt>
      <trkpt lat="39.2768191364436" lon="118.43367829852733">
        <ele>-6.1</ele>
        <time>2024-03-08T00:18:00Z</time>
      </trkpt>
      <trkpt lat="39.2768219036347" lon="118.4336514804208">
        <ele>-6.2</ele>
        <time>2024-03-08T00:18:01Z</time>
      </trkpt>
      <trkpt lat="39.276824149920465" lon="118.43362475759984">
        <ele>-6.2</ele>
        <time>2024-03-08T00:18:02Z</time>
      </trkpt>
      <trkpt lat="39.276825803212674" lon="118.43359838501152">
        <ele>-6.2</ele>
        <time>2024-03-08T00:18:03Z</time>
      </trkpt>
      <trkpt lat="39.276826803051456" lon="118.43357238294534">
        <ele>-6.2</ele>
        <time>2024-03-08T00:18:04Z</time>
      </trkpt>
      <trkpt lat="39.27682749036201" lon="118.4335461231981">
        <ele>-6.2</ele>
        <time>2024-03-08T00:18:05Z</time>
      </trkpt>
      <trkpt lat="39.27682803333738" lon="118.43351923589672">
        <ele>-6.2</ele>
        <time>2024-03-08T00:18:06Z</time>
      </trkpt>
      <trkpt lat="39.27682873178126" lon="118.43349195080437">
        <ele>-6.2</ele>
        <time>2024-03-08T00:18:07Z</time>
      </trkpt>
      <trkpt lat="39.276829739051266" lon="118.43346443949676">
        <ele>-6.2</ele>
        <time>2024-03-08T00:18:08Z</time>
      </trkpt>
      <trkpt lat="39.27683080588185" lon="118.4334375195283">
        <ele>-6.2</ele>
        <time>2024-03-08T00:18:09Z</time>
      </trkpt>
      <trkpt lat="39.276832319290605" lon="118.43340761984439">
        <ele>-6.2</ele>
        <time>2024-03-08T00:18:10Z</time>
      </trkpt>
      <trkpt lat="39.27683412283489" lon="118.43338034349293">
        <ele>-6.6</ele>
        <time>2024-03-08T00:18:11Z</time>
      </trkpt>
      <trkpt lat="39.276836592459084" lon="118.43335239564117">
        <ele>-6.6</ele>
        <time>2024-03-08T00:18:12Z</time>
      </trkpt>
      <trkpt lat="39.2768395119532" lon="118.43332494462348">
        <ele>-6.6</ele>
        <time>2024-03-08T00:18:13Z</time>
      </trkpt>
      <trkpt lat="39.27684287707351" lon="118.43329296424128">
        <ele>-6.6</ele>
        <time>2024-03-08T00:18:14Z</time>
      </trkpt>
      <trkpt lat="39.27684693087768" lon="118.43325704896426">
        <ele>-6.6</ele>
        <time>2024-03-08T00:18:15Z</time>
      </trkpt>
      <trkpt lat="39.276850814217894" lon="118.43322223883675">
        <ele>-6.6</ele>
        <time>2024-03-08T00:18:17Z</time>
      </trkpt>
      <trkpt lat="39.27685429267769" lon="118.43319140057694">
        <ele>-6.6</ele>
        <time>2024-03-08T00:18:18Z</time>
      </trkpt>
      <trkpt lat="39.27685731226495" lon="118.43316166280074">
        <ele>-6.6</ele>
        <time>2024-03-08T00:18:19Z</time>
      </trkpt>
      <trkpt lat="39.276860043829394" lon="118.43313320642419">
        <ele>-6.6</ele>
        <time>2024-03-08T00:18:20Z</time>
      </trkpt>
      <trkpt lat="39.27686228858487" lon="118.43310557769121">
        <ele>-6.6</ele>
        <time>2024-03-08T00:18:21Z</time>
      </trkpt>
      <trkpt lat="39.2768636079868" lon="118.43307865521484">
        <ele>-6.6</ele>
        <time>2024-03-08T00:18:22Z</time>
      </trkpt>
      <trkpt lat="39.27686453568551" lon="118.43305238297745">
        <ele>-6.6</ele>
        <time>2024-03-08T00:18:23Z</time>
      </trkpt>
      <trkpt lat="39.27686529174361" lon="118.43302654721987">
        <ele>-6.6</ele>
        <time>2024-03-08T00:18:24Z</time>
      </trkpt>
      <trkpt lat="39.27686559848804" lon="118.43300098832769">
        <ele>-6.6</ele>
        <time>2024-03-08T00:18:25Z</time>
      </trkpt>
      <trkpt lat="39.27686516114967" lon="118.43297510685935">
        <ele>-6.6</ele>
        <time>2024-03-08T00:18:26Z</time>
      </trkpt>
      <trkpt lat="39.27686396011985" lon="118.43294854228122">
        <ele>-6.6</ele>
        <time>2024-03-08T00:18:27Z</time>
      </trkpt>
      <trkpt lat="39.276862417400075" lon="118.43292431559415">
        <ele>-6.6</ele>
        <time>2024-03-08T00:18:28Z</time>
      </trkpt>
      <trkpt lat="39.27686113714346" lon="118.43290081295257">
        <ele>-6.6</ele>
        <time>2024-03-08T00:18:29Z</time>
      </trkpt>
      <trkpt lat="39.2768607329439" lon="118.43287914421136">
        <ele>-6.6</ele>
        <time>2024-03-08T00:18:30Z</time>
      </trkpt>
      <trkpt lat="39.27686111006381" lon="118.43286182384082">
        <ele>-6.5</ele>
        <time>2024-03-08T00:18:31Z</time>
      </trkpt>
      <trkpt lat="39.27686204162584" lon="118.43284348828642">
        <ele>-6.5</ele>
        <time>2024-03-08T00:18:32Z</time>
      </trkpt>
      <trkpt lat="39.27686265127308" lon="118.43282839232496">
        <ele>-6.5</ele>
        <time>2024-03-08T00:18:33Z</time>
      </trkpt>
      <trkpt lat="39.27686294107576" lon="118.43281189401124">
        <ele>-6.5</ele>
        <time>2024-03-08T00:18:35Z</time>
      </trkpt>
      <trkpt lat="39.276862879820854" lon="118.43280618267924">
        <ele>0</ele>
        <time>2024-03-08T00:18:36Z</time>
      </trkpt>
    </trkseg>
  </trk>
</gpx>