<?xml version="1.0" encoding="UTF-8"?>
<gpx xmlns="http://www.topografix.com/GPX/1/1" xmlns:gpxtpx="http://www.garmin.com/xmlschemas/TrackPointExtension/v1" xmlns:xsi="http://www.w3.org/2001/XMLSchema-instance" xsi:schemaLocation="http://www.topografix.com/GPX/1/1 http://www.topografix.com/GPX/1/1/gpx.xsd" version="1.1" creator="gpx.py -- https://github.com/tkrajina/gpxpy">
  <trk>
    <name>gpx from codoon</name>
    <type>Run</type>
    <trkseg>
      <trkpt lat="39.26633102567067" lon="118.43193804348729">
        <ele>-8.5</ele>
        <time>2024-03-29T23:06:39Z</time>
      </trkpt>
      <trkpt lat="39.26632216654258" lon="118.43197183200908">
        <ele>-8.5</ele>
        <time>2024-03-29T23:06:40Z</time>
      </trkpt>
      <trkpt lat="39.266319645575074" lon="118.43198502691044">
        <ele>-8.5</ele>
        <time>2024-03-29T23:06:41Z</time>
      </trkpt>
      <trkpt lat="39.266315653727695" lon="118.43200624982677">
        <ele>-8.5</ele>
        <time>2024-03-29T23:06:42Z</time>
      </trkpt>
      <trkpt lat="39.26631278045274" lon="118.4320301690146">
        <ele>-8.5</ele>
        <time>2024-03-29T23:06:43Z</time>
      </trkpt>
      <trkpt lat="39.26631173314707" lon="118.43205246495914">
        <ele>-8.5</ele>
        <time>2024-03-29T23:06:44Z</time>
      </trkpt>
      <trkpt lat="39.26631123873327" lon="118.43207903723024">
        <ele>-8.5</ele>
        <time>2024-03-29T23:06:45Z</time>
      </trkpt>
      <trkpt lat="39.2663115936427" lon="118.43210543012388">
        <ele>-8.5</ele>
        <time>2024-03-29T23:06:46Z</time>
      </trkpt>
      <trkpt lat="39.26631117420714" lon="118.43213300524542">
        <ele>-8.5</ele>
        <time>2024-03-29T23:06:47Z</time>
      </trkpt>
      <trkpt lat="39.26631027565725" lon="118.43216268062767">
        <ele>-8.5</ele>
        <time>2024-03-29T23:06:48Z</time>
      </trkpt>
      <trkpt lat="39.26630931384822" lon="118.43219248783524">
        <ele>-8.5</ele>
        <time>2024-03-29T23:06:49Z</time>
      </trkpt>
      <trkpt lat="39.26630876780639" lon="118.43222645980957">
        <ele>-8.5</ele>
        <time>2024-03-29T23:06:50Z</time>
      </trkpt>
      <trkpt lat="39.26630816243822" lon="118.43226703810893">
        <ele>-8.5</ele>
        <time>2024-03-29T23:06:52Z</time>
      </trkpt>
      <trkpt lat="39.26630794019407" lon="118.43230724872573">
        <ele>-8.5</ele>
        <time>2024-03-29T23:06:53Z</time>
      </trkpt>
      <trkpt lat="39.26630765560827" lon="118.43234605589224">
        <ele>-8.5</ele>
        <time>2024-03-29T23:06:54Z</time>
      </trkpt>
      <trkpt lat="39.26630723532319" lon="118.43237625180116">
        <ele>-8.5</ele>
        <time>2024-03-29T23:06:55Z</time>
      </trkpt>
      <trkpt lat="39.266305606850025" lon="118.43240661390755">
        <ele>-8.5</ele>
        <time>2024-03-29T23:06:56Z</time>
      </trkpt>
      <trkpt lat="39.2663032292776" lon="118.43243491748579">
        <ele>-8.5</ele>
        <time>2024-03-29T23:06:57Z</time>
      </trkpt>
      <trkpt lat="39.266300481474005" lon="118.43246492351864">
        <ele>-8.5</ele>
        <time>2024-03-29T23:06:58Z</time>
      </trkpt>
      <trkpt lat="39.26629816776629" lon="118.4324945931681">
        <ele>-8.5</ele>
        <time>2024-03-29T23:06:59Z</time>
      </trkpt>
      <trkpt lat="39.2662954384412" lon="118.43252685571369">
        <ele>-8.5</ele>
        <time>2024-03-29T23:07:00Z</time>
      </trkpt>
      <trkpt lat="39.26629215076873" lon="118.43255838928386">
        <ele>-8.5</ele>
        <time>2024-03-29T23:07:01Z</time>
      </trkpt>
      <trkpt lat="39.2662879322316" lon="118.43259119564907">
        <ele>-8.5</ele>
        <time>2024-03-29T23:07:02Z</time>
      </trkpt>
      <trkpt lat="39.26628316521061" lon="118.43262420511697">
        <ele>-8.3</ele>
        <time>2024-03-29T23:07:03Z</time>
      </trkpt>
      <trkpt lat="39.26627872351868" lon="118.43265604385991">
        <ele>-8.3</ele>
        <time>2024-03-29T23:07:04Z</time>
      </trkpt>
      <trkpt lat="39.26627451050849" lon="118.43269001670228">
        <ele>-8.3</ele>
        <time>2024-03-29T23:07:05Z</time>
      </trkpt>
      <trkpt lat="39.26627138315455" lon="118.43272076523205">
        <ele>-8.3</ele>
        <time>2024-03-29T23:07:06Z</time>
      </trkpt>
      <trkpt lat="39.26626884491863" lon="118.43275396085839">
        <ele>-8.3</ele>
        <time>2024-03-29T23:07:07Z</time>
      </trkpt>
      <trkpt lat="39.2662672169688" lon="118.4327855988858">
        <ele>-8.3</ele>
        <time>2024-03-29T23:07:08Z</time>
      </trkpt>
      <trkpt lat="39.266265874940856" lon="118.4328254280522">
        <ele>-8.3</ele>
        <time>2024-03-29T23:07:10Z</time>
      </trkpt>
      <trkpt lat="39.26626473963164" lon="118.43286285021006">
        <ele>-8.3</ele>
        <time>2024-03-29T23:07:11Z</time>
      </trkpt>
      <trkpt lat="39.26626395833756" lon="118.43289793988356">
        <ele>-8.3</ele>
        <time>2024-03-29T23:07:12Z</time>
      </trkpt>
      <trkpt lat="39.266264078479075" lon="118.43292671383468">
        <ele>-8.6</ele>
        <time>2024-03-29T23:07:13Z</time>
      </trkpt>
      <trkpt lat="39.266264913310216" lon="118.43295470546737">
        <ele>-8.6</ele>
        <time>2024-03-29T23:07:14Z</time>
      </trkpt>
      <trkpt lat="39.26626651871993" lon="118.43298578170324">
        <ele>-8.6</ele>
        <time>2024-03-29T23:07:15Z</time>
      </trkpt>
      <trkpt lat="39.26626822813455" lon="118.4330146640948">
        <ele>-8.6</ele>
        <time>2024-03-29T23:07:16Z</time>
      </trkpt>
      <trkpt lat="39.266270036473" lon="118.43304500208562">
        <ele>-8.6</ele>
        <time>2024-03-29T23:07:17Z</time>
      </trkpt>
      <trkpt lat="39.26627171200877" lon="118.43307588263478">
        <ele>-8.6</ele>
        <time>2024-03-29T23:07:18Z</time>
      </trkpt>
      <trkpt lat="39.26627378546505" lon="118.43310699931001">
        <ele>-8.6</ele>
        <time>2024-03-29T23:07:19Z</time>
      </trkpt>
      <trkpt lat="39.26627681718504" lon="118.4331381161348">
        <ele>-8.6</ele>
        <time>2024-03-29T23:07:20Z</time>
      </trkpt>
      <trkpt lat="39.26628166052306" lon="118.43316952843315">
        <ele>-8.6</ele>
        <time>2024-03-29T23:07:21Z</time>
      </trkpt>
      <trkpt lat="39.26628767713449" lon="118.43320056772566">
        <ele>-8.6</ele>
        <time>2024-03-29T23:07:22Z</time>
      </trkpt>
      <trkpt lat="39.266295331942814" lon="118.43323410581375">
        <ele>-8.7</ele>
        <time>2024-03-29T23:07:23Z</time>
      </trkpt>
      <trkpt lat="39.26630327292173" lon="118.43326447664333">
        <ele>-8.7</ele>
        <time>2024-03-29T23:07:24Z</time>
      </trkpt>
      <trkpt lat="39.266311686143645" lon="118.43329633492962">
        <ele>-8.7</ele>
        <time>2024-03-29T23:07:25Z</time>
      </trkpt>
      <trkpt lat="39.26632223824155" lon="118.43332515858701">
        <ele>-8.7</ele>
        <time>2024-03-29T23:07:26Z</time>
      </trkpt>
      <trkpt lat="39.26632911561649" lon="118.43336010671786">
        <ele>-8.7</ele>
        <time>2024-03-29T23:07:28Z</time>
      </trkpt>
      <trkpt lat="39.266334349838" lon="118.43339650128453">
        <ele>-8.7</ele>
        <time>2024-03-29T23:07:29Z</time>
      </trkpt>
      <trkpt lat="39.26633512651894" lon="118.4334342761724">
        <ele>-8.7</ele>
        <time>2024-03-29T23:07:30Z</time>
      </trkpt>
      <trkpt lat="39.26633704103466" lon="118.4334687775015">
        <ele>-8.7</ele>
        <time>2024-03-29T23:07:31Z</time>
      </trkpt>
      <trkpt lat="39.26633750405904" lon="118.4334993922678">
        <ele>-8.7</ele>
        <time>2024-03-29T23:07:32Z</time>
      </trkpt>
      <trkpt lat="39.26633640065595" lon="118.4335273478905">
        <ele>-8.6</ele>
        <time>2024-03-29T23:07:33Z</time>
      </trkpt>
      <trkpt lat="39.26633379998532" lon="118.43355333749273">
        <ele>-8.6</ele>
        <time>2024-03-29T23:07:34Z</time>
      </trkpt>
      <trkpt lat="39.26633083852449" lon="118.43357917682442">
        <ele>-8.6</ele>
        <time>2024-03-29T23:07:35Z</time>
      </trkpt>
      <trkpt lat="39.266328330430994" lon="118.4336056028">
        <ele>-8.6</ele>
        <time>2024-03-29T23:07:36Z</time>
      </trkpt>
      <trkpt lat="39.26632690070411" lon="118.43363366449016">
        <ele>-8.6</ele>
        <time>2024-03-29T23:07:37Z</time>
      </trkpt>
      <trkpt lat="39.26632690771051" lon="118.43366244278302">
        <ele>-8.6</ele>
        <time>2024-03-29T23:07:38Z</time>
      </trkpt>
      <trkpt lat="39.266328653694416" lon="118.433694301372">
        <ele>-8.6</ele>
        <time>2024-03-29T23:07:39Z</time>
      </trkpt>
      <trkpt lat="39.26633201041807" lon="118.43372290876994">
        <ele>-8.6</ele>
        <time>2024-03-29T23:07:40Z</time>
      </trkpt>
      <trkpt lat="39.266335637989435" lon="118.43375086129514">
        <ele>-8.6</ele>
        <time>2024-03-29T23:07:41Z</time>
      </trkpt>
      <trkpt lat="39.266338913649534" lon="118.4337784946826">
        <ele>-8.6</ele>
        <time>2024-03-29T23:07:42Z</time>
      </trkpt>
      <trkpt lat="39.26634148006982" lon="118.43380686521164">
        <ele>-8.6</ele>
        <time>2024-03-29T23:07:43Z</time>
      </trkpt>
      <trkpt lat="39.26634371295582" lon="118.43383682060627">
        <ele>-8.6</ele>
        <time>2024-03-29T23:07:44Z</time>
      </trkpt>
      <trkpt lat="39.26634564359885" lon="118.43387053418775">
        <ele>-8.6</ele>
        <time>2024-03-29T23:07:46Z</time>
      </trkpt>
      <trkpt lat="39.26634712557241" lon="118.43390518439372">
        <ele>-8.6</ele>
        <time>2024-03-29T23:07:47Z</time>
      </trkpt>
      <trkpt lat="39.26634806927799" lon="118.43394315836348">
        <ele>-8.6</ele>
        <time>2024-03-29T23:07:48Z</time>
      </trkpt>
      <trkpt lat="39.26634811435786" lon="118.43397606635328">
        <ele>-8.6</ele>
        <time>2024-03-29T23:07:49Z</time>
      </trkpt>
      <trkpt lat="39.26634788744112" lon="118.43400868742296">
        <ele>-8.6</ele>
        <time>2024-03-29T23:07:50Z</time>
      </trkpt>
      <trkpt lat="39.26634741481733" lon="118.43403726810581">
        <ele>-8.6</ele>
        <time>2024-03-29T23:07:51Z</time>
      </trkpt>
      <trkpt lat="39.266346851033" lon="118.43406792490265">
        <ele>-8.6</ele>
        <time>2024-03-29T23:07:52Z</time>
      </trkpt>
      <trkpt lat="39.26634630894689" lon="118.43409797424097">
        <ele>-8.9</ele>
        <time>2024-03-29T23:07:53Z</time>
      </trkpt>
      <trkpt lat="39.26634594204555" lon="118.43413132804638">
        <ele>-8.9</ele>
        <time>2024-03-29T23:07:54Z</time>
      </trkpt>
      <trkpt lat="39.2663467065915" lon="118.43416297455819">
        <ele>-8.9</ele>
        <time>2024-03-29T23:07:55Z</time>
      </trkpt>
      <trkpt lat="39.26634865901456" lon="118.43419542945648">
        <ele>-8.9</ele>
        <time>2024-03-29T23:07:56Z</time>
      </trkpt>
      <trkpt lat="39.26635216420003" lon="118.43422871535998">
        <ele>-8.9</ele>
        <time>2024-03-29T23:07:57Z</time>
      </trkpt>
      <trkpt lat="39.26635619119686" lon="118.43426198017029">
        <ele>-8.9</ele>
        <time>2024-03-29T23:07:58Z</time>
      </trkpt>
      <trkpt lat="39.26636059618779" lon="118.43429579895178">
        <ele>-8.9</ele>
        <time>2024-03-29T23:07:59Z</time>
      </trkpt>
      <trkpt lat="39.266365489315824" lon="118.43432741578737">
        <ele>-8.9</ele>
        <time>2024-03-29T23:08:00Z</time>
      </trkpt>
      <trkpt lat="39.266371586324645" lon="118.43436074309327">
        <ele>-8.9</ele>
        <time>2024-03-29T23:08:01Z</time>
      </trkpt>
      <trkpt lat="39.26637889775519" lon="118.43439292383493">
        <ele>-8.9</ele>
        <time>2024-03-29T23:08:02Z</time>
      </trkpt>
      <trkpt lat="39.26638947463865" lon="118.43442977091789">
        <ele>-9.2</ele>
        <time>2024-03-29T23:08:04Z</time>
      </trkpt>
      <trkpt lat="39.26640292920934" lon="118.43446182256737">
        <ele>-9.2</ele>
        <time>2024-03-29T23:08:05Z</time>
      </trkpt>
      <trkpt lat="39.26641968591175" lon="118.43448935099879">
        <ele>-9.2</ele>
        <time>2024-03-29T23:08:06Z</time>
      </trkpt>
      <trkpt lat="39.266436689416906" lon="118.43450566670796">
        <ele>-9.2</ele>
        <time>2024-03-29T23:08:07Z</time>
      </trkpt>
      <trkpt lat="39.26645565304322" lon="118.43452063400869">
        <ele>-9.2</ele>
        <time>2024-03-29T23:08:08Z</time>
      </trkpt>
      <trkpt lat="39.266473060054196" lon="118.4345368003333">
        <ele>-9.2</ele>
        <time>2024-03-29T23:08:09Z</time>
      </trkpt>
      <trkpt lat="39.26648828037943" lon="118.43455593110919">
        <ele>-9.2</ele>
        <time>2024-03-29T23:08:10Z</time>
      </trkpt>
      <trkpt lat="39.266498866996564" lon="118.43458052461436">
        <ele>-9.2</ele>
        <time>2024-03-29T23:08:11Z</time>
      </trkpt>
      <trkpt lat="39.26650568473404" lon="118.43460832136239">
        <ele>-9.2</ele>
        <time>2024-03-29T23:08:12Z</time>
      </trkpt>
      <trkpt lat="39.26650961503266" lon="118.43463831734717">
        <ele>-9</ele>
        <time>2024-03-29T23:08:13Z</time>
      </trkpt>
      <trkpt lat="39.26651125518332" lon="118.43466982016591">
        <ele>-9</ele>
        <time>2024-03-29T23:08:14Z</time>
      </trkpt>
      <trkpt lat="39.26651235663402" lon="118.4347015020282">
        <ele>-9</ele>
        <time>2024-03-29T23:08:15Z</time>
      </trkpt>
      <trkpt lat="39.26651309597287" lon="118.4347334441583">
        <ele>-9</ele>
        <time>2024-03-29T23:08:16Z</time>
      </trkpt>
      <trkpt lat="39.26651150053114" lon="118.43476413730593">
        <ele>-9</ele>
        <time>2024-03-29T23:08:17Z</time>
      </trkpt>
      <trkpt lat="39.26651004595855" lon="118.43479285339944">
        <ele>-9</ele>
        <time>2024-03-29T23:08:18Z</time>
      </trkpt>
      <trkpt lat="39.26651091499328" lon="118.43482001810902">
        <ele>-9</ele>
        <time>2024-03-29T23:08:19Z</time>
      </trkpt>
      <trkpt lat="39.266518478971626" lon="118.43484602909604">
        <ele>-9</ele>
        <time>2024-03-29T23:08:20Z</time>
      </trkpt>
      <trkpt lat="39.2665288454413" lon="118.43487852546143">
        <ele>-9</ele>
        <time>2024-03-29T23:08:22Z</time>
      </trkpt>
      <trkpt lat="39.26653770524908" lon="118.43491195484971">
        <ele>-9.2</ele>
        <time>2024-03-29T23:08:23Z</time>
      </trkpt>
      <trkpt lat="39.26654261777611" lon="118.4349440674046">
        <ele>-9.2</ele>
        <time>2024-03-29T23:08:24Z</time>
      </trkpt>
      <trkpt lat="39.26654510630078" lon="118.43497017825432">
        <ele>-9.2</ele>
        <time>2024-03-29T23:08:25Z</time>
      </trkpt>
      <trkpt lat="39.26654764791393" lon="118.43499720543487">
        <ele>-9.2</ele>
        <time>2024-03-29T23:08:26Z</time>
      </trkpt>
      <trkpt lat="39.26655016528452" lon="118.43502207409952">
        <ele>-9.2</ele>
        <time>2024-03-29T23:08:27Z</time>
      </trkpt>
      <trkpt lat="39.26655322277765" lon="118.43504528119905">
        <ele>-9.2</ele>
        <time>2024-03-29T23:08:28Z</time>
      </trkpt>
      <trkpt lat="39.26655763934588" lon="118.43506776786296">
        <ele>-9.2</ele>
        <time>2024-03-29T23:08:29Z</time>
      </trkpt>
      <trkpt lat="39.266564265152255" lon="118.43508989304874">
        <ele>-9.2</ele>
        <time>2024-03-29T23:08:30Z</time>
      </trkpt>
      <trkpt lat="39.266573863114616" lon="118.43511163042169">
        <ele>-9.2</ele>
        <time>2024-03-29T23:08:31Z</time>
      </trkpt>
      <trkpt lat="39.26658756642929" lon="118.43513106528441">
        <ele>-9.2</ele>
        <time>2024-03-29T23:08:32Z</time>
      </trkpt>
      <trkpt lat="39.266604266941805" lon="118.43514848560974">
        <ele>-8.9</ele>
        <time>2024-03-29T23:08:33Z</time>
      </trkpt>
      <trkpt lat="39.2666234700648" lon="118.43516451108454">
        <ele>-8.9</ele>
        <time>2024-03-29T23:08:34Z</time>
      </trkpt>
      <trkpt lat="39.26664461608943" lon="118.43518090270054">
        <ele>-8.9</ele>
        <time>2024-03-29T23:08:35Z</time>
      </trkpt>
      <trkpt lat="39.26666620143717" lon="118.43519806833395">
        <ele>-8.9</ele>
        <time>2024-03-29T23:08:36Z</time>
      </trkpt>
      <trkpt lat="39.26668791453579" lon="118.4352145512804">
        <ele>-8.9</ele>
        <time>2024-03-29T23:08:37Z</time>
      </trkpt>
      <trkpt lat="39.26670840482193" lon="118.43522513922674">
        <ele>-8.9</ele>
        <time>2024-03-29T23:08:38Z</time>
      </trkpt>
      <trkpt lat="39.26673610167127" lon="118.43523380717706">
        <ele>-8.9</ele>
        <time>2024-03-29T23:08:40Z</time>
      </trkpt>
      <trkpt lat="39.266764276548074" lon="118.43524321079752">
        <ele>-8.9</ele>
        <time>2024-03-29T23:08:41Z</time>
      </trkpt>
      <trkpt lat="39.26679261181657" lon="118.43525604128402">
        <ele>-8.9</ele>
        <time>2024-03-29T23:08:42Z</time>
      </trkpt>
      <trkpt lat="39.266814261544226" lon="118.43527191859037">
        <ele>-9</ele>
        <time>2024-03-29T23:08:43Z</time>
      </trkpt>
      <trkpt lat="39.26683393904223" lon="118.43528352173878">
        <ele>-9</ele>
        <time>2024-03-29T23:08:44Z</time>
      </trkpt>
      <trkpt lat="39.26685429684399" lon="118.43528629872455">
        <ele>-9</ele>
        <time>2024-03-29T23:08:45Z</time>
      </trkpt>
      <trkpt lat="39.26687593326483" lon="118.43528370513324">
        <ele>-9</ele>
        <time>2024-03-29T23:08:46Z</time>
      </trkpt>
      <trkpt lat="39.26689999237742" lon="118.43528151836514">
        <ele>-9</ele>
        <time>2024-03-29T23:08:47Z</time>
      </trkpt>
      <trkpt lat="39.26692558261823" lon="118.4352839625508">
        <ele>-9</ele>
        <time>2024-03-29T23:08:48Z</time>
      </trkpt>
      <trkpt lat="39.26694991064227" lon="118.43528696855121">
        <ele>-9</ele>
        <time>2024-03-29T23:08:49Z</time>
      </trkpt>
      <trkpt lat="39.26697309857488" lon="118.43529061213808">
        <ele>-9</ele>
        <time>2024-03-29T23:08:50Z</time>
      </trkpt>
      <trkpt lat="39.266994672516184" lon="118.43529745708138">
        <ele>-9</ele>
        <time>2024-03-29T23:08:51Z</time>
      </trkpt>
      <trkpt lat="39.26701408711474" lon="118.43530469396859">
        <ele>-9</ele>
        <time>2024-03-29T23:08:52Z</time>
      </trkpt>
      <trkpt lat="39.267033750834216" lon="118.43531322026308">
        <ele>-9.2</ele>
        <time>2024-03-29T23:08:53Z</time>
      </trkpt>
      <trkpt lat="39.26705017771595" lon="118.43531983119185">
        <ele>-9.2</ele>
        <time>2024-03-29T23:08:54Z</time>
      </trkpt>
      <trkpt lat="39.26706616652607" lon="118.43532589795574">
        <ele>-9.2</ele>
        <time>2024-03-29T23:08:55Z</time>
      </trkpt>
      <trkpt lat="39.26708016859026" lon="118.43533333789122">
        <ele>-9.2</ele>
        <time>2024-03-29T23:08:56Z</time>
      </trkpt>
      <trkpt lat="39.26709133404602" lon="118.43533825395349">
        <ele>-9.2</ele>
        <time>2024-03-29T23:08:58Z</time>
      </trkpt>
      <trkpt lat="39.267105770781946" lon="118.43533744323832">
        <ele>-9.2</ele>
        <time>2024-03-29T23:08:59Z</time>
      </trkpt>
      <trkpt lat="39.26712467286955" lon="118.43533277125054">
        <ele>-9.2</ele>
        <time>2024-03-29T23:09:00Z</time>
      </trkpt>
      <trkpt lat="39.26715226687735" lon="118.43533039949564">
        <ele>-9.2</ele>
        <time>2024-03-29T23:09:01Z</time>
      </trkpt>
      <trkpt lat="39.267182841752145" lon="118.43533759994644">
        <ele>-9.2</ele>
        <time>2024-03-29T23:09:02Z</time>
      </trkpt>
      <trkpt lat="39.26721063386341" lon="118.43535169025236">
        <ele>-9.1</ele>
        <time>2024-03-29T23:09:03Z</time>
      </trkpt>
      <trkpt lat="39.26723346129598" lon="118.43537174688812">
        <ele>-9.1</ele>
        <time>2024-03-29T23:09:04Z</time>
      </trkpt>
      <trkpt lat="39.26725133262369" lon="118.43539630243978">
        <ele>-9.1</ele>
        <time>2024-03-29T23:09:05Z</time>
      </trkpt>
      <trkpt lat="39.267266558494306" lon="118.43542138214157">
        <ele>-9.1</ele>
        <time>2024-03-29T23:09:06Z</time>
      </trkpt>
      <trkpt lat="39.26728040086537" lon="118.43544620763669">
        <ele>-9.1</ele>
        <time>2024-03-29T23:09:07Z</time>
      </trkpt>
      <trkpt lat="39.26729418627242" lon="118.43546991606895">
        <ele>-9.1</ele>
        <time>2024-03-29T23:09:08Z</time>
      </trkpt>
      <trkpt lat="39.26730933333585" lon="118.43549023732272">
        <ele>-9.1</ele>
        <time>2024-03-29T23:09:09Z</time>
      </trkpt>
      <trkpt lat="39.2673259045506" lon="118.43550531108943">
        <ele>-9.1</ele>
        <time>2024-03-29T23:09:10Z</time>
      </trkpt>
      <trkpt lat="39.26734364420231" lon="118.43551391586712">
        <ele>-9.1</ele>
        <time>2024-03-29T23:09:11Z</time>
      </trkpt>
      <trkpt lat="39.26736095833511" lon="118.43551968911689">
        <ele>-9.1</ele>
        <time>2024-03-29T23:09:12Z</time>
      </trkpt>
      <trkpt lat="39.267378512959276" lon="118.43552529511705">
        <ele>-8.6</ele>
        <time>2024-03-29T23:09:13Z</time>
      </trkpt>
      <trkpt lat="39.26739596815084" lon="118.43553136639247">
        <ele>-8.6</ele>
        <time>2024-03-29T23:09:14Z</time>
      </trkpt>
      <trkpt lat="39.26741797131169" lon="118.43553935591237">
        <ele>-8.6</ele>
        <time>2024-03-29T23:09:16Z</time>
      </trkpt>
      <trkpt lat="39.267442620499914" lon="118.43554700200636">
        <ele>-8.6</ele>
        <time>2024-03-29T23:09:17Z</time>
      </trkpt>
      <trkpt lat="39.26746756939053" lon="118.43555285011527">
        <ele>-8.6</ele>
        <time>2024-03-29T23:09:18Z</time>
      </trkpt>
      <trkpt lat="39.26749098595905" lon="118.4355564700208">
        <ele>-8.6</ele>
        <time>2024-03-29T23:09:19Z</time>
      </trkpt>
      <trkpt lat="39.26751408543599" lon="118.43555945787149">
        <ele>-8.6</ele>
        <time>2024-03-29T23:09:20Z</time>
      </trkpt>
      <trkpt lat="39.26753769177879" lon="118.43556591559043">
        <ele>-8.6</ele>
        <time>2024-03-29T23:09:21Z</time>
      </trkpt>
      <trkpt lat="39.267559492315705" lon="118.43557121826875">
        <ele>-8.6</ele>
        <time>2024-03-29T23:09:22Z</time>
      </trkpt>
      <trkpt lat="39.26758233695941" lon="118.43557201451203">
        <ele>-8.4</ele>
        <time>2024-03-29T23:09:23Z</time>
      </trkpt>
      <trkpt lat="39.26760675716862" lon="118.43556988026738">
        <ele>-8.4</ele>
        <time>2024-03-29T23:09:24Z</time>
      </trkpt>
      <trkpt lat="39.267633471581284" lon="118.43556924760404">
        <ele>-8.4</ele>
        <time>2024-03-29T23:09:25Z</time>
      </trkpt>
      <trkpt lat="39.26766077573688" lon="118.43557294911786">
        <ele>-8.4</ele>
        <time>2024-03-29T23:09:26Z</time>
      </trkpt>
      <trkpt lat="39.26768679264165" lon="118.43557595594807">
        <ele>-8.4</ele>
        <time>2024-03-29T23:09:27Z</time>
      </trkpt>
      <trkpt lat="39.26771203881069" lon="118.43557772554618">
        <ele>-8.4</ele>
        <time>2024-03-29T23:09:28Z</time>
      </trkpt>
      <trkpt lat="39.267737036998135" lon="118.43557910133079">
        <ele>-8.4</ele>
        <time>2024-03-29T23:09:29Z</time>
      </trkpt>
      <trkpt lat="39.26776114800844" lon="118.43558031785736">
        <ele>-8.4</ele>
        <time>2024-03-29T23:09:30Z</time>
      </trkpt>
      <trkpt lat="39.267784122216504" lon="118.43558127116906">
        <ele>-8.4</ele>
        <time>2024-03-29T23:09:31Z</time>
      </trkpt>
      <trkpt lat="39.26780573848236" lon="118.43558127799389">
        <ele>-8.4</ele>
        <time>2024-03-29T23:09:32Z</time>
      </trkpt>
      <trkpt lat="39.26782574775495" lon="118.43557922297379">
        <ele>-8.5</ele>
        <time>2024-03-29T23:09:34Z</time>
      </trkpt>
      <trkpt lat="39.267846840302276" lon="118.43557732598448">
        <ele>-8.5</ele>
        <time>2024-03-29T23:09:35Z</time>
      </trkpt>
      <trkpt lat="39.267865304335054" lon="118.43557626171933">
        <ele>-8.5</ele>
        <time>2024-03-29T23:09:36Z</time>
      </trkpt>
      <trkpt lat="39.26788500254525" lon="118.43557699050369">
        <ele>-8.5</ele>
        <time>2024-03-29T23:09:37Z</time>
      </trkpt>
      <trkpt lat="39.2679038210144" lon="118.43557732738117">
        <ele>-8.5</ele>
        <time>2024-03-29T23:09:38Z</time>
      </trkpt>
      <trkpt lat="39.267926193259946" lon="118.43557663527625">
        <ele>-8.5</ele>
        <time>2024-03-29T23:09:39Z</time>
      </trkpt>
      <trkpt lat="39.26794936582008" lon="118.4355743330414">
        <ele>-8.5</ele>
        <time>2024-03-29T23:09:40Z</time>
      </trkpt>
      <trkpt lat="39.267973887546916" lon="118.43557035230114">
        <ele>-8.5</ele>
        <time>2024-03-29T23:09:41Z</time>
      </trkpt>
      <trkpt lat="39.26800036214216" lon="118.43556397092382">
        <ele>-8.5</ele>
        <time>2024-03-29T23:09:42Z</time>
      </trkpt>
      <trkpt lat="39.268028451970174" lon="118.43555715948189">
        <ele>-8.5</ele>
        <time>2024-03-29T23:09:43Z</time>
      </trkpt>
      <trkpt lat="39.268057658667246" lon="118.43555123693204">
        <ele>-8.5</ele>
        <time>2024-03-29T23:09:44Z</time>
      </trkpt>
      <trkpt lat="39.26808652477185" lon="118.43554788619252">
        <ele>-8.5</ele>
        <time>2024-03-29T23:09:45Z</time>
      </trkpt>
      <trkpt lat="39.26811474501631" lon="118.43554689013862">
        <ele>-8.5</ele>
        <time>2024-03-29T23:09:46Z</time>
      </trkpt>
      <trkpt lat="39.268141918304934" lon="118.43554727277247">
        <ele>-8.5</ele>
        <time>2024-03-29T23:09:47Z</time>
      </trkpt>
      <trkpt lat="39.26816796661909" lon="118.43554645554036">
        <ele>-8.5</ele>
        <time>2024-03-29T23:09:48Z</time>
      </trkpt>
      <trkpt lat="39.268192105802115" lon="118.4355437311262">
        <ele>-8.5</ele>
        <time>2024-03-29T23:09:49Z</time>
      </trkpt>
      <trkpt lat="39.26821471101343" lon="118.4355385516736">
        <ele>-8.5</ele>
        <time>2024-03-29T23:09:50Z</time>
      </trkpt>
      <trkpt lat="39.26823196186619" lon="118.43553492502645">
        <ele>-8.5</ele>
        <time>2024-03-29T23:09:52Z</time>
      </trkpt>
      <trkpt lat="39.26825469644416" lon="118.43553458084013">
        <ele>-8.9</ele>
        <time>2024-03-29T23:09:53Z</time>
      </trkpt>
      <trkpt lat="39.26828384795672" lon="118.43553443232167">
        <ele>-8.9</ele>
        <time>2024-03-29T23:09:54Z</time>
      </trkpt>
      <trkpt lat="39.26831635949361" lon="118.43553352672062">
        <ele>-8.9</ele>
        <time>2024-03-29T23:09:55Z</time>
      </trkpt>
      <trkpt lat="39.26834749490874" lon="118.43552975452297">
        <ele>-8.9</ele>
        <time>2024-03-29T23:09:56Z</time>
      </trkpt>
      <trkpt lat="39.26837357963593" lon="118.4355270460971">
        <ele>-8.9</ele>
        <time>2024-03-29T23:09:57Z</time>
      </trkpt>
      <trkpt lat="39.26840012538593" lon="118.43552418042691">
        <ele>-8.9</ele>
        <time>2024-03-29T23:09:58Z</time>
      </trkpt>
      <trkpt lat="39.26842661294716" lon="118.43552107827885">
        <ele>-8.9</ele>
        <time>2024-03-29T23:09:59Z</time>
      </trkpt>
      <trkpt lat="39.26845298309584" lon="118.43551775951231">
        <ele>-8.9</ele>
        <time>2024-03-29T23:10:00Z</time>
      </trkpt>
      <trkpt lat="39.26847858064363" lon="118.43551435318405">
        <ele>-8.9</ele>
        <time>2024-03-29T23:10:01Z</time>
      </trkpt>
      <trkpt lat="39.26850319549833" lon="118.43551094191379">
        <ele>-8.9</ele>
        <time>2024-03-29T23:10:02Z</time>
      </trkpt>
      <trkpt lat="39.268526365966366" lon="118.43550755786374">
        <ele>-8.8</ele>
        <time>2024-03-29T23:10:03Z</time>
      </trkpt>
      <trkpt lat="39.26854822542594" lon="118.43550415191858">
        <ele>-8.8</ele>
        <time>2024-03-29T23:10:04Z</time>
      </trkpt>
      <trkpt lat="39.268568864829184" lon="118.43550065483494">
        <ele>-8.8</ele>
        <time>2024-03-29T23:10:05Z</time>
      </trkpt>
      <trkpt lat="39.26858797734704" lon="118.43549706603062">
        <ele>-8.8</ele>
        <time>2024-03-29T23:10:06Z</time>
      </trkpt>
      <trkpt lat="39.26860576581415" lon="118.43549325965166">
        <ele>-8.8</ele>
        <time>2024-03-29T23:10:07Z</time>
      </trkpt>
      <trkpt lat="39.26862018064165" lon="118.43548944273">
        <ele>-8.8</ele>
        <time>2024-03-29T23:10:08Z</time>
      </trkpt>
      <trkpt lat="39.26863459550559" lon="118.43548493020916">
        <ele>-8.8</ele>
        <time>2024-03-29T23:10:10Z</time>
      </trkpt>
      <trkpt lat="39.26865198120026" lon="118.4354800875873">
        <ele>-8.8</ele>
        <time>2024-03-29T23:10:11Z</time>
      </trkpt>
      <trkpt lat="39.26866896074721" lon="118.43547531596984">
        <ele>-8.8</ele>
        <time>2024-03-29T23:10:12Z</time>
      </trkpt>
      <trkpt lat="39.26868508902723" lon="118.43547118861146">
        <ele>-9.3</ele>
        <time>2024-03-29T23:10:13Z</time>
      </trkpt>
      <trkpt lat="39.268699641848464" lon="118.43546749840554">
        <ele>-9.3</ele>
        <time>2024-03-29T23:10:14Z</time>
      </trkpt>
      <trkpt lat="39.26871294994334" lon="118.43546444640423">
        <ele>-9.3</ele>
        <time>2024-03-29T23:10:15Z</time>
      </trkpt>
      <trkpt lat="39.26872555486988" lon="118.43546223903655">
        <ele>-9.3</ele>
        <time>2024-03-29T23:10:16Z</time>
      </trkpt>
      <trkpt lat="39.268738235642836" lon="118.43546107532698">
        <ele>-9.3</ele>
        <time>2024-03-29T23:10:17Z</time>
      </trkpt>
      <trkpt lat="39.26875160618902" lon="118.4354610575502">
        <ele>-9.3</ele>
        <time>2024-03-29T23:10:18Z</time>
      </trkpt>
      <trkpt lat="39.26876644934057" lon="118.43546219474895">
        <ele>-9.3</ele>
        <time>2024-03-29T23:10:19Z</time>
      </trkpt>
      <trkpt lat="39.268783505659194" lon="118.4354644259867">
        <ele>-9.3</ele>
        <time>2024-03-29T23:10:20Z</time>
      </trkpt>
      <trkpt lat="39.268803289180966" lon="118.43546751595535">
        <ele>-9.3</ele>
        <time>2024-03-29T23:10:21Z</time>
      </trkpt>
      <trkpt lat="39.268826562004335" lon="118.43547104831808">
        <ele>-9.3</ele>
        <time>2024-03-29T23:10:22Z</time>
      </trkpt>
      <trkpt lat="39.26885420405522" lon="118.43547455036095">
        <ele>-10.3</ele>
        <time>2024-03-29T23:10:23Z</time>
      </trkpt>
      <trkpt lat="39.268887139144816" lon="118.4354776940017">
        <ele>-10.3</ele>
        <time>2024-03-29T23:10:24Z</time>
      </trkpt>
      <trkpt lat="39.2689283403596" lon="118.43547995972105">
        <ele>-10.3</ele>
        <time>2024-03-29T23:10:25Z</time>
      </trkpt>
      <trkpt lat="39.268978774753386" lon="118.43548246483222">
        <ele>-10.3</ele>
        <time>2024-03-29T23:10:26Z</time>
      </trkpt>
      <trkpt lat="39.26904082568064" lon="118.43548369656367">
        <ele>-10.3</ele>
        <time>2024-03-29T23:10:28Z</time>
      </trkpt>
      <trkpt lat="39.26910058484511" lon="118.43548378331754">
        <ele>-10.3</ele>
        <time>2024-03-29T23:10:29Z</time>
      </trkpt>
      <trkpt lat="39.26914639988318" lon="118.43548130843256">
        <ele>-10.3</ele>
        <time>2024-03-29T23:10:30Z</time>
      </trkpt>
      <trkpt lat="39.26917914919643" lon="118.43548119541592">
        <ele>-10.3</ele>
        <time>2024-03-29T23:10:31Z</time>
      </trkpt>
      <trkpt lat="39.269206542557654" lon="118.435479627799">
        <ele>-10.3</ele>
        <time>2024-03-29T23:10:32Z</time>
      </trkpt>
      <trkpt lat="39.26923346276596" lon="118.43547699752953">
        <ele>-10.5</ele>
        <time>2024-03-29T23:10:33Z</time>
      </trkpt>
      <trkpt lat="39.269258814496844" lon="118.43546944315923">
        <ele>-10.5</ele>
        <time>2024-03-29T23:10:34Z</time>
      </trkpt>
      <trkpt lat="39.26928208898402" lon="118.43546149695288">
        <ele>-10.5</ele>
        <time>2024-03-29T23:10:35Z</time>
      </trkpt>
      <trkpt lat="39.26930423475828" lon="118.4354531948162">
        <ele>-10.5</ele>
        <time>2024-03-29T23:10:36Z</time>
      </trkpt>
      <trkpt lat="39.269325899025134" lon="118.43544541079964">
        <ele>-10.5</ele>
        <time>2024-03-29T23:10:37Z</time>
      </trkpt>
      <trkpt lat="39.269346170850106" lon="118.43543986923316">
        <ele>-10.5</ele>
        <time>2024-03-29T23:10:38Z</time>
      </trkpt>
      <trkpt lat="39.26936693769279" lon="118.43543792959437">
        <ele>-10.5</ele>
        <time>2024-03-29T23:10:39Z</time>
      </trkpt>
      <trkpt lat="39.26938359719202" lon="118.43543886183117">
        <ele>-10.5</ele>
        <time>2024-03-29T23:10:40Z</time>
      </trkpt>
      <trkpt lat="39.26939978975109" lon="118.43544047028783">
        <ele>-10.5</ele>
        <time>2024-03-29T23:10:41Z</time>
      </trkpt>
      <trkpt lat="39.26941312113373" lon="118.43544103982474">
        <ele>-10.5</ele>
        <time>2024-03-29T23:10:42Z</time>
      </trkpt>
      <trkpt lat="39.269425453654314" lon="118.43544065624839">
        <ele>-11.5</ele>
        <time>2024-03-29T23:10:43Z</time>
      </trkpt>
      <trkpt lat="39.2694355069887" lon="118.43543950850766">
        <ele>-11.5</ele>
        <time>2024-03-29T23:10:44Z</time>
      </trkpt>
      <trkpt lat="39.26944549410506" lon="118.43543796576476">
        <ele>-11.5</ele>
        <time>2024-03-29T23:10:46Z</time>
      </trkpt>
      <trkpt lat="39.269453132835174" lon="118.43543724019703">
        <ele>-11.5</ele>
        <time>2024-03-29T23:10:47Z</time>
      </trkpt>
      <trkpt lat="39.26945768406198" lon="118.43543662406097">
        <ele>-11.5</ele>
        <time>2024-03-29T23:10:48Z</time>
      </trkpt>
      <trkpt lat="39.26945810549071" lon="118.43543653841738">
        <ele>-11.5</ele>
        <time>2024-03-29T23:10:49Z</time>
      </trkpt>
      <trkpt lat="39.26945741545821" lon="118.43543607069563">
        <ele>-11.5</ele>
        <time>2024-03-29T23:10:50Z</time>
      </trkpt>
      <trkpt lat="39.26945719090059" lon="118.43543600753206">
        <ele>-11.5</ele>
        <time>2024-03-29T23:10:51Z</time>
      </trkpt>
      <trkpt lat="39.2694571737614" lon="118.43543618926499">
        <ele>-11.5</ele>
        <time>2024-03-29T23:10:52Z</time>
      </trkpt>
      <trkpt lat="39.26945729183528" lon="118.43543659036513">
        <ele>-11.7</ele>
        <time>2024-03-29T23:10:53Z</time>
      </trkpt>
      <trkpt lat="39.26945755073796" lon="118.43543733669911">
        <ele>-11.7</ele>
        <time>2024-03-29T23:10:54Z</time>
      </trkpt>
      <trkpt lat="39.26945804649638" lon="118.4354384135135">
        <ele>-11.7</ele>
        <time>2024-03-29T23:10:55Z</time>
      </trkpt>
      <trkpt lat="39.26945887545621" lon="118.43544028254479">
        <ele>-11.7</ele>
        <time>2024-03-29T23:10:56Z</time>
      </trkpt>
      <trkpt lat="39.26946045161839" lon="118.43544162247406">
        <ele>-11.7</ele>
        <time>2024-03-29T23:10:57Z</time>
      </trkpt>
      <trkpt lat="39.26946276902905" lon="118.43544388823749">
        <ele>-11.7</ele>
        <time>2024-03-29T23:10:58Z</time>
      </trkpt>
      <trkpt lat="39.26946680196708" lon="118.43544485605746">
        <ele>-11.7</ele>
        <time>2024-03-29T23:10:59Z</time>
      </trkpt>
      <trkpt lat="39.26947270885177" lon="118.4354453434525">
        <ele>-11.7</ele>
        <time>2024-03-29T23:11:00Z</time>
      </trkpt>
      <trkpt lat="39.26948067547955" lon="118.4354436580461">
        <ele>-11.7</ele>
        <time>2024-03-29T23:11:01Z</time>
      </trkpt>
      <trkpt lat="39.26948932640508" lon="118.43544135195279">
        <ele>-11.7</ele>
        <time>2024-03-29T23:11:02Z</time>
      </trkpt>
      <trkpt lat="39.26949754393127" lon="118.435439573818">
        <ele>-11.5</ele>
        <time>2024-03-29T23:11:04Z</time>
      </trkpt>
      <trkpt lat="39.26950522828096" lon="118.43543776509003">
        <ele>-11.5</ele>
        <time>2024-03-29T23:11:05Z</time>
      </trkpt>
      <trkpt lat="39.2695138836815" lon="118.43543594601489">
        <ele>-11.5</ele>
        <time>2024-03-29T23:11:06Z</time>
      </trkpt>
      <trkpt lat="39.2695269896899" lon="118.43543188320263">
        <ele>-11.5</ele>
        <time>2024-03-29T23:11:07Z</time>
      </trkpt>
      <trkpt lat="39.26954775776469" lon="118.43542609630182">
        <ele>-11.5</ele>
        <time>2024-03-29T23:11:08Z</time>
      </trkpt>
      <trkpt lat="39.26957646141987" lon="118.43541960844523">
        <ele>-11.5</ele>
        <time>2024-03-29T23:11:09Z</time>
      </trkpt>
      <trkpt lat="39.26961051533336" lon="118.43541544549836">
        <ele>-11.5</ele>
        <time>2024-03-29T23:11:10Z</time>
      </trkpt>
      <trkpt lat="39.269643885339605" lon="118.43541420950937">
        <ele>-11.5</ele>
        <time>2024-03-29T23:11:11Z</time>
      </trkpt>
      <trkpt lat="39.269674570747874" lon="118.43541484956684">
        <ele>-11.5</ele>
        <time>2024-03-29T23:11:12Z</time>
      </trkpt>
      <trkpt lat="39.26970371457088" lon="118.43541528602384">
        <ele>-11.5</ele>
        <time>2024-03-29T23:11:13Z</time>
      </trkpt>
      <trkpt lat="39.269731293587" lon="118.43541499830908">
        <ele>-11.5</ele>
        <time>2024-03-29T23:11:14Z</time>
      </trkpt>
      <trkpt lat="39.26975701726241" lon="118.4354139750792">
        <ele>-11.5</ele>
        <time>2024-03-29T23:11:15Z</time>
      </trkpt>
      <trkpt lat="39.26978072268156" lon="118.43541237021849">
        <ele>-11.5</ele>
        <time>2024-03-29T23:11:16Z</time>
      </trkpt>
      <trkpt lat="39.26980237052744" lon="118.43541019782631">
        <ele>-11.5</ele>
        <time>2024-03-29T23:11:17Z</time>
      </trkpt>
      <trkpt lat="39.26982198339251" lon="118.43540756432974">
        <ele>-11.5</ele>
        <time>2024-03-29T23:11:18Z</time>
      </trkpt>
      <trkpt lat="39.26983916638545" lon="118.43540389324059">
        <ele>-11.5</ele>
        <time>2024-03-29T23:11:19Z</time>
      </trkpt>
      <trkpt lat="39.2698535202151" lon="118.43540031826856">
        <ele>-11.5</ele>
        <time>2024-03-29T23:11:20Z</time>
      </trkpt>
      <trkpt lat="39.26986611339183" lon="118.4353954088299">
        <ele>-11.5</ele>
        <time>2024-03-29T23:11:22Z</time>
      </trkpt>
      <trkpt lat="39.26987833964975" lon="118.43539202802742">
        <ele>-11.7</ele>
        <time>2024-03-29T23:11:23Z</time>
      </trkpt>
      <trkpt lat="39.26989713206398" lon="118.43539016913576">
        <ele>-11.7</ele>
        <time>2024-03-29T23:11:24Z</time>
      </trkpt>
      <trkpt lat="39.2699212137561" lon="118.43539091171738">
        <ele>-11.7</ele>
        <time>2024-03-29T23:11:25Z</time>
      </trkpt>
      <trkpt lat="39.26994882232983" lon="118.43539591040802">
        <ele>-11.7</ele>
        <time>2024-03-29T23:11:26Z</time>
      </trkpt>
      <trkpt lat="39.26997406746399" lon="118.43540068506083">
        <ele>-11.7</ele>
        <time>2024-03-29T23:11:27Z</time>
      </trkpt>
      <trkpt lat="39.26999891206073" lon="118.43540339955476">
        <ele>-11.7</ele>
        <time>2024-03-29T23:11:28Z</time>
      </trkpt>
      <trkpt lat="39.27002602736437" lon="118.43540022066672">
        <ele>-11.7</ele>
        <time>2024-03-29T23:11:29Z</time>
      </trkpt>
      <trkpt lat="39.27005571418478" lon="118.4353966406588">
        <ele>-11.7</ele>
        <time>2024-03-29T23:11:30Z</time>
      </trkpt>
      <trkpt lat="39.27008609668217" lon="118.43539420524185">
        <ele>-11.7</ele>
        <time>2024-03-29T23:11:31Z</time>
      </trkpt>
      <trkpt lat="39.27011536586047" lon="118.43539167999045">
        <ele>-11.7</ele>
        <time>2024-03-29T23:11:32Z</time>
      </trkpt>
      <trkpt lat="39.270142451157795" lon="118.43538787622043">
        <ele>-11.7</ele>
        <time>2024-03-29T23:11:33Z</time>
      </trkpt>
      <trkpt lat="39.270166561480366" lon="118.43538341861276">
        <ele>-11.7</ele>
        <time>2024-03-29T23:11:34Z</time>
      </trkpt>
      <trkpt lat="39.27018819381118" lon="118.43538028549152">
        <ele>-11.7</ele>
        <time>2024-03-29T23:11:35Z</time>
      </trkpt>
      <trkpt lat="39.270207587628576" lon="118.43537796537474">
        <ele>-11.7</ele>
        <time>2024-03-29T23:11:36Z</time>
      </trkpt>
      <trkpt lat="39.270226510868575" lon="118.43537609871686">
        <ele>-11.7</ele>
        <time>2024-03-29T23:11:37Z</time>
      </trkpt>
      <trkpt lat="39.270243989219644" lon="118.43537398372051">
        <ele>-11.7</ele>
        <time>2024-03-29T23:11:38Z</time>
      </trkpt>
      <trkpt lat="39.27026394739798" lon="118.43536962168076">
        <ele>-11.7</ele>
        <time>2024-03-29T23:11:40Z</time>
      </trkpt>
      <trkpt lat="39.27028273388987" lon="118.43536459850371">
        <ele>-11.7</ele>
        <time>2024-03-29T23:11:41Z</time>
      </trkpt>
      <trkpt lat="39.27030350206028" lon="118.43535890150147">
        <ele>-11.6</ele>
        <time>2024-03-29T23:11:43Z</time>
      </trkpt>
      <trkpt lat="39.27032200346558" lon="118.43535647897096">
        <ele>-11.6</ele>
        <time>2024-03-29T23:11:44Z</time>
      </trkpt>
      <trkpt lat="39.27034288931713" lon="118.43535613461553">
        <ele>-11.6</ele>
        <time>2024-03-29T23:11:45Z</time>
      </trkpt>
      <trkpt lat="39.27036471621168" lon="118.43535847051652">
        <ele>-11.6</ele>
        <time>2024-03-29T23:11:46Z</time>
      </trkpt>
      <trkpt lat="39.270388526180625" lon="118.43536111625289">
        <ele>-11.6</ele>
        <time>2024-03-29T23:11:47Z</time>
      </trkpt>
      <trkpt lat="39.2704133724853" lon="118.43536409074856">
        <ele>-11.6</ele>
        <time>2024-03-29T23:11:48Z</time>
      </trkpt>
      <trkpt lat="39.270436831824725" lon="118.43536986142287">
        <ele>-11.6</ele>
        <time>2024-03-29T23:11:49Z</time>
      </trkpt>
      <trkpt lat="39.27045809760575" lon="118.43537524105419">
        <ele>-11.6</ele>
        <time>2024-03-29T23:11:50Z</time>
      </trkpt>
      <trkpt lat="39.27047782686779" lon="118.43537721677271">
        <ele>-11.6</ele>
        <time>2024-03-29T23:11:51Z</time>
      </trkpt>
      <trkpt lat="39.27049838887132" lon="118.43537422479099">
        <ele>-11.6</ele>
        <time>2024-03-29T23:11:52Z</time>
      </trkpt>
      <trkpt lat="39.27052217603339" lon="118.43536669945118">
        <ele>-11.6</ele>
        <time>2024-03-29T23:11:53Z</time>
      </trkpt>
      <trkpt lat="39.27054545586841" lon="118.43536947096119">
        <ele>-11.6</ele>
        <time>2024-03-29T23:11:54Z</time>
      </trkpt>
      <trkpt lat="39.27056259986337" lon="118.43537249272286">
        <ele>-11.6</ele>
        <time>2024-03-29T23:11:55Z</time>
      </trkpt>
      <trkpt lat="39.27058000735063" lon="118.4353726519968">
        <ele>-11.6</ele>
        <time>2024-03-29T23:11:56Z</time>
      </trkpt>
      <trkpt lat="39.27059870881206" lon="118.43536812556874">
        <ele>-11.6</ele>
        <time>2024-03-29T23:11:58Z</time>
      </trkpt>
      <trkpt lat="39.27062574409976" lon="118.43536303848839">
        <ele>-11.6</ele>
        <time>2024-03-29T23:11:59Z</time>
      </trkpt>
      <trkpt lat="39.27065964349118" lon="118.43535766418164">
        <ele>-11.6</ele>
        <time>2024-03-29T23:12:00Z</time>
      </trkpt>
      <trkpt lat="39.27069692304345" lon="118.43535155014071">
        <ele>-11.6</ele>
        <time>2024-03-29T23:12:01Z</time>
      </trkpt>
      <trkpt lat="39.27073337998732" lon="118.43534713867308">
        <ele>-11.6</ele>
        <time>2024-03-29T23:12:02Z</time>
      </trkpt>
      <trkpt lat="39.27076788174873" lon="118.43534601023153">
        <ele>-11.5</ele>
        <time>2024-03-29T23:12:03Z</time>
      </trkpt>
      <trkpt lat="39.270800831580026" lon="118.43534646132521">
        <ele>-11.5</ele>
        <time>2024-03-29T23:12:04Z</time>
      </trkpt>
      <trkpt lat="39.27083546877775" lon="118.43534553654669">
        <ele>-11.5</ele>
        <time>2024-03-29T23:12:05Z</time>
      </trkpt>
      <trkpt lat="39.27086573102342" lon="118.4353421911613">
        <ele>-11.5</ele>
        <time>2024-03-29T23:12:06Z</time>
      </trkpt>
      <trkpt lat="39.270894200159674" lon="118.43533622166252">
        <ele>-11.5</ele>
        <time>2024-03-29T23:12:07Z</time>
      </trkpt>
      <trkpt lat="39.270916282512815" lon="118.43533084269536">
        <ele>-11.5</ele>
        <time>2024-03-29T23:12:08Z</time>
      </trkpt>
      <trkpt lat="39.27093481192165" lon="118.43532713298454">
        <ele>-11.5</ele>
        <time>2024-03-29T23:12:09Z</time>
      </trkpt>
      <trkpt lat="39.27095190180266" lon="118.43532489667149">
        <ele>-11.5</ele>
        <time>2024-03-29T23:12:10Z</time>
      </trkpt>
      <trkpt lat="39.27096631147005" lon="118.43532328596058">
        <ele>-11.5</ele>
        <time>2024-03-29T23:12:11Z</time>
      </trkpt>
      <trkpt lat="39.27097569583762" lon="118.43532329925849">
        <ele>-11.5</ele>
        <time>2024-03-29T23:12:12Z</time>
      </trkpt>
      <trkpt lat="39.270984828899266" lon="118.4353250622342">
        <ele>-11.5</ele>
        <time>2024-03-29T23:12:13Z</time>
      </trkpt>
      <trkpt lat="39.2709943397066" lon="118.43532709980927">
        <ele>-11.5</ele>
        <time>2024-03-29T23:12:14Z</time>
      </trkpt>
      <trkpt lat="39.27101143754411" lon="118.43532758449048">
        <ele>-11.5</ele>
        <time>2024-03-29T23:12:16Z</time>
      </trkpt>
      <trkpt lat="39.27102831522596" lon="118.43532612916366">
        <ele>-11.5</ele>
        <time>2024-03-29T23:12:17Z</time>
      </trkpt>
      <trkpt lat="39.2710518863906" lon="118.4353232869988">
        <ele>-11.5</ele>
        <time>2024-03-29T23:12:18Z</time>
      </trkpt>
      <trkpt lat="39.27107645914044" lon="118.43532013804135">
        <ele>-11.5</ele>
        <time>2024-03-29T23:12:19Z</time>
      </trkpt>
      <trkpt lat="39.27110369957541" lon="118.43531707423504">
        <ele>-11.5</ele>
        <time>2024-03-29T23:12:20Z</time>
      </trkpt>
      <trkpt lat="39.27113260711892" lon="118.43531549718558">
        <ele>-11.5</ele>
        <time>2024-03-29T23:12:21Z</time>
      </trkpt>
      <trkpt lat="39.271162778242676" lon="118.43531477486793">
        <ele>-11.5</ele>
        <time>2024-03-29T23:12:22Z</time>
      </trkpt>
      <trkpt lat="39.271193751554065" lon="118.43531410950773">
        <ele>-11.5</ele>
        <time>2024-03-29T23:12:23Z</time>
      </trkpt>
      <trkpt lat="39.271222311723136" lon="118.43531299466846">
        <ele>-11.5</ele>
        <time>2024-03-29T23:12:24Z</time>
      </trkpt>
      <trkpt lat="39.27124795915072" lon="118.4353120030628">
        <ele>-11.5</ele>
        <time>2024-03-29T23:12:25Z</time>
      </trkpt>
      <trkpt lat="39.271272671003295" lon="118.43531189150933">
        <ele>-11.5</ele>
        <time>2024-03-29T23:12:26Z</time>
      </trkpt>
      <trkpt lat="39.271293753011186" lon="118.43531231503721">
        <ele>-11.5</ele>
        <time>2024-03-29T23:12:27Z</time>
      </trkpt>
      <trkpt lat="39.27131656590929" lon="118.43531311034837">
        <ele>-11.5</ele>
        <time>2024-03-29T23:12:28Z</time>
      </trkpt>
      <trkpt lat="39.27133597358359" lon="118.43531395759882">
        <ele>-11.5</ele>
        <time>2024-03-29T23:12:29Z</time>
      </trkpt>
      <trkpt lat="39.27135386263733" lon="118.43531411158557">
        <ele>-11.5</ele>
        <time>2024-03-29T23:12:30Z</time>
      </trkpt>
      <trkpt lat="39.27137483295339" lon="118.43531037095175">
        <ele>-11.5</ele>
        <time>2024-03-29T23:12:31Z</time>
      </trkpt>
      <trkpt lat="39.27139848966421" lon="118.4353044010525">
        <ele>-11.5</ele>
        <time>2024-03-29T23:12:32Z</time>
      </trkpt>
      <trkpt lat="39.27142783713595" lon="118.43529725551439">
        <ele>-11.7</ele>
        <time>2024-03-29T23:12:34Z</time>
      </trkpt>
      <trkpt lat="39.27145286408801" lon="118.43529290454602">
        <ele>-11.7</ele>
        <time>2024-03-29T23:12:35Z</time>
      </trkpt>
      <trkpt lat="39.27147757849158" lon="118.43528999592894">
        <ele>-11.7</ele>
        <time>2024-03-29T23:12:36Z</time>
      </trkpt>
      <trkpt lat="39.27150324878486" lon="118.43528848065566">
        <ele>-11.7</ele>
        <time>2024-03-29T23:12:37Z</time>
      </trkpt>
      <trkpt lat="39.271532136866966" lon="118.43528734252068">
        <ele>-11.7</ele>
        <time>2024-03-29T23:12:38Z</time>
      </trkpt>
      <trkpt lat="39.271567528036485" lon="118.43528662483166">
        <ele>-11.7</ele>
        <time>2024-03-29T23:12:39Z</time>
      </trkpt>
      <trkpt lat="39.27160537202752" lon="118.4352864887996">
        <ele>-11.7</ele>
        <time>2024-03-29T23:12:40Z</time>
      </trkpt>
      <trkpt lat="39.27164770576248" lon="118.43528716449914">
        <ele>-11.7</ele>
        <time>2024-03-29T23:12:41Z</time>
      </trkpt>
      <trkpt lat="39.27168747420487" lon="118.43528751246564">
        <ele>-11.7</ele>
        <time>2024-03-29T23:12:42Z</time>
      </trkpt>
      <trkpt lat="39.27172343909993" lon="118.43528657499908">
        <ele>-11.8</ele>
        <time>2024-03-29T23:12:43Z</time>
      </trkpt>
      <trkpt lat="39.27175584372914" lon="118.43528454137247">
        <ele>-11.8</ele>
        <time>2024-03-29T23:12:44Z</time>
      </trkpt>
      <trkpt lat="39.271786179228684" lon="118.4352818619934">
        <ele>-11.8</ele>
        <time>2024-03-29T23:12:45Z</time>
      </trkpt>
      <trkpt lat="39.27181591802892" lon="118.43528014802378">
        <ele>-11.8</ele>
        <time>2024-03-29T23:12:46Z</time>
      </trkpt>
      <trkpt lat="39.27183909113943" lon="118.43528387377265">
        <ele>-11.8</ele>
        <time>2024-03-29T23:12:47Z</time>
      </trkpt>
      <trkpt lat="39.27185200289639" lon="118.43529081340552">
        <ele>-11.8</ele>
        <time>2024-03-29T23:12:48Z</time>
      </trkpt>
      <trkpt lat="39.271865024256044" lon="118.43529423954247">
        <ele>-11.8</ele>
        <time>2024-03-29T23:12:49Z</time>
      </trkpt>
      <trkpt lat="39.27188547638963" lon="118.43529021754263">
        <ele>-11.8</ele>
        <time>2024-03-29T23:12:50Z</time>
      </trkpt>
      <trkpt lat="39.271925058665445" lon="118.43528077423423">
        <ele>-11.8</ele>
        <time>2024-03-29T23:12:52Z</time>
      </trkpt>
      <trkpt lat="39.27196996969761" lon="118.43527147407947">
        <ele>-11.8</ele>
        <time>2024-03-29T23:12:53Z</time>
      </trkpt>
      <trkpt lat="39.272018974130894" lon="118.43526279595484">
        <ele>-11.8</ele>
        <time>2024-03-29T23:12:54Z</time>
      </trkpt>
      <trkpt lat="39.27206215729776" lon="118.43525684814921">
        <ele>-11.8</ele>
        <time>2024-03-29T23:12:55Z</time>
      </trkpt>
      <trkpt lat="39.27210134176399" lon="118.43525533257707">
        <ele>-11.8</ele>
        <time>2024-03-29T23:12:56Z</time>
      </trkpt>
      <trkpt lat="39.27213027233376" lon="118.43525277267246">
        <ele>-11.8</ele>
        <time>2024-03-29T23:12:57Z</time>
      </trkpt>
      <trkpt lat="39.27215442004775" lon="118.43524827721784">
        <ele>-11.8</ele>
        <time>2024-03-29T23:12:58Z</time>
      </trkpt>
      <trkpt lat="39.2721766190976" lon="118.43524093463085">
        <ele>-11.8</ele>
        <time>2024-03-29T23:12:59Z</time>
      </trkpt>
      <trkpt lat="39.27220160832885" lon="118.43524024975953">
        <ele>-11.8</ele>
        <time>2024-03-29T23:13:00Z</time>
      </trkpt>
      <trkpt lat="39.27222336556599" lon="118.43524450096963">
        <ele>-11.8</ele>
        <time>2024-03-29T23:13:01Z</time>
      </trkpt>
      <trkpt lat="39.27223951857127" lon="118.43524801081337">
        <ele>-11.8</ele>
        <time>2024-03-29T23:13:02Z</time>
      </trkpt>
      <trkpt lat="39.27225109921986" lon="118.43524713523216">
        <ele>-11.8</ele>
        <time>2024-03-29T23:13:03Z</time>
      </trkpt>
      <trkpt lat="39.27226225909928" lon="118.43524317878541">
        <ele>-11.8</ele>
        <time>2024-03-29T23:13:04Z</time>
      </trkpt>
      <trkpt lat="39.272276163868675" lon="118.43524051233703">
        <ele>-11.8</ele>
        <time>2024-03-29T23:13:05Z</time>
      </trkpt>
      <trkpt lat="39.27228654767213" lon="118.43523883240842">
        <ele>-11.8</ele>
        <time>2024-03-29T23:13:06Z</time>
      </trkpt>
      <trkpt lat="39.272305108123064" lon="118.43523792122181">
        <ele>-11.8</ele>
        <time>2024-03-29T23:13:07Z</time>
      </trkpt>
      <trkpt lat="39.2723303603007" lon="118.43523770069866">
        <ele>-11.8</ele>
        <time>2024-03-29T23:13:08Z</time>
      </trkpt>
      <trkpt lat="39.27237484763222" lon="118.43523506993147">
        <ele>-11.8</ele>
        <time>2024-03-29T23:13:10Z</time>
      </trkpt>
      <trkpt lat="39.27241792832522" lon="118.43523173746853">
        <ele>-11.8</ele>
        <time>2024-03-29T23:13:11Z</time>
      </trkpt>
      <trkpt lat="39.272461259486825" lon="118.43522818349072">
        <ele>-11.7</ele>
        <time>2024-03-29T23:13:13Z</time>
      </trkpt>
      <trkpt lat="39.27249209659256" lon="118.43522631932585">
        <ele>-11.7</ele>
        <time>2024-03-29T23:13:14Z</time>
      </trkpt>
      <trkpt lat="39.27252238454873" lon="118.43522404419963">
        <ele>-11.7</ele>
        <time>2024-03-29T23:13:15Z</time>
      </trkpt>
      <trkpt lat="39.27254693085825" lon="118.43522118307774">
        <ele>-11.7</ele>
        <time>2024-03-29T23:13:16Z</time>
      </trkpt>
      <trkpt lat="39.27257130613275" lon="118.43521791799401">
        <ele>-11.7</ele>
        <time>2024-03-29T23:13:17Z</time>
      </trkpt>
      <trkpt lat="39.27259418064926" lon="118.43521460812505">
        <ele>-11.7</ele>
        <time>2024-03-29T23:13:18Z</time>
      </trkpt>
      <trkpt lat="39.272617337167034" lon="118.43521063375317">
        <ele>-11.7</ele>
        <time>2024-03-29T23:13:19Z</time>
      </trkpt>
      <trkpt lat="39.272641609164936" lon="118.43520707065863">
        <ele>-11.7</ele>
        <time>2024-03-29T23:13:20Z</time>
      </trkpt>
      <trkpt lat="39.27266270618218" lon="118.43520469617977">
        <ele>-11.7</ele>
        <time>2024-03-29T23:13:22Z</time>
      </trkpt>
      <trkpt lat="39.27268169720389" lon="118.43520513940784">
        <ele>-11.7</ele>
        <time>2024-03-29T23:13:23Z</time>
      </trkpt>
      <trkpt lat="39.272693474368815" lon="118.43520786898408">
        <ele>-11.7</ele>
        <time>2024-03-29T23:13:24Z</time>
      </trkpt>
      <trkpt lat="39.272710183637706" lon="118.43521085482342">
        <ele>-11.7</ele>
        <time>2024-03-29T23:13:25Z</time>
      </trkpt>
      <trkpt lat="39.27273100787609" lon="118.43521453115696">
        <ele>-11.7</ele>
        <time>2024-03-29T23:13:26Z</time>
      </trkpt>
      <trkpt lat="39.27276214652551" lon="118.43521708792025">
        <ele>-11.7</ele>
        <time>2024-03-29T23:13:28Z</time>
      </trkpt>
      <trkpt lat="39.27279112207237" lon="118.43521981362936">
        <ele>-11.7</ele>
        <time>2024-03-29T23:13:29Z</time>
      </trkpt>
      <trkpt lat="39.27281904231565" lon="118.43522062858624">
        <ele>-11.7</ele>
        <time>2024-03-29T23:13:30Z</time>
      </trkpt>
      <trkpt lat="39.272846072991925" lon="118.43521967977449">
        <ele>-11.7</ele>
        <time>2024-03-29T23:13:31Z</time>
      </trkpt>
      <trkpt lat="39.27287271473434" lon="118.43521710375484">
        <ele>-11.7</ele>
        <time>2024-03-29T23:13:32Z</time>
      </trkpt>
      <trkpt lat="39.27289895764963" lon="118.43521358753765">
        <ele>-11.9</ele>
        <time>2024-03-29T23:13:33Z</time>
      </trkpt>
      <trkpt lat="39.27292964361896" lon="118.43520922464498">
        <ele>-11.9</ele>
        <time>2024-03-29T23:13:34Z</time>
      </trkpt>
      <trkpt lat="39.27296019264909" lon="118.43520497670929">
        <ele>-11.9</ele>
        <time>2024-03-29T23:13:35Z</time>
      </trkpt>
      <trkpt lat="39.272991342463044" lon="118.43520270374955">
        <ele>-11.9</ele>
        <time>2024-03-29T23:13:37Z</time>
      </trkpt>
      <trkpt lat="39.27301273604929" lon="118.43520266431042">
        <ele>-11.9</ele>
        <time>2024-03-29T23:13:38Z</time>
      </trkpt>
      <trkpt lat="39.27303213160787" lon="118.43520412063252">
        <ele>-11.9</ele>
        <time>2024-03-29T23:13:39Z</time>
      </trkpt>
      <trkpt lat="39.27304874890039" lon="118.43520584134095">
        <ele>-11.9</ele>
        <time>2024-03-29T23:13:40Z</time>
      </trkpt>
      <trkpt lat="39.27306198065971" lon="118.43521164418803">
        <ele>-11.9</ele>
        <time>2024-03-29T23:13:41Z</time>
      </trkpt>
      <trkpt lat="39.273066777604065" lon="118.43521861380499">
        <ele>-11.9</ele>
        <time>2024-03-29T23:13:42Z</time>
      </trkpt>
      <trkpt lat="39.27307123158132" lon="118.43522169339899">
        <ele>-12.1</ele>
        <time>2024-03-29T23:13:43Z</time>
      </trkpt>
      <trkpt lat="39.2730788976685" lon="118.43521993889682">
        <ele>-12.1</ele>
        <time>2024-03-29T23:13:44Z</time>
      </trkpt>
      <trkpt lat="39.27309759439476" lon="118.43521451115261">
        <ele>-12.1</ele>
        <time>2024-03-29T23:13:46Z</time>
      </trkpt>
      <trkpt lat="39.27312268926502" lon="118.43520968998357">
        <ele>-12.1</ele>
        <time>2024-03-29T23:13:47Z</time>
      </trkpt>
      <trkpt lat="39.27315227649404" lon="118.43520335474467">
        <ele>-12.1</ele>
        <time>2024-03-29T23:13:48Z</time>
      </trkpt>
      <trkpt lat="39.27318482697178" lon="118.43519723218049">
        <ele>-12.1</ele>
        <time>2024-03-29T23:13:49Z</time>
      </trkpt>
      <trkpt lat="39.27321418013845" lon="118.43519188578571">
        <ele>-12.1</ele>
        <time>2024-03-29T23:13:50Z</time>
      </trkpt>
      <trkpt lat="39.27324281262276" lon="118.43518662254769">
        <ele>-12.1</ele>
        <time>2024-03-29T23:13:51Z</time>
      </trkpt>
      <trkpt lat="39.27327174551928" lon="118.43518068972993">
        <ele>-12.1</ele>
        <time>2024-03-29T23:13:52Z</time>
      </trkpt>
      <trkpt lat="39.27330214914769" lon="118.43517556404608">
        <ele>-11.9</ele>
        <time>2024-03-29T23:13:53Z</time>
      </trkpt>
      <trkpt lat="39.27333313916188" lon="118.43517190440367">
        <ele>-11.9</ele>
        <time>2024-03-29T23:13:54Z</time>
      </trkpt>
      <trkpt lat="39.273359552649545" lon="118.43517047691658">
        <ele>-11.9</ele>
        <time>2024-03-29T23:13:55Z</time>
      </trkpt>
      <trkpt lat="39.27338570245146" lon="118.43516905429594">
        <ele>-11.9</ele>
        <time>2024-03-29T23:13:56Z</time>
      </trkpt>
      <trkpt lat="39.27340980439356" lon="118.43516681400631">
        <ele>-11.9</ele>
        <time>2024-03-29T23:13:57Z</time>
      </trkpt>
      <trkpt lat="39.27343392372198" lon="118.43516333524953">
        <ele>-11.9</ele>
        <time>2024-03-29T23:13:58Z</time>
      </trkpt>
      <trkpt lat="39.27345789192544" lon="118.4351619250802">
        <ele>-11.9</ele>
        <time>2024-03-29T23:13:59Z</time>
      </trkpt>
      <trkpt lat="39.273480333617535" lon="118.43516391542418">
        <ele>-11.9</ele>
        <time>2024-03-29T23:14:00Z</time>
      </trkpt>
      <trkpt lat="39.27349697238692" lon="118.4351651254292">
        <ele>-11.9</ele>
        <time>2024-03-29T23:14:01Z</time>
      </trkpt>
      <trkpt lat="39.27351217644424" lon="118.43516255387762">
        <ele>-11.9</ele>
        <time>2024-03-29T23:14:02Z</time>
      </trkpt>
      <trkpt lat="39.27353370723901" lon="118.43515429110793">
        <ele>-11.9</ele>
        <time>2024-03-29T23:14:04Z</time>
      </trkpt>
      <trkpt lat="39.27357210434635" lon="118.43514455358128">
        <ele>-11.9</ele>
        <time>2024-03-29T23:14:05Z</time>
      </trkpt>
      <trkpt lat="39.2736155690544" lon="118.4351349956809">
        <ele>-11.9</ele>
        <time>2024-03-29T23:14:06Z</time>
      </trkpt>
      <trkpt lat="39.273658265151916" lon="118.43512708855471">
        <ele>-11.9</ele>
        <time>2024-03-29T23:14:07Z</time>
      </trkpt>
      <trkpt lat="39.27369535338636" lon="118.43512117860993">
        <ele>-11.9</ele>
        <time>2024-03-29T23:14:08Z</time>
      </trkpt>
      <trkpt lat="39.273729364276896" lon="118.43511722810236">
        <ele>-11.9</ele>
        <time>2024-03-29T23:14:09Z</time>
      </trkpt>
      <trkpt lat="39.27376356943839" lon="118.43511570694622">
        <ele>-11.9</ele>
        <time>2024-03-29T23:14:10Z</time>
      </trkpt>
      <trkpt lat="39.27379315251166" lon="118.43511676825973">
        <ele>-11.9</ele>
        <time>2024-03-29T23:14:11Z</time>
      </trkpt>
      <trkpt lat="39.2738225504004" lon="118.43511900191145">
        <ele>-11.9</ele>
        <time>2024-03-29T23:14:12Z</time>
      </trkpt>
      <trkpt lat="39.27384559499045" lon="118.43512057758038">
        <ele>-11.1</ele>
        <time>2024-03-29T23:14:13Z</time>
      </trkpt>
      <trkpt lat="39.27386348051915" lon="118.43512208486754">
        <ele>-11.1</ele>
        <time>2024-03-29T23:14:14Z</time>
      </trkpt>
      <trkpt lat="39.273876796474376" lon="118.43512434932285">
        <ele>-11.1</ele>
        <time>2024-03-29T23:14:15Z</time>
      </trkpt>
      <trkpt lat="39.27388854629972" lon="118.43512818213841">
        <ele>-11.1</ele>
        <time>2024-03-29T23:14:16Z</time>
      </trkpt>
      <trkpt lat="39.27389976336553" lon="118.43512999896775">
        <ele>-11.1</ele>
        <time>2024-03-29T23:14:17Z</time>
      </trkpt>
      <trkpt lat="39.273914935515" lon="118.43512926791797">
        <ele>-11.1</ele>
        <time>2024-03-29T23:14:19Z</time>
      </trkpt>
      <trkpt lat="39.2739407536976" lon="118.43512460789299">
        <ele>-11.1</ele>
        <time>2024-03-29T23:14:20Z</time>
      </trkpt>
      <trkpt lat="39.273974844515116" lon="118.43512104995835">
        <ele>-11.1</ele>
        <time>2024-03-29T23:14:22Z</time>
      </trkpt>
      <trkpt lat="39.27401230351882" lon="118.43511866818089">
        <ele>-11.8</ele>
        <time>2024-03-29T23:14:23Z</time>
      </trkpt>
      <trkpt lat="39.27404388408514" lon="118.43511919695555">
        <ele>-11.8</ele>
        <time>2024-03-29T23:14:24Z</time>
      </trkpt>
      <trkpt lat="39.27407610261914" lon="118.4351199299923">
        <ele>-11.8</ele>
        <time>2024-03-29T23:14:25Z</time>
      </trkpt>
      <trkpt lat="39.274104918867884" lon="118.43512018599986">
        <ele>-11.8</ele>
        <time>2024-03-29T23:14:26Z</time>
      </trkpt>
      <trkpt lat="39.27413444634317" lon="118.4351189967756">
        <ele>-11.8</ele>
        <time>2024-03-29T23:14:27Z</time>
      </trkpt>
      <trkpt lat="39.274163810675795" lon="118.43511702540366">
        <ele>-11.8</ele>
        <time>2024-03-29T23:14:28Z</time>
      </trkpt>
      <trkpt lat="39.27419298068186" lon="118.43511446314557">
        <ele>-11.8</ele>
        <time>2024-03-29T23:14:29Z</time>
      </trkpt>
      <trkpt lat="39.27422314435081" lon="118.4351116712285">
        <ele>-11.8</ele>
        <time>2024-03-29T23:14:30Z</time>
      </trkpt>
      <trkpt lat="39.27424790718904" lon="118.43510977964384">
        <ele>-11.8</ele>
        <time>2024-03-29T23:14:31Z</time>
      </trkpt>
      <trkpt lat="39.27427007178208" lon="118.43510884308358">
        <ele>-11.8</ele>
        <time>2024-03-29T23:14:32Z</time>
      </trkpt>
      <trkpt lat="39.27428976197374" lon="118.43510649901252">
        <ele>-11.5</ele>
        <time>2024-03-29T23:14:33Z</time>
      </trkpt>
      <trkpt lat="39.274308670761876" lon="118.43510182633385">
        <ele>-11.5</ele>
        <time>2024-03-29T23:14:34Z</time>
      </trkpt>
      <trkpt lat="39.27432395115183" lon="118.4350950333968">
        <ele>-11.5</ele>
        <time>2024-03-29T23:14:35Z</time>
      </trkpt>
      <trkpt lat="39.27432736662055" lon="118.43509377838664">
        <ele>-11.5</ele>
        <time>2024-03-29T23:14:36Z</time>
      </trkpt>
      <trkpt lat="39.274334587760016" lon="118.43509768497542">
        <ele>-11.5</ele>
        <time>2024-03-29T23:14:37Z</time>
      </trkpt>
      <trkpt lat="39.27434634850874" lon="118.43510297890951">
        <ele>-11.5</ele>
        <time>2024-03-29T23:14:38Z</time>
      </trkpt>
      <trkpt lat="39.27437304311232" lon="118.43510230372716">
        <ele>-11.5</ele>
        <time>2024-03-29T23:14:40Z</time>
      </trkpt>
      <trkpt lat="39.27440064291525" lon="118.4350962102418">
        <ele>-11.5</ele>
        <time>2024-03-29T23:14:41Z</time>
      </trkpt>
      <trkpt lat="39.274433490094" lon="118.43509054400297">
        <ele>-11.5</ele>
        <time>2024-03-29T23:14:42Z</time>
      </trkpt>
      <trkpt lat="39.27446987364316" lon="118.43508751445724">
        <ele>-11.6</ele>
        <time>2024-03-29T23:14:43Z</time>
      </trkpt>
      <trkpt lat="39.27450850149384" lon="118.43508544490908">
        <ele>-11.6</ele>
        <time>2024-03-29T23:14:44Z</time>
      </trkpt>
      <trkpt lat="39.274548915727614" lon="118.43508188559063">
        <ele>-11.6</ele>
        <time>2024-03-29T23:14:45Z</time>
      </trkpt>
      <trkpt lat="39.27458624268521" lon="118.43507727927191">
        <ele>-11.6</ele>
        <time>2024-03-29T23:14:46Z</time>
      </trkpt>
      <trkpt lat="39.27462233724406" lon="118.43507293269353">
        <ele>-11.6</ele>
        <time>2024-03-29T23:14:47Z</time>
      </trkpt>
      <trkpt lat="39.27465568006663" lon="118.43506896102295">
        <ele>-11.6</ele>
        <time>2024-03-29T23:14:48Z</time>
      </trkpt>
      <trkpt lat="39.274684274894575" lon="118.4350659139682">
        <ele>-11.6</ele>
        <time>2024-03-29T23:14:49Z</time>
      </trkpt>
      <trkpt lat="39.274708659688464" lon="118.43506367144995">
        <ele>-11.6</ele>
        <time>2024-03-29T23:14:50Z</time>
      </trkpt>
      <trkpt lat="39.27473043081925" lon="118.43506204447962">
        <ele>-11.6</ele>
        <time>2024-03-29T23:14:51Z</time>
      </trkpt>
      <trkpt lat="39.274752415234566" lon="118.4350604433798">
        <ele>-11.6</ele>
        <time>2024-03-29T23:14:52Z</time>
      </trkpt>
      <trkpt lat="39.27477532662854" lon="118.43505862556158">
        <ele>-11.7</ele>
        <time>2024-03-29T23:14:53Z</time>
      </trkpt>
      <trkpt lat="39.27479879326363" lon="118.43505726205132">
        <ele>-11.7</ele>
        <time>2024-03-29T23:14:54Z</time>
      </trkpt>
      <trkpt lat="39.27482802816309" lon="118.4350564870576">
        <ele>-11.7</ele>
        <time>2024-03-29T23:14:55Z</time>
      </trkpt>
      <trkpt lat="39.27485878103324" lon="118.43505613502074">
        <ele>-11.7</ele>
        <time>2024-03-29T23:14:56Z</time>
      </trkpt>
      <trkpt lat="39.27489016193807" lon="118.43505184709026">
        <ele>-11.7</ele>
        <time>2024-03-29T23:14:58Z</time>
      </trkpt>
      <trkpt lat="39.27491452101119" lon="118.43504471534705">
        <ele>-11.7</ele>
        <time>2024-03-29T23:14:59Z</time>
      </trkpt>
      <trkpt lat="39.274935071288816" lon="118.43503714277396">
        <ele>-11.7</ele>
        <time>2024-03-29T23:15:00Z</time>
      </trkpt>
      <trkpt lat="39.274953225317226" lon="118.43503609671664">
        <ele>-11.7</ele>
        <time>2024-03-29T23:15:01Z</time>
      </trkpt>
      <trkpt lat="39.27497242419868" lon="118.43503756808207">
        <ele>-11.7</ele>
        <time>2024-03-29T23:15:02Z</time>
      </trkpt>
      <trkpt lat="39.274995206572235" lon="118.43503945517618">
        <ele>-11.5</ele>
        <time>2024-03-29T23:15:03Z</time>
      </trkpt>
      <trkpt lat="39.275017157536354" lon="118.4350386389439">
        <ele>-11.5</ele>
        <time>2024-03-29T23:15:04Z</time>
      </trkpt>
      <trkpt lat="39.2750398388102" lon="118.43503809440712">
        <ele>-11.5</ele>
        <time>2024-03-29T23:15:05Z</time>
      </trkpt>
      <trkpt lat="39.27506217337613" lon="118.43503396435084">
        <ele>-11.5</ele>
        <time>2024-03-29T23:15:06Z</time>
      </trkpt>
      <trkpt lat="39.275083437786265" lon="118.43502775659285">
        <ele>-11.5</ele>
        <time>2024-03-29T23:15:07Z</time>
      </trkpt>
      <trkpt lat="39.275102504453564" lon="118.43502131852419">
        <ele>-11.5</ele>
        <time>2024-03-29T23:15:08Z</time>
      </trkpt>
      <trkpt lat="39.27512083154034" lon="118.43502197075344">
        <ele>-11.5</ele>
        <time>2024-03-29T23:15:09Z</time>
      </trkpt>
      <trkpt lat="39.27514011267065" lon="118.43502521686834">
        <ele>-11.5</ele>
        <time>2024-03-29T23:15:10Z</time>
      </trkpt>
      <trkpt lat="39.2751633614528" lon="118.43502940484176">
        <ele>-11.5</ele>
        <time>2024-03-29T23:15:11Z</time>
      </trkpt>
      <trkpt lat="39.275184826523535" lon="118.43503055666939">
        <ele>-11.5</ele>
        <time>2024-03-29T23:15:12Z</time>
      </trkpt>
      <trkpt lat="39.27521613627934" lon="118.43503309969896">
        <ele>-11.3</ele>
        <time>2024-03-29T23:15:13Z</time>
      </trkpt>
      <trkpt lat="39.275253806321786" lon="118.435035760005">
        <ele>-11.3</ele>
        <time>2024-03-29T23:15:14Z</time>
      </trkpt>
      <trkpt lat="39.27530119698049" lon="118.43503385134797">
        <ele>-11.3</ele>
        <time>2024-03-29T23:15:16Z</time>
      </trkpt>
      <trkpt lat="39.275341952353855" lon="118.43502528698612">
        <ele>-11.3</ele>
        <time>2024-03-29T23:15:17Z</time>
      </trkpt>
      <trkpt lat="39.27537449502614" lon="118.43501270254768">
        <ele>-11.3</ele>
        <time>2024-03-29T23:15:18Z</time>
      </trkpt>
      <trkpt lat="39.27540141575738" lon="118.43500434971932">
        <ele>-11.3</ele>
        <time>2024-03-29T23:15:19Z</time>
      </trkpt>
      <trkpt lat="39.27542741004044" lon="118.43499765316761">
        <ele>-11.3</ele>
        <time>2024-03-29T23:15:20Z</time>
      </trkpt>
      <trkpt lat="39.275455145458565" lon="118.43499114648849">
        <ele>-11.3</ele>
        <time>2024-03-29T23:15:21Z</time>
      </trkpt>
      <trkpt lat="39.27548421325881" lon="118.43498159633238">
        <ele>-11.3</ele>
        <time>2024-03-29T23:15:22Z</time>
      </trkpt>
      <trkpt lat="39.275513192037295" lon="118.43497379111885">
        <ele>-11.8</ele>
        <time>2024-03-29T23:15:23Z</time>
      </trkpt>
      <trkpt lat="39.275541599016066" lon="118.43496820864978">
        <ele>-11.8</ele>
        <time>2024-03-29T23:15:24Z</time>
      </trkpt>
      <trkpt lat="39.27556744444642" lon="118.43496499829422">
        <ele>-11.8</ele>
        <time>2024-03-29T23:15:25Z</time>
      </trkpt>
      <trkpt lat="39.275590214173235" lon="118.43496289969184">
        <ele>-11.8</ele>
        <time>2024-03-29T23:15:26Z</time>
      </trkpt>
      <trkpt lat="39.27560788664102" lon="118.43495704396912">
        <ele>-11.8</ele>
        <time>2024-03-29T23:15:27Z</time>
      </trkpt>
      <trkpt lat="39.27561989243667" lon="118.43495064012082">
        <ele>-11.8</ele>
        <time>2024-03-29T23:15:28Z</time>
      </trkpt>
      <trkpt lat="39.275630018928446" lon="118.43494375205638">
        <ele>-11.8</ele>
        <time>2024-03-29T23:15:29Z</time>
      </trkpt>
      <trkpt lat="39.27564396164835" lon="118.43494118683617">
        <ele>-11.8</ele>
        <time>2024-03-29T23:15:30Z</time>
      </trkpt>
      <trkpt lat="39.27566494377893" lon="118.43493683465823">
        <ele>-11.8</ele>
        <time>2024-03-29T23:15:31Z</time>
      </trkpt>
      <trkpt lat="39.27569195863658" lon="118.43493153872411">
        <ele>-11.8</ele>
        <time>2024-03-29T23:15:32Z</time>
      </trkpt>
      <trkpt lat="39.275719569948706" lon="118.43492481189563">
        <ele>-11.7</ele>
        <time>2024-03-29T23:15:34Z</time>
      </trkpt>
      <trkpt lat="39.275744478885265" lon="118.4349197295032">
        <ele>-11.7</ele>
        <time>2024-03-29T23:15:35Z</time>
      </trkpt>
      <trkpt lat="39.27576796632182" lon="118.43491410489342">
        <ele>-11.7</ele>
        <time>2024-03-29T23:15:36Z</time>
      </trkpt>
      <trkpt lat="39.275789960481255" lon="118.43490668186637">
        <ele>-11.7</ele>
        <time>2024-03-29T23:15:37Z</time>
      </trkpt>
      <trkpt lat="39.275809690219155" lon="118.43489625232228">
        <ele>-11.7</ele>
        <time>2024-03-29T23:15:38Z</time>
      </trkpt>
      <trkpt lat="39.275824447197195" lon="118.43488292724027">
        <ele>-11.7</ele>
        <time>2024-03-29T23:15:39Z</time>
      </trkpt>
      <trkpt lat="39.27583517854813" lon="118.43486777352068">
        <ele>-11.7</ele>
        <time>2024-03-29T23:15:40Z</time>
      </trkpt>
      <trkpt lat="39.27584135461973" lon="118.43484907138263">
        <ele>-11.7</ele>
        <time>2024-03-29T23:15:41Z</time>
      </trkpt>
      <trkpt lat="39.27584383686476" lon="118.43483102667872">
        <ele>-11.7</ele>
        <time>2024-03-29T23:15:42Z</time>
      </trkpt>
      <trkpt lat="39.275843863156524" lon="118.43480967434719">
        <ele>-11.8</ele>
        <time>2024-03-29T23:15:43Z</time>
      </trkpt>
      <trkpt lat="39.27584281661307" lon="118.43478991411044">
        <ele>-11.8</ele>
        <time>2024-03-29T23:15:44Z</time>
      </trkpt>
      <trkpt lat="39.27584446755197" lon="118.43476582174895">
        <ele>-11.8</ele>
        <time>2024-03-29T23:15:45Z</time>
      </trkpt>
      <trkpt lat="39.27584764141595" lon="118.43474470927006">
        <ele>-11.8</ele>
        <time>2024-03-29T23:15:46Z</time>
      </trkpt>
      <trkpt lat="39.275851593808724" lon="118.43472548158363">
        <ele>-11.8</ele>
        <time>2024-03-29T23:15:47Z</time>
      </trkpt>
      <trkpt lat="39.275849369243474" lon="118.43471013860737">
        <ele>-11.8</ele>
        <time>2024-03-29T23:15:48Z</time>
      </trkpt>
      <trkpt lat="39.2758469924301" lon="118.43468557411607">
        <ele>-11.8</ele>
        <time>2024-03-29T23:15:49Z</time>
      </trkpt>
      <trkpt lat="39.27584752819636" lon="118.43464715613945">
        <ele>-11.8</ele>
        <time>2024-03-29T23:15:50Z</time>
      </trkpt>
      <trkpt lat="39.27585462665984" lon="118.43459824109505">
        <ele>-11.8</ele>
        <time>2024-03-29T23:15:52Z</time>
      </trkpt>
      <trkpt lat="39.275862503687016" lon="118.43454977766747">
        <ele>-11.3</ele>
        <time>2024-03-29T23:15:53Z</time>
      </trkpt>
      <trkpt lat="39.27586748690149" lon="118.43450453575001">
        <ele>-11.3</ele>
        <time>2024-03-29T23:15:54Z</time>
      </trkpt>
      <trkpt lat="39.27586896968008" lon="118.43446368319462">
        <ele>-11.3</ele>
        <time>2024-03-29T23:15:55Z</time>
      </trkpt>
      <trkpt lat="39.27586782224212" lon="118.43442662517421">
        <ele>-11.3</ele>
        <time>2024-03-29T23:15:56Z</time>
      </trkpt>
      <trkpt lat="39.27586607683801" lon="118.43439471262822">
        <ele>-11.3</ele>
        <time>2024-03-29T23:15:57Z</time>
      </trkpt>
      <trkpt lat="39.27586474629168" lon="118.43436107159857">
        <ele>-11.3</ele>
        <time>2024-03-29T23:15:58Z</time>
      </trkpt>
      <trkpt lat="39.27586397135266" lon="118.43432778280976">
        <ele>-11.3</ele>
        <time>2024-03-29T23:15:59Z</time>
      </trkpt>
      <trkpt lat="39.27586356488244" lon="118.43429452480568">
        <ele>-11.3</ele>
        <time>2024-03-29T23:16:00Z</time>
      </trkpt>
      <trkpt lat="39.275862913774795" lon="118.43426388464945">
        <ele>-11.3</ele>
        <time>2024-03-29T23:16:01Z</time>
      </trkpt>
      <trkpt lat="39.275862287886966" lon="118.43423530363403">
        <ele>-11.3</ele>
        <time>2024-03-29T23:16:02Z</time>
      </trkpt>
      <trkpt lat="39.27586146138773" lon="118.43420802101114">
        <ele>-11.5</ele>
        <time>2024-03-29T23:16:03Z</time>
      </trkpt>
      <trkpt lat="39.27586035073428" lon="118.43418028762264">
        <ele>-11.5</ele>
        <time>2024-03-29T23:16:04Z</time>
      </trkpt>
      <trkpt lat="39.27585866072439" lon="118.43415326198425">
        <ele>-11.5</ele>
        <time>2024-03-29T23:16:05Z</time>
      </trkpt>
      <trkpt lat="39.27585518685869" lon="118.43413102152192">
        <ele>-11.5</ele>
        <time>2024-03-29T23:16:06Z</time>
      </trkpt>
      <trkpt lat="39.27585022444449" lon="118.43410271700398">
        <ele>-11.5</ele>
        <time>2024-03-29T23:16:07Z</time>
      </trkpt>
      <trkpt lat="39.275846261186956" lon="118.43406037432923">
        <ele>-11.5</ele>
        <time>2024-03-29T23:16:08Z</time>
      </trkpt>
      <trkpt lat="39.27584521863258" lon="118.43400323281232">
        <ele>-11.5</ele>
        <time>2024-03-29T23:16:10Z</time>
      </trkpt>
      <trkpt lat="39.2758487361368" lon="118.43394622359229">
        <ele>-11.5</ele>
        <time>2024-03-29T23:16:11Z</time>
      </trkpt>
      <trkpt lat="39.27585383328884" lon="118.43389944214329">
        <ele>-11.5</ele>
        <time>2024-03-29T23:16:12Z</time>
      </trkpt>
      <trkpt lat="39.27585746758424" lon="118.43386129710859">
        <ele>-11.5</ele>
        <time>2024-03-29T23:16:13Z</time>
      </trkpt>
      <trkpt lat="39.2758558558775" lon="118.43382688942097">
        <ele>-11.5</ele>
        <time>2024-03-29T23:16:14Z</time>
      </trkpt>
      <trkpt lat="39.275851311696414" lon="118.43379258530821">
        <ele>-11.5</ele>
        <time>2024-03-29T23:16:15Z</time>
      </trkpt>
      <trkpt lat="39.275846089149596" lon="118.43375789327841">
        <ele>-11.5</ele>
        <time>2024-03-29T23:16:16Z</time>
      </trkpt>
      <trkpt lat="39.27584173754034" lon="118.43372506321252">
        <ele>-11.5</ele>
        <time>2024-03-29T23:16:17Z</time>
      </trkpt>
      <trkpt lat="39.27583724792478" lon="118.43369509002495">
        <ele>-11.5</ele>
        <time>2024-03-29T23:16:18Z</time>
      </trkpt>
      <trkpt lat="39.27583310197253" lon="118.43366900333467">
        <ele>-11.5</ele>
        <time>2024-03-29T23:16:19Z</time>
      </trkpt>
      <trkpt lat="39.27583025084493" lon="118.43364498006406">
        <ele>-11.5</ele>
        <time>2024-03-29T23:16:20Z</time>
      </trkpt>
      <trkpt lat="39.27582751533117" lon="118.43362225664633">
        <ele>-11.5</ele>
        <time>2024-03-29T23:16:21Z</time>
      </trkpt>
      <trkpt lat="39.27582787260288" lon="118.43359795608457">
        <ele>-11.5</ele>
        <time>2024-03-29T23:16:22Z</time>
      </trkpt>
      <trkpt lat="39.27582896756865" lon="118.4335791478146">
        <ele>-11.5</ele>
        <time>2024-03-29T23:16:23Z</time>
      </trkpt>
      <trkpt lat="39.2758291848394" lon="118.4335681186758">
        <ele>-11.5</ele>
        <time>2024-03-29T23:16:24Z</time>
      </trkpt>
      <trkpt lat="39.27582288032035" lon="118.43355309563484">
        <ele>-11.5</ele>
        <time>2024-03-29T23:16:25Z</time>
      </trkpt>
      <trkpt lat="39.27581578705534" lon="118.43352879193107">
        <ele>-11.5</ele>
        <time>2024-03-29T23:16:26Z</time>
      </trkpt>
      <trkpt lat="39.27581129388434" lon="118.4334890047286">
        <ele>-11.5</ele>
        <time>2024-03-29T23:16:28Z</time>
      </trkpt>
      <trkpt lat="39.2758125243874" lon="118.43344583955604">
        <ele>-11.5</ele>
        <time>2024-03-29T23:16:29Z</time>
      </trkpt>
      <trkpt lat="39.27581589586345" lon="118.43339690411362">
        <ele>-11.5</ele>
        <time>2024-03-29T23:16:30Z</time>
      </trkpt>
      <trkpt lat="39.27581944188799" lon="118.43334728047185">
        <ele>-11.5</ele>
        <time>2024-03-29T23:16:31Z</time>
      </trkpt>
      <trkpt lat="39.27582193998647" lon="118.43329438970963">
        <ele>-11.5</ele>
        <time>2024-03-29T23:16:32Z</time>
      </trkpt>
      <trkpt lat="39.27582311641007" lon="118.4332444955007">
        <ele>-11.5</ele>
        <time>2024-03-29T23:16:33Z</time>
      </trkpt>
      <trkpt lat="39.27582300747276" lon="118.43319442135477">
        <ele>-11.5</ele>
        <time>2024-03-29T23:16:34Z</time>
      </trkpt>
      <trkpt lat="39.275823109889785" lon="118.43314518432656">
        <ele>-11.5</ele>
        <time>2024-03-29T23:16:35Z</time>
      </trkpt>
      <trkpt lat="39.275824480596825" lon="118.43309806834392">
        <ele>-11.5</ele>
        <time>2024-03-29T23:16:36Z</time>
      </trkpt>
      <trkpt lat="39.275826996237164" lon="118.43305736247282">
        <ele>-11.5</ele>
        <time>2024-03-29T23:16:37Z</time>
      </trkpt>
      <trkpt lat="39.27582555337054" lon="118.4330237985892">
        <ele>-11.5</ele>
        <time>2024-03-29T23:16:38Z</time>
      </trkpt>
      <trkpt lat="39.275823004399285" lon="118.43299341711125">
        <ele>-11.5</ele>
        <time>2024-03-29T23:16:39Z</time>
      </trkpt>
      <trkpt lat="39.275819786933226" lon="118.43296357249282">
        <ele>-11.5</ele>
        <time>2024-03-29T23:16:40Z</time>
      </trkpt>
      <trkpt lat="39.275818578639274" lon="118.43293617527203">
        <ele>-11.5</ele>
        <time>2024-03-29T23:16:41Z</time>
      </trkpt>
      <trkpt lat="39.275815184290614" lon="118.43292067078701">
        <ele>-11.5</ele>
        <time>2024-03-29T23:16:42Z</time>
      </trkpt>
      <trkpt lat="39.27581052519853" lon="118.43290148537884">
        <ele>-11.2</ele>
        <time>2024-03-29T23:16:43Z</time>
      </trkpt>
      <trkpt lat="39.275808379696265" lon="118.43288280050014">
        <ele>-11.2</ele>
        <time>2024-03-29T23:16:44Z</time>
      </trkpt>
      <trkpt lat="39.27581339443111" lon="118.43285546075488">
        <ele>-11.2</ele>
        <time>2024-03-29T23:16:46Z</time>
      </trkpt>
      <trkpt lat="39.275822138720045" lon="118.43283551611977">
        <ele>-11.2</ele>
        <time>2024-03-29T23:16:47Z</time>
      </trkpt>
      <trkpt lat="39.27583347249028" lon="118.43281512171124">
        <ele>-11.2</ele>
        <time>2024-03-29T23:16:48Z</time>
      </trkpt>
      <trkpt lat="39.27584822638197" lon="118.4327904837963">
        <ele>-11.2</ele>
        <time>2024-03-29T23:16:49Z</time>
      </trkpt>
      <trkpt lat="39.27586991558093" lon="118.43276248475486">
        <ele>-11.2</ele>
        <time>2024-03-29T23:16:50Z</time>
      </trkpt>
      <trkpt lat="39.27589808682291" lon="118.43273521470068">
        <ele>-11.2</ele>
        <time>2024-03-29T23:16:51Z</time>
      </trkpt>
      <trkpt lat="39.27592946073597" lon="118.43271211347022">
        <ele>-11.2</ele>
        <time>2024-03-29T23:16:52Z</time>
      </trkpt>
      <trkpt lat="39.27596099289832" lon="118.43269204155611">
        <ele>-11.1</ele>
        <time>2024-03-29T23:16:53Z</time>
      </trkpt>
      <trkpt lat="39.27599357030947" lon="118.43267311698993">
        <ele>-11.1</ele>
        <time>2024-03-29T23:16:54Z</time>
      </trkpt>
      <trkpt lat="39.27602194705235" lon="118.43265620661596">
        <ele>-11.1</ele>
        <time>2024-03-29T23:16:55Z</time>
      </trkpt>
      <trkpt lat="39.27604892315048" lon="118.43264025205856">
        <ele>-11.1</ele>
        <time>2024-03-29T23:16:56Z</time>
      </trkpt>
      <trkpt lat="39.27607252190049" lon="118.4326273353726">
        <ele>-11.1</ele>
        <time>2024-03-29T23:16:57Z</time>
      </trkpt>
      <trkpt lat="39.27609621838301" lon="118.43261683549913">
        <ele>-11.1</ele>
        <time>2024-03-29T23:16:58Z</time>
      </trkpt>
      <trkpt lat="39.27612149966548" lon="118.43260745041515">
        <ele>-11.1</ele>
        <time>2024-03-29T23:16:59Z</time>
      </trkpt>
      <trkpt lat="39.27614629195287" lon="118.43259899293326">
        <ele>-11.1</ele>
        <time>2024-03-29T23:17:00Z</time>
      </trkpt>
      <trkpt lat="39.27617655707031" lon="118.43258928076877">
        <ele>-11.1</ele>
        <time>2024-03-29T23:17:01Z</time>
      </trkpt>
      <trkpt lat="39.276205047506714" lon="118.43258071980404">
        <ele>-11.1</ele>
        <time>2024-03-29T23:17:02Z</time>
      </trkpt>
      <trkpt lat="39.27623452388864" lon="118.4325724403499">
        <ele>-10.7</ele>
        <time>2024-03-29T23:17:04Z</time>
      </trkpt>
      <trkpt lat="39.27625822314307" lon="118.43256731881776">
        <ele>-10.7</ele>
        <time>2024-03-29T23:17:05Z</time>
      </trkpt>
      <trkpt lat="39.27628037682151" lon="118.43256309411665">
        <ele>-10.7</ele>
        <time>2024-03-29T23:17:06Z</time>
      </trkpt>
      <trkpt lat="39.2763003872671" lon="118.43256081602297">
        <ele>-10.7</ele>
        <time>2024-03-29T23:17:07Z</time>
      </trkpt>
      <trkpt lat="39.27630986982749" lon="118.43255959160166">
        <ele>0</ele>
        <time>2024-03-29T23:17:08Z</time>
      </trkpt>
    </trkseg>
  </trk>
</gpx>