<?xml version="1.0" encoding="UTF-8"?>
<gpx xmlns="http://www.topografix.com/GPX/1/1" xmlns:gpxtpx="http://www.garmin.com/xmlschemas/TrackPointExtension/v1" xmlns:xsi="http://www.w3.org/2001/XMLSchema-instance" xsi:schemaLocation="http://www.topografix.com/GPX/1/1 http://www.topografix.com/GPX/1/1/gpx.xsd" version="1.1" creator="gpx.py -- https://github.com/tkrajina/gpxpy">
  <trk>
    <name>gpx from codoon</name>
    <type>Run</type>
    <trkseg>
      <trkpt lat="39.79283" lon="116.47874">
        <ele>31.81232</ele>
        <time>2014-08-27T12:39:43.103000Z</time>
      </trkpt>
      <trkpt lat="39.79291" lon="116.47881">
        <ele>35.90436</ele>
        <time>2014-08-27T12:39:49.549000Z</time>
      </trkpt>
      <trkpt lat="39.79298" lon="116.4789">
        <ele>38.82819</ele>
        <time>2014-08-27T12:39:53.968000Z</time>
      </trkpt>
      <trkpt lat="39.793" lon="116.47902">
        <ele>39.94281</ele>
        <time>2014-08-27T12:40:02.964000Z</time>
      </trkpt>
      <trkpt lat="39.79305" lon="116.47914">
        <ele>43.21814</ele>
        <time>2014-08-27T12:40:08.980000Z</time>
      </trkpt>
      <trkpt lat="39.79311" lon="116.47923">
        <ele>42.42261</ele>
        <time>2014-08-27T12:40:13.966000Z</time>
      </trkpt>
      <trkpt lat="39.79317" lon="116.47933">
        <ele>39.28595</ele>
        <time>2014-08-27T12:40:19.016000Z</time>
      </trkpt>
      <trkpt lat="39.79323" lon="116.47944">
        <ele>36.46588</ele>
        <time>2014-08-27T12:40:24.040000Z</time>
      </trkpt>
      <trkpt lat="39.79329" lon="116.47954">
        <ele>35.75665</ele>
        <time>2014-08-27T12:40:29.969000Z</time>
      </trkpt>
      <trkpt lat="39.79334" lon="116.47965">
        <ele>34.73889</ele>
        <time>2014-08-27T12:40:35.982000Z</time>
      </trkpt>
      <trkpt lat="39.79338" lon="116.47976">
        <ele>32.14111</ele>
        <time>2014-08-27T12:40:49.987000Z</time>
      </trkpt>
      <trkpt lat="39.79342" lon="116.47986">
        <ele>35.55212</ele>
        <time>2014-08-27T12:40:59.977000Z</time>
      </trkpt>
      <trkpt lat="39.79349" lon="116.47995">
        <ele>33.72272</ele>
        <time>2014-08-27T12:41:07.967000Z</time>
      </trkpt>
      <trkpt lat="39.79355" lon="116.48005">
        <ele>37.03668</ele>
        <time>2014-08-27T12:41:20.995000Z</time>
      </trkpt>
      <trkpt lat="39.79359" lon="116.48016">
        <ele>32.50275</ele>
        <time>2014-08-27T12:41:28.982000Z</time>
      </trkpt>
      <trkpt lat="39.79364" lon="116.48029">
        <ele>30.13049</ele>
        <time>2014-08-27T12:41:34.052000Z</time>
      </trkpt>
      <trkpt lat="39.79369" lon="116.48039">
        <ele>29.84387</ele>
        <time>2014-08-27T12:41:38.021000Z</time>
      </trkpt>
      <trkpt lat="39.79375" lon="116.48048">
        <ele>30.19232</ele>
        <time>2014-08-27T12:41:42.025000Z</time>
      </trkpt>
      <trkpt lat="39.79382" lon="116.48057">
        <ele>30.13757</ele>
        <time>2014-08-27T12:41:47.033000Z</time>
      </trkpt>
      <trkpt lat="39.79388" lon="116.48066">
        <ele>24.00214</ele>
        <time>2014-08-27T12:41:51.015000Z</time>
      </trkpt>
      <trkpt lat="39.79392" lon="116.48077">
        <ele>23.34613</ele>
        <time>2014-08-27T12:41:55.026000Z</time>
      </trkpt>
      <trkpt lat="39.79396" lon="116.48088">
        <ele>23.74359</ele>
        <time>2014-08-27T12:41:59.057000Z</time>
      </trkpt>
      <trkpt lat="39.794" lon="116.48101">
        <ele>26.68359</ele>
        <time>2014-08-27T12:42:03.996000Z</time>
      </trkpt>
      <trkpt lat="39.79406" lon="116.48111">
        <ele>25.48749</ele>
        <time>2014-08-27T12:42:09.041000Z</time>
      </trkpt>
      <trkpt lat="39.79411" lon="116.48121">
        <ele>25.41046</ele>
        <time>2014-08-27T12:42:12.997000Z</time>
      </trkpt>
      <trkpt lat="39.79414" lon="116.48134">
        <ele>24.11353</ele>
        <time>2014-08-27T12:42:16.995000Z</time>
      </trkpt>
      <trkpt lat="39.79419" lon="116.48146">
        <ele>23.62854</ele>
        <time>2014-08-27T12:42:21.026000Z</time>
      </trkpt>
      <trkpt lat="39.79425" lon="116.48156">
        <ele>25.04926</ele>
        <time>2014-08-27T12:42:25.030000Z</time>
      </trkpt>
      <trkpt lat="39.7943" lon="116.48165">
        <ele>25.68762</ele>
        <time>2014-08-27T12:42:28.997000Z</time>
      </trkpt>
      <trkpt lat="39.79435" lon="116.48176">
        <ele>25.13092</ele>
        <time>2014-08-27T12:42:34.033000Z</time>
      </trkpt>
      <trkpt lat="39.7944" lon="116.48188">
        <ele>29.24237</ele>
        <time>2014-08-27T12:42:40.055000Z</time>
      </trkpt>
      <trkpt lat="39.79447" lon="116.482">
        <ele>29.4491</ele>
        <time>2014-08-27T12:42:45.077000Z</time>
      </trkpt>
      <trkpt lat="39.79453" lon="116.48209">
        <ele>29.82843</ele>
        <time>2014-08-27T12:42:49.069000Z</time>
      </trkpt>
      <trkpt lat="39.79459" lon="116.4822">
        <ele>27.78949</ele>
        <time>2014-08-27T12:42:53.046000Z</time>
      </trkpt>
      <trkpt lat="39.79465" lon="116.48233">
        <ele>25.83966</ele>
        <time>2014-08-27T12:42:57.007000Z</time>
      </trkpt>
      <trkpt lat="39.7947" lon="116.48246">
        <ele>25.05847</ele>
        <time>2014-08-27T12:43:00.968000Z</time>
      </trkpt>
      <trkpt lat="39.79476" lon="116.48258">
        <ele>25.53705</ele>
        <time>2014-08-27T12:43:05.044000Z</time>
      </trkpt>
      <trkpt lat="39.79482" lon="116.48269">
        <ele>28.57953</ele>
        <time>2014-08-27T12:43:10.049000Z</time>
      </trkpt>
      <trkpt lat="39.79488" lon="116.48282">
        <ele>34.46155</ele>
        <time>2014-08-27T12:43:15.978000Z</time>
      </trkpt>
      <trkpt lat="39.79492" lon="116.48295">
        <ele>36.20612</ele>
        <time>2014-08-27T12:43:19.973000Z</time>
      </trkpt>
      <trkpt lat="39.79498" lon="116.48305">
        <ele>36.53961</ele>
        <time>2014-08-27T12:43:26.045000Z</time>
      </trkpt>
      <trkpt lat="39.79505" lon="116.48318">
        <ele>35.00421</ele>
        <time>2014-08-27T12:43:30.973000Z</time>
      </trkpt>
      <trkpt lat="39.79504" lon="116.4833">
        <ele>34.01202</ele>
        <time>2014-08-27T12:43:33.966000Z</time>
      </trkpt>
      <trkpt lat="39.79501" lon="116.48345">
        <ele>30.96893</ele>
        <time>2014-08-27T12:43:37.975000Z</time>
      </trkpt>
      <trkpt lat="39.79499" lon="116.48358">
        <ele>28.68018</ele>
        <time>2014-08-27T12:43:41.969000Z</time>
      </trkpt>
      <trkpt lat="39.79497" lon="116.48374">
        <ele>30.19733</ele>
        <time>2014-08-27T12:43:46.048000Z</time>
      </trkpt>
      <trkpt lat="39.79496" lon="116.48389">
        <ele>29.21515</ele>
        <time>2014-08-27T12:43:50.036000Z</time>
      </trkpt>
      <trkpt lat="39.79494" lon="116.48401">
        <ele>30.61157</ele>
        <time>2014-08-27T12:43:53.986000Z</time>
      </trkpt>
      <trkpt lat="39.79492" lon="116.48414">
        <ele>31.36774</ele>
        <time>2014-08-27T12:43:58.031000Z</time>
      </trkpt>
      <trkpt lat="39.79489" lon="116.48427">
        <ele>32.20728</ele>
        <time>2014-08-27T12:44:02.052000Z</time>
      </trkpt>
      <trkpt lat="39.79487" lon="116.4844">
        <ele>34.49658</ele>
        <time>2014-08-27T12:44:06.042000Z</time>
      </trkpt>
      <trkpt lat="39.79486" lon="116.48452">
        <ele>29.87604</ele>
        <time>2014-08-27T12:44:09.975000Z</time>
      </trkpt>
      <trkpt lat="39.79486" lon="116.48465">
        <ele>30.28125</ele>
        <time>2014-08-27T12:44:13.974000Z</time>
      </trkpt>
      <trkpt lat="39.79484" lon="116.48478">
        <ele>31.10852</ele>
        <time>2014-08-27T12:44:16.974000Z</time>
      </trkpt>
      <trkpt lat="39.79483" lon="116.48491">
        <ele>31.53217</ele>
        <time>2014-08-27T12:44:19.970000Z</time>
      </trkpt>
      <trkpt lat="39.79482" lon="116.48505">
        <ele>26.09595</ele>
        <time>2014-08-27T12:44:23.981000Z</time>
      </trkpt>
      <trkpt lat="39.7948" lon="116.48517">
        <ele>25.80475</ele>
        <time>2014-08-27T12:44:28.047000Z</time>
      </trkpt>
      <trkpt lat="39.79477" lon="116.4853">
        <ele>22.88086</ele>
        <time>2014-08-27T12:44:31.985000Z</time>
      </trkpt>
      <trkpt lat="39.79475" lon="116.48543">
        <ele>20.83185</ele>
        <time>2014-08-27T12:44:35.976000Z</time>
      </trkpt>
      <trkpt lat="39.79474" lon="116.48555">
        <ele>20.02759</ele>
        <time>2014-08-27T12:44:40.001000Z</time>
      </trkpt>
      <trkpt lat="39.79471" lon="116.48567">
        <ele>20.19061</ele>
        <time>2014-08-27T12:44:43.986000Z</time>
      </trkpt>
      <trkpt lat="39.79468" lon="116.48581">
        <ele>22.59204</ele>
        <time>2014-08-27T12:44:48.066000Z</time>
      </trkpt>
      <trkpt lat="39.79463" lon="116.48596">
        <ele>20.71332</ele>
        <time>2014-08-27T12:44:52.082000Z</time>
      </trkpt>
      <trkpt lat="39.7946" lon="116.4861">
        <ele>22.58502</ele>
        <time>2014-08-27T12:44:56.011000Z</time>
      </trkpt>
      <trkpt lat="39.79457" lon="116.48625">
        <ele>20.35352</ele>
        <time>2014-08-27T12:45:00.035000Z</time>
      </trkpt>
      <trkpt lat="39.79455" lon="116.48638">
        <ele>22.50684</ele>
        <time>2014-08-27T12:45:04.034000Z</time>
      </trkpt>
      <trkpt lat="39.79452" lon="116.4865">
        <ele>23.68982</ele>
        <time>2014-08-27T12:45:09.072000Z</time>
      </trkpt>
      <trkpt lat="39.7945" lon="116.48662">
        <ele>29.91315</ele>
        <time>2014-08-27T12:45:17.970000Z</time>
      </trkpt>
      <trkpt lat="39.79449" lon="116.48675">
        <ele>31.05457</ele>
        <time>2014-08-27T12:45:24.978000Z</time>
      </trkpt>
      <trkpt lat="39.79447" lon="116.4869">
        <ele>31.88831</ele>
        <time>2014-08-27T12:45:28.978000Z</time>
      </trkpt>
      <trkpt lat="39.79445" lon="116.48704">
        <ele>30.57098</ele>
        <time>2014-08-27T12:45:33.008000Z</time>
      </trkpt>
      <trkpt lat="39.79442" lon="116.48716">
        <ele>29.41315</ele>
        <time>2014-08-27T12:45:36.982000Z</time>
      </trkpt>
      <trkpt lat="39.7944" lon="116.4873">
        <ele>28.39581</ele>
        <time>2014-08-27T12:45:41.034000Z</time>
      </trkpt>
      <trkpt lat="39.79438" lon="116.48745">
        <ele>25.1156</ele>
        <time>2014-08-27T12:45:45.048000Z</time>
      </trkpt>
      <trkpt lat="39.79436" lon="116.4876">
        <ele>22.75494</ele>
        <time>2014-08-27T12:45:49.081000Z</time>
      </trkpt>
      <trkpt lat="39.79435" lon="116.48775">
        <ele>23.1153</ele>
        <time>2014-08-27T12:45:52.976000Z</time>
      </trkpt>
      <trkpt lat="39.79432" lon="116.48789">
        <ele>21.20844</ele>
        <time>2014-08-27T12:45:57.058000Z</time>
      </trkpt>
      <trkpt lat="39.79431" lon="116.48803">
        <ele>20.59351</ele>
        <time>2014-08-27T12:46:01.055000Z</time>
      </trkpt>
      <trkpt lat="39.79428" lon="116.48816">
        <ele>24.30853</ele>
        <time>2014-08-27T12:46:04.979000Z</time>
      </trkpt>
      <trkpt lat="39.79427" lon="116.48828">
        <ele>21.802</ele>
        <time>2014-08-27T12:46:07.975000Z</time>
      </trkpt>
      <trkpt lat="39.79422" lon="116.48838">
        <ele>24.58832</ele>
        <time>2014-08-27T12:46:10.985000Z</time>
      </trkpt>
      <trkpt lat="39.79421" lon="116.48853">
        <ele>28.39954</ele>
        <time>2014-08-27T12:46:14.981000Z</time>
      </trkpt>
      <trkpt lat="39.79421" lon="116.48867">
        <ele>30.77863</ele>
        <time>2014-08-27T12:46:18.978000Z</time>
      </trkpt>
      <trkpt lat="39.79419" lon="116.48881">
        <ele>29.01422</ele>
        <time>2014-08-27T12:46:22.985000Z</time>
      </trkpt>
      <trkpt lat="39.79418" lon="116.48894">
        <ele>27.12415</ele>
        <time>2014-08-27T12:46:26.017000Z</time>
      </trkpt>
      <trkpt lat="39.79417" lon="116.48908">
        <ele>28.17133</ele>
        <time>2014-08-27T12:46:29.971000Z</time>
      </trkpt>
      <trkpt lat="39.79417" lon="116.48924">
        <ele>28.89783</ele>
        <time>2014-08-27T12:46:33.976000Z</time>
      </trkpt>
      <trkpt lat="39.79414" lon="116.48936">
        <ele>31.02618</ele>
        <time>2014-08-27T12:46:37.009000Z</time>
      </trkpt>
      <trkpt lat="39.7941" lon="116.48947">
        <ele>30.93677</ele>
        <time>2014-08-27T12:46:39.977000Z</time>
      </trkpt>
      <trkpt lat="39.79408" lon="116.4896">
        <ele>31.08807</ele>
        <time>2014-08-27T12:46:42.977000Z</time>
      </trkpt>
      <trkpt lat="39.79405" lon="116.48973">
        <ele>31.75043</ele>
        <time>2014-08-27T12:46:45.975000Z</time>
      </trkpt>
      <trkpt lat="39.79403" lon="116.48986">
        <ele>30.95117</ele>
        <time>2014-08-27T12:46:48.975000Z</time>
      </trkpt>
      <trkpt lat="39.79401" lon="116.49001">
        <ele>31.00006</ele>
        <time>2014-08-27T12:46:52.974000Z</time>
      </trkpt>
      <trkpt lat="39.79399" lon="116.49016">
        <ele>34.91833</ele>
        <time>2014-08-27T12:46:56.972000Z</time>
      </trkpt>
      <trkpt lat="39.79399" lon="116.49031">
        <ele>29.73962</ele>
        <time>2014-08-27T12:47:01.038000Z</time>
      </trkpt>
      <trkpt lat="39.79396" lon="116.49045">
        <ele>27.20612</ele>
        <time>2014-08-27T12:47:03.983000Z</time>
      </trkpt>
      <trkpt lat="39.79394" lon="116.49059">
        <ele>25.65936</ele>
        <time>2014-08-27T12:47:07.048000Z</time>
      </trkpt>
      <trkpt lat="39.79391" lon="116.4907">
        <ele>20.591</ele>
        <time>2014-08-27T12:47:10.028000Z</time>
      </trkpt>
      <trkpt lat="39.79391" lon="116.49083">
        <ele>23.41809</ele>
        <time>2014-08-27T12:47:13.973000Z</time>
      </trkpt>
      <trkpt lat="39.79389" lon="116.49095">
        <ele>27.19641</ele>
        <time>2014-08-27T12:47:17.978000Z</time>
      </trkpt>
      <trkpt lat="39.79387" lon="116.49111">
        <ele>26.45587</ele>
        <time>2014-08-27T12:47:21.973000Z</time>
      </trkpt>
      <trkpt lat="39.79385" lon="116.49124">
        <ele>24.89355</ele>
        <time>2014-08-27T12:47:25.022000Z</time>
      </trkpt>
      <trkpt lat="39.79381" lon="116.49137">
        <ele>23.77515</ele>
        <time>2014-08-27T12:47:28.977000Z</time>
      </trkpt>
      <trkpt lat="39.79379" lon="116.49149">
        <ele>27.64679</ele>
        <time>2014-08-27T12:47:33.973000Z</time>
      </trkpt>
      <trkpt lat="39.79376" lon="116.49163">
        <ele>27.39813</ele>
        <time>2014-08-27T12:47:37.982000Z</time>
      </trkpt>
      <trkpt lat="39.79373" lon="116.49175">
        <ele>30.05884</ele>
        <time>2014-08-27T12:47:41.980000Z</time>
      </trkpt>
      <trkpt lat="39.79372" lon="116.49187">
        <ele>28.67212</ele>
        <time>2014-08-27T12:47:45.982000Z</time>
      </trkpt>
      <trkpt lat="39.79369" lon="116.49199">
        <ele>29.8573</ele>
        <time>2014-08-27T12:47:48.976000Z</time>
      </trkpt>
      <trkpt lat="39.79367" lon="116.49214">
        <ele>30.25891</ele>
        <time>2014-08-27T12:47:52.975000Z</time>
      </trkpt>
      <trkpt lat="39.79364" lon="116.49226">
        <ele>29.58246</ele>
        <time>2014-08-27T12:47:56.974000Z</time>
      </trkpt>
      <trkpt lat="39.79364" lon="116.49238">
        <ele>31.4353</ele>
        <time>2014-08-27T12:48:00.984000Z</time>
      </trkpt>
      <trkpt lat="39.79363" lon="116.49253">
        <ele>28.76489</ele>
        <time>2014-08-27T12:48:05.071000Z</time>
      </trkpt>
      <trkpt lat="39.79359" lon="116.49268">
        <ele>28.2666</ele>
        <time>2014-08-27T12:48:09.040000Z</time>
      </trkpt>
      <trkpt lat="39.79354" lon="116.49278">
        <ele>28.01837</ele>
        <time>2014-08-27T12:48:11.987000Z</time>
      </trkpt>
      <trkpt lat="39.79353" lon="116.49292">
        <ele>30.25006</ele>
        <time>2014-08-27T12:48:15.972000Z</time>
      </trkpt>
      <trkpt lat="39.79354" lon="116.49306">
        <ele>26.86047</ele>
        <time>2014-08-27T12:48:19.977000Z</time>
      </trkpt>
      <trkpt lat="39.79349" lon="116.49317">
        <ele>24.79773</ele>
        <time>2014-08-27T12:48:22.983000Z</time>
      </trkpt>
      <trkpt lat="39.79346" lon="116.49328">
        <ele>24.3385</ele>
        <time>2014-08-27T12:48:26.034000Z</time>
      </trkpt>
      <trkpt lat="39.79341" lon="116.49343">
        <ele>25.7948</ele>
        <time>2014-08-27T12:48:30.020000Z</time>
      </trkpt>
      <trkpt lat="39.79339" lon="116.49355">
        <ele>27.11517</ele>
        <time>2014-08-27T12:48:35.031000Z</time>
      </trkpt>
      <trkpt lat="39.79338" lon="116.49367">
        <ele>26.47809</ele>
        <time>2014-08-27T12:48:45.043000Z</time>
      </trkpt>
      <trkpt lat="39.79338" lon="116.4938">
        <ele>27.69971</ele>
        <time>2014-08-27T12:48:52.041000Z</time>
      </trkpt>
      <trkpt lat="39.79337" lon="116.49393">
        <ele>26.8714</ele>
        <time>2014-08-27T12:48:59.978000Z</time>
      </trkpt>
      <trkpt lat="39.79347" lon="116.49393">
        <ele>25.06183</ele>
        <time>2014-08-27T12:49:41.981000Z</time>
      </trkpt>
      <trkpt lat="39.79353" lon="116.49401">
        <ele>22.74872</ele>
        <time>2014-08-27T12:49:47.051000Z</time>
      </trkpt>
      <trkpt lat="39.79353" lon="116.49416">
        <ele>17.38971</ele>
        <time>2014-08-27T12:49:51.037000Z</time>
      </trkpt>
      <trkpt lat="39.79351" lon="116.49429">
        <ele>17.91263</ele>
        <time>2014-08-27T12:49:54.989000Z</time>
      </trkpt>
      <trkpt lat="39.7935" lon="116.49441">
        <ele>18.23553</ele>
        <time>2014-08-27T12:49:59.048000Z</time>
      </trkpt>
      <trkpt lat="39.79347" lon="116.49452">
        <ele>17.5311</ele>
        <time>2014-08-27T12:50:03.049000Z</time>
      </trkpt>
      <trkpt lat="39.79344" lon="116.49465">
        <ele>15.68005</ele>
        <time>2014-08-27T12:50:08.975000Z</time>
      </trkpt>
      <trkpt lat="39.79342" lon="116.49478">
        <ele>15.19</ele>
        <time>2014-08-27T12:50:12.991000Z</time>
      </trkpt>
      <trkpt lat="39.7934" lon="116.4949">
        <ele>13.17535</ele>
        <time>2014-08-27T12:50:16.975000Z</time>
      </trkpt>
      <trkpt lat="39.79339" lon="116.49504">
        <ele>13.48975</ele>
        <time>2014-08-27T12:50:21.993000Z</time>
      </trkpt>
      <trkpt lat="39.79338" lon="116.49516">
        <ele>11.62057</ele>
        <time>2014-08-27T12:50:25.990000Z</time>
      </trkpt>
      <trkpt lat="39.79336" lon="116.49529">
        <ele>12.88092</ele>
        <time>2014-08-27T12:50:29.994000Z</time>
      </trkpt>
      <trkpt lat="39.79333" lon="116.49543">
        <ele>7.85599</ele>
        <time>2014-08-27T12:50:33.982000Z</time>
      </trkpt>
      <trkpt lat="39.79331" lon="116.49556">
        <ele>8.24088</ele>
        <time>2014-08-27T12:50:39.033000Z</time>
      </trkpt>
      <trkpt lat="39.79337" lon="116.49568">
        <ele>8.92941</ele>
        <time>2014-08-27T12:50:46.044000Z</time>
      </trkpt>
      <trkpt lat="39.79341" lon="116.49579">
        <ele>7.55228</ele>
        <time>2014-08-27T12:50:50.039000Z</time>
      </trkpt>
      <trkpt lat="39.7934" lon="116.49593">
        <ele>6.60605</ele>
        <time>2014-08-27T12:50:54.008000Z</time>
      </trkpt>
      <trkpt lat="39.79344" lon="116.49603">
        <ele>5.06042</ele>
        <time>2014-08-27T12:50:57.975000Z</time>
      </trkpt>
      <trkpt lat="39.7935" lon="116.49613">
        <ele>6.14047</ele>
        <time>2014-08-27T12:51:02.067000Z</time>
      </trkpt>
      <trkpt lat="39.79349" lon="116.49626">
        <ele>8.70389</ele>
        <time>2014-08-27T12:51:06.055000Z</time>
      </trkpt>
      <trkpt lat="39.79346" lon="116.4964">
        <ele>12.78452</ele>
        <time>2014-08-27T12:51:10.037000Z</time>
      </trkpt>
      <trkpt lat="39.79343" lon="116.49655">
        <ele>13.20035</ele>
        <time>2014-08-27T12:51:13.990000Z</time>
      </trkpt>
      <trkpt lat="39.79341" lon="116.49668">
        <ele>11.26401</ele>
        <time>2014-08-27T12:51:18.004000Z</time>
      </trkpt>
      <trkpt lat="39.79338" lon="116.49681">
        <ele>12.05383</ele>
        <time>2014-08-27T12:51:22.051000Z</time>
      </trkpt>
      <trkpt lat="39.79338" lon="116.49694">
        <ele>13.79913</ele>
        <time>2014-08-27T12:51:26.026000Z</time>
      </trkpt>
      <trkpt lat="39.79337" lon="116.49707">
        <ele>14.05362</ele>
        <time>2014-08-27T12:51:30.055000Z</time>
      </trkpt>
      <trkpt lat="39.79341" lon="116.49719">
        <ele>12.9057</ele>
        <time>2014-08-27T12:51:33.983000Z</time>
      </trkpt>
      <trkpt lat="39.79346" lon="116.49731">
        <ele>12.98511</ele>
        <time>2014-08-27T12:51:37.980000Z</time>
      </trkpt>
      <trkpt lat="39.79353" lon="116.4974">
        <ele>15.66705</ele>
        <time>2014-08-27T12:51:41.994000Z</time>
      </trkpt>
      <trkpt lat="39.79359" lon="116.4975">
        <ele>15.08334</ele>
        <time>2014-08-27T12:51:45.983000Z</time>
      </trkpt>
      <trkpt lat="39.79367" lon="116.49758">
        <ele>15.73331</ele>
        <time>2014-08-27T12:51:49.989000Z</time>
      </trkpt>
      <trkpt lat="39.79375" lon="116.49764">
        <ele>12.35571</ele>
        <time>2014-08-27T12:51:53.996000Z</time>
      </trkpt>
      <trkpt lat="39.79382" lon="116.49773">
        <ele>12.43515</ele>
        <time>2014-08-27T12:51:57.981000Z</time>
      </trkpt>
      <trkpt lat="39.7939" lon="116.49781">
        <ele>10.14273</ele>
        <time>2014-08-27T12:52:01.983000Z</time>
      </trkpt>
      <trkpt lat="39.79397" lon="116.49792">
        <ele>7.29755</ele>
        <time>2014-08-27T12:52:05.996000Z</time>
      </trkpt>
      <trkpt lat="39.79402" lon="116.49802">
        <ele>6.62317</ele>
        <time>2014-08-27T12:52:09.984000Z</time>
      </trkpt>
      <trkpt lat="39.79406" lon="116.49815">
        <ele>5.03934</ele>
        <time>2014-08-27T12:52:13.988000Z</time>
      </trkpt>
      <trkpt lat="39.7941" lon="116.49826">
        <ele>5.58304</ele>
        <time>2014-08-27T12:52:17.989000Z</time>
      </trkpt>
      <trkpt lat="39.79416" lon="116.49838">
        <ele>5.03851</ele>
        <time>2014-08-27T12:52:22.985000Z</time>
      </trkpt>
      <trkpt lat="39.79423" lon="116.49848">
        <ele>6.10519</ele>
        <time>2014-08-27T12:52:27.982000Z</time>
      </trkpt>
      <trkpt lat="39.7943" lon="116.49858">
        <ele>8.06232</ele>
        <time>2014-08-27T12:52:32.981000Z</time>
      </trkpt>
      <trkpt lat="39.79432" lon="116.49872">
        <ele>9.72745</ele>
        <time>2014-08-27T12:52:37.986000Z</time>
      </trkpt>
      <trkpt lat="39.79428" lon="116.49885">
        <ele>13.62448</ele>
        <time>2014-08-27T12:52:43.980000Z</time>
      </trkpt>
      <trkpt lat="39.7943" lon="116.49899">
        <ele>15.96964</ele>
        <time>2014-08-27T12:52:48.976000Z</time>
      </trkpt>
      <trkpt lat="39.79436" lon="116.4991">
        <ele>9.41458</ele>
        <time>2014-08-27T12:52:52.985000Z</time>
      </trkpt>
      <trkpt lat="39.7944" lon="116.4992">
        <ele>10.12421</ele>
        <time>2014-08-27T12:52:56.993000Z</time>
      </trkpt>
      <trkpt lat="39.79446" lon="116.49931">
        <ele>14.95697</ele>
        <time>2014-08-27T12:53:00.982000Z</time>
      </trkpt>
      <trkpt lat="39.79452" lon="116.49942">
        <ele>11.58566</ele>
        <time>2014-08-27T12:53:04.985000Z</time>
      </trkpt>
      <trkpt lat="39.79458" lon="116.49954">
        <ele>11.77936</ele>
        <time>2014-08-27T12:53:08.981000Z</time>
      </trkpt>
      <trkpt lat="39.79463" lon="116.49966">
        <ele>12.81415</ele>
        <time>2014-08-27T12:53:12.997000Z</time>
      </trkpt>
      <trkpt lat="39.79469" lon="116.49975">
        <ele>13.30225</ele>
        <time>2014-08-27T12:53:15.979000Z</time>
      </trkpt>
      <trkpt lat="39.79475" lon="116.49984">
        <ele>13.17456</ele>
        <time>2014-08-27T12:53:18.985000Z</time>
      </trkpt>
      <trkpt lat="39.79479" lon="116.49995">
        <ele>12.57135</ele>
        <time>2014-08-27T12:53:21.990000Z</time>
      </trkpt>
      <trkpt lat="39.79485" lon="116.50008">
        <ele>10.43832</ele>
        <time>2014-08-27T12:53:25.987000Z</time>
      </trkpt>
      <trkpt lat="39.79491" lon="116.50018">
        <ele>9.80524</ele>
        <time>2014-08-27T12:53:30.063000Z</time>
      </trkpt>
      <trkpt lat="39.79498" lon="116.50026">
        <ele>8.34451</ele>
        <time>2014-08-27T12:53:34.004000Z</time>
      </trkpt>
      <trkpt lat="39.79507" lon="116.50031">
        <ele>9.02899</ele>
        <time>2014-08-27T12:53:38.004000Z</time>
      </trkpt>
      <trkpt lat="39.79518" lon="116.50031">
        <ele>9.41467</ele>
        <time>2014-08-27T12:53:42.993000Z</time>
      </trkpt>
      <trkpt lat="39.79528" lon="116.50028">
        <ele>12.38412</ele>
        <time>2014-08-27T12:53:46.984000Z</time>
      </trkpt>
      <trkpt lat="39.79538" lon="116.50022">
        <ele>12.30365</ele>
        <time>2014-08-27T12:53:50.995000Z</time>
      </trkpt>
      <trkpt lat="39.79545" lon="116.50015">
        <ele>12.53018</ele>
        <time>2014-08-27T12:53:54.981000Z</time>
      </trkpt>
      <trkpt lat="39.79552" lon="116.50003">
        <ele>12.79642</ele>
        <time>2014-08-27T12:53:59.992000Z</time>
      </trkpt>
      <trkpt lat="39.79559" lon="116.49995">
        <ele>15.55856</ele>
        <time>2014-08-27T12:54:03.991000Z</time>
      </trkpt>
      <trkpt lat="39.79569" lon="116.49988">
        <ele>13.11731</ele>
        <time>2014-08-27T12:54:07.987000Z</time>
      </trkpt>
      <trkpt lat="39.79577" lon="116.49981">
        <ele>13.59167</ele>
        <time>2014-08-27T12:54:11.980000Z</time>
      </trkpt>
      <trkpt lat="39.79586" lon="116.49974">
        <ele>14.25635</ele>
        <time>2014-08-27T12:54:15.985000Z</time>
      </trkpt>
      <trkpt lat="39.79596" lon="116.49965">
        <ele>10.24353</ele>
        <time>2014-08-27T12:54:19.986000Z</time>
      </trkpt>
      <trkpt lat="39.79604" lon="116.49958">
        <ele>11.93619</ele>
        <time>2014-08-27T12:54:23.989000Z</time>
      </trkpt>
      <trkpt lat="39.79612" lon="116.4995">
        <ele>11.54843</ele>
        <time>2014-08-27T12:54:28.039000Z</time>
      </trkpt>
      <trkpt lat="39.79621" lon="116.49941">
        <ele>11.90668</ele>
        <time>2014-08-27T12:54:32.995000Z</time>
      </trkpt>
      <trkpt lat="39.79629" lon="116.49934">
        <ele>15.31619</ele>
        <time>2014-08-27T12:54:36.988000Z</time>
      </trkpt>
      <trkpt lat="39.79639" lon="116.49927">
        <ele>14.36111</ele>
        <time>2014-08-27T12:54:40.987000Z</time>
      </trkpt>
      <trkpt lat="39.79648" lon="116.49919">
        <ele>13.95419</ele>
        <time>2014-08-27T12:54:45.989000Z</time>
      </trkpt>
      <trkpt lat="39.79658" lon="116.49914">
        <ele>17.01437</ele>
        <time>2014-08-27T12:54:49.998000Z</time>
      </trkpt>
      <trkpt lat="39.79668" lon="116.49911">
        <ele>18.0336</ele>
        <time>2014-08-27T12:54:53.986000Z</time>
      </trkpt>
      <trkpt lat="39.79677" lon="116.49909">
        <ele>18.17816</ele>
        <time>2014-08-27T12:54:56.994000Z</time>
      </trkpt>
      <trkpt lat="39.79688" lon="116.49907">
        <ele>17.27472</ele>
        <time>2014-08-27T12:55:00.984000Z</time>
      </trkpt>
      <trkpt lat="39.79698" lon="116.49902">
        <ele>18.45621</ele>
        <time>2014-08-27T12:55:04.995000Z</time>
      </trkpt>
      <trkpt lat="39.79707" lon="116.49895">
        <ele>16.16092</ele>
        <time>2014-08-27T12:55:08.998000Z</time>
      </trkpt>
      <trkpt lat="39.79714" lon="116.49887">
        <ele>12.95502</ele>
        <time>2014-08-27T12:55:12.986000Z</time>
      </trkpt>
      <trkpt lat="39.79724" lon="116.4988">
        <ele>14.89633</ele>
        <time>2014-08-27T12:55:16.986000Z</time>
      </trkpt>
      <trkpt lat="39.7973" lon="116.49867">
        <ele>14.25757</ele>
        <time>2014-08-27T12:55:20.986000Z</time>
      </trkpt>
      <trkpt lat="39.79736" lon="116.49856">
        <ele>10.78464</ele>
        <time>2014-08-27T12:55:25.010000Z</time>
      </trkpt>
      <trkpt lat="39.79738" lon="116.49843">
        <ele>10.94989</ele>
        <time>2014-08-27T12:55:28.985000Z</time>
      </trkpt>
      <trkpt lat="39.79739" lon="116.4983">
        <ele>11.07465</ele>
        <time>2014-08-27T12:55:32.992000Z</time>
      </trkpt>
      <trkpt lat="39.79735" lon="116.49817">
        <ele>11.52185</ele>
        <time>2014-08-27T12:55:37Z</time>
      </trkpt>
      <trkpt lat="39.79731" lon="116.49805">
        <ele>6.07916</ele>
        <time>2014-08-27T12:55:40.991000Z</time>
      </trkpt>
      <trkpt lat="39.79728" lon="116.49791">
        <ele>10.06854</ele>
        <time>2014-08-27T12:55:44.999000Z</time>
      </trkpt>
      <trkpt lat="39.79728" lon="116.49777">
        <ele>10.94669</ele>
        <time>2014-08-27T12:55:48.999000Z</time>
      </trkpt>
      <trkpt lat="39.79725" lon="116.49764">
        <ele>10.5481</ele>
        <time>2014-08-27T12:55:52.984000Z</time>
      </trkpt>
      <trkpt lat="39.79717" lon="116.49754">
        <ele>10.24896</ele>
        <time>2014-08-27T12:55:57.008000Z</time>
      </trkpt>
      <trkpt lat="39.79709" lon="116.49745">
        <ele>10.98804</ele>
        <time>2014-08-27T12:56:00.983000Z</time>
      </trkpt>
      <trkpt lat="39.79703" lon="116.49735">
        <ele>10.79883</ele>
        <time>2014-08-27T12:56:04.983000Z</time>
      </trkpt>
      <trkpt lat="39.79698" lon="116.49723">
        <ele>10.43604</ele>
        <time>2014-08-27T12:56:08.994000Z</time>
      </trkpt>
      <trkpt lat="39.79696" lon="116.49709">
        <ele>10.57928</ele>
        <time>2014-08-27T12:56:12.987000Z</time>
      </trkpt>
      <trkpt lat="39.79694" lon="116.49695">
        <ele>11.41772</ele>
        <time>2014-08-27T12:56:16.989000Z</time>
      </trkpt>
      <trkpt lat="39.79687" lon="116.49685">
        <ele>13.14194</ele>
        <time>2014-08-27T12:56:21.993000Z</time>
      </trkpt>
      <trkpt lat="39.79678" lon="116.49676">
        <ele>12.4859</ele>
        <time>2014-08-27T12:56:25.984000Z</time>
      </trkpt>
      <trkpt lat="39.7967" lon="116.49666">
        <ele>8.78625</ele>
        <time>2014-08-27T12:56:29.988000Z</time>
      </trkpt>
      <trkpt lat="39.79664" lon="116.49656">
        <ele>7.63068</ele>
        <time>2014-08-27T12:56:33.986000Z</time>
      </trkpt>
      <trkpt lat="39.79657" lon="116.49647">
        <ele>6.63235</ele>
        <time>2014-08-27T12:56:38Z</time>
      </trkpt>
      <trkpt lat="39.79647" lon="116.49642">
        <ele>7.26901</ele>
        <time>2014-08-27T12:56:41.987000Z</time>
      </trkpt>
      <trkpt lat="39.79637" lon="116.49638">
        <ele>6.06769</ele>
        <time>2014-08-27T12:56:45.988000Z</time>
      </trkpt>
      <trkpt lat="39.79626" lon="116.49637">
        <ele>3.43863</ele>
        <time>2014-08-27T12:56:50.002000Z</time>
      </trkpt>
      <trkpt lat="39.79615" lon="116.49635">
        <ele>3.95264</ele>
        <time>2014-08-27T12:56:53.994000Z</time>
      </trkpt>
      <trkpt lat="39.79604" lon="116.49632">
        <ele>3.6839</ele>
        <time>2014-08-27T12:56:57.983000Z</time>
      </trkpt>
      <trkpt lat="39.79594" lon="116.49624">
        <ele>4.37576</ele>
        <time>2014-08-27T12:57:02.011000Z</time>
      </trkpt>
      <trkpt lat="39.79588" lon="116.49612">
        <ele>6.0495</ele>
        <time>2014-08-27T12:57:05.996000Z</time>
      </trkpt>
      <trkpt lat="39.79584" lon="116.496">
        <ele>6.47891</ele>
        <time>2014-08-27T12:57:10.003000Z</time>
      </trkpt>
      <trkpt lat="39.79578" lon="116.49589">
        <ele>7.10114</ele>
        <time>2014-08-27T12:57:13.996000Z</time>
      </trkpt>
      <trkpt lat="39.79572" lon="116.49578">
        <ele>6.84842</ele>
        <time>2014-08-27T12:57:17.988000Z</time>
      </trkpt>
      <trkpt lat="39.79566" lon="116.49566">
        <ele>7.93008</ele>
        <time>2014-08-27T12:57:21.988000Z</time>
      </trkpt>
      <trkpt lat="39.79559" lon="116.49554">
        <ele>10.52917</ele>
        <time>2014-08-27T12:57:25.993000Z</time>
      </trkpt>
      <trkpt lat="39.79553" lon="116.49542">
        <ele>9.30853</ele>
        <time>2014-08-27T12:57:29.988000Z</time>
      </trkpt>
      <trkpt lat="39.79547" lon="116.49531">
        <ele>8.18893</ele>
        <time>2014-08-27T12:57:33.987000Z</time>
      </trkpt>
      <trkpt lat="39.79543" lon="116.49519">
        <ele>8.62387</ele>
        <time>2014-08-27T12:57:38.002000Z</time>
      </trkpt>
      <trkpt lat="39.79536" lon="116.49511">
        <ele>8.50122</ele>
        <time>2014-08-27T12:57:41.989000Z</time>
      </trkpt>
      <trkpt lat="39.79526" lon="116.49504">
        <ele>10.45245</ele>
        <time>2014-08-27T12:57:45.991000Z</time>
      </trkpt>
      <trkpt lat="39.79515" lon="116.495">
        <ele>7.64337</ele>
        <time>2014-08-27T12:57:49.992000Z</time>
      </trkpt>
      <trkpt lat="39.79504" lon="116.49498">
        <ele>7.62201</ele>
        <time>2014-08-27T12:57:53.984000Z</time>
      </trkpt>
      <trkpt lat="39.79493" lon="116.49499">
        <ele>7.36734</ele>
        <time>2014-08-27T12:57:57.992000Z</time>
      </trkpt>
      <trkpt lat="39.79483" lon="116.49504">
        <ele>7.84946</ele>
        <time>2014-08-27T12:58:01.986000Z</time>
      </trkpt>
      <trkpt lat="39.79474" lon="116.49511">
        <ele>10.1752</ele>
        <time>2014-08-27T12:58:05.990000Z</time>
      </trkpt>
      <trkpt lat="39.79466" lon="116.49517">
        <ele>9.23926</ele>
        <time>2014-08-27T12:58:09.994000Z</time>
      </trkpt>
      <trkpt lat="39.79458" lon="116.49524">
        <ele>8.92709</ele>
        <time>2014-08-27T12:58:14.006000Z</time>
      </trkpt>
      <trkpt lat="39.79448" lon="116.49528">
        <ele>14.14941</ele>
        <time>2014-08-27T12:58:17.988000Z</time>
      </trkpt>
      <trkpt lat="39.79437" lon="116.49531">
        <ele>13.10355</ele>
        <time>2014-08-27T12:58:21.989000Z</time>
      </trkpt>
      <trkpt lat="39.79426" lon="116.4953">
        <ele>12.10254</ele>
        <time>2014-08-27T12:58:25.993000Z</time>
      </trkpt>
      <trkpt lat="39.79416" lon="116.4953">
        <ele>9.9491</ele>
        <time>2014-08-27T12:58:29.996000Z</time>
      </trkpt>
      <trkpt lat="39.79406" lon="116.49525">
        <ele>9.42221</ele>
        <time>2014-08-27T12:58:33.991000Z</time>
      </trkpt>
      <trkpt lat="39.79394" lon="116.49523">
        <ele>9.55386</ele>
        <time>2014-08-27T12:58:38.005000Z</time>
      </trkpt>
      <trkpt lat="39.79385" lon="116.49521">
        <ele>11.86072</ele>
        <time>2014-08-27T12:58:40.987000Z</time>
      </trkpt>
      <trkpt lat="39.79374" lon="116.49524">
        <ele>10.72729</ele>
        <time>2014-08-27T12:58:45.001000Z</time>
      </trkpt>
      <trkpt lat="39.79367" lon="116.49532">
        <ele>11.86084</ele>
        <time>2014-08-27T12:58:47.999000Z</time>
      </trkpt>
      <trkpt lat="39.79361" lon="116.49542">
        <ele>14.66953</ele>
        <time>2014-08-27T12:58:50.989000Z</time>
      </trkpt>
      <trkpt lat="39.79357" lon="116.49555">
        <ele>13.39682</ele>
        <time>2014-08-27T12:58:54.997000Z</time>
      </trkpt>
      <trkpt lat="39.79355" lon="116.49571">
        <ele>10.01062</ele>
        <time>2014-08-27T12:58:59.036000Z</time>
      </trkpt>
      <trkpt lat="39.79353" lon="116.49585">
        <ele>8.55688</ele>
        <time>2014-08-27T12:59:03.015000Z</time>
      </trkpt>
      <trkpt lat="39.79352" lon="116.49599">
        <ele>9.43787</ele>
        <time>2014-08-27T12:59:07.061000Z</time>
      </trkpt>
      <trkpt lat="39.79348" lon="116.49613">
        <ele>13.41632</ele>
        <time>2014-08-27T12:59:11.059000Z</time>
      </trkpt>
      <trkpt lat="39.79345" lon="116.49627">
        <ele>17.21921</ele>
        <time>2014-08-27T12:59:15Z</time>
      </trkpt>
      <trkpt lat="39.7934" lon="116.49642">
        <ele>18.92831</ele>
        <time>2014-08-27T12:59:18.993000Z</time>
      </trkpt>
      <trkpt lat="39.79337" lon="116.49656">
        <ele>19.51587</ele>
        <time>2014-08-27T12:59:23.058000Z</time>
      </trkpt>
      <trkpt lat="39.79335" lon="116.49669">
        <ele>18.48206</ele>
        <time>2014-08-27T12:59:27.064000Z</time>
      </trkpt>
      <trkpt lat="39.79333" lon="116.49683">
        <ele>20.3703</ele>
        <time>2014-08-27T12:59:31.084000Z</time>
      </trkpt>
      <trkpt lat="39.79333" lon="116.49697">
        <ele>15.76883</ele>
        <time>2014-08-27T12:59:35.012000Z</time>
      </trkpt>
      <trkpt lat="39.79335" lon="116.4971">
        <ele>17.11441</ele>
        <time>2014-08-27T12:59:39.019000Z</time>
      </trkpt>
      <trkpt lat="39.79342" lon="116.49722">
        <ele>16.35474</ele>
        <time>2014-08-27T12:59:43.067000Z</time>
      </trkpt>
      <trkpt lat="39.79349" lon="116.49732">
        <ele>14.30234</ele>
        <time>2014-08-27T12:59:46.990000Z</time>
      </trkpt>
      <trkpt lat="39.79354" lon="116.49743">
        <ele>14.83081</ele>
        <time>2014-08-27T12:59:50.987000Z</time>
      </trkpt>
      <trkpt lat="39.79361" lon="116.49754">
        <ele>13.59122</ele>
        <time>2014-08-27T12:59:55.003000Z</time>
      </trkpt>
      <trkpt lat="39.7937" lon="116.49762">
        <ele>11.9335</ele>
        <time>2014-08-27T12:59:58.991000Z</time>
      </trkpt>
      <trkpt lat="39.79381" lon="116.49768">
        <ele>16.10709</ele>
        <time>2014-08-27T13:00:02.995000Z</time>
      </trkpt>
      <trkpt lat="39.79389" lon="116.49775">
        <ele>13.9711</ele>
        <time>2014-08-27T13:00:05.988000Z</time>
      </trkpt>
      <trkpt lat="39.79395" lon="116.49786">
        <ele>15.45074</ele>
        <time>2014-08-27T13:00:10.003000Z</time>
      </trkpt>
      <trkpt lat="39.794" lon="116.49798">
        <ele>18.46576</ele>
        <time>2014-08-27T13:00:14.004000Z</time>
      </trkpt>
      <trkpt lat="39.79405" lon="116.49809">
        <ele>20.08319</ele>
        <time>2014-08-27T13:00:17.990000Z</time>
      </trkpt>
      <trkpt lat="39.79407" lon="116.49822">
        <ele>17.86868</ele>
        <time>2014-08-27T13:00:21.997000Z</time>
      </trkpt>
      <trkpt lat="39.79411" lon="116.49833">
        <ele>15.54517</ele>
        <time>2014-08-27T13:00:25.996000Z</time>
      </trkpt>
      <trkpt lat="39.79416" lon="116.49843">
        <ele>12.78629</ele>
        <time>2014-08-27T13:00:29.987000Z</time>
      </trkpt>
      <trkpt lat="39.79424" lon="116.49851">
        <ele>11.83789</ele>
        <time>2014-08-27T13:00:33.987000Z</time>
      </trkpt>
      <trkpt lat="39.79431" lon="116.49858">
        <ele>13.66129</ele>
        <time>2014-08-27T13:00:37.993000Z</time>
      </trkpt>
      <trkpt lat="39.79435" lon="116.49871">
        <ele>12.57986</ele>
        <time>2014-08-27T13:00:41.990000Z</time>
      </trkpt>
      <trkpt lat="39.79431" lon="116.49883">
        <ele>11.39761</ele>
        <time>2014-08-27T13:00:45.992000Z</time>
      </trkpt>
      <trkpt lat="39.79433" lon="116.49896">
        <ele>12.95444</ele>
        <time>2014-08-27T13:00:49.997000Z</time>
      </trkpt>
      <trkpt lat="39.79437" lon="116.49908">
        <ele>20.82788</ele>
        <time>2014-08-27T13:00:53.996000Z</time>
      </trkpt>
      <trkpt lat="39.79439" lon="116.49921">
        <ele>22.21228</ele>
        <time>2014-08-27T13:00:57.996000Z</time>
      </trkpt>
      <trkpt lat="39.79446" lon="116.49933">
        <ele>26.85748</ele>
        <time>2014-08-27T13:01:02.006000Z</time>
      </trkpt>
      <trkpt lat="39.79453" lon="116.49943">
        <ele>29.87988</ele>
        <time>2014-08-27T13:01:05.994000Z</time>
      </trkpt>
      <trkpt lat="39.79457" lon="116.49956">
        <ele>24.77222</ele>
        <time>2014-08-27T13:01:09.994000Z</time>
      </trkpt>
      <trkpt lat="39.79463" lon="116.49969">
        <ele>23.97919</ele>
        <time>2014-08-27T13:01:13.996000Z</time>
      </trkpt>
      <trkpt lat="39.79469" lon="116.49981">
        <ele>22.43555</ele>
        <time>2014-08-27T13:01:17.992000Z</time>
      </trkpt>
      <trkpt lat="39.79474" lon="116.49991">
        <ele>19.68494</ele>
        <time>2014-08-27T13:01:20.993000Z</time>
      </trkpt>
      <trkpt lat="39.79482" lon="116.50001">
        <ele>20.88806</ele>
        <time>2014-08-27T13:01:24.990000Z</time>
      </trkpt>
      <trkpt lat="39.79487" lon="116.50013">
        <ele>23.0307</ele>
        <time>2014-08-27T13:01:28.990000Z</time>
      </trkpt>
      <trkpt lat="39.79494" lon="116.50023">
        <ele>22.00427</ele>
        <time>2014-08-27T13:01:33.070000Z</time>
      </trkpt>
      <trkpt lat="39.79501" lon="116.50031">
        <ele>20.70032</ele>
        <time>2014-08-27T13:01:36.990000Z</time>
      </trkpt>
      <trkpt lat="39.7951" lon="116.50036">
        <ele>20.57367</ele>
        <time>2014-08-27T13:01:41.996000Z</time>
      </trkpt>
      <trkpt lat="39.79519" lon="116.50034">
        <ele>21.82178</ele>
        <time>2014-08-27T13:01:45.999000Z</time>
      </trkpt>
      <trkpt lat="39.79529" lon="116.50029">
        <ele>22.17798</ele>
        <time>2014-08-27T13:01:50.027000Z</time>
      </trkpt>
      <trkpt lat="39.79538" lon="116.50024">
        <ele>21.13458</ele>
        <time>2014-08-27T13:01:53.994000Z</time>
      </trkpt>
      <trkpt lat="39.79547" lon="116.50014">
        <ele>22.48724</ele>
        <time>2014-08-27T13:01:58.059000Z</time>
      </trkpt>
      <trkpt lat="39.79555" lon="116.50006">
        <ele>20.90387</ele>
        <time>2014-08-27T13:02:02.042000Z</time>
      </trkpt>
      <trkpt lat="39.79561" lon="116.49996">
        <ele>16.46545</ele>
        <time>2014-08-27T13:02:06.017000Z</time>
      </trkpt>
      <trkpt lat="39.79569" lon="116.49987">
        <ele>14.1814</ele>
        <time>2014-08-27T13:02:11.050000Z</time>
      </trkpt>
      <trkpt lat="39.79578" lon="116.49979">
        <ele>13.57233</ele>
        <time>2014-08-27T13:02:15.990000Z</time>
      </trkpt>
      <trkpt lat="39.79586" lon="116.4997">
        <ele>14.41217</ele>
        <time>2014-08-27T13:02:20.007000Z</time>
      </trkpt>
      <trkpt lat="39.79595" lon="116.49962">
        <ele>16.03299</ele>
        <time>2014-08-27T13:02:23.992000Z</time>
      </trkpt>
      <trkpt lat="39.79604" lon="116.49955">
        <ele>15.08752</ele>
        <time>2014-08-27T13:02:27.985000Z</time>
      </trkpt>
      <trkpt lat="39.79612" lon="116.49947">
        <ele>13.7272</ele>
        <time>2014-08-27T13:02:30.994000Z</time>
      </trkpt>
      <trkpt lat="39.79621" lon="116.4994">
        <ele>15.01614</ele>
        <time>2014-08-27T13:02:34.995000Z</time>
      </trkpt>
      <trkpt lat="39.7963" lon="116.49933">
        <ele>14.34232</ele>
        <time>2014-08-27T13:02:38.991000Z</time>
      </trkpt>
      <trkpt lat="39.79639" lon="116.49926">
        <ele>14.72131</ele>
        <time>2014-08-27T13:02:43.003000Z</time>
      </trkpt>
      <trkpt lat="39.79649" lon="116.49921">
        <ele>14.90741</ele>
        <time>2014-08-27T13:02:46.995000Z</time>
      </trkpt>
      <trkpt lat="39.79658" lon="116.49916">
        <ele>15.14923</ele>
        <time>2014-08-27T13:02:51Z</time>
      </trkpt>
      <trkpt lat="39.79668" lon="116.49913">
        <ele>16.47607</ele>
        <time>2014-08-27T13:02:54.995000Z</time>
      </trkpt>
      <trkpt lat="39.79679" lon="116.49912">
        <ele>16.42801</ele>
        <time>2014-08-27T13:02:59.004000Z</time>
      </trkpt>
      <trkpt lat="39.79689" lon="116.49907">
        <ele>13.50574</ele>
        <time>2014-08-27T13:03:02.995000Z</time>
      </trkpt>
      <trkpt lat="39.79697" lon="116.49901">
        <ele>13.28345</ele>
        <time>2014-08-27T13:03:05.998000Z</time>
      </trkpt>
      <trkpt lat="39.79706" lon="116.49892">
        <ele>17.06662</ele>
        <time>2014-08-27T13:03:09.990000Z</time>
      </trkpt>
      <trkpt lat="39.79715" lon="116.49882">
        <ele>14.10065</ele>
        <time>2014-08-27T13:03:13.993000Z</time>
      </trkpt>
      <trkpt lat="39.79722" lon="116.49872">
        <ele>17.92096</ele>
        <time>2014-08-27T13:03:18.006000Z</time>
      </trkpt>
      <trkpt lat="39.79729" lon="116.49862">
        <ele>17.02411</ele>
        <time>2014-08-27T13:03:21.997000Z</time>
      </trkpt>
      <trkpt lat="39.79737" lon="116.49851">
        <ele>16.84665</ele>
        <time>2014-08-27T13:03:26.012000Z</time>
      </trkpt>
      <trkpt lat="39.79738" lon="116.49836">
        <ele>17.54602</ele>
        <time>2014-08-27T13:03:29.997000Z</time>
      </trkpt>
      <trkpt lat="39.79736" lon="116.49825">
        <ele>16.39905</ele>
        <time>2014-08-27T13:03:32.998000Z</time>
      </trkpt>
      <trkpt lat="39.79734" lon="116.4981">
        <ele>18.63361</ele>
        <time>2014-08-27T13:03:37.005000Z</time>
      </trkpt>
      <trkpt lat="39.79732" lon="116.49797">
        <ele>18.27383</ele>
        <time>2014-08-27T13:03:40.996000Z</time>
      </trkpt>
      <trkpt lat="39.79729" lon="116.49783">
        <ele>17.59161</ele>
        <time>2014-08-27T13:03:44.995000Z</time>
      </trkpt>
      <trkpt lat="39.79727" lon="116.4977">
        <ele>14.664</ele>
        <time>2014-08-27T13:03:49.001000Z</time>
      </trkpt>
      <trkpt lat="39.79721" lon="116.49757">
        <ele>18.48209</ele>
        <time>2014-08-27T13:03:53.003000Z</time>
      </trkpt>
      <trkpt lat="39.79715" lon="116.49748">
        <ele>18.61292</ele>
        <time>2014-08-27T13:03:56.002000Z</time>
      </trkpt>
      <trkpt lat="39.79707" lon="116.49737">
        <ele>17.20255</ele>
        <time>2014-08-27T13:03:59.996000Z</time>
      </trkpt>
      <trkpt lat="39.79699" lon="116.49727">
        <ele>15.43018</ele>
        <time>2014-08-27T13:04:03.998000Z</time>
      </trkpt>
      <trkpt lat="39.79694" lon="116.49714">
        <ele>12.94681</ele>
        <time>2014-08-27T13:04:08.060000Z</time>
      </trkpt>
      <trkpt lat="39.79691" lon="116.49701">
        <ele>9.57361</ele>
        <time>2014-08-27T13:04:11.993000Z</time>
      </trkpt>
      <trkpt lat="39.79686" lon="116.49692">
        <ele>9.20584</ele>
        <time>2014-08-27T13:04:15.992000Z</time>
      </trkpt>
      <trkpt lat="39.79679" lon="116.49683">
        <ele>11.05618</ele>
        <time>2014-08-27T13:04:19.995000Z</time>
      </trkpt>
      <trkpt lat="39.79671" lon="116.49673">
        <ele>6.04492</ele>
        <time>2014-08-27T13:04:24.996000Z</time>
      </trkpt>
      <trkpt lat="39.79665" lon="116.49664">
        <ele>2.12436</ele>
        <time>2014-08-27T13:04:28.999000Z</time>
      </trkpt>
      <trkpt lat="39.79657" lon="116.49654">
        <ele>0.36923</ele>
        <time>2014-08-27T13:04:33.996000Z</time>
      </trkpt>
      <trkpt lat="39.79648" lon="116.49649">
        <ele>0.13309</ele>
        <time>2014-08-27T13:04:38.002000Z</time>
      </trkpt>
      <trkpt lat="39.79639" lon="116.49644">
        <ele>3.32181</ele>
        <time>2014-08-27T13:04:42Z</time>
      </trkpt>
      <trkpt lat="39.79629" lon="116.49641">
        <ele>4.45529</ele>
        <time>2014-08-27T13:04:46.006000Z</time>
      </trkpt>
      <trkpt lat="39.7962" lon="116.4964">
        <ele>5.57379</ele>
        <time>2014-08-27T13:04:50.003000Z</time>
      </trkpt>
      <trkpt lat="39.79611" lon="116.49634">
        <ele>6.52359</ele>
        <time>2014-08-27T13:04:53.997000Z</time>
      </trkpt>
      <trkpt lat="39.79601" lon="116.49626">
        <ele>6.10538</ele>
        <time>2014-08-27T13:04:58.005000Z</time>
      </trkpt>
      <trkpt lat="39.79594" lon="116.49617">
        <ele>7.98068</ele>
        <time>2014-08-27T13:05:01.005000Z</time>
      </trkpt>
      <trkpt lat="39.79589" lon="116.49607">
        <ele>6.69357</ele>
        <time>2014-08-27T13:05:03.993000Z</time>
      </trkpt>
      <trkpt lat="39.79583" lon="116.49594">
        <ele>6.53445</ele>
        <time>2014-08-27T13:05:08.005000Z</time>
      </trkpt>
      <trkpt lat="39.79576" lon="116.49582">
        <ele>7.07819</ele>
        <time>2014-08-27T13:05:11.997000Z</time>
      </trkpt>
      <trkpt lat="39.79569" lon="116.49572">
        <ele>5.15704</ele>
        <time>2014-08-27T13:05:15.998000Z</time>
      </trkpt>
      <trkpt lat="39.79564" lon="116.49562">
        <ele>6.82297</ele>
        <time>2014-08-27T13:05:19.006000Z</time>
      </trkpt>
      <trkpt lat="39.79557" lon="116.49554">
        <ele>4.79468</ele>
        <time>2014-08-27T13:05:22.004000Z</time>
      </trkpt>
      <trkpt lat="39.79551" lon="116.49542">
        <ele>6.13321</ele>
        <time>2014-08-27T13:05:26.017000Z</time>
      </trkpt>
      <trkpt lat="39.79548" lon="116.49529">
        <ele>6.68423</ele>
        <time>2014-08-27T13:05:29.998000Z</time>
      </trkpt>
      <trkpt lat="39.79541" lon="116.49519">
        <ele>1.97366</ele>
        <time>2014-08-27T13:05:33.998000Z</time>
      </trkpt>
      <trkpt lat="39.79534" lon="116.49511">
        <ele>0</ele>
        <time>2014-08-27T13:05:38.038000Z</time>
      </trkpt>
      <trkpt lat="39.79522" lon="116.49506">
        <ele>1.59894</ele>
        <time>2014-08-27T13:05:42.006000Z</time>
      </trkpt>
      <trkpt lat="39.79513" lon="116.49502">
        <ele>4.78638</ele>
        <time>2014-08-27T13:05:45.059000Z</time>
      </trkpt>
      <trkpt lat="39.79502" lon="116.49501">
        <ele>8.39124</ele>
        <time>2014-08-27T13:05:49.038000Z</time>
      </trkpt>
      <trkpt lat="39.79491" lon="116.49501">
        <ele>10.95917</ele>
        <time>2014-08-27T13:05:53.006000Z</time>
      </trkpt>
      <trkpt lat="39.79482" lon="116.49506">
        <ele>10.95306</ele>
        <time>2014-08-27T13:05:56.071000Z</time>
      </trkpt>
      <trkpt lat="39.79474" lon="116.49512">
        <ele>7.66949</ele>
        <time>2014-08-27T13:05:59.054000Z</time>
      </trkpt>
      <trkpt lat="39.79466" lon="116.49518">
        <ele>9.92734</ele>
        <time>2014-08-27T13:06:01.992000Z</time>
      </trkpt>
      <trkpt lat="39.79458" lon="116.49523">
        <ele>8.86292</ele>
        <time>2014-08-27T13:06:05.035000Z</time>
      </trkpt>
      <trkpt lat="39.79446" lon="116.49527">
        <ele>9.32919</ele>
        <time>2014-08-27T13:06:09.006000Z</time>
      </trkpt>
      <trkpt lat="39.79436" lon="116.4953">
        <ele>7.1698</ele>
        <time>2014-08-27T13:06:13.001000Z</time>
      </trkpt>
      <trkpt lat="39.79425" lon="116.49529">
        <ele>6.89127</ele>
        <time>2014-08-27T13:06:16.995000Z</time>
      </trkpt>
      <trkpt lat="39.79414" lon="116.49527">
        <ele>10.89871</ele>
        <time>2014-08-27T13:06:20.995000Z</time>
      </trkpt>
      <trkpt lat="39.79403" lon="116.49523">
        <ele>10.61453</ele>
        <time>2014-08-27T13:06:25.057000Z</time>
      </trkpt>
      <trkpt lat="39.79394" lon="116.49521">
        <ele>11.98337</ele>
        <time>2014-08-27T13:06:28.045000Z</time>
      </trkpt>
      <trkpt lat="39.79384" lon="116.49521">
        <ele>13.3457</ele>
        <time>2014-08-27T13:06:31.028000Z</time>
      </trkpt>
      <trkpt lat="39.79373" lon="116.49525">
        <ele>12.1944</ele>
        <time>2014-08-27T13:06:35.057000Z</time>
      </trkpt>
      <trkpt lat="39.79366" lon="116.49534">
        <ele>12.55936</ele>
        <time>2014-08-27T13:06:38.034000Z</time>
      </trkpt>
      <trkpt lat="39.79361" lon="116.49545">
        <ele>13.78995</ele>
        <time>2014-08-27T13:06:41.040000Z</time>
      </trkpt>
      <trkpt lat="39.79358" lon="116.49556">
        <ele>15.85321</ele>
        <time>2014-08-27T13:06:44.072000Z</time>
      </trkpt>
      <trkpt lat="39.79356" lon="116.49571">
        <ele>14.1301</ele>
        <time>2014-08-27T13:06:48.058000Z</time>
      </trkpt>
      <trkpt lat="39.79354" lon="116.49585">
        <ele>12.25153</ele>
        <time>2014-08-27T13:06:52.061000Z</time>
      </trkpt>
      <trkpt lat="39.79352" lon="116.49598">
        <ele>13.17084</ele>
        <time>2014-08-27T13:06:56.022000Z</time>
      </trkpt>
      <trkpt lat="39.79348" lon="116.49609">
        <ele>17.67639</ele>
        <time>2014-08-27T13:07:00.078000Z</time>
      </trkpt>
      <trkpt lat="39.79345" lon="116.49622">
        <ele>14.27332</ele>
        <time>2014-08-27T13:07:04.041000Z</time>
      </trkpt>
      <trkpt lat="39.79344" lon="116.49635">
        <ele>15.73608</ele>
        <time>2014-08-27T13:07:08.002000Z</time>
      </trkpt>
      <trkpt lat="39.79343" lon="116.4965">
        <ele>14.67224</ele>
        <time>2014-08-27T13:07:12.008000Z</time>
      </trkpt>
      <trkpt lat="39.79342" lon="116.49661">
        <ele>13.56479</ele>
        <time>2014-08-27T13:07:15.004000Z</time>
      </trkpt>
      <trkpt lat="39.79339" lon="116.49673">
        <ele>15.88425</ele>
        <time>2014-08-27T13:07:17.999000Z</time>
      </trkpt>
      <trkpt lat="39.79339" lon="116.49688">
        <ele>12.38965</ele>
        <time>2014-08-27T13:07:22.001000Z</time>
      </trkpt>
      <trkpt lat="39.79339" lon="116.49703">
        <ele>14.42413</ele>
        <time>2014-08-27T13:07:26Z</time>
      </trkpt>
      <trkpt lat="39.7934" lon="116.49719">
        <ele>12.45651</ele>
        <time>2014-08-27T13:07:29.995000Z</time>
      </trkpt>
      <trkpt lat="39.79341" lon="116.49731">
        <ele>12.7009</ele>
        <time>2014-08-27T13:07:32.999000Z</time>
      </trkpt>
      <trkpt lat="39.79347" lon="116.49743">
        <ele>11.38568</ele>
        <time>2014-08-27T13:07:36.998000Z</time>
      </trkpt>
      <trkpt lat="39.79353" lon="116.49754">
        <ele>12.44455</ele>
        <time>2014-08-27T13:07:41.008000Z</time>
      </trkpt>
      <trkpt lat="39.79364" lon="116.49758">
        <ele>13.82993</ele>
        <time>2014-08-27T13:07:44.996000Z</time>
      </trkpt>
      <trkpt lat="39.79373" lon="116.49761">
        <ele>11.15085</ele>
        <time>2014-08-27T13:07:47.998000Z</time>
      </trkpt>
      <trkpt lat="39.79382" lon="116.49765">
        <ele>9.86176</ele>
        <time>2014-08-27T13:07:51.011000Z</time>
      </trkpt>
      <trkpt lat="39.7939" lon="116.49776">
        <ele>9.58487</ele>
        <time>2014-08-27T13:07:54.997000Z</time>
      </trkpt>
      <trkpt lat="39.79396" lon="116.49789">
        <ele>10.86566</ele>
        <time>2014-08-27T13:07:59.016000Z</time>
      </trkpt>
      <trkpt lat="39.79398" lon="116.498">
        <ele>10.54559</ele>
        <time>2014-08-27T13:08:01.995000Z</time>
      </trkpt>
      <trkpt lat="39.79399" lon="116.49812">
        <ele>7.522</ele>
        <time>2014-08-27T13:08:05.005000Z</time>
      </trkpt>
      <trkpt lat="39.79401" lon="116.49827">
        <ele>5.16174</ele>
        <time>2014-08-27T13:08:08.996000Z</time>
      </trkpt>
      <trkpt lat="39.79405" lon="116.49839">
        <ele>7.30411</ele>
        <time>2014-08-27T13:08:13.050000Z</time>
      </trkpt>
      <trkpt lat="39.79413" lon="116.49848">
        <ele>10.15747</ele>
        <time>2014-08-27T13:08:17.002000Z</time>
      </trkpt>
      <trkpt lat="39.79422" lon="116.49855">
        <ele>9.86874</ele>
        <time>2014-08-27T13:08:22.001000Z</time>
      </trkpt>
      <trkpt lat="39.7943" lon="116.49864">
        <ele>14.32031</ele>
        <time>2014-08-27T13:08:27.009000Z</time>
      </trkpt>
      <trkpt lat="39.79428" lon="116.49878">
        <ele>13.95972</ele>
        <time>2014-08-27T13:08:31.003000Z</time>
      </trkpt>
      <trkpt lat="39.79424" lon="116.49892">
        <ele>13.06934</ele>
        <time>2014-08-27T13:08:35.041000Z</time>
      </trkpt>
      <trkpt lat="39.79421" lon="116.49904">
        <ele>12.55856</ele>
        <time>2014-08-27T13:08:37.057000Z</time>
      </trkpt>
      <trkpt lat="39.79421" lon="116.49918">
        <ele>11.68234</ele>
        <time>2014-08-27T13:08:40.053000Z</time>
      </trkpt>
      <trkpt lat="39.79428" lon="116.49931">
        <ele>9.66949</ele>
        <time>2014-08-27T13:08:44.038000Z</time>
      </trkpt>
      <trkpt lat="39.79436" lon="116.49938">
        <ele>8.61539</ele>
        <time>2014-08-27T13:08:47.087000Z</time>
      </trkpt>
      <trkpt lat="39.79443" lon="116.49947">
        <ele>10.55554</ele>
        <time>2014-08-27T13:08:50.004000Z</time>
      </trkpt>
      <trkpt lat="39.79451" lon="116.49958">
        <ele>15.87399</ele>
        <time>2014-08-27T13:08:54.064000Z</time>
      </trkpt>
      <trkpt lat="39.79459" lon="116.49966">
        <ele>17.21512</ele>
        <time>2014-08-27T13:08:57.024000Z</time>
      </trkpt>
      <trkpt lat="39.79464" lon="116.49976">
        <ele>15.33557</ele>
        <time>2014-08-27T13:09:00.054000Z</time>
      </trkpt>
      <trkpt lat="39.79469" lon="116.49987">
        <ele>15.09473</ele>
        <time>2014-08-27T13:09:03.003000Z</time>
      </trkpt>
      <trkpt lat="39.79475" lon="116.49997">
        <ele>15.16568</ele>
        <time>2014-08-27T13:09:06.012000Z</time>
      </trkpt>
      <trkpt lat="39.7948" lon="116.50008">
        <ele>15.23889</ele>
        <time>2014-08-27T13:09:09.004000Z</time>
      </trkpt>
      <trkpt lat="39.79485" lon="116.50017">
        <ele>16.20868</ele>
        <time>2014-08-27T13:09:12.007000Z</time>
      </trkpt>
      <trkpt lat="39.7949" lon="116.50028">
        <ele>17.24823</ele>
        <time>2014-08-27T13:09:15.002000Z</time>
      </trkpt>
      <trkpt lat="39.79499" lon="116.50036">
        <ele>13.37915</ele>
        <time>2014-08-27T13:09:19.004000Z</time>
      </trkpt>
      <trkpt lat="39.79509" lon="116.50038">
        <ele>14.2215</ele>
        <time>2014-08-27T13:09:23.010000Z</time>
      </trkpt>
      <trkpt lat="39.79521" lon="116.50034">
        <ele>16.47394</ele>
        <time>2014-08-27T13:09:27.015000Z</time>
      </trkpt>
      <trkpt lat="39.7953" lon="116.50027">
        <ele>19.55853</ele>
        <time>2014-08-27T13:09:31.051000Z</time>
      </trkpt>
      <trkpt lat="39.79539" lon="116.5002">
        <ele>19.125</ele>
        <time>2014-08-27T13:09:35.061000Z</time>
      </trkpt>
      <trkpt lat="39.79547" lon="116.5001">
        <ele>21.9035</ele>
        <time>2014-08-27T13:09:39.046000Z</time>
      </trkpt>
      <trkpt lat="39.79555" lon="116.49999">
        <ele>22.61542</ele>
        <time>2014-08-27T13:09:43.015000Z</time>
      </trkpt>
      <trkpt lat="39.79563" lon="116.49991">
        <ele>21.27081</ele>
        <time>2014-08-27T13:09:46.055000Z</time>
      </trkpt>
      <trkpt lat="39.7957" lon="116.49983">
        <ele>21.3476</ele>
        <time>2014-08-27T13:09:50.005000Z</time>
      </trkpt>
      <trkpt lat="39.79579" lon="116.49976">
        <ele>20.39044</ele>
        <time>2014-08-27T13:09:54.010000Z</time>
      </trkpt>
      <trkpt lat="39.79587" lon="116.49969">
        <ele>21.36761</ele>
        <time>2014-08-27T13:09:58.023000Z</time>
      </trkpt>
      <trkpt lat="39.79595" lon="116.49962">
        <ele>17.84506</ele>
        <time>2014-08-27T13:10:02.010000Z</time>
      </trkpt>
      <trkpt lat="39.79604" lon="116.49957">
        <ele>19.4743</ele>
        <time>2014-08-27T13:10:06.040000Z</time>
      </trkpt>
      <trkpt lat="39.79613" lon="116.49948">
        <ele>15.05545</ele>
        <time>2014-08-27T13:10:10.054000Z</time>
      </trkpt>
      <trkpt lat="39.79624" lon="116.49941">
        <ele>15.99918</ele>
        <time>2014-08-27T13:10:14.003000Z</time>
      </trkpt>
      <trkpt lat="39.79633" lon="116.49933">
        <ele>17.35294</ele>
        <time>2014-08-27T13:10:18.002000Z</time>
      </trkpt>
      <trkpt lat="39.79641" lon="116.49925">
        <ele>13.23898</ele>
        <time>2014-08-27T13:10:22.004000Z</time>
      </trkpt>
      <trkpt lat="39.79649" lon="116.49918">
        <ele>15.99042</ele>
        <time>2014-08-27T13:10:26.003000Z</time>
      </trkpt>
      <trkpt lat="39.7966" lon="116.49915">
        <ele>14.79395</ele>
        <time>2014-08-27T13:10:30.005000Z</time>
      </trkpt>
      <trkpt lat="39.79669" lon="116.49911">
        <ele>15.08096</ele>
        <time>2014-08-27T13:10:34.004000Z</time>
      </trkpt>
      <trkpt lat="39.7968" lon="116.49911">
        <ele>15.29486</ele>
        <time>2014-08-27T13:10:38.005000Z</time>
      </trkpt>
      <trkpt lat="39.79689" lon="116.49909">
        <ele>14.19324</ele>
        <time>2014-08-27T13:10:41.013000Z</time>
      </trkpt>
      <trkpt lat="39.79697" lon="116.49902">
        <ele>17.19687</ele>
        <time>2014-08-27T13:10:45.005000Z</time>
      </trkpt>
      <trkpt lat="39.79704" lon="116.4989">
        <ele>19.97491</ele>
        <time>2014-08-27T13:10:50.058000Z</time>
      </trkpt>
      <trkpt lat="39.79713" lon="116.4988">
        <ele>17.58676</ele>
        <time>2014-08-27T13:10:54.004000Z</time>
      </trkpt>
      <trkpt lat="39.79719" lon="116.49869">
        <ele>19.63269</ele>
        <time>2014-08-27T13:10:58.023000Z</time>
      </trkpt>
      <trkpt lat="39.79726" lon="116.49857">
        <ele>20.76678</ele>
        <time>2014-08-27T13:11:02.008000Z</time>
      </trkpt>
      <trkpt lat="39.79732" lon="116.49847">
        <ele>21.28607</ele>
        <time>2014-08-27T13:11:05.006000Z</time>
      </trkpt>
      <trkpt lat="39.79736" lon="116.49835">
        <ele>21.66144</ele>
        <time>2014-08-27T13:11:08.016000Z</time>
      </trkpt>
      <trkpt lat="39.79733" lon="116.4982">
        <ele>21.59814</ele>
        <time>2014-08-27T13:11:12.006000Z</time>
      </trkpt>
      <trkpt lat="39.79728" lon="116.49809">
        <ele>22.05878</ele>
        <time>2014-08-27T13:11:16.005000Z</time>
      </trkpt>
      <trkpt lat="39.79726" lon="116.49795">
        <ele>20.86584</ele>
        <time>2014-08-27T13:11:20.006000Z</time>
      </trkpt>
      <trkpt lat="39.79722" lon="116.49781">
        <ele>19.76947</ele>
        <time>2014-08-27T13:11:24.015000Z</time>
      </trkpt>
      <trkpt lat="39.79719" lon="116.49767">
        <ele>17.9996</ele>
        <time>2014-08-27T13:11:28.007000Z</time>
      </trkpt>
      <trkpt lat="39.79712" lon="116.49756">
        <ele>16.16</ele>
        <time>2014-08-27T13:11:32.005000Z</time>
      </trkpt>
      <trkpt lat="39.79703" lon="116.49747">
        <ele>14.49323</ele>
        <time>2014-08-27T13:11:36.020000Z</time>
      </trkpt>
      <trkpt lat="39.79696" lon="116.49738">
        <ele>16.90436</ele>
        <time>2014-08-27T13:11:40.013000Z</time>
      </trkpt>
      <trkpt lat="39.79691" lon="116.49726">
        <ele>14.25974</ele>
        <time>2014-08-27T13:11:44.021000Z</time>
      </trkpt>
      <trkpt lat="39.79688" lon="116.49711">
        <ele>15.52502</ele>
        <time>2014-08-27T13:11:48.007000Z</time>
      </trkpt>
      <trkpt lat="39.79684" lon="116.497">
        <ele>17.06152</ele>
        <time>2014-08-27T13:11:51.018000Z</time>
      </trkpt>
      <trkpt lat="39.79678" lon="116.49686">
        <ele>20.10132</ele>
        <time>2014-08-27T13:11:55.055000Z</time>
      </trkpt>
      <trkpt lat="39.79673" lon="116.49676">
        <ele>20.53882</ele>
        <time>2014-08-27T13:11:58.016000Z</time>
      </trkpt>
      <trkpt lat="39.79666" lon="116.49664">
        <ele>23.15411</ele>
        <time>2014-08-27T13:12:02.014000Z</time>
      </trkpt>
      <trkpt lat="39.79661" lon="116.49653">
        <ele>23.14386</ele>
        <time>2014-08-27T13:12:05.009000Z</time>
      </trkpt>
      <trkpt lat="39.79652" lon="116.49645">
        <ele>22.12396</ele>
        <time>2014-08-27T13:12:09.006000Z</time>
      </trkpt>
      <trkpt lat="39.79641" lon="116.49639">
        <ele>23.08276</ele>
        <time>2014-08-27T13:12:13.006000Z</time>
      </trkpt>
      <trkpt lat="39.79632" lon="116.49636">
        <ele>20.88599</ele>
        <time>2014-08-27T13:12:16.007000Z</time>
      </trkpt>
      <trkpt lat="39.79623" lon="116.49633">
        <ele>19.90668</ele>
        <time>2014-08-27T13:12:22.005000Z</time>
      </trkpt>
    </trkseg>
  </trk>
</gpx>