<?xml version="1.0" encoding="UTF-8"?>
<gpx xmlns="http://www.topografix.com/GPX/1/1" xmlns:gpxtpx="http://www.garmin.com/xmlschemas/TrackPointExtension/v1" xmlns:xsi="http://www.w3.org/2001/XMLSchema-instance" xsi:schemaLocation="http://www.topografix.com/GPX/1/1 http://www.topografix.com/GPX/1/1/gpx.xsd" version="1.1" creator="gpx.py -- https://github.com/tkrajina/gpxpy">
  <trk>
    <name>gpx from codoon</name>
    <type>Run</type>
    <trkseg>
      <trkpt lat="39.26601505747736" lon="118.43207327008128">
        <ele>1.4</ele>
        <time>2024-09-05T23:50:08Z</time>
      </trkpt>
      <trkpt lat="39.26600397268537" lon="118.43209024314419">
        <ele>1.4</ele>
        <time>2024-09-05T23:50:09Z</time>
      </trkpt>
      <trkpt lat="39.26599917508815" lon="118.43209969800677">
        <ele>1.4</ele>
        <time>2024-09-05T23:50:10Z</time>
      </trkpt>
      <trkpt lat="39.26599119771733" lon="118.43211675452497">
        <ele>1.4</ele>
        <time>2024-09-05T23:50:11Z</time>
      </trkpt>
      <trkpt lat="39.265983752675105" lon="118.43213849098366">
        <ele>1.4</ele>
        <time>2024-09-05T23:50:12Z</time>
      </trkpt>
      <trkpt lat="39.26597954190149" lon="118.43216202312851">
        <ele>1.4</ele>
        <time>2024-09-05T23:50:13Z</time>
      </trkpt>
      <trkpt lat="39.265978264073006" lon="118.43218706215124">
        <ele>1.4</ele>
        <time>2024-09-05T23:50:14Z</time>
      </trkpt>
      <trkpt lat="39.265979891939075" lon="118.43221281459553">
        <ele>1.4</ele>
        <time>2024-09-05T23:50:15Z</time>
      </trkpt>
      <trkpt lat="39.265984070110825" lon="118.43223955886226">
        <ele>1.4</ele>
        <time>2024-09-05T23:50:16Z</time>
      </trkpt>
      <trkpt lat="39.26598918294234" lon="118.43226563803508">
        <ele>1.3</ele>
        <time>2024-09-05T23:50:17Z</time>
      </trkpt>
      <trkpt lat="39.26599446137152" lon="118.43229071698158">
        <ele>1.3</ele>
        <time>2024-09-05T23:50:18Z</time>
      </trkpt>
      <trkpt lat="39.26599995627774" lon="118.43231443511998">
        <ele>1.3</ele>
        <time>2024-09-05T23:50:19Z</time>
      </trkpt>
      <trkpt lat="39.26600552705147" lon="118.43233799313009">
        <ele>1.3</ele>
        <time>2024-09-05T23:50:20Z</time>
      </trkpt>
      <trkpt lat="39.26601028529377" lon="118.4323633661847">
        <ele>1.3</ele>
        <time>2024-09-05T23:50:21Z</time>
      </trkpt>
      <trkpt lat="39.26601407174717" lon="118.4323948286963">
        <ele>1.3</ele>
        <time>2024-09-05T23:50:23Z</time>
      </trkpt>
      <trkpt lat="39.26601675519171" lon="118.43242625739553">
        <ele>1.3</ele>
        <time>2024-09-05T23:50:24Z</time>
      </trkpt>
      <trkpt lat="39.26601947222125" lon="118.43245947456636">
        <ele>1.3</ele>
        <time>2024-09-05T23:50:25Z</time>
      </trkpt>
      <trkpt lat="39.26602136992408" lon="118.43248384895313">
        <ele>1.3</ele>
        <time>2024-09-05T23:50:26Z</time>
      </trkpt>
      <trkpt lat="39.26602282715269" lon="118.43250818603171">
        <ele>1.8</ele>
        <time>2024-09-05T23:50:27Z</time>
      </trkpt>
      <trkpt lat="39.26602371740994" lon="118.43253272874271">
        <ele>1.8</ele>
        <time>2024-09-05T23:50:28Z</time>
      </trkpt>
      <trkpt lat="39.2660240082226" lon="118.43255757120991">
        <ele>1.8</ele>
        <time>2024-09-05T23:50:29Z</time>
      </trkpt>
      <trkpt lat="39.26602371633858" lon="118.43258294265594">
        <ele>1.8</ele>
        <time>2024-09-05T23:50:30Z</time>
      </trkpt>
      <trkpt lat="39.26602304607263" lon="118.43260855895092">
        <ele>1.8</ele>
        <time>2024-09-05T23:50:31Z</time>
      </trkpt>
      <trkpt lat="39.2660222101155" lon="118.43263453750295">
        <ele>1.8</ele>
        <time>2024-09-05T23:50:32Z</time>
      </trkpt>
      <trkpt lat="39.266021425561746" lon="118.43266074072912">
        <ele>1.8</ele>
        <time>2024-09-05T23:50:33Z</time>
      </trkpt>
      <trkpt lat="39.26602071358567" lon="118.43268786885903">
        <ele>1.8</ele>
        <time>2024-09-05T23:50:34Z</time>
      </trkpt>
      <trkpt lat="39.26602010332822" lon="118.4327157905826">
        <ele>1.8</ele>
        <time>2024-09-05T23:50:35Z</time>
      </trkpt>
      <trkpt lat="39.26601966217237" lon="118.43274608317789">
        <ele>1.8</ele>
        <time>2024-09-05T23:50:36Z</time>
      </trkpt>
      <trkpt lat="39.26601942909265" lon="118.43277547302624">
        <ele>1.7</ele>
        <time>2024-09-05T23:50:37Z</time>
      </trkpt>
      <trkpt lat="39.26601981133417" lon="118.43281369734396">
        <ele>1.7</ele>
        <time>2024-09-05T23:50:38Z</time>
      </trkpt>
      <trkpt lat="39.266020861162886" lon="118.43285555027698">
        <ele>1.7</ele>
        <time>2024-09-05T23:50:39Z</time>
      </trkpt>
      <trkpt lat="39.266023045803294" lon="118.43291016082595">
        <ele>1.7</ele>
        <time>2024-09-05T23:50:41Z</time>
      </trkpt>
      <trkpt lat="39.26602560527518" lon="118.4329621044557">
        <ele>1.7</ele>
        <time>2024-09-05T23:50:42Z</time>
      </trkpt>
      <trkpt lat="39.26602834216223" lon="118.43301550328805">
        <ele>1.7</ele>
        <time>2024-09-05T23:50:43Z</time>
      </trkpt>
      <trkpt lat="39.26603062738773" lon="118.43306458350843">
        <ele>1.7</ele>
        <time>2024-09-05T23:50:44Z</time>
      </trkpt>
      <trkpt lat="39.26603263958937" lon="118.43311523322538">
        <ele>1.7</ele>
        <time>2024-09-05T23:50:45Z</time>
      </trkpt>
      <trkpt lat="39.26603441903298" lon="118.43316679049194">
        <ele>1.7</ele>
        <time>2024-09-05T23:50:46Z</time>
      </trkpt>
      <trkpt lat="39.26603608508102" lon="118.43321845231326">
        <ele>1.4</ele>
        <time>2024-09-05T23:50:47Z</time>
      </trkpt>
      <trkpt lat="39.266037842833065" lon="118.43326971123047">
        <ele>1.4</ele>
        <time>2024-09-05T23:50:48Z</time>
      </trkpt>
      <trkpt lat="39.26603972823684" lon="118.43332017216805">
        <ele>1.4</ele>
        <time>2024-09-05T23:50:49Z</time>
      </trkpt>
      <trkpt lat="39.26604176065266" lon="118.43336974620911">
        <ele>1.4</ele>
        <time>2024-09-05T23:50:50Z</time>
      </trkpt>
      <trkpt lat="39.266043869609305" lon="118.43341780850751">
        <ele>1.4</ele>
        <time>2024-09-05T23:50:51Z</time>
      </trkpt>
      <trkpt lat="39.266046030974714" lon="118.43346527143869">
        <ele>1.4</ele>
        <time>2024-09-05T23:50:52Z</time>
      </trkpt>
      <trkpt lat="39.26604811262287" lon="118.4335085191105">
        <ele>1.4</ele>
        <time>2024-09-05T23:50:53Z</time>
      </trkpt>
      <trkpt lat="39.266050318292386" lon="118.43355588580393">
        <ele>1.4</ele>
        <time>2024-09-05T23:50:54Z</time>
      </trkpt>
      <trkpt lat="39.26605254149724" lon="118.43360291667334">
        <ele>1.4</ele>
        <time>2024-09-05T23:50:55Z</time>
      </trkpt>
      <trkpt lat="39.266054822843365" lon="118.43365143324644">
        <ele>1.4</ele>
        <time>2024-09-05T23:50:56Z</time>
      </trkpt>
      <trkpt lat="39.26605707686383" lon="118.43370029778126">
        <ele>1.4</ele>
        <time>2024-09-05T23:50:57Z</time>
      </trkpt>
      <trkpt lat="39.26605956718963" lon="118.43375808981774">
        <ele>1.4</ele>
        <time>2024-09-05T23:50:59Z</time>
      </trkpt>
      <trkpt lat="39.26606176671318" lon="118.43381232520451">
        <ele>1.4</ele>
        <time>2024-09-05T23:51:00Z</time>
      </trkpt>
      <trkpt lat="39.26606361854525" lon="118.43386002489231">
        <ele>1.4</ele>
        <time>2024-09-05T23:51:01Z</time>
      </trkpt>
      <trkpt lat="39.26606496112737" lon="118.43389994067562">
        <ele>1.4</ele>
        <time>2024-09-05T23:51:02Z</time>
      </trkpt>
      <trkpt lat="39.26606616872041" lon="118.43393938819045">
        <ele>1.4</ele>
        <time>2024-09-05T23:51:03Z</time>
      </trkpt>
      <trkpt lat="39.26606717927251" lon="118.43397830795995">
        <ele>1.4</ele>
        <time>2024-09-05T23:51:04Z</time>
      </trkpt>
      <trkpt lat="39.266067898710574" lon="118.4340167725616">
        <ele>1.4</ele>
        <time>2024-09-05T23:51:05Z</time>
      </trkpt>
      <trkpt lat="39.26606826979641" lon="118.43405385577029">
        <ele>1.4</ele>
        <time>2024-09-05T23:51:06Z</time>
      </trkpt>
      <trkpt lat="39.266068301100006" lon="118.43409047678223">
        <ele>1.7</ele>
        <time>2024-09-05T23:51:07Z</time>
      </trkpt>
      <trkpt lat="39.26606794860899" lon="118.43412307827235">
        <ele>1.7</ele>
        <time>2024-09-05T23:51:08Z</time>
      </trkpt>
      <trkpt lat="39.266067262869136" lon="118.43415977641737">
        <ele>1.7</ele>
        <time>2024-09-05T23:51:09Z</time>
      </trkpt>
      <trkpt lat="39.26606620281437" lon="118.43419645490077">
        <ele>1.7</ele>
        <time>2024-09-05T23:51:10Z</time>
      </trkpt>
      <trkpt lat="39.26606477068187" lon="118.43423314803724">
        <ele>1.7</ele>
        <time>2024-09-05T23:51:11Z</time>
      </trkpt>
      <trkpt lat="39.26606299895264" lon="118.43427069572583">
        <ele>1.7</ele>
        <time>2024-09-05T23:51:12Z</time>
      </trkpt>
      <trkpt lat="39.266060965422106" lon="118.43430827416118">
        <ele>1.7</ele>
        <time>2024-09-05T23:51:13Z</time>
      </trkpt>
      <trkpt lat="39.26605866271194" lon="118.43435098324552">
        <ele>1.7</ele>
        <time>2024-09-05T23:51:14Z</time>
      </trkpt>
      <trkpt lat="39.266056200732656" lon="118.43438980300715">
        <ele>1.7</ele>
        <time>2024-09-05T23:51:15Z</time>
      </trkpt>
      <trkpt lat="39.266053177839375" lon="118.43443716966861">
        <ele>1.2</ele>
        <time>2024-09-05T23:51:17Z</time>
      </trkpt>
      <trkpt lat="39.266050470877076" lon="118.43447870807306">
        <ele>1.2</ele>
        <time>2024-09-05T23:51:18Z</time>
      </trkpt>
      <trkpt lat="39.26604826312223" lon="118.43451872277834">
        <ele>1.2</ele>
        <time>2024-09-05T23:51:19Z</time>
      </trkpt>
      <trkpt lat="39.266047181864444" lon="118.43455265760164">
        <ele>1.2</ele>
        <time>2024-09-05T23:51:20Z</time>
      </trkpt>
      <trkpt lat="39.26604667356898" lon="118.43458553630462">
        <ele>1.2</ele>
        <time>2024-09-05T23:51:21Z</time>
      </trkpt>
      <trkpt lat="39.26604667287935" lon="118.43461826496616">
        <ele>1.2</ele>
        <time>2024-09-05T23:51:22Z</time>
      </trkpt>
      <trkpt lat="39.26604710738099" lon="118.434647109358">
        <ele>1.2</ele>
        <time>2024-09-05T23:51:23Z</time>
      </trkpt>
      <trkpt lat="39.266047802124845" lon="118.43467978495643">
        <ele>1.2</ele>
        <time>2024-09-05T23:51:24Z</time>
      </trkpt>
      <trkpt lat="39.26604858262061" lon="118.43471201833206">
        <ele>1.2</ele>
        <time>2024-09-05T23:51:25Z</time>
      </trkpt>
      <trkpt lat="39.26604924884043" lon="118.43474388556913">
        <ele>1.2</ele>
        <time>2024-09-05T23:51:26Z</time>
      </trkpt>
      <trkpt lat="39.2660496509535" lon="118.43477613614536">
        <ele>1.9</ele>
        <time>2024-09-05T23:51:27Z</time>
      </trkpt>
      <trkpt lat="39.26604973393671" lon="118.43480811425893">
        <ele>1.9</ele>
        <time>2024-09-05T23:51:28Z</time>
      </trkpt>
      <trkpt lat="39.26604948245179" lon="118.43484365947306">
        <ele>1.9</ele>
        <time>2024-09-05T23:51:29Z</time>
      </trkpt>
      <trkpt lat="39.26604894750673" lon="118.43487529513033">
        <ele>1.9</ele>
        <time>2024-09-05T23:51:30Z</time>
      </trkpt>
      <trkpt lat="39.26604814629369" lon="118.4349075012189">
        <ele>1.9</ele>
        <time>2024-09-05T23:51:31Z</time>
      </trkpt>
      <trkpt lat="39.26604697724875" lon="118.43494175694117">
        <ele>1.9</ele>
        <time>2024-09-05T23:51:32Z</time>
      </trkpt>
      <trkpt lat="39.26604552752879" lon="118.43497731425788">
        <ele>1.9</ele>
        <time>2024-09-05T23:51:33Z</time>
      </trkpt>
      <trkpt lat="39.26604293962948" lon="118.4350227415356">
        <ele>1.9</ele>
        <time>2024-09-05T23:51:35Z</time>
      </trkpt>
      <trkpt lat="39.2660401828601" lon="118.435064873166">
        <ele>1.9</ele>
        <time>2024-09-05T23:51:36Z</time>
      </trkpt>
      <trkpt lat="39.266037678284604" lon="118.43510798408083">
        <ele>1.6</ele>
        <time>2024-09-05T23:51:37Z</time>
      </trkpt>
      <trkpt lat="39.26603669160285" lon="118.4351430299619">
        <ele>1.6</ele>
        <time>2024-09-05T23:51:38Z</time>
      </trkpt>
      <trkpt lat="39.26603683693121" lon="118.43517700245825">
        <ele>1.6</ele>
        <time>2024-09-05T23:51:39Z</time>
      </trkpt>
      <trkpt lat="39.266037815797795" lon="118.43520834466443">
        <ele>1.6</ele>
        <time>2024-09-05T23:51:40Z</time>
      </trkpt>
      <trkpt lat="39.266039103392266" lon="118.43523424090006">
        <ele>1.6</ele>
        <time>2024-09-05T23:51:41Z</time>
      </trkpt>
      <trkpt lat="39.26604045508978" lon="118.43525673404183">
        <ele>1.6</ele>
        <time>2024-09-05T23:51:42Z</time>
      </trkpt>
      <trkpt lat="39.2660420340494" lon="118.43527659980236">
        <ele>1.6</ele>
        <time>2024-09-05T23:51:43Z</time>
      </trkpt>
      <trkpt lat="39.26604389067222" lon="118.43529532767423">
        <ele>1.6</ele>
        <time>2024-09-05T23:51:44Z</time>
      </trkpt>
      <trkpt lat="39.266045965787406" lon="118.43531291559606">
        <ele>1.6</ele>
        <time>2024-09-05T23:51:45Z</time>
      </trkpt>
      <trkpt lat="39.266048018290256" lon="118.43532670932768">
        <ele>1.6</ele>
        <time>2024-09-05T23:51:46Z</time>
      </trkpt>
      <trkpt lat="39.266049886848855" lon="118.43534214360523">
        <ele>1.4</ele>
        <time>2024-09-05T23:51:47Z</time>
      </trkpt>
      <trkpt lat="39.26605099139289" lon="118.43535739936415">
        <ele>1.4</ele>
        <time>2024-09-05T23:51:48Z</time>
      </trkpt>
      <trkpt lat="39.26605150177423" lon="118.43537072541595">
        <ele>1.4</ele>
        <time>2024-09-05T23:51:49Z</time>
      </trkpt>
      <trkpt lat="39.266052611574175" lon="118.43538647107962">
        <ele>1.4</ele>
        <time>2024-09-05T23:51:50Z</time>
      </trkpt>
      <trkpt lat="39.26605507945388" lon="118.43540160330305">
        <ele>1.4</ele>
        <time>2024-09-05T23:51:51Z</time>
      </trkpt>
      <trkpt lat="39.26605843498047" lon="118.4354169300537">
        <ele>1.4</ele>
        <time>2024-09-05T23:51:53Z</time>
      </trkpt>
      <trkpt lat="39.26606380411609" lon="118.43542865522755">
        <ele>1.4</ele>
        <time>2024-09-05T23:51:54Z</time>
      </trkpt>
      <trkpt lat="39.2660708864421" lon="118.43543936638814">
        <ele>1.4</ele>
        <time>2024-09-05T23:51:55Z</time>
      </trkpt>
      <trkpt lat="39.266080985311035" lon="118.4354504564027">
        <ele>1.4</ele>
        <time>2024-09-05T23:51:56Z</time>
      </trkpt>
      <trkpt lat="39.26609295154484" lon="118.43546109053142">
        <ele>1.7</ele>
        <time>2024-09-05T23:51:57Z</time>
      </trkpt>
      <trkpt lat="39.266106594578424" lon="118.4354717055975">
        <ele>1.7</ele>
        <time>2024-09-05T23:51:58Z</time>
      </trkpt>
      <trkpt lat="39.26612129909569" lon="118.43548241052353">
        <ele>1.7</ele>
        <time>2024-09-05T23:51:59Z</time>
      </trkpt>
      <trkpt lat="39.26613731029132" lon="118.43549337905407">
        <ele>1.7</ele>
        <time>2024-09-05T23:52:00Z</time>
      </trkpt>
      <trkpt lat="39.26615227266379" lon="118.43550297038382">
        <ele>1.7</ele>
        <time>2024-09-05T23:52:01Z</time>
      </trkpt>
      <trkpt lat="39.266167819068414" lon="118.43551133841655">
        <ele>1.7</ele>
        <time>2024-09-05T23:52:02Z</time>
      </trkpt>
      <trkpt lat="39.266180964833914" lon="118.43551804580574">
        <ele>1.7</ele>
        <time>2024-09-05T23:52:03Z</time>
      </trkpt>
      <trkpt lat="39.266195618013896" lon="118.4355240496276">
        <ele>1.7</ele>
        <time>2024-09-05T23:52:04Z</time>
      </trkpt>
      <trkpt lat="39.26620949477854" lon="118.43552930227742">
        <ele>1.7</ele>
        <time>2024-09-05T23:52:05Z</time>
      </trkpt>
      <trkpt lat="39.26622318346847" lon="118.43553369795097">
        <ele>1.7</ele>
        <time>2024-09-05T23:52:06Z</time>
      </trkpt>
      <trkpt lat="39.26623623138745" lon="118.4355372356758">
        <ele>2.1</ele>
        <time>2024-09-05T23:52:07Z</time>
      </trkpt>
      <trkpt lat="39.266251644615544" lon="118.43553802616192">
        <ele>2.1</ele>
        <time>2024-09-05T23:52:08Z</time>
      </trkpt>
      <trkpt lat="39.26626806051436" lon="118.43553631916303">
        <ele>2.1</ele>
        <time>2024-09-05T23:52:09Z</time>
      </trkpt>
      <trkpt lat="39.26628284646684" lon="118.43553264964997">
        <ele>2.1</ele>
        <time>2024-09-05T23:52:11Z</time>
      </trkpt>
      <trkpt lat="39.26629428199877" lon="118.43552892351383">
        <ele>2.1</ele>
        <time>2024-09-05T23:52:12Z</time>
      </trkpt>
      <trkpt lat="39.266303419703206" lon="118.43552502894534">
        <ele>2.1</ele>
        <time>2024-09-05T23:52:13Z</time>
      </trkpt>
      <trkpt lat="39.26631210136012" lon="118.43552195432717">
        <ele>2.1</ele>
        <time>2024-09-05T23:52:14Z</time>
      </trkpt>
      <trkpt lat="39.26631937561731" lon="118.43551723997909">
        <ele>2.1</ele>
        <time>2024-09-05T23:52:15Z</time>
      </trkpt>
      <trkpt lat="39.26632783145624" lon="118.43551142832366">
        <ele>2.1</ele>
        <time>2024-09-05T23:52:16Z</time>
      </trkpt>
      <trkpt lat="39.26633670480584" lon="118.43550238895389">
        <ele>1.6</ele>
        <time>2024-09-05T23:52:17Z</time>
      </trkpt>
      <trkpt lat="39.266345829198904" lon="118.43549182552145">
        <ele>1.6</ele>
        <time>2024-09-05T23:52:18Z</time>
      </trkpt>
      <trkpt lat="39.266354555777134" lon="118.43547948050212">
        <ele>1.6</ele>
        <time>2024-09-05T23:52:19Z</time>
      </trkpt>
      <trkpt lat="39.2663632187109" lon="118.43546692092353">
        <ele>1.6</ele>
        <time>2024-09-05T23:52:20Z</time>
      </trkpt>
      <trkpt lat="39.266370388587106" lon="118.43545483629795">
        <ele>1.6</ele>
        <time>2024-09-05T23:52:21Z</time>
      </trkpt>
      <trkpt lat="39.26637710322928" lon="118.4354425943885">
        <ele>1.6</ele>
        <time>2024-09-05T23:52:22Z</time>
      </trkpt>
      <trkpt lat="39.2663831188252" lon="118.43542920708727">
        <ele>1.6</ele>
        <time>2024-09-05T23:52:23Z</time>
      </trkpt>
      <trkpt lat="39.26638927363231" lon="118.4354148548117">
        <ele>1.6</ele>
        <time>2024-09-05T23:52:24Z</time>
      </trkpt>
      <trkpt lat="39.26639514498378" lon="118.43539909911745">
        <ele>1.6</ele>
        <time>2024-09-05T23:52:25Z</time>
      </trkpt>
      <trkpt lat="39.26640244338241" lon="118.43538005178873">
        <ele>1.6</ele>
        <time>2024-09-05T23:52:26Z</time>
      </trkpt>
      <trkpt lat="39.2664097332902" lon="118.43536060109797">
        <ele>1.9</ele>
        <time>2024-09-05T23:52:27Z</time>
      </trkpt>
      <trkpt lat="39.26641687606901" lon="118.43533985233415">
        <ele>1.9</ele>
        <time>2024-09-05T23:52:29Z</time>
      </trkpt>
      <trkpt lat="39.266420519079674" lon="118.43532053630175">
        <ele>1.9</ele>
        <time>2024-09-05T23:52:30Z</time>
      </trkpt>
      <trkpt lat="39.26642345420885" lon="118.4352981375237">
        <ele>1.9</ele>
        <time>2024-09-05T23:52:31Z</time>
      </trkpt>
      <trkpt lat="39.266424923570895" lon="118.43527506979282">
        <ele>1.9</ele>
        <time>2024-09-05T23:52:32Z</time>
      </trkpt>
      <trkpt lat="39.26642638260694" lon="118.43525114737304">
        <ele>1.9</ele>
        <time>2024-09-05T23:52:33Z</time>
      </trkpt>
      <trkpt lat="39.26642728344332" lon="118.43522799268021">
        <ele>1.9</ele>
        <time>2024-09-05T23:52:34Z</time>
      </trkpt>
      <trkpt lat="39.26642786771606" lon="118.43520768109042">
        <ele>1.9</ele>
        <time>2024-09-05T23:52:35Z</time>
      </trkpt>
      <trkpt lat="39.266428429274335" lon="118.43518889787376">
        <ele>1.9</ele>
        <time>2024-09-05T23:52:36Z</time>
      </trkpt>
      <trkpt lat="39.26642893606192" lon="118.43517224998396">
        <ele>1.9</ele>
        <time>2024-09-05T23:52:37Z</time>
      </trkpt>
      <trkpt lat="39.26642896708193" lon="118.43515487522492">
        <ele>1.9</ele>
        <time>2024-09-05T23:52:38Z</time>
      </trkpt>
      <trkpt lat="39.26642857102271" lon="118.43514080196977">
        <ele>1.9</ele>
        <time>2024-09-05T23:52:39Z</time>
      </trkpt>
      <trkpt lat="39.266427975634706" lon="118.43512753700635">
        <ele>1.9</ele>
        <time>2024-09-05T23:52:40Z</time>
      </trkpt>
      <trkpt lat="39.266427629935" lon="118.43511594960566">
        <ele>1.9</ele>
        <time>2024-09-05T23:52:41Z</time>
      </trkpt>
      <trkpt lat="39.26642777054606" lon="118.43510307381592">
        <ele>1.9</ele>
        <time>2024-09-05T23:52:42Z</time>
      </trkpt>
      <trkpt lat="39.26642871191044" lon="118.43509032536357">
        <ele>1.9</ele>
        <time>2024-09-05T23:52:43Z</time>
      </trkpt>
      <trkpt lat="39.26642990866126" lon="118.43507670466614">
        <ele>1.9</ele>
        <time>2024-09-05T23:52:44Z</time>
      </trkpt>
      <trkpt lat="39.26643106097794" lon="118.43506239899995">
        <ele>1.9</ele>
        <time>2024-09-05T23:52:45Z</time>
      </trkpt>
      <trkpt lat="39.26643175252286" lon="118.4350475107699">
        <ele>2</ele>
        <time>2024-09-05T23:52:47Z</time>
      </trkpt>
      <trkpt lat="39.266432341644055" lon="118.43503226681288">
        <ele>2</ele>
        <time>2024-09-05T23:52:48Z</time>
      </trkpt>
      <trkpt lat="39.26643294982959" lon="118.4350196663465">
        <ele>2</ele>
        <time>2024-09-05T23:52:49Z</time>
      </trkpt>
      <trkpt lat="39.26643356792298" lon="118.43500744172361">
        <ele>2</ele>
        <time>2024-09-05T23:52:50Z</time>
      </trkpt>
      <trkpt lat="39.266434231418394" lon="118.43499604900535">
        <ele>2</ele>
        <time>2024-09-05T23:52:51Z</time>
      </trkpt>
      <trkpt lat="39.266434821231364" lon="118.43498194770908">
        <ele>2</ele>
        <time>2024-09-05T23:52:52Z</time>
      </trkpt>
      <trkpt lat="39.2664354858671" lon="118.43497043554032">
        <ele>2</ele>
        <time>2024-09-05T23:52:53Z</time>
      </trkpt>
      <trkpt lat="39.26643610007612" lon="118.43495864664955">
        <ele>2</ele>
        <time>2024-09-05T23:52:54Z</time>
      </trkpt>
      <trkpt lat="39.26643663959617" lon="118.4349473128921">
        <ele>2</ele>
        <time>2024-09-05T23:52:55Z</time>
      </trkpt>
      <trkpt lat="39.26643694536955" lon="118.43493305363623">
        <ele>2</ele>
        <time>2024-09-05T23:52:56Z</time>
      </trkpt>
      <trkpt lat="39.26643714974892" lon="118.43492131136047">
        <ele>2.1</ele>
        <time>2024-09-05T23:52:57Z</time>
      </trkpt>
      <trkpt lat="39.266437134098084" lon="118.43490955841163">
        <ele>2.1</ele>
        <time>2024-09-05T23:52:58Z</time>
      </trkpt>
      <trkpt lat="39.266436921860816" lon="118.43489842070693">
        <ele>2.1</ele>
        <time>2024-09-05T23:52:59Z</time>
      </trkpt>
      <trkpt lat="39.26643641922926" lon="118.43488451801964">
        <ele>2.1</ele>
        <time>2024-09-05T23:53:00Z</time>
      </trkpt>
      <trkpt lat="39.26643574693683" lon="118.43487020360975">
        <ele>2.1</ele>
        <time>2024-09-05T23:53:01Z</time>
      </trkpt>
      <trkpt lat="39.26643478611273" lon="118.4348548080627">
        <ele>2.1</ele>
        <time>2024-09-05T23:53:02Z</time>
      </trkpt>
      <trkpt lat="39.266433637242315" lon="118.43483888739317">
        <ele>2.1</ele>
        <time>2024-09-05T23:53:03Z</time>
      </trkpt>
      <trkpt lat="39.26643230513999" lon="118.43482273910472">
        <ele>2.1</ele>
        <time>2024-09-05T23:53:05Z</time>
      </trkpt>
      <trkpt lat="39.26643090691904" lon="118.43480629321942">
        <ele>2.1</ele>
        <time>2024-09-05T23:53:06Z</time>
      </trkpt>
      <trkpt lat="39.2664293975329" lon="118.43479026251212">
        <ele>1.9</ele>
        <time>2024-09-05T23:53:07Z</time>
      </trkpt>
      <trkpt lat="39.26642778504877" lon="118.43477416772063">
        <ele>1.9</ele>
        <time>2024-09-05T23:53:08Z</time>
      </trkpt>
      <trkpt lat="39.26642623822461" lon="118.43476162014908">
        <ele>1.9</ele>
        <time>2024-09-05T23:53:09Z</time>
      </trkpt>
      <trkpt lat="39.26642467494972" lon="118.43474938589205">
        <ele>1.9</ele>
        <time>2024-09-05T23:53:10Z</time>
      </trkpt>
      <trkpt lat="39.26642317220934" lon="118.43473788458446">
        <ele>1.9</ele>
        <time>2024-09-05T23:53:11Z</time>
      </trkpt>
      <trkpt lat="39.266421667779056" lon="118.43472365368878">
        <ele>1.9</ele>
        <time>2024-09-05T23:53:12Z</time>
      </trkpt>
      <trkpt lat="39.26642030692867" lon="118.43470907230281">
        <ele>1.9</ele>
        <time>2024-09-05T23:53:13Z</time>
      </trkpt>
      <trkpt lat="39.266418371232646" lon="118.43469504244531">
        <ele>1.9</ele>
        <time>2024-09-05T23:53:14Z</time>
      </trkpt>
      <trkpt lat="39.26641602393735" lon="118.43468061342236">
        <ele>1.9</ele>
        <time>2024-09-05T23:53:15Z</time>
      </trkpt>
      <trkpt lat="39.26641368536037" lon="118.43466625173971">
        <ele>1.9</ele>
        <time>2024-09-05T23:53:16Z</time>
      </trkpt>
      <trkpt lat="39.26641175016191" lon="118.43465075482091">
        <ele>0</ele>
        <time>2024-09-05T23:53:17Z</time>
      </trkpt>
      <trkpt lat="39.26641056021415" lon="118.43463602800645">
        <ele>0</ele>
        <time>2024-09-05T23:53:18Z</time>
      </trkpt>
      <trkpt lat="39.26640982497192" lon="118.43462858781132">
        <ele>0</ele>
        <time>2024-09-05T23:53:19Z</time>
      </trkpt>
    </trkseg>
  </trk>
</gpx>