<?xml version="1.0" encoding="UTF-8"?>
<gpx xmlns="http://www.topografix.com/GPX/1/1" xmlns:gpxtpx="http://www.garmin.com/xmlschemas/TrackPointExtension/v1" xmlns:xsi="http://www.w3.org/2001/XMLSchema-instance" xsi:schemaLocation="http://www.topografix.com/GPX/1/1 http://www.topografix.com/GPX/1/1/gpx.xsd" version="1.1" creator="gpx.py -- https://github.com/tkrajina/gpxpy">
  <trk>
    <name>gpx from codoon</name>
    <type>Run</type>
    <trkseg>
      <trkpt lat="39.2659521357968" lon="118.43220474071343">
        <ele>8.3</ele>
        <time>2024-09-30T23:09:32Z</time>
      </trkpt>
      <trkpt lat="39.26597179601998" lon="118.43221877430129">
        <ele>8.3</ele>
        <time>2024-09-30T23:09:34Z</time>
      </trkpt>
      <trkpt lat="39.26597568131816" lon="118.43222620846102">
        <ele>8.3</ele>
        <time>2024-09-30T23:09:35Z</time>
      </trkpt>
      <trkpt lat="39.26598262119388" lon="118.4322427024583">
        <ele>8.3</ele>
        <time>2024-09-30T23:09:36Z</time>
      </trkpt>
      <trkpt lat="39.26598475425295" lon="118.43226510373569">
        <ele>8.3</ele>
        <time>2024-09-30T23:09:37Z</time>
      </trkpt>
      <trkpt lat="39.265986348961945" lon="118.43229455558223">
        <ele>8.3</ele>
        <time>2024-09-30T23:09:39Z</time>
      </trkpt>
      <trkpt lat="39.265988123769866" lon="118.43232638016342">
        <ele>8.3</ele>
        <time>2024-09-30T23:09:40Z</time>
      </trkpt>
      <trkpt lat="39.26598998433939" lon="118.43235627001879">
        <ele>8.3</ele>
        <time>2024-09-30T23:09:41Z</time>
      </trkpt>
      <trkpt lat="39.26599183161598" lon="118.43238292405564">
        <ele>8.4</ele>
        <time>2024-09-30T23:09:42Z</time>
      </trkpt>
      <trkpt lat="39.26599371411569" lon="118.43240583664834">
        <ele>8.4</ele>
        <time>2024-09-30T23:09:43Z</time>
      </trkpt>
      <trkpt lat="39.26599576757257" lon="118.43242963301837">
        <ele>8.4</ele>
        <time>2024-09-30T23:09:44Z</time>
      </trkpt>
      <trkpt lat="39.265998014288606" lon="118.43245445145733">
        <ele>8.4</ele>
        <time>2024-09-30T23:09:45Z</time>
      </trkpt>
      <trkpt lat="39.26600044098917" lon="118.43248088844659">
        <ele>8.4</ele>
        <time>2024-09-30T23:09:46Z</time>
      </trkpt>
      <trkpt lat="39.26600293538498" lon="118.43250871970066">
        <ele>8.5</ele>
        <time>2024-09-30T23:09:47Z</time>
      </trkpt>
      <trkpt lat="39.26600531289257" lon="118.43253868442451">
        <ele>8.5</ele>
        <time>2024-09-30T23:09:48Z</time>
      </trkpt>
      <trkpt lat="39.26600733081242" lon="118.43256976535639">
        <ele>8.5</ele>
        <time>2024-09-30T23:09:49Z</time>
      </trkpt>
      <trkpt lat="39.26600893691939" lon="118.43260688829193">
        <ele>8.5</ele>
        <time>2024-09-30T23:09:50Z</time>
      </trkpt>
      <trkpt lat="39.266009860303946" lon="118.43264061345269">
        <ele>8.5</ele>
        <time>2024-09-30T23:09:51Z</time>
      </trkpt>
      <trkpt lat="39.266010435924315" lon="118.43268223419922">
        <ele>8.7</ele>
        <time>2024-09-30T23:09:53Z</time>
      </trkpt>
      <trkpt lat="39.26601070524932" lon="118.43271755404592">
        <ele>8.7</ele>
        <time>2024-09-30T23:09:54Z</time>
      </trkpt>
      <trkpt lat="39.26601104799347" lon="118.43275474680546">
        <ele>8.7</ele>
        <time>2024-09-30T23:09:55Z</time>
      </trkpt>
      <trkpt lat="39.26601142219258" lon="118.43278251730608">
        <ele>8.7</ele>
        <time>2024-09-30T23:09:56Z</time>
      </trkpt>
      <trkpt lat="39.266011892210024" lon="118.43280965047813">
        <ele>8.8</ele>
        <time>2024-09-30T23:09:57Z</time>
      </trkpt>
      <trkpt lat="39.2660123166088" lon="118.43283660495655">
        <ele>8.8</ele>
        <time>2024-09-30T23:09:58Z</time>
      </trkpt>
      <trkpt lat="39.2660125193624" lon="118.43286302548769">
        <ele>8.8</ele>
        <time>2024-09-30T23:09:59Z</time>
      </trkpt>
      <trkpt lat="39.26601237022936" lon="118.43289277532186">
        <ele>8.8</ele>
        <time>2024-09-30T23:10:00Z</time>
      </trkpt>
      <trkpt lat="39.2660116683264" lon="118.43291894339818">
        <ele>8.8</ele>
        <time>2024-09-30T23:10:01Z</time>
      </trkpt>
      <trkpt lat="39.26601046181501" lon="118.43294624307745">
        <ele>8.8</ele>
        <time>2024-09-30T23:10:02Z</time>
      </trkpt>
      <trkpt lat="39.26600873595292" lon="118.43297653497098">
        <ele>8.8</ele>
        <time>2024-09-30T23:10:03Z</time>
      </trkpt>
      <trkpt lat="39.266006692896966" lon="118.43300844181468">
        <ele>8.8</ele>
        <time>2024-09-30T23:10:04Z</time>
      </trkpt>
      <trkpt lat="39.266004291204425" lon="118.43304973632151">
        <ele>8.8</ele>
        <time>2024-09-30T23:10:06Z</time>
      </trkpt>
      <trkpt lat="39.2660021515305" lon="118.43308754946048">
        <ele>8.9</ele>
        <time>2024-09-30T23:10:07Z</time>
      </trkpt>
      <trkpt lat="39.266000388593305" lon="118.43312973028611">
        <ele>8.9</ele>
        <time>2024-09-30T23:10:08Z</time>
      </trkpt>
      <trkpt lat="39.26599925011901" lon="118.43317088262928">
        <ele>8.9</ele>
        <time>2024-09-30T23:10:10Z</time>
      </trkpt>
      <trkpt lat="39.26599811552635" lon="118.43321184928095">
        <ele>8.9</ele>
        <time>2024-09-30T23:10:11Z</time>
      </trkpt>
      <trkpt lat="39.26599721739873" lon="118.43324811083276">
        <ele>8.9</ele>
        <time>2024-09-30T23:10:12Z</time>
      </trkpt>
      <trkpt lat="39.26599681131842" lon="118.43327970015564">
        <ele>8.9</ele>
        <time>2024-09-30T23:10:13Z</time>
      </trkpt>
      <trkpt lat="39.265997394318056" lon="118.43331237188589">
        <ele>8.9</ele>
        <time>2024-09-30T23:10:14Z</time>
      </trkpt>
      <trkpt lat="39.26599889735018" lon="118.43334796321683">
        <ele>8.9</ele>
        <time>2024-09-30T23:10:15Z</time>
      </trkpt>
      <trkpt lat="39.266001904215656" lon="118.43339281835978">
        <ele>9</ele>
        <time>2024-09-30T23:10:17Z</time>
      </trkpt>
      <trkpt lat="39.26600495070581" lon="118.433437777907">
        <ele>9</ele>
        <time>2024-09-30T23:10:18Z</time>
      </trkpt>
      <trkpt lat="39.26600803904528" lon="118.43348530628151">
        <ele>9</ele>
        <time>2024-09-30T23:10:19Z</time>
      </trkpt>
      <trkpt lat="39.26601016670571" lon="118.4335236722518">
        <ele>9</ele>
        <time>2024-09-30T23:10:20Z</time>
      </trkpt>
      <trkpt lat="39.26601222428043" lon="118.43356434736803">
        <ele>9</ele>
        <time>2024-09-30T23:10:21Z</time>
      </trkpt>
      <trkpt lat="39.26601413466721" lon="118.43360427561605">
        <ele>9</ele>
        <time>2024-09-30T23:10:22Z</time>
      </trkpt>
      <trkpt lat="39.266015287041306" lon="118.43364533460102">
        <ele>9</ele>
        <time>2024-09-30T23:10:23Z</time>
      </trkpt>
      <trkpt lat="39.26601581895271" lon="118.43368769701759">
        <ele>9</ele>
        <time>2024-09-30T23:10:24Z</time>
      </trkpt>
      <trkpt lat="39.26601586808157" lon="118.43372839965357">
        <ele>9</ele>
        <time>2024-09-30T23:10:25Z</time>
      </trkpt>
      <trkpt lat="39.26601586296587" lon="118.43376683172346">
        <ele>9</ele>
        <time>2024-09-30T23:10:26Z</time>
      </trkpt>
      <trkpt lat="39.26601367080841" lon="118.4338050756211">
        <ele>8.9</ele>
        <time>2024-09-30T23:10:28Z</time>
      </trkpt>
      <trkpt lat="39.26601307396515" lon="118.43383663277278">
        <ele>8.9</ele>
        <time>2024-09-30T23:10:29Z</time>
      </trkpt>
      <trkpt lat="39.266016141576806" lon="118.43386556373079">
        <ele>8.9</ele>
        <time>2024-09-30T23:10:30Z</time>
      </trkpt>
      <trkpt lat="39.266022255923964" lon="118.43388819975998">
        <ele>8.9</ele>
        <time>2024-09-30T23:10:31Z</time>
      </trkpt>
      <trkpt lat="39.26602764080029" lon="118.43391377150772">
        <ele>8.9</ele>
        <time>2024-09-30T23:10:32Z</time>
      </trkpt>
      <trkpt lat="39.266031151287805" lon="118.43394322118512">
        <ele>8.9</ele>
        <time>2024-09-30T23:10:33Z</time>
      </trkpt>
      <trkpt lat="39.266035187820016" lon="118.43397554033639">
        <ele>8.9</ele>
        <time>2024-09-30T23:10:34Z</time>
      </trkpt>
      <trkpt lat="39.266039497285455" lon="118.43401125106708">
        <ele>8.9</ele>
        <time>2024-09-30T23:10:35Z</time>
      </trkpt>
      <trkpt lat="39.26604203134221" lon="118.4340465068902">
        <ele>8.9</ele>
        <time>2024-09-30T23:10:36Z</time>
      </trkpt>
      <trkpt lat="39.266043870652425" lon="118.43408141728018">
        <ele>8.9</ele>
        <time>2024-09-30T23:10:37Z</time>
      </trkpt>
      <trkpt lat="39.26604317362795" lon="118.43411708412383">
        <ele>8.9</ele>
        <time>2024-09-30T23:10:38Z</time>
      </trkpt>
      <trkpt lat="39.266042416470626" lon="118.43415049351478">
        <ele>8.9</ele>
        <time>2024-09-30T23:10:39Z</time>
      </trkpt>
      <trkpt lat="39.266042040213215" lon="118.43418670280005">
        <ele>8.9</ele>
        <time>2024-09-30T23:10:40Z</time>
      </trkpt>
      <trkpt lat="39.26604616599986" lon="118.43422227791913">
        <ele>8.9</ele>
        <time>2024-09-30T23:10:41Z</time>
      </trkpt>
      <trkpt lat="39.2660511302114" lon="118.43425573002627">
        <ele>9</ele>
        <time>2024-09-30T23:10:42Z</time>
      </trkpt>
      <trkpt lat="39.26605203201136" lon="118.43429490438639">
        <ele>9</ele>
        <time>2024-09-30T23:10:43Z</time>
      </trkpt>
      <trkpt lat="39.2660474678138" lon="118.43433302969173">
        <ele>9</ele>
        <time>2024-09-30T23:10:44Z</time>
      </trkpt>
      <trkpt lat="39.26604057073738" lon="118.43437353288435">
        <ele>9</ele>
        <time>2024-09-30T23:10:46Z</time>
      </trkpt>
      <trkpt lat="39.26603632877336" lon="118.43440986931466">
        <ele>9</ele>
        <time>2024-09-30T23:10:47Z</time>
      </trkpt>
      <trkpt lat="39.26603343895873" lon="118.43444692071215">
        <ele>9</ele>
        <time>2024-09-30T23:10:48Z</time>
      </trkpt>
      <trkpt lat="39.26603678366988" lon="118.43448414218264">
        <ele>9</ele>
        <time>2024-09-30T23:10:49Z</time>
      </trkpt>
      <trkpt lat="39.2660419753355" lon="118.43451526774095">
        <ele>9</ele>
        <time>2024-09-30T23:10:50Z</time>
      </trkpt>
      <trkpt lat="39.26604516424144" lon="118.4345462901812">
        <ele>9</ele>
        <time>2024-09-30T23:10:51Z</time>
      </trkpt>
      <trkpt lat="39.26604313479806" lon="118.43457721699335">
        <ele>9</ele>
        <time>2024-09-30T23:10:52Z</time>
      </trkpt>
      <trkpt lat="39.266043065788836" lon="118.43461788053229">
        <ele>9</ele>
        <time>2024-09-30T23:10:53Z</time>
      </trkpt>
      <trkpt lat="39.26604670580086" lon="118.4346536597293">
        <ele>9</ele>
        <time>2024-09-30T23:10:54Z</time>
      </trkpt>
      <trkpt lat="39.26604900824955" lon="118.43469422428399">
        <ele>9</ele>
        <time>2024-09-30T23:10:56Z</time>
      </trkpt>
      <trkpt lat="39.26604883346015" lon="118.43472959287446">
        <ele>9</ele>
        <time>2024-09-30T23:10:57Z</time>
      </trkpt>
      <trkpt lat="39.26604954852345" lon="118.43477319150917">
        <ele>9</ele>
        <time>2024-09-30T23:10:59Z</time>
      </trkpt>
      <trkpt lat="39.26605506454525" lon="118.43481044929487">
        <ele>9</ele>
        <time>2024-09-30T23:11:00Z</time>
      </trkpt>
      <trkpt lat="39.266059480239676" lon="118.43485701476936">
        <ele>9</ele>
        <time>2024-09-30T23:11:01Z</time>
      </trkpt>
      <trkpt lat="39.26606198873245" lon="118.4349033663937">
        <ele>9</ele>
        <time>2024-09-30T23:11:02Z</time>
      </trkpt>
      <trkpt lat="39.2660617145435" lon="118.43495926785516">
        <ele>9</ele>
        <time>2024-09-30T23:11:04Z</time>
      </trkpt>
      <trkpt lat="39.2660620914838" lon="118.43500834815366">
        <ele>9</ele>
        <time>2024-09-30T23:11:05Z</time>
      </trkpt>
      <trkpt lat="39.26606156439617" lon="118.4350588755164">
        <ele>9</ele>
        <time>2024-09-30T23:11:06Z</time>
      </trkpt>
      <trkpt lat="39.26606146473977" lon="118.43510262619621">
        <ele>9.1</ele>
        <time>2024-09-30T23:11:07Z</time>
      </trkpt>
      <trkpt lat="39.26606212905772" lon="118.43514312926169">
        <ele>9.1</ele>
        <time>2024-09-30T23:11:08Z</time>
      </trkpt>
      <trkpt lat="39.26606308229561" lon="118.4351799362508">
        <ele>9.1</ele>
        <time>2024-09-30T23:11:09Z</time>
      </trkpt>
      <trkpt lat="39.266063422790985" lon="118.435214172529">
        <ele>9.1</ele>
        <time>2024-09-30T23:11:10Z</time>
      </trkpt>
      <trkpt lat="39.26606280397181" lon="118.43524555715">
        <ele>9.1</ele>
        <time>2024-09-30T23:11:11Z</time>
      </trkpt>
      <trkpt lat="39.266061563306415" lon="118.43527534719642">
        <ele>9.1</ele>
        <time>2024-09-30T23:11:12Z</time>
      </trkpt>
      <trkpt lat="39.266059931884" lon="118.43530444406385">
        <ele>9.1</ele>
        <time>2024-09-30T23:11:13Z</time>
      </trkpt>
      <trkpt lat="39.266058103866726" lon="118.43533498366679">
        <ele>9.1</ele>
        <time>2024-09-30T23:11:14Z</time>
      </trkpt>
      <trkpt lat="39.26605860995021" lon="118.43536607638033">
        <ele>9.1</ele>
        <time>2024-09-30T23:11:15Z</time>
      </trkpt>
      <trkpt lat="39.26606064209638" lon="118.43539622052594">
        <ele>9.1</ele>
        <time>2024-09-30T23:11:16Z</time>
      </trkpt>
      <trkpt lat="39.26606274587863" lon="118.43542316899303">
        <ele>9.2</ele>
        <time>2024-09-30T23:11:17Z</time>
      </trkpt>
      <trkpt lat="39.26606130790412" lon="118.43544624996971">
        <ele>9.2</ele>
        <time>2024-09-30T23:11:18Z</time>
      </trkpt>
      <trkpt lat="39.266057558083865" lon="118.43547987880686">
        <ele>9.2</ele>
        <time>2024-09-30T23:11:19Z</time>
      </trkpt>
      <trkpt lat="39.26605396906886" lon="118.43551869635094">
        <ele>9.2</ele>
        <time>2024-09-30T23:11:20Z</time>
      </trkpt>
      <trkpt lat="39.26605174588293" lon="118.43556261144664">
        <ele>9.2</ele>
        <time>2024-09-30T23:11:22Z</time>
      </trkpt>
      <trkpt lat="39.26605392657022" lon="118.43560146230278">
        <ele>9.2</ele>
        <time>2024-09-30T23:11:23Z</time>
      </trkpt>
      <trkpt lat="39.26605808671818" lon="118.4356374942076">
        <ele>9.2</ele>
        <time>2024-09-30T23:11:24Z</time>
      </trkpt>
      <trkpt lat="39.266059853250525" lon="118.435668501023">
        <ele>9.2</ele>
        <time>2024-09-30T23:11:25Z</time>
      </trkpt>
      <trkpt lat="39.26605773067212" lon="118.43570351377322">
        <ele>9.2</ele>
        <time>2024-09-30T23:11:26Z</time>
      </trkpt>
      <trkpt lat="39.266053557136466" lon="118.43574439065492">
        <ele>9.2</ele>
        <time>2024-09-30T23:11:27Z</time>
      </trkpt>
      <trkpt lat="39.26605226149787" lon="118.43578969398455">
        <ele>9.2</ele>
        <time>2024-09-30T23:11:29Z</time>
      </trkpt>
      <trkpt lat="39.26605240729095" lon="118.43582844565486">
        <ele>9.2</ele>
        <time>2024-09-30T23:11:30Z</time>
      </trkpt>
      <trkpt lat="39.26605389087969" lon="118.43586583259494">
        <ele>9.2</ele>
        <time>2024-09-30T23:11:31Z</time>
      </trkpt>
      <trkpt lat="39.26605569913601" lon="118.43590081920415">
        <ele>9.2</ele>
        <time>2024-09-30T23:11:32Z</time>
      </trkpt>
      <trkpt lat="39.26605740058625" lon="118.43593853073821">
        <ele>9.2</ele>
        <time>2024-09-30T23:11:33Z</time>
      </trkpt>
      <trkpt lat="39.26605854288601" lon="118.43597353857146">
        <ele>9.2</ele>
        <time>2024-09-30T23:11:34Z</time>
      </trkpt>
      <trkpt lat="39.26605994569213" lon="118.43600986402478">
        <ele>9.2</ele>
        <time>2024-09-30T23:11:35Z</time>
      </trkpt>
      <trkpt lat="39.26606150364913" lon="118.43604479797165">
        <ele>9.2</ele>
        <time>2024-09-30T23:11:36Z</time>
      </trkpt>
      <trkpt lat="39.26606247226441" lon="118.43606249215078">
        <ele>0</ele>
        <time>2024-09-30T23:11:37Z</time>
      </trkpt>
    </trkseg>
  </trk>
</gpx>