<?xml version="1.0" encoding="UTF-8"?>
<gpx xmlns="http://www.topografix.com/GPX/1/1" xmlns:gpxtpx="http://www.garmin.com/xmlschemas/TrackPointExtension/v1" xmlns:xsi="http://www.w3.org/2001/XMLSchema-instance" xsi:schemaLocation="http://www.topografix.com/GPX/1/1 http://www.topografix.com/GPX/1/1/gpx.xsd" version="1.1" creator="gpx.py -- https://github.com/tkrajina/gpxpy">
  <trk>
    <name>gpx from codoon</name>
    <type>Run</type>
    <trkseg>
      <trkpt lat="39.26643597848013" lon="118.43183422825437">
        <ele>11.6</ele>
        <time>2024-10-30T09:50:29Z</time>
      </trkpt>
      <trkpt lat="39.26641275377454" lon="118.43184707255543">
        <ele>11.6</ele>
        <time>2024-10-30T09:50:30Z</time>
      </trkpt>
      <trkpt lat="39.26640547042533" lon="118.431851851784">
        <ele>11.6</ele>
        <time>2024-10-30T09:50:31Z</time>
      </trkpt>
      <trkpt lat="39.266390878984105" lon="118.43186278086316">
        <ele>11.6</ele>
        <time>2024-10-30T09:50:32Z</time>
      </trkpt>
      <trkpt lat="39.266377350180896" lon="118.43187512047447">
        <ele>11.6</ele>
        <time>2024-10-30T09:50:33Z</time>
      </trkpt>
      <trkpt lat="39.26636335935189" lon="118.43188993524784">
        <ele>11.6</ele>
        <time>2024-10-30T09:50:34Z</time>
      </trkpt>
      <trkpt lat="39.26635094842145" lon="118.43190379693182">
        <ele>11.6</ele>
        <time>2024-10-30T09:50:35Z</time>
      </trkpt>
      <trkpt lat="39.26633994790929" lon="118.43191718194079">
        <ele>11.6</ele>
        <time>2024-10-30T09:50:36Z</time>
      </trkpt>
      <trkpt lat="39.26633009395379" lon="118.43193142480703">
        <ele>11.6</ele>
        <time>2024-10-30T09:50:37Z</time>
      </trkpt>
      <trkpt lat="39.26632006674733" lon="118.43194769248316">
        <ele>11.6</ele>
        <time>2024-10-30T09:50:38Z</time>
      </trkpt>
      <trkpt lat="39.26630868866754" lon="118.43196710118244">
        <ele>11.6</ele>
        <time>2024-10-30T09:50:39Z</time>
      </trkpt>
      <trkpt lat="39.26629389151655" lon="118.43199270138044">
        <ele>11.6</ele>
        <time>2024-10-30T09:50:41Z</time>
      </trkpt>
      <trkpt lat="39.26627973577088" lon="118.43201959344862">
        <ele>11.6</ele>
        <time>2024-10-30T09:50:42Z</time>
      </trkpt>
      <trkpt lat="39.2662669124811" lon="118.4320500141084">
        <ele>11.6</ele>
        <time>2024-10-30T09:50:43Z</time>
      </trkpt>
      <trkpt lat="39.26626022984013" lon="118.43207550781086">
        <ele>11.7</ele>
        <time>2024-10-30T09:50:44Z</time>
      </trkpt>
      <trkpt lat="39.26625525744354" lon="118.43210223997845">
        <ele>11.7</ele>
        <time>2024-10-30T09:50:45Z</time>
      </trkpt>
      <trkpt lat="39.26625220653669" lon="118.4321310901013">
        <ele>11.7</ele>
        <time>2024-10-30T09:50:46Z</time>
      </trkpt>
      <trkpt lat="39.266249956738434" lon="118.43216201633366">
        <ele>11.7</ele>
        <time>2024-10-30T09:50:47Z</time>
      </trkpt>
      <trkpt lat="39.266248657172824" lon="118.43219793381569">
        <ele>11.7</ele>
        <time>2024-10-30T09:50:48Z</time>
      </trkpt>
      <trkpt lat="39.2662488828181" lon="118.43223185556657">
        <ele>11.8</ele>
        <time>2024-10-30T09:50:49Z</time>
      </trkpt>
      <trkpt lat="39.266250589609605" lon="118.4322666257644">
        <ele>11.8</ele>
        <time>2024-10-30T09:50:50Z</time>
      </trkpt>
      <trkpt lat="39.266253310147185" lon="118.4322987957599">
        <ele>11.8</ele>
        <time>2024-10-30T09:50:51Z</time>
      </trkpt>
      <trkpt lat="39.26625627988472" lon="118.43233055806087">
        <ele>11.8</ele>
        <time>2024-10-30T09:50:52Z</time>
      </trkpt>
      <trkpt lat="39.266259386055566" lon="118.43236337200845">
        <ele>11.8</ele>
        <time>2024-10-30T09:50:53Z</time>
      </trkpt>
      <trkpt lat="39.266262101392336" lon="118.43239450365516">
        <ele>12</ele>
        <time>2024-10-30T09:50:54Z</time>
      </trkpt>
      <trkpt lat="39.26626458446423" lon="118.43242494243299">
        <ele>12</ele>
        <time>2024-10-30T09:50:55Z</time>
      </trkpt>
      <trkpt lat="39.266267281677194" lon="118.43245681176256">
        <ele>12</ele>
        <time>2024-10-30T09:50:56Z</time>
      </trkpt>
      <trkpt lat="39.26627086379809" lon="118.43249065549895">
        <ele>12</ele>
        <time>2024-10-30T09:50:57Z</time>
      </trkpt>
      <trkpt lat="39.266277229080494" lon="118.43253285341969">
        <ele>12</ele>
        <time>2024-10-30T09:50:59Z</time>
      </trkpt>
      <trkpt lat="39.266283300657584" lon="118.43257181189536">
        <ele>12</ele>
        <time>2024-10-30T09:51:00Z</time>
      </trkpt>
      <trkpt lat="39.26628785780858" lon="118.43260685529077">
        <ele>12</ele>
        <time>2024-10-30T09:51:01Z</time>
      </trkpt>
      <trkpt lat="39.266288740804306" lon="118.43263114058912">
        <ele>12</ele>
        <time>2024-10-30T09:51:02Z</time>
      </trkpt>
      <trkpt lat="39.26628764211372" lon="118.43265423842692">
        <ele>12</ele>
        <time>2024-10-30T09:51:03Z</time>
      </trkpt>
      <trkpt lat="39.26628551322654" lon="118.43267602821142">
        <ele>12</ele>
        <time>2024-10-30T09:51:04Z</time>
      </trkpt>
      <trkpt lat="39.26628268237127" lon="118.43269679475057">
        <ele>12</ele>
        <time>2024-10-30T09:51:05Z</time>
      </trkpt>
      <trkpt lat="39.2662797821888" lon="118.43271470566125">
        <ele>12</ele>
        <time>2024-10-30T09:51:06Z</time>
      </trkpt>
      <trkpt lat="39.266277104475016" lon="118.43273227740075">
        <ele>12</ele>
        <time>2024-10-30T09:51:07Z</time>
      </trkpt>
      <trkpt lat="39.26627420807634" lon="118.4327528007109">
        <ele>12</ele>
        <time>2024-10-30T09:51:08Z</time>
      </trkpt>
      <trkpt lat="39.26627119275213" lon="118.43277448540826">
        <ele>12</ele>
        <time>2024-10-30T09:51:09Z</time>
      </trkpt>
      <trkpt lat="39.26626816133024" lon="118.43279853046926">
        <ele>12</ele>
        <time>2024-10-30T09:51:10Z</time>
      </trkpt>
      <trkpt lat="39.26626557779573" lon="118.43282506698795">
        <ele>12</ele>
        <time>2024-10-30T09:51:11Z</time>
      </trkpt>
      <trkpt lat="39.266263740464915" lon="118.43285306519941">
        <ele>12</ele>
        <time>2024-10-30T09:51:12Z</time>
      </trkpt>
      <trkpt lat="39.26626261845491" lon="118.43288190002674">
        <ele>12</ele>
        <time>2024-10-30T09:51:13Z</time>
      </trkpt>
      <trkpt lat="39.26626237686778" lon="118.43291066040487">
        <ele>12</ele>
        <time>2024-10-30T09:51:14Z</time>
      </trkpt>
      <trkpt lat="39.26626236798973" lon="118.43293920428903">
        <ele>12</ele>
        <time>2024-10-30T09:51:15Z</time>
      </trkpt>
      <trkpt lat="39.266262149948886" lon="118.43297056840593">
        <ele>12</ele>
        <time>2024-10-30T09:51:17Z</time>
      </trkpt>
      <trkpt lat="39.266261032155036" lon="118.43300053297686">
        <ele>12</ele>
        <time>2024-10-30T09:51:18Z</time>
      </trkpt>
      <trkpt lat="39.26625917295946" lon="118.43302959895469">
        <ele>12</ele>
        <time>2024-10-30T09:51:19Z</time>
      </trkpt>
      <trkpt lat="39.26625732169772" lon="118.43305588053182">
        <ele>12</ele>
        <time>2024-10-30T09:51:20Z</time>
      </trkpt>
      <trkpt lat="39.26625631502138" lon="118.43308429364524">
        <ele>12</ele>
        <time>2024-10-30T09:51:21Z</time>
      </trkpt>
      <trkpt lat="39.26625692295277" lon="118.433115286483">
        <ele>12</ele>
        <time>2024-10-30T09:51:22Z</time>
      </trkpt>
      <trkpt lat="39.26625840879474" lon="118.43314785537584">
        <ele>12</ele>
        <time>2024-10-30T09:51:23Z</time>
      </trkpt>
      <trkpt lat="39.26626030963954" lon="118.4331810357286">
        <ele>12</ele>
        <time>2024-10-30T09:51:24Z</time>
      </trkpt>
      <trkpt lat="39.266261335829654" lon="118.43321452076741">
        <ele>12</ele>
        <time>2024-10-30T09:51:25Z</time>
      </trkpt>
      <trkpt lat="39.26626166262906" lon="118.43324847836298">
        <ele>12</ele>
        <time>2024-10-30T09:51:26Z</time>
      </trkpt>
      <trkpt lat="39.2662618619254" lon="118.4332836197904">
        <ele>12</ele>
        <time>2024-10-30T09:51:27Z</time>
      </trkpt>
      <trkpt lat="39.266264112689534" lon="118.43331960550883">
        <ele>12</ele>
        <time>2024-10-30T09:51:28Z</time>
      </trkpt>
      <trkpt lat="39.26626985426059" lon="118.43335634322004">
        <ele>11.8</ele>
        <time>2024-10-30T09:51:29Z</time>
      </trkpt>
      <trkpt lat="39.26627962619267" lon="118.43339272138684">
        <ele>11.8</ele>
        <time>2024-10-30T09:51:30Z</time>
      </trkpt>
      <trkpt lat="39.266288091572385" lon="118.43342670363462">
        <ele>11.8</ele>
        <time>2024-10-30T09:51:31Z</time>
      </trkpt>
      <trkpt lat="39.26629390456248" lon="118.43345947766592">
        <ele>11.8</ele>
        <time>2024-10-30T09:51:32Z</time>
      </trkpt>
      <trkpt lat="39.26629614932674" lon="118.43349257942357">
        <ele>11.8</ele>
        <time>2024-10-30T09:51:33Z</time>
      </trkpt>
      <trkpt lat="39.266298740361286" lon="118.43353343326548">
        <ele>11.8</ele>
        <time>2024-10-30T09:51:35Z</time>
      </trkpt>
      <trkpt lat="39.26630100486751" lon="118.43357263846401">
        <ele>11.8</ele>
        <time>2024-10-30T09:51:36Z</time>
      </trkpt>
      <trkpt lat="39.26630280777532" lon="118.4336070315426">
        <ele>11.8</ele>
        <time>2024-10-30T09:51:37Z</time>
      </trkpt>
      <trkpt lat="39.2663040011584" lon="118.4336370298027">
        <ele>11.8</ele>
        <time>2024-10-30T09:51:38Z</time>
      </trkpt>
      <trkpt lat="39.26630507401547" lon="118.43366730115312">
        <ele>11.8</ele>
        <time>2024-10-30T09:51:39Z</time>
      </trkpt>
      <trkpt lat="39.26630613136659" lon="118.43369758122134">
        <ele>11.8</ele>
        <time>2024-10-30T09:51:40Z</time>
      </trkpt>
      <trkpt lat="39.26630725466735" lon="118.43372800083851">
        <ele>11.8</ele>
        <time>2024-10-30T09:51:41Z</time>
      </trkpt>
      <trkpt lat="39.26630843464662" lon="118.43375779687773">
        <ele>11.8</ele>
        <time>2024-10-30T09:51:42Z</time>
      </trkpt>
      <trkpt lat="39.26630966983605" lon="118.43378794364916">
        <ele>11.8</ele>
        <time>2024-10-30T09:51:43Z</time>
      </trkpt>
      <trkpt lat="39.26631080214225" lon="118.43381481088542">
        <ele>11.9</ele>
        <time>2024-10-30T09:51:44Z</time>
      </trkpt>
      <trkpt lat="39.266311996643125" lon="118.43384651388467">
        <ele>11.9</ele>
        <time>2024-10-30T09:51:45Z</time>
      </trkpt>
      <trkpt lat="39.26631308168443" lon="118.43387798301147">
        <ele>11.9</ele>
        <time>2024-10-30T09:51:46Z</time>
      </trkpt>
      <trkpt lat="39.266314164338965" lon="118.43391295675494">
        <ele>11.9</ele>
        <time>2024-10-30T09:51:47Z</time>
      </trkpt>
      <trkpt lat="39.26631501662461" lon="118.43394395920303">
        <ele>11.9</ele>
        <time>2024-10-30T09:51:48Z</time>
      </trkpt>
      <trkpt lat="39.266315690762994" lon="118.43397492935665">
        <ele>11.9</ele>
        <time>2024-10-30T09:51:49Z</time>
      </trkpt>
      <trkpt lat="39.26631609086683" lon="118.43400681199543">
        <ele>11.9</ele>
        <time>2024-10-30T09:51:50Z</time>
      </trkpt>
      <trkpt lat="39.26631621835667" lon="118.43403902819183">
        <ele>11.9</ele>
        <time>2024-10-30T09:51:51Z</time>
      </trkpt>
      <trkpt lat="39.266316115775105" lon="118.43407867079704">
        <ele>11.9</ele>
        <time>2024-10-30T09:51:53Z</time>
      </trkpt>
      <trkpt lat="39.26631579095485" lon="118.43411352719816">
        <ele>11.9</ele>
        <time>2024-10-30T09:51:54Z</time>
      </trkpt>
      <trkpt lat="39.26631541094772" lon="118.43414753466176">
        <ele>11.9</ele>
        <time>2024-10-30T09:51:55Z</time>
      </trkpt>
      <trkpt lat="39.26631513762048" lon="118.43417729011685">
        <ele>11.9</ele>
        <time>2024-10-30T09:51:56Z</time>
      </trkpt>
      <trkpt lat="39.266314956977055" lon="118.43420713699743">
        <ele>11.9</ele>
        <time>2024-10-30T09:51:57Z</time>
      </trkpt>
      <trkpt lat="39.26631494206474" lon="118.43423723212331">
        <ele>11.9</ele>
        <time>2024-10-30T09:51:58Z</time>
      </trkpt>
      <trkpt lat="39.266315113055825" lon="118.43426821656442">
        <ele>11.9</ele>
        <time>2024-10-30T09:51:59Z</time>
      </trkpt>
      <trkpt lat="39.26631543745485" lon="118.43429911386497">
        <ele>11.9</ele>
        <time>2024-10-30T09:52:00Z</time>
      </trkpt>
      <trkpt lat="39.26631573429087" lon="118.43433324378621">
        <ele>11.9</ele>
        <time>2024-10-30T09:52:01Z</time>
      </trkpt>
      <trkpt lat="39.26631615911083" lon="118.43436468634164">
        <ele>11.9</ele>
        <time>2024-10-30T09:52:02Z</time>
      </trkpt>
      <trkpt lat="39.266317161653255" lon="118.4343966842031">
        <ele>11.9</ele>
        <time>2024-10-30T09:52:03Z</time>
      </trkpt>
      <trkpt lat="39.26631926807692" lon="118.43442471756421">
        <ele>11.8</ele>
        <time>2024-10-30T09:52:04Z</time>
      </trkpt>
      <trkpt lat="39.266322732102424" lon="118.43444948270287">
        <ele>11.8</ele>
        <time>2024-10-30T09:52:05Z</time>
      </trkpt>
      <trkpt lat="39.266327067250096" lon="118.43447003941235">
        <ele>11.8</ele>
        <time>2024-10-30T09:52:06Z</time>
      </trkpt>
      <trkpt lat="39.2663334429835" lon="118.4344889422521">
        <ele>11.8</ele>
        <time>2024-10-30T09:52:07Z</time>
      </trkpt>
      <trkpt lat="39.266341926608405" lon="118.43450781722615">
        <ele>11.8</ele>
        <time>2024-10-30T09:52:08Z</time>
      </trkpt>
      <trkpt lat="39.26635243376754" lon="118.43452788887754">
        <ele>11.8</ele>
        <time>2024-10-30T09:52:09Z</time>
      </trkpt>
      <trkpt lat="39.266364827375966" lon="118.43454975975065">
        <ele>11.8</ele>
        <time>2024-10-30T09:52:11Z</time>
      </trkpt>
      <trkpt lat="39.26637710078475" lon="118.43456864060366">
        <ele>11.8</ele>
        <time>2024-10-30T09:52:12Z</time>
      </trkpt>
      <trkpt lat="39.266389689231055" lon="118.43458496430365">
        <ele>11.8</ele>
        <time>2024-10-30T09:52:13Z</time>
      </trkpt>
      <trkpt lat="39.26639962954092" lon="118.43459564734177">
        <ele>11.8</ele>
        <time>2024-10-30T09:52:14Z</time>
      </trkpt>
      <trkpt lat="39.266409604102705" lon="118.4346062434821">
        <ele>11.8</ele>
        <time>2024-10-30T09:52:15Z</time>
      </trkpt>
      <trkpt lat="39.266419246729484" lon="118.43461851006862">
        <ele>11.8</ele>
        <time>2024-10-30T09:52:16Z</time>
      </trkpt>
      <trkpt lat="39.266429365348216" lon="118.43463394698338">
        <ele>11.8</ele>
        <time>2024-10-30T09:52:17Z</time>
      </trkpt>
      <trkpt lat="39.26643870384226" lon="118.43465508954706">
        <ele>11.8</ele>
        <time>2024-10-30T09:52:18Z</time>
      </trkpt>
      <trkpt lat="39.26644534004512" lon="118.43467849084523">
        <ele>11.7</ele>
        <time>2024-10-30T09:52:19Z</time>
      </trkpt>
      <trkpt lat="39.26644946921186" lon="118.43470423618061">
        <ele>11.7</ele>
        <time>2024-10-30T09:52:20Z</time>
      </trkpt>
      <trkpt lat="39.266450928867165" lon="118.43473135085796">
        <ele>11.7</ele>
        <time>2024-10-30T09:52:21Z</time>
      </trkpt>
      <trkpt lat="39.26645161840519" lon="118.43475902073354">
        <ele>11.7</ele>
        <time>2024-10-30T09:52:22Z</time>
      </trkpt>
      <trkpt lat="39.26645240413933" lon="118.43478749112533">
        <ele>11.7</ele>
        <time>2024-10-30T09:52:23Z</time>
      </trkpt>
      <trkpt lat="39.266453497752494" lon="118.43481332180893">
        <ele>11.7</ele>
        <time>2024-10-30T09:52:24Z</time>
      </trkpt>
      <trkpt lat="39.266456291946916" lon="118.43484128143166">
        <ele>11.7</ele>
        <time>2024-10-30T09:52:25Z</time>
      </trkpt>
      <trkpt lat="39.266459481643885" lon="118.43486786181354">
        <ele>11.7</ele>
        <time>2024-10-30T09:52:26Z</time>
      </trkpt>
      <trkpt lat="39.26646361818894" lon="118.43489352741902">
        <ele>11.7</ele>
        <time>2024-10-30T09:52:27Z</time>
      </trkpt>
      <trkpt lat="39.26646444333162" lon="118.43491778828917">
        <ele>11.7</ele>
        <time>2024-10-30T09:52:29Z</time>
      </trkpt>
      <trkpt lat="39.266464525356746" lon="118.43494482470477">
        <ele>11.7</ele>
        <time>2024-10-30T09:52:30Z</time>
      </trkpt>
      <trkpt lat="39.26646404494657" lon="118.43497425218882">
        <ele>11.7</ele>
        <time>2024-10-30T09:52:31Z</time>
      </trkpt>
      <trkpt lat="39.26646607234868" lon="118.43500350267176">
        <ele>11.7</ele>
        <time>2024-10-30T09:52:32Z</time>
      </trkpt>
      <trkpt lat="39.26646884450418" lon="118.43503358002037">
        <ele>11.7</ele>
        <time>2024-10-30T09:52:33Z</time>
      </trkpt>
      <trkpt lat="39.26647157054842" lon="118.43506163430513">
        <ele>11.7</ele>
        <time>2024-10-30T09:52:34Z</time>
      </trkpt>
      <trkpt lat="39.26647421890189" lon="118.43509181006515">
        <ele>11.7</ele>
        <time>2024-10-30T09:52:35Z</time>
      </trkpt>
      <trkpt lat="39.2664779956707" lon="118.43511872665498">
        <ele>11.7</ele>
        <time>2024-10-30T09:52:36Z</time>
      </trkpt>
      <trkpt lat="39.26648450387175" lon="118.43514663665233">
        <ele>11.7</ele>
        <time>2024-10-30T09:52:37Z</time>
      </trkpt>
      <trkpt lat="39.26649567595198" lon="118.43517215686903">
        <ele>11.7</ele>
        <time>2024-10-30T09:52:38Z</time>
      </trkpt>
      <trkpt lat="39.26651358336199" lon="118.43519886912901">
        <ele>11.7</ele>
        <time>2024-10-30T09:52:39Z</time>
      </trkpt>
      <trkpt lat="39.26653634180323" lon="118.43522206753954">
        <ele>11.7</ele>
        <time>2024-10-30T09:52:40Z</time>
      </trkpt>
      <trkpt lat="39.26656230729407" lon="118.43524134227336">
        <ele>11.7</ele>
        <time>2024-10-30T09:52:41Z</time>
      </trkpt>
      <trkpt lat="39.26659110338528" lon="118.43525691124624">
        <ele>11.7</ele>
        <time>2024-10-30T09:52:42Z</time>
      </trkpt>
      <trkpt lat="39.26662126075097" lon="118.43527126556319">
        <ele>11.7</ele>
        <time>2024-10-30T09:52:43Z</time>
      </trkpt>
      <trkpt lat="39.26665408732852" lon="118.43528508701348">
        <ele>11.7</ele>
        <time>2024-10-30T09:52:44Z</time>
      </trkpt>
      <trkpt lat="39.26668630637912" lon="118.43529660634817">
        <ele>11.7</ele>
        <time>2024-10-30T09:52:45Z</time>
      </trkpt>
      <trkpt lat="39.266725543748336" lon="118.4353084179313">
        <ele>11.7</ele>
        <time>2024-10-30T09:52:47Z</time>
      </trkpt>
      <trkpt lat="39.2667611311829" lon="118.4353177481953">
        <ele>11.7</ele>
        <time>2024-10-30T09:52:48Z</time>
      </trkpt>
      <trkpt lat="39.26679358860581" lon="118.43532859757805">
        <ele>11.7</ele>
        <time>2024-10-30T09:52:49Z</time>
      </trkpt>
      <trkpt lat="39.266814421632795" lon="118.4353356954667">
        <ele>11.7</ele>
        <time>2024-10-30T09:52:50Z</time>
      </trkpt>
      <trkpt lat="39.2668330694829" lon="118.43533978263117">
        <ele>11.7</ele>
        <time>2024-10-30T09:52:51Z</time>
      </trkpt>
      <trkpt lat="39.266853071361915" lon="118.43533706619057">
        <ele>11.7</ele>
        <time>2024-10-30T09:52:52Z</time>
      </trkpt>
      <trkpt lat="39.2668759108301" lon="118.4353352654575">
        <ele>11.7</ele>
        <time>2024-10-30T09:52:53Z</time>
      </trkpt>
      <trkpt lat="39.26690068157751" lon="118.43533656168499">
        <ele>11.7</ele>
        <time>2024-10-30T09:52:54Z</time>
      </trkpt>
      <trkpt lat="39.266925601196206" lon="118.43534171395241">
        <ele>11.7</ele>
        <time>2024-10-30T09:52:55Z</time>
      </trkpt>
      <trkpt lat="39.266949323245186" lon="118.4353464845013">
        <ele>11.7</ele>
        <time>2024-10-30T09:52:56Z</time>
      </trkpt>
      <trkpt lat="39.26697208133589" lon="118.435350199711">
        <ele>11.7</ele>
        <time>2024-10-30T09:52:57Z</time>
      </trkpt>
      <trkpt lat="39.26699376053688" lon="118.43535279792944">
        <ele>11.7</ele>
        <time>2024-10-30T09:52:58Z</time>
      </trkpt>
      <trkpt lat="39.2670145597192" lon="118.43535450193319">
        <ele>11.7</ele>
        <time>2024-10-30T09:52:59Z</time>
      </trkpt>
      <trkpt lat="39.26703720595792" lon="118.43535656285623">
        <ele>11.7</ele>
        <time>2024-10-30T09:53:00Z</time>
      </trkpt>
      <trkpt lat="39.26705843899326" lon="118.43535871103151">
        <ele>11.7</ele>
        <time>2024-10-30T09:53:01Z</time>
      </trkpt>
      <trkpt lat="39.267080945761805" lon="118.43536181484288">
        <ele>11.7</ele>
        <time>2024-10-30T09:53:02Z</time>
      </trkpt>
      <trkpt lat="39.26710479319299" lon="118.43536642843755">
        <ele>11.7</ele>
        <time>2024-10-30T09:53:03Z</time>
      </trkpt>
      <trkpt lat="39.26713187528351" lon="118.43537328147322">
        <ele>11.8</ele>
        <time>2024-10-30T09:53:05Z</time>
      </trkpt>
      <trkpt lat="39.26715740114585" lon="118.43538486873557">
        <ele>11.8</ele>
        <time>2024-10-30T09:53:06Z</time>
      </trkpt>
      <trkpt lat="39.26717571824716" lon="118.43539678204239">
        <ele>11.8</ele>
        <time>2024-10-30T09:53:07Z</time>
      </trkpt>
      <trkpt lat="39.267185774270075" lon="118.43540686179271">
        <ele>11.8</ele>
        <time>2024-10-30T09:53:08Z</time>
      </trkpt>
      <trkpt lat="39.267192748277154" lon="118.43541279487148">
        <ele>11.9</ele>
        <time>2024-10-30T09:53:09Z</time>
      </trkpt>
      <trkpt lat="39.26719997211862" lon="118.4354216852251">
        <ele>11.9</ele>
        <time>2024-10-30T09:53:10Z</time>
      </trkpt>
      <trkpt lat="39.267203606869174" lon="118.43543453252197">
        <ele>11.9</ele>
        <time>2024-10-30T09:53:11Z</time>
      </trkpt>
      <trkpt lat="39.26720281357031" lon="118.43544965493531">
        <ele>11.9</ele>
        <time>2024-10-30T09:53:12Z</time>
      </trkpt>
      <trkpt lat="39.26719760763083" lon="118.4354643185833">
        <ele>11.9</ele>
        <time>2024-10-30T09:53:13Z</time>
      </trkpt>
      <trkpt lat="39.26719557542444" lon="118.43547574090042">
        <ele>12</ele>
        <time>2024-10-30T09:53:14Z</time>
      </trkpt>
      <trkpt lat="39.26719928230101" lon="118.43548622394819">
        <ele>12</ele>
        <time>2024-10-30T09:53:15Z</time>
      </trkpt>
      <trkpt lat="39.26721026253286" lon="118.43549448759119">
        <ele>12</ele>
        <time>2024-10-30T09:53:16Z</time>
      </trkpt>
      <trkpt lat="39.26722851634741" lon="118.43550482210343">
        <ele>12</ele>
        <time>2024-10-30T09:53:17Z</time>
      </trkpt>
      <trkpt lat="39.267251682396065" lon="118.43551464782585">
        <ele>12</ele>
        <time>2024-10-30T09:53:18Z</time>
      </trkpt>
      <trkpt lat="39.267279149444214" lon="118.43552443370767">
        <ele>12.1</ele>
        <time>2024-10-30T09:53:19Z</time>
      </trkpt>
      <trkpt lat="39.26731346369392" lon="118.4355356337049">
        <ele>12.1</ele>
        <time>2024-10-30T09:53:20Z</time>
      </trkpt>
      <trkpt lat="39.26734735485886" lon="118.43554559965122">
        <ele>12.1</ele>
        <time>2024-10-30T09:53:21Z</time>
      </trkpt>
      <trkpt lat="39.267386335508014" lon="118.43555504920573">
        <ele>12.1</ele>
        <time>2024-10-30T09:53:23Z</time>
      </trkpt>
      <trkpt lat="39.26741804386488" lon="118.43556052056354">
        <ele>12.3</ele>
        <time>2024-10-30T09:53:24Z</time>
      </trkpt>
      <trkpt lat="39.26744970921061" lon="118.43556573547872">
        <ele>12.3</ele>
        <time>2024-10-30T09:53:25Z</time>
      </trkpt>
      <trkpt lat="39.26747744828527" lon="118.43556987986902">
        <ele>12.3</ele>
        <time>2024-10-30T09:53:26Z</time>
      </trkpt>
      <trkpt lat="39.267505580641284" lon="118.43557387053653">
        <ele>12.3</ele>
        <time>2024-10-30T09:53:27Z</time>
      </trkpt>
      <trkpt lat="39.267534041797596" lon="118.4355778164047">
        <ele>12.3</ele>
        <time>2024-10-30T09:53:28Z</time>
      </trkpt>
      <trkpt lat="39.26756265531299" lon="118.43558173087104">
        <ele>12.5</ele>
        <time>2024-10-30T09:53:29Z</time>
      </trkpt>
      <trkpt lat="39.26759140801016" lon="118.43558558619846">
        <ele>12.5</ele>
        <time>2024-10-30T09:53:30Z</time>
      </trkpt>
      <trkpt lat="39.26761987916424" lon="118.43558928962764">
        <ele>12.5</ele>
        <time>2024-10-30T09:53:31Z</time>
      </trkpt>
      <trkpt lat="39.267648267117444" lon="118.43559284072265">
        <ele>12.5</ele>
        <time>2024-10-30T09:53:32Z</time>
      </trkpt>
      <trkpt lat="39.26767646615245" lon="118.43559625977925">
        <ele>12.5</ele>
        <time>2024-10-30T09:53:33Z</time>
      </trkpt>
      <trkpt lat="39.26770493272633" lon="118.43559965462946">
        <ele>12.8</ele>
        <time>2024-10-30T09:53:34Z</time>
      </trkpt>
      <trkpt lat="39.267733431484025" lon="118.43560305957243">
        <ele>12.8</ele>
        <time>2024-10-30T09:53:35Z</time>
      </trkpt>
      <trkpt lat="39.26776163674662" lon="118.435606467942">
        <ele>12.8</ele>
        <time>2024-10-30T09:53:36Z</time>
      </trkpt>
      <trkpt lat="39.26779025624693" lon="118.43560996195863">
        <ele>12.8</ele>
        <time>2024-10-30T09:53:37Z</time>
      </trkpt>
      <trkpt lat="39.2678174570252" lon="118.43561325315954">
        <ele>12.8</ele>
        <time>2024-10-30T09:53:38Z</time>
      </trkpt>
      <trkpt lat="39.267848336195776" lon="118.4356168467022">
        <ele>13</ele>
        <time>2024-10-30T09:53:39Z</time>
      </trkpt>
      <trkpt lat="39.26788281213516" lon="118.4356207050771">
        <ele>13</ele>
        <time>2024-10-30T09:53:41Z</time>
      </trkpt>
      <trkpt lat="39.267916088012925" lon="118.43562419999519">
        <ele>13</ele>
        <time>2024-10-30T09:53:42Z</time>
      </trkpt>
      <trkpt lat="39.267945839583554" lon="118.4356270995455">
        <ele>13</ele>
        <time>2024-10-30T09:53:43Z</time>
      </trkpt>
      <trkpt lat="39.26797421522336" lon="118.43562965699763">
        <ele>13.1</ele>
        <time>2024-10-30T09:53:44Z</time>
      </trkpt>
      <trkpt lat="39.268001766059676" lon="118.43563206495674">
        <ele>13.1</ele>
        <time>2024-10-30T09:53:45Z</time>
      </trkpt>
      <trkpt lat="39.26802913415479" lon="118.43563438936688">
        <ele>13.1</ele>
        <time>2024-10-30T09:53:46Z</time>
      </trkpt>
      <trkpt lat="39.26805327780738" lon="118.43563619106943">
        <ele>13.1</ele>
        <time>2024-10-30T09:53:47Z</time>
      </trkpt>
      <trkpt lat="39.26808039790787" lon="118.43563807232601">
        <ele>13.1</ele>
        <time>2024-10-30T09:53:48Z</time>
      </trkpt>
      <trkpt lat="39.26810723537337" lon="118.43563964838359">
        <ele>13.1</ele>
        <time>2024-10-30T09:53:49Z</time>
      </trkpt>
      <trkpt lat="39.26813408905603" lon="118.43564096124082">
        <ele>13.1</ele>
        <time>2024-10-30T09:53:50Z</time>
      </trkpt>
      <trkpt lat="39.26816156589479" lon="118.43564187696502">
        <ele>13.1</ele>
        <time>2024-10-30T09:53:51Z</time>
      </trkpt>
      <trkpt lat="39.26818985413294" lon="118.43564209653233">
        <ele>13.1</ele>
        <time>2024-10-30T09:53:52Z</time>
      </trkpt>
      <trkpt lat="39.268222907962844" lon="118.43564095156775">
        <ele>13.1</ele>
        <time>2024-10-30T09:53:53Z</time>
      </trkpt>
      <trkpt lat="39.26825793480729" lon="118.4356374123444">
        <ele>13.1</ele>
        <time>2024-10-30T09:53:54Z</time>
      </trkpt>
      <trkpt lat="39.2682954557499" lon="118.43563119248994">
        <ele>13.1</ele>
        <time>2024-10-30T09:53:55Z</time>
      </trkpt>
      <trkpt lat="39.268331131042395" lon="118.43562359528185">
        <ele>13.1</ele>
        <time>2024-10-30T09:53:56Z</time>
      </trkpt>
      <trkpt lat="39.268364470396165" lon="118.43561526491303">
        <ele>13.1</ele>
        <time>2024-10-30T09:53:58Z</time>
      </trkpt>
      <trkpt lat="39.268396851245384" lon="118.43560747901752">
        <ele>13.1</ele>
        <time>2024-10-30T09:53:59Z</time>
      </trkpt>
      <trkpt lat="39.26842600953285" lon="118.43560016217853">
        <ele>13.1</ele>
        <time>2024-10-30T09:54:00Z</time>
      </trkpt>
      <trkpt lat="39.26845217249099" lon="118.43559365402969">
        <ele>13.1</ele>
        <time>2024-10-30T09:54:01Z</time>
      </trkpt>
      <trkpt lat="39.268478741256565" lon="118.43558732886294">
        <ele>13.1</ele>
        <time>2024-10-30T09:54:02Z</time>
      </trkpt>
      <trkpt lat="39.268505665035086" lon="118.43558134677916">
        <ele>13.1</ele>
        <time>2024-10-30T09:54:03Z</time>
      </trkpt>
      <trkpt lat="39.268532754385014" lon="118.43557579620547">
        <ele>13</ele>
        <time>2024-10-30T09:54:04Z</time>
      </trkpt>
      <trkpt lat="39.268559948905654" lon="118.43557060166262">
        <ele>13</ele>
        <time>2024-10-30T09:54:05Z</time>
      </trkpt>
      <trkpt lat="39.26858710683983" lon="118.43556563646555">
        <ele>13</ele>
        <time>2024-10-30T09:54:06Z</time>
      </trkpt>
      <trkpt lat="39.268613933468494" lon="118.43556083902749">
        <ele>13</ele>
        <time>2024-10-30T09:54:07Z</time>
      </trkpt>
      <trkpt lat="39.26864027782166" lon="118.43555621147942">
        <ele>13</ele>
        <time>2024-10-30T09:54:08Z</time>
      </trkpt>
      <trkpt lat="39.26866562634841" lon="118.43555181866776">
        <ele>13</ele>
        <time>2024-10-30T09:54:09Z</time>
      </trkpt>
      <trkpt lat="39.2686904302544" lon="118.43554754106556">
        <ele>13</ele>
        <time>2024-10-30T09:54:10Z</time>
      </trkpt>
      <trkpt lat="39.26871278670533" lon="118.43554369294738">
        <ele>13</ele>
        <time>2024-10-30T09:54:11Z</time>
      </trkpt>
      <trkpt lat="39.26873581937874" lon="118.43553974241517">
        <ele>13</ele>
        <time>2024-10-30T09:54:12Z</time>
      </trkpt>
      <trkpt lat="39.268762845760804" lon="118.4355352858003">
        <ele>13</ele>
        <time>2024-10-30T09:54:13Z</time>
      </trkpt>
      <trkpt lat="39.26878998686829" lon="118.43553108051191">
        <ele>12.8</ele>
        <time>2024-10-30T09:54:14Z</time>
      </trkpt>
      <trkpt lat="39.26882299704574" lon="118.43552642085052">
        <ele>12.8</ele>
        <time>2024-10-30T09:54:16Z</time>
      </trkpt>
      <trkpt lat="39.26885224586825" lon="118.43552278546886">
        <ele>12.8</ele>
        <time>2024-10-30T09:54:17Z</time>
      </trkpt>
      <trkpt lat="39.26888129306456" lon="118.43551952734568">
        <ele>12.8</ele>
        <time>2024-10-30T09:54:18Z</time>
      </trkpt>
      <trkpt lat="39.26890726464317" lon="118.43551692659541">
        <ele>12.6</ele>
        <time>2024-10-30T09:54:19Z</time>
      </trkpt>
      <trkpt lat="39.268933962403906" lon="118.43551434703416">
        <ele>12.6</ele>
        <time>2024-10-30T09:54:20Z</time>
      </trkpt>
      <trkpt lat="39.26896089155052" lon="118.43551179737626">
        <ele>12.6</ele>
        <time>2024-10-30T09:54:21Z</time>
      </trkpt>
      <trkpt lat="39.2689882106575" lon="118.43550913048027">
        <ele>12.6</ele>
        <time>2024-10-30T09:54:22Z</time>
      </trkpt>
      <trkpt lat="39.26901499966209" lon="118.4355063621044">
        <ele>12.6</ele>
        <time>2024-10-30T09:54:23Z</time>
      </trkpt>
      <trkpt lat="39.26904161887562" lon="118.43550334736095">
        <ele>12.4</ele>
        <time>2024-10-30T09:54:24Z</time>
      </trkpt>
      <trkpt lat="39.269065562587755" lon="118.4355004865927">
        <ele>12.4</ele>
        <time>2024-10-30T09:54:25Z</time>
      </trkpt>
      <trkpt lat="39.269090220435835" lon="118.43549740275816">
        <ele>12.4</ele>
        <time>2024-10-30T09:54:26Z</time>
      </trkpt>
      <trkpt lat="39.26911887364638" lon="118.43549378584095">
        <ele>12.4</ele>
        <time>2024-10-30T09:54:27Z</time>
      </trkpt>
      <trkpt lat="39.26914844849456" lon="118.43549052830079">
        <ele>12.4</ele>
        <time>2024-10-30T09:54:28Z</time>
      </trkpt>
      <trkpt lat="39.26918345275473" lon="118.43548704029257">
        <ele>12.2</ele>
        <time>2024-10-30T09:54:29Z</time>
      </trkpt>
      <trkpt lat="39.269219569766406" lon="118.43548552571154">
        <ele>12.2</ele>
        <time>2024-10-30T09:54:30Z</time>
      </trkpt>
      <trkpt lat="39.26925506968075" lon="118.43548513653454">
        <ele>12.2</ele>
        <time>2024-10-30T09:54:31Z</time>
      </trkpt>
      <trkpt lat="39.26928493902303" lon="118.4354838833099">
        <ele>12.2</ele>
        <time>2024-10-30T09:54:32Z</time>
      </trkpt>
      <trkpt lat="39.26931327775781" lon="118.43547714995933">
        <ele>12.2</ele>
        <time>2024-10-30T09:54:33Z</time>
      </trkpt>
      <trkpt lat="39.26934794128604" lon="118.43546975432109">
        <ele>11.9</ele>
        <time>2024-10-30T09:54:35Z</time>
      </trkpt>
      <trkpt lat="39.26938525940756" lon="118.43546415661004">
        <ele>11.9</ele>
        <time>2024-10-30T09:54:36Z</time>
      </trkpt>
      <trkpt lat="39.26941917643864" lon="118.43546313133426">
        <ele>11.9</ele>
        <time>2024-10-30T09:54:37Z</time>
      </trkpt>
      <trkpt lat="39.26944605805655" lon="118.43546159579945">
        <ele>11.9</ele>
        <time>2024-10-30T09:54:38Z</time>
      </trkpt>
      <trkpt lat="39.269470226072634" lon="118.43545940214213">
        <ele>11.6</ele>
        <time>2024-10-30T09:54:39Z</time>
      </trkpt>
      <trkpt lat="39.26949394529117" lon="118.43545626800585">
        <ele>11.6</ele>
        <time>2024-10-30T09:54:40Z</time>
      </trkpt>
      <trkpt lat="39.26951949296985" lon="118.43545191924369">
        <ele>11.6</ele>
        <time>2024-10-30T09:54:41Z</time>
      </trkpt>
      <trkpt lat="39.26954431918694" lon="118.43544687310198">
        <ele>11.6</ele>
        <time>2024-10-30T09:54:42Z</time>
      </trkpt>
      <trkpt lat="39.26956910727849" lon="118.43544128322749">
        <ele>11.6</ele>
        <time>2024-10-30T09:54:43Z</time>
      </trkpt>
      <trkpt lat="39.26959363980729" lon="118.43543626079567">
        <ele>11.5</ele>
        <time>2024-10-30T09:54:44Z</time>
      </trkpt>
      <trkpt lat="39.2696175118678" lon="118.43543251791318">
        <ele>11.5</ele>
        <time>2024-10-30T09:54:45Z</time>
      </trkpt>
      <trkpt lat="39.26963987830671" lon="118.43543097648481">
        <ele>11.5</ele>
        <time>2024-10-30T09:54:46Z</time>
      </trkpt>
      <trkpt lat="39.26965755424605" lon="118.43543131142305">
        <ele>11.5</ele>
        <time>2024-10-30T09:54:47Z</time>
      </trkpt>
      <trkpt lat="39.26967257879464" lon="118.43543095422662">
        <ele>11.5</ele>
        <time>2024-10-30T09:54:48Z</time>
      </trkpt>
      <trkpt lat="39.26968696954391" lon="118.43542888536265">
        <ele>11.3</ele>
        <time>2024-10-30T09:54:49Z</time>
      </trkpt>
      <trkpt lat="39.26970423046159" lon="118.43542588957136">
        <ele>11.3</ele>
        <time>2024-10-30T09:54:50Z</time>
      </trkpt>
      <trkpt lat="39.269726614411866" lon="118.43542384596655">
        <ele>11.3</ele>
        <time>2024-10-30T09:54:51Z</time>
      </trkpt>
      <trkpt lat="39.269756200590166" lon="118.43542366108706">
        <ele>11.3</ele>
        <time>2024-10-30T09:54:53Z</time>
      </trkpt>
      <trkpt lat="39.26978663454594" lon="118.43542340862707">
        <ele>11.2</ele>
        <time>2024-10-30T09:54:54Z</time>
      </trkpt>
      <trkpt lat="39.269817195007775" lon="118.43542262209027">
        <ele>11.2</ele>
        <time>2024-10-30T09:54:55Z</time>
      </trkpt>
      <trkpt lat="39.26984730733872" lon="118.43542081933704">
        <ele>11.2</ele>
        <time>2024-10-30T09:54:56Z</time>
      </trkpt>
      <trkpt lat="39.2698793653831" lon="118.43541930078678">
        <ele>11.2</ele>
        <time>2024-10-30T09:54:57Z</time>
      </trkpt>
      <trkpt lat="39.26991256060663" lon="118.43541846123122">
        <ele>11.2</ele>
        <time>2024-10-30T09:54:58Z</time>
      </trkpt>
      <trkpt lat="39.26994592181317" lon="118.43541790260515">
        <ele>11.2</ele>
        <time>2024-10-30T09:54:59Z</time>
      </trkpt>
      <trkpt lat="39.26997859581197" lon="118.43541731860854">
        <ele>11.2</ele>
        <time>2024-10-30T09:55:00Z</time>
      </trkpt>
      <trkpt lat="39.270009692569246" lon="118.43541600759484">
        <ele>11.2</ele>
        <time>2024-10-30T09:55:01Z</time>
      </trkpt>
      <trkpt lat="39.270038629314136" lon="118.43541674087136">
        <ele>11.2</ele>
        <time>2024-10-30T09:55:02Z</time>
      </trkpt>
      <trkpt lat="39.2700644642014" lon="118.43541744190848">
        <ele>11.2</ele>
        <time>2024-10-30T09:55:03Z</time>
      </trkpt>
      <trkpt lat="39.27008741159317" lon="118.43541641916819">
        <ele>11.2</ele>
        <time>2024-10-30T09:55:04Z</time>
      </trkpt>
      <trkpt lat="39.27010954180359" lon="118.43540878628282">
        <ele>11.2</ele>
        <time>2024-10-30T09:55:05Z</time>
      </trkpt>
      <trkpt lat="39.270133327210615" lon="118.43540102777249">
        <ele>11.2</ele>
        <time>2024-10-30T09:55:06Z</time>
      </trkpt>
      <trkpt lat="39.270159070593174" lon="118.43539528706144">
        <ele>11.2</ele>
        <time>2024-10-30T09:55:07Z</time>
      </trkpt>
      <trkpt lat="39.27018260745242" lon="118.4353934421609">
        <ele>11.2</ele>
        <time>2024-10-30T09:55:08Z</time>
      </trkpt>
      <trkpt lat="39.270207824446544" lon="118.43538993161255">
        <ele>11.2</ele>
        <time>2024-10-30T09:55:10Z</time>
      </trkpt>
      <trkpt lat="39.27023048557111" lon="118.43538489412734">
        <ele>11.2</ele>
        <time>2024-10-30T09:55:11Z</time>
      </trkpt>
      <trkpt lat="39.27025077245104" lon="118.43537946732617">
        <ele>11.2</ele>
        <time>2024-10-30T09:55:12Z</time>
      </trkpt>
      <trkpt lat="39.27026468903648" lon="118.43537528282488">
        <ele>11.2</ele>
        <time>2024-10-30T09:55:13Z</time>
      </trkpt>
      <trkpt lat="39.27027549860173" lon="118.43537220166384">
        <ele>11.3</ele>
        <time>2024-10-30T09:55:14Z</time>
      </trkpt>
      <trkpt lat="39.270282053629295" lon="118.43536961528211">
        <ele>11.3</ele>
        <time>2024-10-30T09:55:15Z</time>
      </trkpt>
      <trkpt lat="39.27028698117702" lon="118.43536542395479">
        <ele>11.3</ele>
        <time>2024-10-30T09:55:16Z</time>
      </trkpt>
      <trkpt lat="39.27029010565144" lon="118.43536036243007">
        <ele>11.3</ele>
        <time>2024-10-30T09:55:17Z</time>
      </trkpt>
      <trkpt lat="39.270293117074814" lon="118.43535474596109">
        <ele>11.3</ele>
        <time>2024-10-30T09:55:18Z</time>
      </trkpt>
      <trkpt lat="39.27029452434443" lon="118.4353506408116">
        <ele>11.4</ele>
        <time>2024-10-30T09:55:19Z</time>
      </trkpt>
      <trkpt lat="39.27029517196789" lon="118.43534769402098">
        <ele>11.4</ele>
        <time>2024-10-30T09:55:20Z</time>
      </trkpt>
      <trkpt lat="39.270297066974145" lon="118.43534663653759">
        <ele>11.4</ele>
        <time>2024-10-30T09:55:21Z</time>
      </trkpt>
      <trkpt lat="39.2702992423671" lon="118.43534574397859">
        <ele>11.4</ele>
        <time>2024-10-30T09:55:22Z</time>
      </trkpt>
      <trkpt lat="39.27030244838108" lon="118.43534603120123">
        <ele>11.4</ele>
        <time>2024-10-30T09:55:23Z</time>
      </trkpt>
      <trkpt lat="39.270304945800646" lon="118.43534478025443">
        <ele>11.6</ele>
        <time>2024-10-30T09:55:24Z</time>
      </trkpt>
      <trkpt lat="39.27030780191908" lon="118.43534362263195">
        <ele>11.6</ele>
        <time>2024-10-30T09:55:25Z</time>
      </trkpt>
      <trkpt lat="39.2703112506668" lon="118.43534052837123">
        <ele>11.6</ele>
        <time>2024-10-30T09:55:26Z</time>
      </trkpt>
      <trkpt lat="39.270314841739996" lon="118.4353391741186">
        <ele>11.6</ele>
        <time>2024-10-30T09:55:28Z</time>
      </trkpt>
      <trkpt lat="39.27031837432767" lon="118.43533991842425">
        <ele>11.7</ele>
        <time>2024-10-30T09:55:29Z</time>
      </trkpt>
      <trkpt lat="39.2703238707816" lon="118.43534236596315">
        <ele>11.7</ele>
        <time>2024-10-30T09:55:30Z</time>
      </trkpt>
      <trkpt lat="39.2703340372884" lon="118.43534445140108">
        <ele>11.7</ele>
        <time>2024-10-30T09:55:31Z</time>
      </trkpt>
      <trkpt lat="39.270353868921035" lon="118.43534439482495">
        <ele>11.7</ele>
        <time>2024-10-30T09:55:32Z</time>
      </trkpt>
      <trkpt lat="39.27038124601884" lon="118.43534411045833">
        <ele>11.7</ele>
        <time>2024-10-30T09:55:33Z</time>
      </trkpt>
      <trkpt lat="39.270416876774796" lon="118.43534386370361">
        <ele>11.8</ele>
        <time>2024-10-30T09:55:34Z</time>
      </trkpt>
      <trkpt lat="39.27045339719219" lon="118.43534555224372">
        <ele>11.8</ele>
        <time>2024-10-30T09:55:35Z</time>
      </trkpt>
      <trkpt lat="39.27048951306226" lon="118.43534782344594">
        <ele>11.8</ele>
        <time>2024-10-30T09:55:36Z</time>
      </trkpt>
      <trkpt lat="39.270520253485074" lon="118.43535013995212">
        <ele>11.8</ele>
        <time>2024-10-30T09:55:37Z</time>
      </trkpt>
      <trkpt lat="39.270549563401445" lon="118.43535100279998">
        <ele>11.8</ele>
        <time>2024-10-30T09:55:38Z</time>
      </trkpt>
      <trkpt lat="39.27057648527088" lon="118.43535084934">
        <ele>11.7</ele>
        <time>2024-10-30T09:55:39Z</time>
      </trkpt>
      <trkpt lat="39.27060371014932" lon="118.43535006823677">
        <ele>11.7</ele>
        <time>2024-10-30T09:55:40Z</time>
      </trkpt>
      <trkpt lat="39.27063163532643" lon="118.43535171316785">
        <ele>11.7</ele>
        <time>2024-10-30T09:55:41Z</time>
      </trkpt>
      <trkpt lat="39.270659243565284" lon="118.43535473317812">
        <ele>11.7</ele>
        <time>2024-10-30T09:55:42Z</time>
      </trkpt>
      <trkpt lat="39.27068495900079" lon="118.43535700284451">
        <ele>11.7</ele>
        <time>2024-10-30T09:55:43Z</time>
      </trkpt>
      <trkpt lat="39.27071089046107" lon="118.43535419084766">
        <ele>11.5</ele>
        <time>2024-10-30T09:55:44Z</time>
      </trkpt>
      <trkpt lat="39.27073842747525" lon="118.43535169918667">
        <ele>11.5</ele>
        <time>2024-10-30T09:55:45Z</time>
      </trkpt>
      <trkpt lat="39.270775287602056" lon="118.43535376137075">
        <ele>11.5</ele>
        <time>2024-10-30T09:55:47Z</time>
      </trkpt>
      <trkpt lat="39.270810431951666" lon="118.43536111205981">
        <ele>11.5</ele>
        <time>2024-10-30T09:55:48Z</time>
      </trkpt>
      <trkpt lat="39.27084723851555" lon="118.43536936698334">
        <ele>11.4</ele>
        <time>2024-10-30T09:55:49Z</time>
      </trkpt>
      <trkpt lat="39.27087637372606" lon="118.4353751658281">
        <ele>11.4</ele>
        <time>2024-10-30T09:55:50Z</time>
      </trkpt>
      <trkpt lat="39.27090724023527" lon="118.43537932494965">
        <ele>11.4</ele>
        <time>2024-10-30T09:55:51Z</time>
      </trkpt>
      <trkpt lat="39.27093615778975" lon="118.43538100845417">
        <ele>11.4</ele>
        <time>2024-10-30T09:55:52Z</time>
      </trkpt>
      <trkpt lat="39.27096565995806" lon="118.4353809892941">
        <ele>11.4</ele>
        <time>2024-10-30T09:55:53Z</time>
      </trkpt>
      <trkpt lat="39.27099566487654" lon="118.4353790386532">
        <ele>11.5</ele>
        <time>2024-10-30T09:55:54Z</time>
      </trkpt>
      <trkpt lat="39.2710256541096" lon="118.43537609158653">
        <ele>11.5</ele>
        <time>2024-10-30T09:55:55Z</time>
      </trkpt>
      <trkpt lat="39.2710553154478" lon="118.4353726535784">
        <ele>11.5</ele>
        <time>2024-10-30T09:55:56Z</time>
      </trkpt>
      <trkpt lat="39.271084853886926" lon="118.43536913106051">
        <ele>11.5</ele>
        <time>2024-10-30T09:55:57Z</time>
      </trkpt>
      <trkpt lat="39.27111381425712" lon="118.43536562099385">
        <ele>11.5</ele>
        <time>2024-10-30T09:55:58Z</time>
      </trkpt>
      <trkpt lat="39.271145288279165" lon="118.4353614532583">
        <ele>11.5</ele>
        <time>2024-10-30T09:55:59Z</time>
      </trkpt>
      <trkpt lat="39.27117475043944" lon="118.4353569547604">
        <ele>11.5</ele>
        <time>2024-10-30T09:56:00Z</time>
      </trkpt>
      <trkpt lat="39.2712062515577" lon="118.43535198334588">
        <ele>11.5</ele>
        <time>2024-10-30T09:56:01Z</time>
      </trkpt>
      <trkpt lat="39.27124006866544" lon="118.43534657160566">
        <ele>11.5</ele>
        <time>2024-10-30T09:56:02Z</time>
      </trkpt>
      <trkpt lat="39.271282662477184" lon="118.43533944630161">
        <ele>11.6</ele>
        <time>2024-10-30T09:56:04Z</time>
      </trkpt>
      <trkpt lat="39.271332172207956" lon="118.4353325466204">
        <ele>11.6</ele>
        <time>2024-10-30T09:56:05Z</time>
      </trkpt>
      <trkpt lat="39.27138539671056" lon="118.43532407244187">
        <ele>11.6</ele>
        <time>2024-10-30T09:56:06Z</time>
      </trkpt>
      <trkpt lat="39.271434560784" lon="118.43531983220363">
        <ele>11.6</ele>
        <time>2024-10-30T09:56:07Z</time>
      </trkpt>
      <trkpt lat="39.2714738612357" lon="118.43531714807011">
        <ele>11.6</ele>
        <time>2024-10-30T09:56:08Z</time>
      </trkpt>
      <trkpt lat="39.27150314611162" lon="118.43531395486592">
        <ele>11.6</ele>
        <time>2024-10-30T09:56:09Z</time>
      </trkpt>
      <trkpt lat="39.27152783159969" lon="118.43530795434891">
        <ele>11.6</ele>
        <time>2024-10-30T09:56:10Z</time>
      </trkpt>
      <trkpt lat="39.27155401305441" lon="118.43529741912873">
        <ele>11.6</ele>
        <time>2024-10-30T09:56:11Z</time>
      </trkpt>
      <trkpt lat="39.27157894751355" lon="118.43529679073148">
        <ele>11.6</ele>
        <time>2024-10-30T09:56:12Z</time>
      </trkpt>
      <trkpt lat="39.27159879567669" lon="118.4353025602045">
        <ele>11.6</ele>
        <time>2024-10-30T09:56:13Z</time>
      </trkpt>
      <trkpt lat="39.271615318557934" lon="118.4353099649817">
        <ele>11.6</ele>
        <time>2024-10-30T09:56:14Z</time>
      </trkpt>
      <trkpt lat="39.27162876227408" lon="118.43531585149216">
        <ele>11.6</ele>
        <time>2024-10-30T09:56:15Z</time>
      </trkpt>
      <trkpt lat="39.271645571180876" lon="118.43531579924803">
        <ele>11.6</ele>
        <time>2024-10-30T09:56:16Z</time>
      </trkpt>
      <trkpt lat="39.27166471511031" lon="118.43531496347285">
        <ele>11.6</ele>
        <time>2024-10-30T09:56:17Z</time>
      </trkpt>
      <trkpt lat="39.271687436912956" lon="118.43531382509326">
        <ele>11.6</ele>
        <time>2024-10-30T09:56:18Z</time>
      </trkpt>
      <trkpt lat="39.27171140523274" lon="118.43531406183286">
        <ele>11.6</ele>
        <time>2024-10-30T09:56:19Z</time>
      </trkpt>
      <trkpt lat="39.2717343082016" lon="118.43531386349142">
        <ele>11.6</ele>
        <time>2024-10-30T09:56:20Z</time>
      </trkpt>
      <trkpt lat="39.27175767771906" lon="118.43531341062724">
        <ele>11.6</ele>
        <time>2024-10-30T09:56:22Z</time>
      </trkpt>
      <trkpt lat="39.271788157221664" lon="118.43531136481518">
        <ele>11.6</ele>
        <time>2024-10-30T09:56:23Z</time>
      </trkpt>
      <trkpt lat="39.27182789224206" lon="118.4353064905605">
        <ele>11.5</ele>
        <time>2024-10-30T09:56:24Z</time>
      </trkpt>
      <trkpt lat="39.27187231116282" lon="118.43529902348858">
        <ele>11.5</ele>
        <time>2024-10-30T09:56:25Z</time>
      </trkpt>
      <trkpt lat="39.271914525336015" lon="118.4352903806557">
        <ele>11.5</ele>
        <time>2024-10-30T09:56:26Z</time>
      </trkpt>
      <trkpt lat="39.27195372969366" lon="118.43528283696311">
        <ele>11.5</ele>
        <time>2024-10-30T09:56:27Z</time>
      </trkpt>
      <trkpt lat="39.271990344624555" lon="118.43527705102535">
        <ele>11.5</ele>
        <time>2024-10-30T09:56:28Z</time>
      </trkpt>
      <trkpt lat="39.27202554132823" lon="118.43527277399905">
        <ele>11.6</ele>
        <time>2024-10-30T09:56:29Z</time>
      </trkpt>
      <trkpt lat="39.27205979785734" lon="118.43526917441096">
        <ele>11.6</ele>
        <time>2024-10-30T09:56:30Z</time>
      </trkpt>
      <trkpt lat="39.27209574358884" lon="118.4352666051249">
        <ele>11.6</ele>
        <time>2024-10-30T09:56:31Z</time>
      </trkpt>
      <trkpt lat="39.27212898228148" lon="118.43526536482945">
        <ele>11.6</ele>
        <time>2024-10-30T09:56:32Z</time>
      </trkpt>
      <trkpt lat="39.272159913441236" lon="118.43526979294778">
        <ele>11.6</ele>
        <time>2024-10-30T09:56:33Z</time>
      </trkpt>
      <trkpt lat="39.27218351698561" lon="118.43527539947183">
        <ele>11.6</ele>
        <time>2024-10-30T09:56:34Z</time>
      </trkpt>
      <trkpt lat="39.27220256860137" lon="118.43527959390258">
        <ele>11.6</ele>
        <time>2024-10-30T09:56:35Z</time>
      </trkpt>
      <trkpt lat="39.27222218746295" lon="118.43527523343391">
        <ele>11.6</ele>
        <time>2024-10-30T09:56:36Z</time>
      </trkpt>
      <trkpt lat="39.272247276064064" lon="118.43527007518607">
        <ele>11.6</ele>
        <time>2024-10-30T09:56:37Z</time>
      </trkpt>
      <trkpt lat="39.272274366036086" lon="118.43527145937797">
        <ele>11.6</ele>
        <time>2024-10-30T09:56:38Z</time>
      </trkpt>
      <trkpt lat="39.27230089314882" lon="118.4352766161958">
        <ele>11.4</ele>
        <time>2024-10-30T09:56:40Z</time>
      </trkpt>
      <trkpt lat="39.272329328288215" lon="118.43527586998033">
        <ele>11.4</ele>
        <time>2024-10-30T09:56:41Z</time>
      </trkpt>
      <trkpt lat="39.272363910467334" lon="118.43526370967095">
        <ele>11.4</ele>
        <time>2024-10-30T09:56:42Z</time>
      </trkpt>
      <trkpt lat="39.272402001185675" lon="118.43524739464134">
        <ele>11.4</ele>
        <time>2024-10-30T09:56:43Z</time>
      </trkpt>
      <trkpt lat="39.272438598545584" lon="118.4352332750307">
        <ele>11.2</ele>
        <time>2024-10-30T09:56:44Z</time>
      </trkpt>
      <trkpt lat="39.27247180454462" lon="118.43522218770333">
        <ele>11.2</ele>
        <time>2024-10-30T09:56:45Z</time>
      </trkpt>
      <trkpt lat="39.27250339285737" lon="118.43521298162466">
        <ele>11.2</ele>
        <time>2024-10-30T09:56:46Z</time>
      </trkpt>
      <trkpt lat="39.27253558249825" lon="118.43520688519857">
        <ele>11.2</ele>
        <time>2024-10-30T09:56:47Z</time>
      </trkpt>
      <trkpt lat="39.27256716943909" lon="118.43520383474024">
        <ele>11.2</ele>
        <time>2024-10-30T09:56:48Z</time>
      </trkpt>
      <trkpt lat="39.27259826359497" lon="118.43520325061586">
        <ele>11.2</ele>
        <time>2024-10-30T09:56:49Z</time>
      </trkpt>
      <trkpt lat="39.272628602548494" lon="118.43520362556883">
        <ele>11.2</ele>
        <time>2024-10-30T09:56:50Z</time>
      </trkpt>
      <trkpt lat="39.27265713543466" lon="118.43520376475144">
        <ele>11.2</ele>
        <time>2024-10-30T09:56:51Z</time>
      </trkpt>
      <trkpt lat="39.272685982412725" lon="118.43520607740743">
        <ele>11.2</ele>
        <time>2024-10-30T09:56:52Z</time>
      </trkpt>
      <trkpt lat="39.27271050651478" lon="118.43520982876313">
        <ele>11.2</ele>
        <time>2024-10-30T09:56:53Z</time>
      </trkpt>
      <trkpt lat="39.27273214099007" lon="118.43521531965713">
        <ele>11.3</ele>
        <time>2024-10-30T09:56:54Z</time>
      </trkpt>
      <trkpt lat="39.272752640491696" lon="118.43521483911039">
        <ele>11.3</ele>
        <time>2024-10-30T09:56:55Z</time>
      </trkpt>
      <trkpt lat="39.27277557795982" lon="118.43521314018062">
        <ele>11.3</ele>
        <time>2024-10-30T09:56:56Z</time>
      </trkpt>
      <trkpt lat="39.272810134221466" lon="118.43520891920673">
        <ele>11.3</ele>
        <time>2024-10-30T09:56:58Z</time>
      </trkpt>
      <trkpt lat="39.27284543036993" lon="118.43520815323208">
        <ele>11.3</ele>
        <time>2024-10-30T09:56:59Z</time>
      </trkpt>
      <trkpt lat="39.27288121696572" lon="118.43520633853957">
        <ele>11.3</ele>
        <time>2024-10-30T09:57:00Z</time>
      </trkpt>
      <trkpt lat="39.272911813853526" lon="118.43520518371076">
        <ele>11.3</ele>
        <time>2024-10-30T09:57:01Z</time>
      </trkpt>
      <trkpt lat="39.27294177850733" lon="118.43520407755295">
        <ele>11.3</ele>
        <time>2024-10-30T09:57:02Z</time>
      </trkpt>
      <trkpt lat="39.27297079737729" lon="118.43520313341187">
        <ele>11.3</ele>
        <time>2024-10-30T09:57:03Z</time>
      </trkpt>
      <trkpt lat="39.27299980890384" lon="118.43520215535999">
        <ele>11.3</ele>
        <time>2024-10-30T09:57:04Z</time>
      </trkpt>
      <trkpt lat="39.27302884587347" lon="118.43520114193126">
        <ele>11.3</ele>
        <time>2024-10-30T09:57:05Z</time>
      </trkpt>
      <trkpt lat="39.273061315546705" lon="118.43519980693334">
        <ele>11.3</ele>
        <time>2024-10-30T09:57:06Z</time>
      </trkpt>
      <trkpt lat="39.27309097413624" lon="118.43519860843433">
        <ele>11.3</ele>
        <time>2024-10-30T09:57:07Z</time>
      </trkpt>
      <trkpt lat="39.27312061272806" lon="118.43519720836841">
        <ele>11.3</ele>
        <time>2024-10-30T09:57:08Z</time>
      </trkpt>
      <trkpt lat="39.27314899046862" lon="118.43519557273598">
        <ele>11.2</ele>
        <time>2024-10-30T09:57:09Z</time>
      </trkpt>
      <trkpt lat="39.27317680921243" lon="118.43519366211">
        <ele>11.2</ele>
        <time>2024-10-30T09:57:10Z</time>
      </trkpt>
      <trkpt lat="39.27320365687711" lon="118.43519156160524">
        <ele>11.2</ele>
        <time>2024-10-30T09:57:11Z</time>
      </trkpt>
      <trkpt lat="39.27322998540189" lon="118.43518928130683">
        <ele>11.2</ele>
        <time>2024-10-30T09:57:12Z</time>
      </trkpt>
      <trkpt lat="39.273262458035234" lon="118.43518608486163">
        <ele>11.2</ele>
        <time>2024-10-30T09:57:13Z</time>
      </trkpt>
      <trkpt lat="39.27329589609075" lon="118.43518250985886">
        <ele>10.9</ele>
        <time>2024-10-30T09:57:14Z</time>
      </trkpt>
      <trkpt lat="39.27332780980476" lon="118.43517878828548">
        <ele>10.9</ele>
        <time>2024-10-30T09:57:16Z</time>
      </trkpt>
      <trkpt lat="39.27335699590073" lon="118.43517521469289">
        <ele>10.9</ele>
        <time>2024-10-30T09:57:17Z</time>
      </trkpt>
      <trkpt lat="39.27338646908152" lon="118.43517147657353">
        <ele>10.9</ele>
        <time>2024-10-30T09:57:18Z</time>
      </trkpt>
      <trkpt lat="39.27341629068884" lon="118.43516765913935">
        <ele>10.5</ele>
        <time>2024-10-30T09:57:19Z</time>
      </trkpt>
      <trkpt lat="39.273446535047505" lon="118.43516385956859">
        <ele>10.5</ele>
        <time>2024-10-30T09:57:20Z</time>
      </trkpt>
      <trkpt lat="39.27347698681291" lon="118.43516020911441">
        <ele>10.5</ele>
        <time>2024-10-30T09:57:21Z</time>
      </trkpt>
      <trkpt lat="39.273507277434106" lon="118.43515678739196">
        <ele>10.5</ele>
        <time>2024-10-30T09:57:22Z</time>
      </trkpt>
      <trkpt lat="39.27353722634698" lon="118.43515352515386">
        <ele>10.5</ele>
        <time>2024-10-30T09:57:23Z</time>
      </trkpt>
      <trkpt lat="39.27356701382666" lon="118.43515031915827">
        <ele>10.2</ele>
        <time>2024-10-30T09:57:24Z</time>
      </trkpt>
      <trkpt lat="39.273596568102185" lon="118.43514710767185">
        <ele>10.2</ele>
        <time>2024-10-30T09:57:25Z</time>
      </trkpt>
      <trkpt lat="39.27362593896201" lon="118.43514393504265">
        <ele>10.2</ele>
        <time>2024-10-30T09:57:26Z</time>
      </trkpt>
      <trkpt lat="39.27365445956894" lon="118.43514095772065">
        <ele>10.2</ele>
        <time>2024-10-30T09:57:27Z</time>
      </trkpt>
      <trkpt lat="39.27368504695757" lon="118.43513792982195">
        <ele>10.2</ele>
        <time>2024-10-30T09:57:28Z</time>
      </trkpt>
      <trkpt lat="39.27371168108563" lon="118.43513538777599">
        <ele>10.1</ele>
        <time>2024-10-30T09:57:29Z</time>
      </trkpt>
      <trkpt lat="39.273737161371805" lon="118.43513298823103">
        <ele>10.1</ele>
        <time>2024-10-30T09:57:30Z</time>
      </trkpt>
      <trkpt lat="39.27376396706521" lon="118.43513032968949">
        <ele>10.1</ele>
        <time>2024-10-30T09:57:31Z</time>
      </trkpt>
      <trkpt lat="39.273793082440534" lon="118.43512726555991">
        <ele>10.1</ele>
        <time>2024-10-30T09:57:32Z</time>
      </trkpt>
      <trkpt lat="39.27381957529554" lon="118.43512329748307">
        <ele>10.2</ele>
        <time>2024-10-30T09:57:34Z</time>
      </trkpt>
      <trkpt lat="39.27383983363741" lon="118.43511939464197">
        <ele>10.2</ele>
        <time>2024-10-30T09:57:35Z</time>
      </trkpt>
      <trkpt lat="39.27385959080339" lon="118.43511563434721">
        <ele>10.2</ele>
        <time>2024-10-30T09:57:36Z</time>
      </trkpt>
      <trkpt lat="39.273883604759185" lon="118.43511241256414">
        <ele>10.2</ele>
        <time>2024-10-30T09:57:37Z</time>
      </trkpt>
      <trkpt lat="39.27391342571001" lon="118.43510846822241">
        <ele>10.2</ele>
        <time>2024-10-30T09:57:38Z</time>
      </trkpt>
      <trkpt lat="39.273948454248675" lon="118.43510407233596">
        <ele>10.1</ele>
        <time>2024-10-30T09:57:39Z</time>
      </trkpt>
      <trkpt lat="39.273987419863175" lon="118.43509995453826">
        <ele>10.1</ele>
        <time>2024-10-30T09:57:40Z</time>
      </trkpt>
      <trkpt lat="39.27402798724353" lon="118.43509782303276">
        <ele>10.1</ele>
        <time>2024-10-30T09:57:41Z</time>
      </trkpt>
      <trkpt lat="39.274066794145" lon="118.43509749532188">
        <ele>10.1</ele>
        <time>2024-10-30T09:57:42Z</time>
      </trkpt>
      <trkpt lat="39.27410525243719" lon="118.43509872874472">
        <ele>10.1</ele>
        <time>2024-10-30T09:57:43Z</time>
      </trkpt>
      <trkpt lat="39.274144006767145" lon="118.43510323297163">
        <ele>9.9</ele>
        <time>2024-10-30T09:57:44Z</time>
      </trkpt>
      <trkpt lat="39.27417991646931" lon="118.43511039257953">
        <ele>9.9</ele>
        <time>2024-10-30T09:57:45Z</time>
      </trkpt>
      <trkpt lat="39.274211117203826" lon="118.43511735217092">
        <ele>9.9</ele>
        <time>2024-10-30T09:57:46Z</time>
      </trkpt>
      <trkpt lat="39.27423837627356" lon="118.4351166812806">
        <ele>9.9</ele>
        <time>2024-10-30T09:57:47Z</time>
      </trkpt>
      <trkpt lat="39.274265405037184" lon="118.43511141422171">
        <ele>9.9</ele>
        <time>2024-10-30T09:57:48Z</time>
      </trkpt>
      <trkpt lat="39.27429482221163" lon="118.4351035578192">
        <ele>9.5</ele>
        <time>2024-10-30T09:57:49Z</time>
      </trkpt>
      <trkpt lat="39.27432953323342" lon="118.43510312250034">
        <ele>9.5</ele>
        <time>2024-10-30T09:57:50Z</time>
      </trkpt>
      <trkpt lat="39.27436179700317" lon="118.43510356023647">
        <ele>9.5</ele>
        <time>2024-10-30T09:57:51Z</time>
      </trkpt>
      <trkpt lat="39.274394200795555" lon="118.43510206105468">
        <ele>9.5</ele>
        <time>2024-10-30T09:57:53Z</time>
      </trkpt>
      <trkpt lat="39.27441979110709" lon="118.43509660859495">
        <ele>9.5</ele>
        <time>2024-10-30T09:57:54Z</time>
      </trkpt>
      <trkpt lat="39.274449204612175" lon="118.4350903657774">
        <ele>9.5</ele>
        <time>2024-10-30T09:57:55Z</time>
      </trkpt>
      <trkpt lat="39.27447750218904" lon="118.43508740945296">
        <ele>9.5</ele>
        <time>2024-10-30T09:57:56Z</time>
      </trkpt>
      <trkpt lat="39.27450815095045" lon="118.43508374133276">
        <ele>9.5</ele>
        <time>2024-10-30T09:57:57Z</time>
      </trkpt>
      <trkpt lat="39.274538480744276" lon="118.43508050301875">
        <ele>9.5</ele>
        <time>2024-10-30T09:57:58Z</time>
      </trkpt>
      <trkpt lat="39.27456775673" lon="118.43507701106587">
        <ele>9.6</ele>
        <time>2024-10-30T09:57:59Z</time>
      </trkpt>
      <trkpt lat="39.274597312795294" lon="118.4350741070771">
        <ele>9.6</ele>
        <time>2024-10-30T09:58:00Z</time>
      </trkpt>
      <trkpt lat="39.2746239945598" lon="118.43507153402042">
        <ele>9.6</ele>
        <time>2024-10-30T09:58:01Z</time>
      </trkpt>
      <trkpt lat="39.274650519785915" lon="118.43506921050734">
        <ele>9.6</ele>
        <time>2024-10-30T09:58:02Z</time>
      </trkpt>
      <trkpt lat="39.274676632398595" lon="118.43506702862715">
        <ele>9.6</ele>
        <time>2024-10-30T09:58:03Z</time>
      </trkpt>
      <trkpt lat="39.27470270060796" lon="118.43506488070089">
        <ele>9.6</ele>
        <time>2024-10-30T09:58:04Z</time>
      </trkpt>
      <trkpt lat="39.27472861630836" lon="118.43506262456941">
        <ele>9.6</ele>
        <time>2024-10-30T09:58:05Z</time>
      </trkpt>
      <trkpt lat="39.27475434781999" lon="118.43506013942444">
        <ele>9.6</ele>
        <time>2024-10-30T09:58:06Z</time>
      </trkpt>
      <trkpt lat="39.27478387950595" lon="118.43505665694401">
        <ele>9.6</ele>
        <time>2024-10-30T09:58:07Z</time>
      </trkpt>
      <trkpt lat="39.27481759434683" lon="118.43505232727067">
        <ele>9.6</ele>
        <time>2024-10-30T09:58:08Z</time>
      </trkpt>
      <trkpt lat="39.274850265144856" lon="118.43504755571877">
        <ele>9.6</ele>
        <time>2024-10-30T09:58:10Z</time>
      </trkpt>
      <trkpt lat="39.27488370481431" lon="118.43504268671947">
        <ele>9.6</ele>
        <time>2024-10-30T09:58:11Z</time>
      </trkpt>
      <trkpt lat="39.274914857174934" lon="118.43503801531476">
        <ele>9.6</ele>
        <time>2024-10-30T09:58:12Z</time>
      </trkpt>
      <trkpt lat="39.274946314497996" lon="118.43503366609785">
        <ele>9.6</ele>
        <time>2024-10-30T09:58:13Z</time>
      </trkpt>
      <trkpt lat="39.27497756412902" lon="118.43502996840871">
        <ele>9.5</ele>
        <time>2024-10-30T09:58:14Z</time>
      </trkpt>
      <trkpt lat="39.27500866098607" lon="118.43502696549389">
        <ele>9.5</ele>
        <time>2024-10-30T09:58:15Z</time>
      </trkpt>
      <trkpt lat="39.27504280764762" lon="118.4350244509665">
        <ele>9.5</ele>
        <time>2024-10-30T09:58:16Z</time>
      </trkpt>
      <trkpt lat="39.27507423283844" lon="118.43502269226609">
        <ele>9.5</ele>
        <time>2024-10-30T09:58:17Z</time>
      </trkpt>
      <trkpt lat="39.27510550417033" lon="118.43502138797389">
        <ele>9.5</ele>
        <time>2024-10-30T09:58:18Z</time>
      </trkpt>
      <trkpt lat="39.275135804496365" lon="118.43502045773677">
        <ele>9.6</ele>
        <time>2024-10-30T09:58:19Z</time>
      </trkpt>
      <trkpt lat="39.27516512889083" lon="118.43501981158212">
        <ele>9.6</ele>
        <time>2024-10-30T09:58:20Z</time>
      </trkpt>
      <trkpt lat="39.27519350276818" lon="118.43501938332797">
        <ele>9.6</ele>
        <time>2024-10-30T09:58:21Z</time>
      </trkpt>
      <trkpt lat="39.27522091042261" lon="118.43501912522345">
        <ele>9.6</ele>
        <time>2024-10-30T09:58:22Z</time>
      </trkpt>
      <trkpt lat="39.275247348902795" lon="118.43501896281514">
        <ele>9.6</ele>
        <time>2024-10-30T09:58:23Z</time>
      </trkpt>
      <trkpt lat="39.27527554113388" lon="118.43501870762461">
        <ele>9.8</ele>
        <time>2024-10-30T09:58:24Z</time>
      </trkpt>
      <trkpt lat="39.2753030642037" lon="118.43501865375875">
        <ele>9.8</ele>
        <time>2024-10-30T09:58:25Z</time>
      </trkpt>
      <trkpt lat="39.275333801544946" lon="118.43501852437366">
        <ele>9.8</ele>
        <time>2024-10-30T09:58:26Z</time>
      </trkpt>
      <trkpt lat="39.27536237248933" lon="118.43501872310539">
        <ele>9.8</ele>
        <time>2024-10-30T09:58:28Z</time>
      </trkpt>
      <trkpt lat="39.275388472390205" lon="118.43501902759546">
        <ele>10.1</ele>
        <time>2024-10-30T09:58:29Z</time>
      </trkpt>
      <trkpt lat="39.27541024784834" lon="118.43501949097008">
        <ele>10.1</ele>
        <time>2024-10-30T09:58:30Z</time>
      </trkpt>
      <trkpt lat="39.27543623886171" lon="118.43502089579793">
        <ele>10.1</ele>
        <time>2024-10-30T09:58:31Z</time>
      </trkpt>
      <trkpt lat="39.27546346169825" lon="118.43502209804831">
        <ele>10.1</ele>
        <time>2024-10-30T09:58:32Z</time>
      </trkpt>
      <trkpt lat="39.27549365268426" lon="118.4350226946787">
        <ele>10.1</ele>
        <time>2024-10-30T09:58:33Z</time>
      </trkpt>
      <trkpt lat="39.27551966930395" lon="118.43502139341503">
        <ele>10.4</ele>
        <time>2024-10-30T09:58:34Z</time>
      </trkpt>
      <trkpt lat="39.2755442619566" lon="118.43501924442135">
        <ele>10.4</ele>
        <time>2024-10-30T09:58:35Z</time>
      </trkpt>
      <trkpt lat="39.27556636817671" lon="118.43501647421867">
        <ele>10.4</ele>
        <time>2024-10-30T09:58:36Z</time>
      </trkpt>
      <trkpt lat="39.27558653501919" lon="118.43501288448093">
        <ele>10.4</ele>
        <time>2024-10-30T09:58:37Z</time>
      </trkpt>
      <trkpt lat="39.27560372159064" lon="118.43500769296128">
        <ele>10.4</ele>
        <time>2024-10-30T09:58:38Z</time>
      </trkpt>
      <trkpt lat="39.27561717257408" lon="118.43500174136636">
        <ele>10.6</ele>
        <time>2024-10-30T09:58:39Z</time>
      </trkpt>
      <trkpt lat="39.27562674313917" lon="118.43499618616248">
        <ele>10.6</ele>
        <time>2024-10-30T09:58:40Z</time>
      </trkpt>
      <trkpt lat="39.27563355949284" lon="118.43499324988416">
        <ele>10.6</ele>
        <time>2024-10-30T09:58:41Z</time>
      </trkpt>
      <trkpt lat="39.27563981113725" lon="118.434992153367">
        <ele>10.6</ele>
        <time>2024-10-30T09:58:42Z</time>
      </trkpt>
      <trkpt lat="39.27564690559613" lon="118.43499093972953">
        <ele>10.6</ele>
        <time>2024-10-30T09:58:43Z</time>
      </trkpt>
      <trkpt lat="39.27565645369082" lon="118.43498398360991">
        <ele>10.6</ele>
        <time>2024-10-30T09:58:44Z</time>
      </trkpt>
      <trkpt lat="39.27566521649271" lon="118.43497320240398">
        <ele>10.6</ele>
        <time>2024-10-30T09:58:45Z</time>
      </trkpt>
      <trkpt lat="39.27567262497771" lon="118.43495962426739">
        <ele>10.6</ele>
        <time>2024-10-30T09:58:47Z</time>
      </trkpt>
      <trkpt lat="39.27567749532194" lon="118.43494863765589">
        <ele>10.6</ele>
        <time>2024-10-30T09:58:48Z</time>
      </trkpt>
      <trkpt lat="39.27568300100625" lon="118.43493880360249">
        <ele>10</ele>
        <time>2024-10-30T09:58:49Z</time>
      </trkpt>
      <trkpt lat="39.275689944375856" lon="118.43493020816602">
        <ele>10</ele>
        <time>2024-10-30T09:58:50Z</time>
      </trkpt>
      <trkpt lat="39.27569779259458" lon="118.43492273310095">
        <ele>10</ele>
        <time>2024-10-30T09:58:51Z</time>
      </trkpt>
      <trkpt lat="39.27570377192087" lon="118.43491606444469">
        <ele>10</ele>
        <time>2024-10-30T09:58:52Z</time>
      </trkpt>
      <trkpt lat="39.275706737354774" lon="118.43491109217626">
        <ele>10</ele>
        <time>2024-10-30T09:58:53Z</time>
      </trkpt>
      <trkpt lat="39.27570695008109" lon="118.43490733116674">
        <ele>5.8</ele>
        <time>2024-10-30T09:58:54Z</time>
      </trkpt>
      <trkpt lat="39.2757067903632" lon="118.43490492776428">
        <ele>5.8</ele>
        <time>2024-10-30T09:58:55Z</time>
      </trkpt>
      <trkpt lat="39.27570633094732" lon="118.43490216543582">
        <ele>5.8</ele>
        <time>2024-10-30T09:58:56Z</time>
      </trkpt>
      <trkpt lat="39.275707077145185" lon="118.43490026600821">
        <ele>5.8</ele>
        <time>2024-10-30T09:58:57Z</time>
      </trkpt>
      <trkpt lat="39.27570662008638" lon="118.43489857709996">
        <ele>5.8</ele>
        <time>2024-10-30T09:58:58Z</time>
      </trkpt>
      <trkpt lat="39.27570516115626" lon="118.43489921577371">
        <ele>1.6</ele>
        <time>2024-10-30T09:58:59Z</time>
      </trkpt>
      <trkpt lat="39.2757004430536" lon="118.43490092311724">
        <ele>1.6</ele>
        <time>2024-10-30T09:59:00Z</time>
      </trkpt>
      <trkpt lat="39.275689340354226" lon="118.43490564010833">
        <ele>1.6</ele>
        <time>2024-10-30T09:59:01Z</time>
      </trkpt>
      <trkpt lat="39.27567579133404" lon="118.43490944220137">
        <ele>1.6</ele>
        <time>2024-10-30T09:59:02Z</time>
      </trkpt>
      <trkpt lat="39.27566302728221" lon="118.4349133071018">
        <ele>1</ele>
        <time>2024-10-30T09:59:04Z</time>
      </trkpt>
      <trkpt lat="39.27565618502241" lon="118.43491429426872">
        <ele>1</ele>
        <time>2024-10-30T09:59:05Z</time>
      </trkpt>
      <trkpt lat="39.27565149776046" lon="118.43491549975222">
        <ele>1</ele>
        <time>2024-10-30T09:59:06Z</time>
      </trkpt>
      <trkpt lat="39.275648863312355" lon="118.43491623049069">
        <ele>1</ele>
        <time>2024-10-30T09:59:07Z</time>
      </trkpt>
      <trkpt lat="39.27564772437788" lon="118.4349168361204">
        <ele>1</ele>
        <time>2024-10-30T09:59:08Z</time>
      </trkpt>
      <trkpt lat="39.275648745614056" lon="118.43491615847692">
        <ele>5.3</ele>
        <time>2024-10-30T09:59:09Z</time>
      </trkpt>
      <trkpt lat="39.2756494047763" lon="118.43491418497217">
        <ele>5.3</ele>
        <time>2024-10-30T09:59:10Z</time>
      </trkpt>
      <trkpt lat="39.275649358248884" lon="118.43491153515315">
        <ele>5.3</ele>
        <time>2024-10-30T09:59:11Z</time>
      </trkpt>
      <trkpt lat="39.27564846851462" lon="118.43491071275419">
        <ele>5.3</ele>
        <time>2024-10-30T09:59:12Z</time>
      </trkpt>
      <trkpt lat="39.27564899995698" lon="118.43491036196444">
        <ele>5.3</ele>
        <time>2024-10-30T09:59:13Z</time>
      </trkpt>
      <trkpt lat="39.27564939283298" lon="118.43491108812131">
        <ele>9.5</ele>
        <time>2024-10-30T09:59:16Z</time>
      </trkpt>
      <trkpt lat="39.275649804870774" lon="118.43491091558938">
        <ele>9.5</ele>
        <time>2024-10-30T09:59:17Z</time>
      </trkpt>
      <trkpt lat="39.27565043065051" lon="118.43491093879251">
        <ele>9.5</ele>
        <time>2024-10-30T09:59:18Z</time>
      </trkpt>
      <trkpt lat="39.27565437799569" lon="118.4349124879427">
        <ele>10.6</ele>
        <time>2024-10-30T09:59:19Z</time>
      </trkpt>
      <trkpt lat="39.27566143681263" lon="118.43491536357249">
        <ele>10.6</ele>
        <time>2024-10-30T09:59:20Z</time>
      </trkpt>
      <trkpt lat="39.27567092700025" lon="118.43491880109966">
        <ele>10.6</ele>
        <time>2024-10-30T09:59:22Z</time>
      </trkpt>
      <trkpt lat="39.27568092476314" lon="118.43492142216424">
        <ele>10.6</ele>
        <time>2024-10-30T09:59:23Z</time>
      </trkpt>
      <trkpt lat="39.27569477712278" lon="118.43492271325485">
        <ele>10.5</ele>
        <time>2024-10-30T09:59:24Z</time>
      </trkpt>
      <trkpt lat="39.27571034794611" lon="118.43492307355486">
        <ele>10.5</ele>
        <time>2024-10-30T09:59:25Z</time>
      </trkpt>
      <trkpt lat="39.2757299325417" lon="118.43492226271303">
        <ele>10.5</ele>
        <time>2024-10-30T09:59:26Z</time>
      </trkpt>
      <trkpt lat="39.27574964351148" lon="118.43492109554103">
        <ele>10.5</ele>
        <time>2024-10-30T09:59:27Z</time>
      </trkpt>
      <trkpt lat="39.27577295171041" lon="118.43491900178662">
        <ele>10.5</ele>
        <time>2024-10-30T09:59:28Z</time>
      </trkpt>
      <trkpt lat="39.27579642772418" lon="118.43491594271282">
        <ele>10.4</ele>
        <time>2024-10-30T09:59:29Z</time>
      </trkpt>
      <trkpt lat="39.275819425680844" lon="118.43491149692372">
        <ele>10.4</ele>
        <time>2024-10-30T09:59:30Z</time>
      </trkpt>
      <trkpt lat="39.27583912720811" lon="118.43490271828067">
        <ele>10.4</ele>
        <time>2024-10-30T09:59:31Z</time>
      </trkpt>
      <trkpt lat="39.275854593350616" lon="118.43488992451385">
        <ele>10.4</ele>
        <time>2024-10-30T09:59:32Z</time>
      </trkpt>
      <trkpt lat="39.27586490880241" lon="118.43487237964081">
        <ele>10.4</ele>
        <time>2024-10-30T09:59:33Z</time>
      </trkpt>
      <trkpt lat="39.275868662265204" lon="118.43485000584518">
        <ele>10.3</ele>
        <time>2024-10-30T09:59:34Z</time>
      </trkpt>
      <trkpt lat="39.27586869630253" lon="118.43482566907386">
        <ele>10.3</ele>
        <time>2024-10-30T09:59:35Z</time>
      </trkpt>
      <trkpt lat="39.27586797330751" lon="118.43479681680988">
        <ele>10.3</ele>
        <time>2024-10-30T09:59:36Z</time>
      </trkpt>
      <trkpt lat="39.275868147251465" lon="118.4347695860942">
        <ele>10.3</ele>
        <time>2024-10-30T09:59:37Z</time>
      </trkpt>
      <trkpt lat="39.27587029584375" lon="118.43473201978482">
        <ele>10.3</ele>
        <time>2024-10-30T09:59:38Z</time>
      </trkpt>
      <trkpt lat="39.275872883583446" lon="118.43469466229683">
        <ele>10.1</ele>
        <time>2024-10-30T09:59:39Z</time>
      </trkpt>
      <trkpt lat="39.275876040093934" lon="118.43465411188073">
        <ele>10.1</ele>
        <time>2024-10-30T09:59:41Z</time>
      </trkpt>
      <trkpt lat="39.27587928983297" lon="118.43461717990327">
        <ele>10.1</ele>
        <time>2024-10-30T09:59:42Z</time>
      </trkpt>
      <trkpt lat="39.275882539534514" lon="118.4345796806906">
        <ele>10.1</ele>
        <time>2024-10-30T09:59:43Z</time>
      </trkpt>
      <trkpt lat="39.27588568038163" lon="118.43454276655926">
        <ele>10</ele>
        <time>2024-10-30T09:59:44Z</time>
      </trkpt>
      <trkpt lat="39.27588766395706" lon="118.43450621916801">
        <ele>10</ele>
        <time>2024-10-30T09:59:45Z</time>
      </trkpt>
      <trkpt lat="39.27588842164453" lon="118.43447096341197">
        <ele>10</ele>
        <time>2024-10-30T09:59:46Z</time>
      </trkpt>
      <trkpt lat="39.275887399273536" lon="118.43443301203773">
        <ele>10</ele>
        <time>2024-10-30T09:59:47Z</time>
      </trkpt>
      <trkpt lat="39.275885683083" lon="118.4343974564272">
        <ele>10</ele>
        <time>2024-10-30T09:59:48Z</time>
      </trkpt>
      <trkpt lat="39.27588358359019" lon="118.43436011005447">
        <ele>9.9</ele>
        <time>2024-10-30T09:59:49Z</time>
      </trkpt>
      <trkpt lat="39.275881789197065" lon="118.43432510269164">
        <ele>9.9</ele>
        <time>2024-10-30T09:59:50Z</time>
      </trkpt>
      <trkpt lat="39.275880215896834" lon="118.4342894838742">
        <ele>9.9</ele>
        <time>2024-10-30T09:59:51Z</time>
      </trkpt>
      <trkpt lat="39.27587891398849" lon="118.43425126520859">
        <ele>9.9</ele>
        <time>2024-10-30T09:59:52Z</time>
      </trkpt>
      <trkpt lat="39.275878051654736" lon="118.43421232058597">
        <ele>9.9</ele>
        <time>2024-10-30T09:59:53Z</time>
      </trkpt>
      <trkpt lat="39.27587843086317" lon="118.43417292160163">
        <ele>10.1</ele>
        <time>2024-10-30T09:59:54Z</time>
      </trkpt>
      <trkpt lat="39.27588261784681" lon="118.43412734969093">
        <ele>10.1</ele>
        <time>2024-10-30T09:59:55Z</time>
      </trkpt>
      <trkpt lat="39.27588369485323" lon="118.4340770794175">
        <ele>10.1</ele>
        <time>2024-10-30T09:59:56Z</time>
      </trkpt>
      <trkpt lat="39.27588325816093" lon="118.43402695863736">
        <ele>10.1</ele>
        <time>2024-10-30T09:59:58Z</time>
      </trkpt>
      <trkpt lat="39.2758802050105" lon="118.4339839960294">
        <ele>10.1</ele>
        <time>2024-10-30T09:59:59Z</time>
      </trkpt>
      <trkpt lat="39.275880299940624" lon="118.43394916768457">
        <ele>10.1</ele>
        <time>2024-10-30T10:00:00Z</time>
      </trkpt>
      <trkpt lat="39.27587921580389" lon="118.43391267429223">
        <ele>10.1</ele>
        <time>2024-10-30T10:00:01Z</time>
      </trkpt>
      <trkpt lat="39.27587531006436" lon="118.43387666779958">
        <ele>10.1</ele>
        <time>2024-10-30T10:00:02Z</time>
      </trkpt>
      <trkpt lat="39.27586963283202" lon="118.43383262462996">
        <ele>10.1</ele>
        <time>2024-10-30T10:00:03Z</time>
      </trkpt>
      <trkpt lat="39.27586460910596" lon="118.43378918665378">
        <ele>10</ele>
        <time>2024-10-30T10:00:04Z</time>
      </trkpt>
      <trkpt lat="39.27586100888093" lon="118.43374252772117">
        <ele>10</ele>
        <time>2024-10-30T10:00:05Z</time>
      </trkpt>
      <trkpt lat="39.27585916188889" lon="118.43370039769086">
        <ele>10</ele>
        <time>2024-10-30T10:00:06Z</time>
      </trkpt>
      <trkpt lat="39.27585885591129" lon="118.43365649029641">
        <ele>10</ele>
        <time>2024-10-30T10:00:07Z</time>
      </trkpt>
      <trkpt lat="39.275860068846896" lon="118.43361721072036">
        <ele>10</ele>
        <time>2024-10-30T10:00:08Z</time>
      </trkpt>
      <trkpt lat="39.27586221287844" lon="118.43357803237927">
        <ele>9.9</ele>
        <time>2024-10-30T10:00:09Z</time>
      </trkpt>
      <trkpt lat="39.27586188119124" lon="118.433539857683">
        <ele>9.9</ele>
        <time>2024-10-30T10:00:10Z</time>
      </trkpt>
      <trkpt lat="39.27585990852264" lon="118.43350436012823">
        <ele>9.9</ele>
        <time>2024-10-30T10:00:11Z</time>
      </trkpt>
      <trkpt lat="39.275858182272614" lon="118.43347226386653">
        <ele>9.9</ele>
        <time>2024-10-30T10:00:12Z</time>
      </trkpt>
      <trkpt lat="39.2758614147149" lon="118.433440851386">
        <ele>9.9</ele>
        <time>2024-10-30T10:00:13Z</time>
      </trkpt>
      <trkpt lat="39.275865096147356" lon="118.43339834209844">
        <ele>9.8</ele>
        <time>2024-10-30T10:00:14Z</time>
      </trkpt>
      <trkpt lat="39.275863490949305" lon="118.43335029730666">
        <ele>9.8</ele>
        <time>2024-10-30T10:00:15Z</time>
      </trkpt>
      <trkpt lat="39.27585747884518" lon="118.4333049896629">
        <ele>9.8</ele>
        <time>2024-10-30T10:00:17Z</time>
      </trkpt>
      <trkpt lat="39.27585363465196" lon="118.43326665528346">
        <ele>9.8</ele>
        <time>2024-10-30T10:00:18Z</time>
      </trkpt>
      <trkpt lat="39.27585310536558" lon="118.43323070171448">
        <ele>9.8</ele>
        <time>2024-10-30T10:00:19Z</time>
      </trkpt>
      <trkpt lat="39.27585322970314" lon="118.43319021941272">
        <ele>9.8</ele>
        <time>2024-10-30T10:00:20Z</time>
      </trkpt>
      <trkpt lat="39.27585027470222" lon="118.4331509306479">
        <ele>9.8</ele>
        <time>2024-10-30T10:00:21Z</time>
      </trkpt>
      <trkpt lat="39.275847438933106" lon="118.43311151024079">
        <ele>9.8</ele>
        <time>2024-10-30T10:00:22Z</time>
      </trkpt>
      <trkpt lat="39.27584482437809" lon="118.43307264692736">
        <ele>9.8</ele>
        <time>2024-10-30T10:00:23Z</time>
      </trkpt>
      <trkpt lat="39.27584323693251" lon="118.43303379163063">
        <ele>9.6</ele>
        <time>2024-10-30T10:00:24Z</time>
      </trkpt>
      <trkpt lat="39.27584231884316" lon="118.4329945971964">
        <ele>9.6</ele>
        <time>2024-10-30T10:00:25Z</time>
      </trkpt>
      <trkpt lat="39.27583902860248" lon="118.43295726215514">
        <ele>9.6</ele>
        <time>2024-10-30T10:00:26Z</time>
      </trkpt>
      <trkpt lat="39.27583490760355" lon="118.4329236188611">
        <ele>9.6</ele>
        <time>2024-10-30T10:00:27Z</time>
      </trkpt>
      <trkpt lat="39.27583194579551" lon="118.4328944536598">
        <ele>9.6</ele>
        <time>2024-10-30T10:00:28Z</time>
      </trkpt>
      <trkpt lat="39.27583322158066" lon="118.43286944021088">
        <ele>9.5</ele>
        <time>2024-10-30T10:00:29Z</time>
      </trkpt>
      <trkpt lat="39.275835930354134" lon="118.43284462769351">
        <ele>9.5</ele>
        <time>2024-10-30T10:00:30Z</time>
      </trkpt>
      <trkpt lat="39.27583690521508" lon="118.43282255438234">
        <ele>9.5</ele>
        <time>2024-10-30T10:00:31Z</time>
      </trkpt>
      <trkpt lat="39.275834618235415" lon="118.43281491497864">
        <ele>9.5</ele>
        <time>2024-10-30T10:00:32Z</time>
      </trkpt>
      <trkpt lat="39.27583116584513" lon="118.4328136647203">
        <ele>9.7</ele>
        <time>2024-10-30T10:00:34Z</time>
      </trkpt>
      <trkpt lat="39.27583127153866" lon="118.43281485496733">
        <ele>9.7</ele>
        <time>2024-10-30T10:00:35Z</time>
      </trkpt>
      <trkpt lat="39.27583580163863" lon="118.4328037883127">
        <ele>9.7</ele>
        <time>2024-10-30T10:00:36Z</time>
      </trkpt>
      <trkpt lat="39.27584416086007" lon="118.43278734566012">
        <ele>9.7</ele>
        <time>2024-10-30T10:00:37Z</time>
      </trkpt>
      <trkpt lat="39.27585561490281" lon="118.43276372096409">
        <ele>9.7</ele>
        <time>2024-10-30T10:00:38Z</time>
      </trkpt>
      <trkpt lat="39.27587013908658" lon="118.43274064817979">
        <ele>10.1</ele>
        <time>2024-10-30T10:00:39Z</time>
      </trkpt>
      <trkpt lat="39.27588813104236" lon="118.43272049111425">
        <ele>10.1</ele>
        <time>2024-10-30T10:00:40Z</time>
      </trkpt>
      <trkpt lat="39.27590941941395" lon="118.43270682905067">
        <ele>10.1</ele>
        <time>2024-10-30T10:00:41Z</time>
      </trkpt>
      <trkpt lat="39.27593299421602" lon="118.43269591243381">
        <ele>10.1</ele>
        <time>2024-10-30T10:00:42Z</time>
      </trkpt>
      <trkpt lat="39.275957899018294" lon="118.43268565572221">
        <ele>10.1</ele>
        <time>2024-10-30T10:00:43Z</time>
      </trkpt>
      <trkpt lat="39.27598112227952" lon="118.43267484359723">
        <ele>10.3</ele>
        <time>2024-10-30T10:00:44Z</time>
      </trkpt>
      <trkpt lat="39.27600346699959" lon="118.4326620695576">
        <ele>10.3</ele>
        <time>2024-10-30T10:00:45Z</time>
      </trkpt>
      <trkpt lat="39.27602263869017" lon="118.43265073934545">
        <ele>10.3</ele>
        <time>2024-10-30T10:00:46Z</time>
      </trkpt>
      <trkpt lat="39.27603926862377" lon="118.43264062103786">
        <ele>10.3</ele>
        <time>2024-10-30T10:00:47Z</time>
      </trkpt>
      <trkpt lat="39.276054632307186" lon="118.4326332069678">
        <ele>10.3</ele>
        <time>2024-10-30T10:00:48Z</time>
      </trkpt>
      <trkpt lat="39.27607151979404" lon="118.43262092834752">
        <ele>10.4</ele>
        <time>2024-10-30T10:00:49Z</time>
      </trkpt>
      <trkpt lat="39.276090933978125" lon="118.43261095389754">
        <ele>10.4</ele>
        <time>2024-10-30T10:00:50Z</time>
      </trkpt>
      <trkpt lat="39.27611470330956" lon="118.43260324335542">
        <ele>10.4</ele>
        <time>2024-10-30T10:00:52Z</time>
      </trkpt>
      <trkpt lat="39.2761439835606" lon="118.43260382762851">
        <ele>10.4</ele>
        <time>2024-10-30T10:00:53Z</time>
      </trkpt>
      <trkpt lat="39.27617544669878" lon="118.43260504159915">
        <ele>10.4</ele>
        <time>2024-10-30T10:00:54Z</time>
      </trkpt>
      <trkpt lat="39.2762067859042" lon="118.43260633378013">
        <ele>10.4</ele>
        <time>2024-10-30T10:00:55Z</time>
      </trkpt>
      <trkpt lat="39.276238279128364" lon="118.43260653120633">
        <ele>10.4</ele>
        <time>2024-10-30T10:00:56Z</time>
      </trkpt>
      <trkpt lat="39.27627000247797" lon="118.43260710045932">
        <ele>10.4</ele>
        <time>2024-10-30T10:00:57Z</time>
      </trkpt>
      <trkpt lat="39.27630146750357" lon="118.43260865601998">
        <ele>10.4</ele>
        <time>2024-10-30T10:00:58Z</time>
      </trkpt>
      <trkpt lat="39.27633252704169" lon="118.43261100327605">
        <ele>10.3</ele>
        <time>2024-10-30T10:00:59Z</time>
      </trkpt>
      <trkpt lat="39.27636265350827" lon="118.43261380365482">
        <ele>10.3</ele>
        <time>2024-10-30T10:01:00Z</time>
      </trkpt>
      <trkpt lat="39.276394111546864" lon="118.43261268109623">
        <ele>10.3</ele>
        <time>2024-10-30T10:01:01Z</time>
      </trkpt>
      <trkpt lat="39.276420712929195" lon="118.43260748158797">
        <ele>10.3</ele>
        <time>2024-10-30T10:01:02Z</time>
      </trkpt>
      <trkpt lat="39.276443628307184" lon="118.4325999205558">
        <ele>10.3</ele>
        <time>2024-10-30T10:01:03Z</time>
      </trkpt>
      <trkpt lat="39.276463075850366" lon="118.43259851311116">
        <ele>10.3</ele>
        <time>2024-10-30T10:01:04Z</time>
      </trkpt>
      <trkpt lat="39.2764829649143" lon="118.43260071855568">
        <ele>10.3</ele>
        <time>2024-10-30T10:01:05Z</time>
      </trkpt>
      <trkpt lat="39.276504187341764" lon="118.43260540140872">
        <ele>10.3</ele>
        <time>2024-10-30T10:01:06Z</time>
      </trkpt>
      <trkpt lat="39.27652768995738" lon="118.43260794133309">
        <ele>10.3</ele>
        <time>2024-10-30T10:01:07Z</time>
      </trkpt>
      <trkpt lat="39.27654917483431" lon="118.43261091171226">
        <ele>10.3</ele>
        <time>2024-10-30T10:01:08Z</time>
      </trkpt>
      <trkpt lat="39.27656932471202" lon="118.4326139064864">
        <ele>10.3</ele>
        <time>2024-10-30T10:01:10Z</time>
      </trkpt>
      <trkpt lat="39.276586186028275" lon="118.43261419482636">
        <ele>10.3</ele>
        <time>2024-10-30T10:01:11Z</time>
      </trkpt>
      <trkpt lat="39.27660229957039" lon="118.43261238757543">
        <ele>10.3</ele>
        <time>2024-10-30T10:01:12Z</time>
      </trkpt>
      <trkpt lat="39.27661598907699" lon="118.43260805640108">
        <ele>10.3</ele>
        <time>2024-10-30T10:01:13Z</time>
      </trkpt>
      <trkpt lat="39.27662716559146" lon="118.43260420198179">
        <ele>10.2</ele>
        <time>2024-10-30T10:01:14Z</time>
      </trkpt>
      <trkpt lat="39.27663708921346" lon="118.43260126039131">
        <ele>10.2</ele>
        <time>2024-10-30T10:01:15Z</time>
      </trkpt>
      <trkpt lat="39.276649088447854" lon="118.43259931883463">
        <ele>10.2</ele>
        <time>2024-10-30T10:01:16Z</time>
      </trkpt>
      <trkpt lat="39.27666316683505" lon="118.4325972393873">
        <ele>10.2</ele>
        <time>2024-10-30T10:01:17Z</time>
      </trkpt>
      <trkpt lat="39.276680717177996" lon="118.4325931150737">
        <ele>10.2</ele>
        <time>2024-10-30T10:01:18Z</time>
      </trkpt>
      <trkpt lat="39.27669739787403" lon="118.43258672603247">
        <ele>10.1</ele>
        <time>2024-10-30T10:01:19Z</time>
      </trkpt>
      <trkpt lat="39.27671281591625" lon="118.4325788284003">
        <ele>10.1</ele>
        <time>2024-10-30T10:01:20Z</time>
      </trkpt>
      <trkpt lat="39.27672435511253" lon="118.43257330302812">
        <ele>10.1</ele>
        <time>2024-10-30T10:01:21Z</time>
      </trkpt>
      <trkpt lat="39.27673401833347" lon="118.43257101946752">
        <ele>10.1</ele>
        <time>2024-10-30T10:01:22Z</time>
      </trkpt>
      <trkpt lat="39.27674124862512" lon="118.432572339384">
        <ele>10.1</ele>
        <time>2024-10-30T10:01:23Z</time>
      </trkpt>
      <trkpt lat="39.27674603369159" lon="118.43257403651383">
        <ele>10.3</ele>
        <time>2024-10-30T10:01:24Z</time>
      </trkpt>
      <trkpt lat="39.276749569294445" lon="118.43257466845223">
        <ele>10.3</ele>
        <time>2024-10-30T10:01:25Z</time>
      </trkpt>
      <trkpt lat="39.276748079257864" lon="118.43257453312938">
        <ele>10.3</ele>
        <time>2024-10-30T10:01:26Z</time>
      </trkpt>
      <trkpt lat="39.27674543306349" lon="118.43257552924352">
        <ele>10.3</ele>
        <time>2024-10-30T10:01:28Z</time>
      </trkpt>
      <trkpt lat="39.276740497128465" lon="118.43257738559097">
        <ele>10.8</ele>
        <time>2024-10-30T10:01:29Z</time>
      </trkpt>
      <trkpt lat="39.27673760579567" lon="118.43257905612975">
        <ele>10.8</ele>
        <time>2024-10-30T10:01:30Z</time>
      </trkpt>
      <trkpt lat="39.27673534463646" lon="118.4325785851828">
        <ele>10.8</ele>
        <time>2024-10-30T10:01:31Z</time>
      </trkpt>
      <trkpt lat="39.27673443558529" lon="118.43257762660988">
        <ele>10.8</ele>
        <time>2024-10-30T10:01:32Z</time>
      </trkpt>
      <trkpt lat="39.27673520188133" lon="118.4325764807273">
        <ele>10.8</ele>
        <time>2024-10-30T10:01:33Z</time>
      </trkpt>
      <trkpt lat="39.276736044245325" lon="118.43257712372039">
        <ele>11.1</ele>
        <time>2024-10-30T10:01:34Z</time>
      </trkpt>
      <trkpt lat="39.27673733095728" lon="118.4325774506001">
        <ele>11.1</ele>
        <time>2024-10-30T10:01:35Z</time>
      </trkpt>
      <trkpt lat="39.27673788482501" lon="118.43257699425581">
        <ele>11.1</ele>
        <time>2024-10-30T10:01:36Z</time>
      </trkpt>
      <trkpt lat="39.276738930682505" lon="118.43257656708485">
        <ele>11.1</ele>
        <time>2024-10-30T10:01:37Z</time>
      </trkpt>
      <trkpt lat="39.276740266780905" lon="118.43257356496433">
        <ele>11.1</ele>
        <time>2024-10-30T10:01:38Z</time>
      </trkpt>
      <trkpt lat="39.27674101876058" lon="118.4325731510562">
        <ele>11</ele>
        <time>2024-10-30T10:01:39Z</time>
      </trkpt>
      <trkpt lat="39.276741291899725" lon="118.43257001490333">
        <ele>11</ele>
        <time>2024-10-30T10:01:40Z</time>
      </trkpt>
      <trkpt lat="39.276740407230776" lon="118.43256643924065">
        <ele>11</ele>
        <time>2024-10-30T10:01:41Z</time>
      </trkpt>
      <trkpt lat="39.27674000960655" lon="118.43256182563793">
        <ele>11</ele>
        <time>2024-10-30T10:01:42Z</time>
      </trkpt>
      <trkpt lat="39.27673886991166" lon="118.43255703348737">
        <ele>11</ele>
        <time>2024-10-30T10:01:43Z</time>
      </trkpt>
      <trkpt lat="39.276736719944005" lon="118.43255573756295">
        <ele>10.7</ele>
        <time>2024-10-30T10:01:44Z</time>
      </trkpt>
      <trkpt lat="39.27673435523098" lon="118.4325539323112">
        <ele>10.7</ele>
        <time>2024-10-30T10:01:46Z</time>
      </trkpt>
      <trkpt lat="39.27673263965952" lon="118.43255379754687">
        <ele>10.7</ele>
        <time>2024-10-30T10:01:47Z</time>
      </trkpt>
      <trkpt lat="39.27673174661303" lon="118.43255372722294">
        <ele>10.7</ele>
        <time>2024-10-30T10:01:48Z</time>
      </trkpt>
      <trkpt lat="39.2767306124457" lon="118.43255376765113">
        <ele>0</ele>
        <time>2024-10-30T10:01:49Z</time>
      </trkpt>
      <trkpt lat="39.27672955993148" lon="118.43255376383561">
        <ele>0</ele>
        <time>2024-10-30T10:01:50Z</time>
      </trkpt>
      <trkpt lat="39.27672912596076" lon="118.43255377064872">
        <ele>0</ele>
        <time>2024-10-30T10:01:51Z</time>
      </trkpt>
    </trkseg>
  </trk>
</gpx>