<?xml version="1.0" encoding="UTF-8"?>
<gpx xmlns="http://www.topografix.com/GPX/1/1" xmlns:gpxtpx="http://www.garmin.com/xmlschemas/TrackPointExtension/v1" xmlns:xsi="http://www.w3.org/2001/XMLSchema-instance" xsi:schemaLocation="http://www.topografix.com/GPX/1/1 http://www.topografix.com/GPX/1/1/gpx.xsd" version="1.1" creator="gpx.py -- https://github.com/tkrajina/gpxpy">
  <trk>
    <name>gpx from codoon</name>
    <type>Run</type>
    <trkseg>
      <trkpt lat="39.27733774609919" lon="118.43233322760474">
        <ele>13.1</ele>
        <time>2024-11-09T23:36:33Z</time>
      </trkpt>
      <trkpt lat="39.27735505666575" lon="118.43230228822055">
        <ele>13.1</ele>
        <time>2024-11-09T23:36:34Z</time>
      </trkpt>
      <trkpt lat="39.27736162801255" lon="118.43229210476086">
        <ele>13.1</ele>
        <time>2024-11-09T23:36:35Z</time>
      </trkpt>
      <trkpt lat="39.27737582637686" lon="118.43227152118476">
        <ele>13.1</ele>
        <time>2024-11-09T23:36:36Z</time>
      </trkpt>
      <trkpt lat="39.2773926758949" lon="118.43225188267814">
        <ele>13.1</ele>
        <time>2024-11-09T23:36:37Z</time>
      </trkpt>
      <trkpt lat="39.27741290012123" lon="118.43223121772766">
        <ele>13.1</ele>
        <time>2024-11-09T23:36:38Z</time>
      </trkpt>
      <trkpt lat="39.27743270609067" lon="118.43221104188383">
        <ele>13.1</ele>
        <time>2024-11-09T23:36:39Z</time>
      </trkpt>
      <trkpt lat="39.27745179836986" lon="118.43218925961094">
        <ele>13.1</ele>
        <time>2024-11-09T23:36:40Z</time>
      </trkpt>
      <trkpt lat="39.27746759906867" lon="118.43216631602563">
        <ele>13.1</ele>
        <time>2024-11-09T23:36:41Z</time>
      </trkpt>
      <trkpt lat="39.27748207646003" lon="118.43214028464183">
        <ele>13.1</ele>
        <time>2024-11-09T23:36:42Z</time>
      </trkpt>
      <trkpt lat="39.2774951712579" lon="118.43210911548267">
        <ele>13.1</ele>
        <time>2024-11-09T23:36:43Z</time>
      </trkpt>
      <trkpt lat="39.2775060141284" lon="118.43207564056134">
        <ele>13.1</ele>
        <time>2024-11-09T23:36:44Z</time>
      </trkpt>
      <trkpt lat="39.277515209360644" lon="118.43203759405601">
        <ele>13.1</ele>
        <time>2024-11-09T23:36:45Z</time>
      </trkpt>
      <trkpt lat="39.27752123803989" lon="118.43200039648315">
        <ele>13.1</ele>
        <time>2024-11-09T23:36:46Z</time>
      </trkpt>
      <trkpt lat="39.277525158589285" lon="118.43195860489259">
        <ele>13.1</ele>
        <time>2024-11-09T23:36:47Z</time>
      </trkpt>
      <trkpt lat="39.27752605286632" lon="118.4319207724885">
        <ele>13.1</ele>
        <time>2024-11-09T23:36:48Z</time>
      </trkpt>
      <trkpt lat="39.27752511683446" lon="118.43188020066363">
        <ele>13.1</ele>
        <time>2024-11-09T23:36:49Z</time>
      </trkpt>
      <trkpt lat="39.27752305628003" lon="118.43184538158133">
        <ele>13.1</ele>
        <time>2024-11-09T23:36:50Z</time>
      </trkpt>
      <trkpt lat="39.277520703708895" lon="118.43180653191357">
        <ele>13.1</ele>
        <time>2024-11-09T23:36:51Z</time>
      </trkpt>
      <trkpt lat="39.2775185445106" lon="118.43177178123">
        <ele>13.1</ele>
        <time>2024-11-09T23:36:52Z</time>
      </trkpt>
      <trkpt lat="39.27751633314819" lon="118.43173678634344">
        <ele>13.1</ele>
        <time>2024-11-09T23:36:53Z</time>
      </trkpt>
      <trkpt lat="39.277514053282" lon="118.43170129123223">
        <ele>13.1</ele>
        <time>2024-11-09T23:36:54Z</time>
      </trkpt>
      <trkpt lat="39.27751174156064" lon="118.43166606264751">
        <ele>13.1</ele>
        <time>2024-11-09T23:36:55Z</time>
      </trkpt>
      <trkpt lat="39.27750912077968" lon="118.43162628824169">
        <ele>13.1</ele>
        <time>2024-11-09T23:36:56Z</time>
      </trkpt>
      <trkpt lat="39.27750671554331" lon="118.43159127938105">
        <ele>13.1</ele>
        <time>2024-11-09T23:36:57Z</time>
      </trkpt>
      <trkpt lat="39.27750403005588" lon="118.43155254257186">
        <ele>13.1</ele>
        <time>2024-11-09T23:36:58Z</time>
      </trkpt>
      <trkpt lat="39.277501586363336" lon="118.43151924303862">
        <ele>13.1</ele>
        <time>2024-11-09T23:36:59Z</time>
      </trkpt>
      <trkpt lat="39.277499092890444" lon="118.43148567850042">
        <ele>13.1</ele>
        <time>2024-11-09T23:37:00Z</time>
      </trkpt>
      <trkpt lat="39.27749682271338" lon="118.43145558294488">
        <ele>13.1</ele>
        <time>2024-11-09T23:37:01Z</time>
      </trkpt>
      <trkpt lat="39.277494343592906" lon="118.43141989151783">
        <ele>13.1</ele>
        <time>2024-11-09T23:37:02Z</time>
      </trkpt>
      <trkpt lat="39.27749203641572" lon="118.43138439148625">
        <ele>13.1</ele>
        <time>2024-11-09T23:37:03Z</time>
      </trkpt>
      <trkpt lat="39.2774897581442" lon="118.43134559428407">
        <ele>13.1</ele>
        <time>2024-11-09T23:37:04Z</time>
      </trkpt>
      <trkpt lat="39.27748797186912" lon="118.43131152438339">
        <ele>13.1</ele>
        <time>2024-11-09T23:37:05Z</time>
      </trkpt>
      <trkpt lat="39.27748644270922" lon="118.43127744093594">
        <ele>13.1</ele>
        <time>2024-11-09T23:37:06Z</time>
      </trkpt>
      <trkpt lat="39.27748515097607" lon="118.43124267938539">
        <ele>13.1</ele>
        <time>2024-11-09T23:37:07Z</time>
      </trkpt>
      <trkpt lat="39.27748412431065" lon="118.43120819425619">
        <ele>13.3</ele>
        <time>2024-11-09T23:37:08Z</time>
      </trkpt>
      <trkpt lat="39.27748305853561" lon="118.43116941614461">
        <ele>13.3</ele>
        <time>2024-11-09T23:37:09Z</time>
      </trkpt>
      <trkpt lat="39.27748232442302" lon="118.43113527878815">
        <ele>13.3</ele>
        <time>2024-11-09T23:37:10Z</time>
      </trkpt>
      <trkpt lat="39.277481347678695" lon="118.43109681048011">
        <ele>13.3</ele>
        <time>2024-11-09T23:37:11Z</time>
      </trkpt>
      <trkpt lat="39.277480525686535" lon="118.4310631003348">
        <ele>13.3</ele>
        <time>2024-11-09T23:37:12Z</time>
      </trkpt>
      <trkpt lat="39.27747933180463" lon="118.43102520295066">
        <ele>13.4</ele>
        <time>2024-11-09T23:37:13Z</time>
      </trkpt>
      <trkpt lat="39.277478169075174" lon="118.43099196858445">
        <ele>13.4</ele>
        <time>2024-11-09T23:37:14Z</time>
      </trkpt>
      <trkpt lat="39.27747651594537" lon="118.43095476998154">
        <ele>13.4</ele>
        <time>2024-11-09T23:37:15Z</time>
      </trkpt>
      <trkpt lat="39.27747475007556" lon="118.43092196293257">
        <ele>13.4</ele>
        <time>2024-11-09T23:37:16Z</time>
      </trkpt>
      <trkpt lat="39.27747239854629" lon="118.43088569035919">
        <ele>13.4</ele>
        <time>2024-11-09T23:37:17Z</time>
      </trkpt>
      <trkpt lat="39.27746975990592" lon="118.43085326352038">
        <ele>13.5</ele>
        <time>2024-11-09T23:37:18Z</time>
      </trkpt>
      <trkpt lat="39.27746652630799" lon="118.43082061640706">
        <ele>13.5</ele>
        <time>2024-11-09T23:37:19Z</time>
      </trkpt>
      <trkpt lat="39.277462361613004" lon="118.43078723578309">
        <ele>13.5</ele>
        <time>2024-11-09T23:37:20Z</time>
      </trkpt>
      <trkpt lat="39.27745700793802" lon="118.43075371789335">
        <ele>13.5</ele>
        <time>2024-11-09T23:37:21Z</time>
      </trkpt>
      <trkpt lat="39.277448878395546" lon="118.43071754319277">
        <ele>13.5</ele>
        <time>2024-11-09T23:37:22Z</time>
      </trkpt>
      <trkpt lat="39.277437753703644" lon="118.43068246123619">
        <ele>13.5</ele>
        <time>2024-11-09T23:37:23Z</time>
      </trkpt>
      <trkpt lat="39.277424283905816" lon="118.43064750798617">
        <ele>13.5</ele>
        <time>2024-11-09T23:37:24Z</time>
      </trkpt>
      <trkpt lat="39.277408839668" lon="118.430613067722">
        <ele>13.5</ele>
        <time>2024-11-09T23:37:25Z</time>
      </trkpt>
      <trkpt lat="39.27739295138903" lon="118.43058212911187">
        <ele>13.5</ele>
        <time>2024-11-09T23:37:26Z</time>
      </trkpt>
      <trkpt lat="39.27737576551219" lon="118.43055187101132">
        <ele>13.5</ele>
        <time>2024-11-09T23:37:27Z</time>
      </trkpt>
      <trkpt lat="39.27735683394469" lon="118.43052266022926">
        <ele>13.7</ele>
        <time>2024-11-09T23:37:28Z</time>
      </trkpt>
      <trkpt lat="39.27733717441001" lon="118.43049476751702">
        <ele>13.7</ele>
        <time>2024-11-09T23:37:29Z</time>
      </trkpt>
      <trkpt lat="39.277317046163525" lon="118.43046887492753">
        <ele>13.7</ele>
        <time>2024-11-09T23:37:30Z</time>
      </trkpt>
      <trkpt lat="39.27729647900785" lon="118.43044573843935">
        <ele>13.7</ele>
        <time>2024-11-09T23:37:31Z</time>
      </trkpt>
      <trkpt lat="39.277275062204055" lon="118.43042505312545">
        <ele>13.7</ele>
        <time>2024-11-09T23:37:32Z</time>
      </trkpt>
      <trkpt lat="39.2772530041412" lon="118.43040653016003">
        <ele>13.9</ele>
        <time>2024-11-09T23:37:33Z</time>
      </trkpt>
      <trkpt lat="39.27722953813117" lon="118.43039036591283">
        <ele>13.9</ele>
        <time>2024-11-09T23:37:34Z</time>
      </trkpt>
      <trkpt lat="39.277205882457174" lon="118.4303763079933">
        <ele>13.9</ele>
        <time>2024-11-09T23:37:35Z</time>
      </trkpt>
      <trkpt lat="39.27717953479253" lon="118.43036304348804">
        <ele>13.9</ele>
        <time>2024-11-09T23:37:36Z</time>
      </trkpt>
      <trkpt lat="39.27715494432834" lon="118.43035310733624">
        <ele>13.9</ele>
        <time>2024-11-09T23:37:37Z</time>
      </trkpt>
      <trkpt lat="39.27712969427216" lon="118.43034470533003">
        <ele>14</ele>
        <time>2024-11-09T23:37:38Z</time>
      </trkpt>
      <trkpt lat="39.277103610431006" lon="118.43033849205523">
        <ele>14</ele>
        <time>2024-11-09T23:37:39Z</time>
      </trkpt>
      <trkpt lat="39.27707751414675" lon="118.43033425869345">
        <ele>14</ele>
        <time>2024-11-09T23:37:40Z</time>
      </trkpt>
      <trkpt lat="39.27704888880497" lon="118.43033159519732">
        <ele>14</ele>
        <time>2024-11-09T23:37:41Z</time>
      </trkpt>
      <trkpt lat="39.277022866706275" lon="118.43033164621309">
        <ele>14</ele>
        <time>2024-11-09T23:37:42Z</time>
      </trkpt>
      <trkpt lat="39.276996885186875" lon="118.43033364028773">
        <ele>13.9</ele>
        <time>2024-11-09T23:37:43Z</time>
      </trkpt>
      <trkpt lat="39.27697160403732" lon="118.43033818263773">
        <ele>13.9</ele>
        <time>2024-11-09T23:37:44Z</time>
      </trkpt>
      <trkpt lat="39.2769471911275" lon="118.43034415151295">
        <ele>13.9</ele>
        <time>2024-11-09T23:37:45Z</time>
      </trkpt>
      <trkpt lat="39.27692124429895" lon="118.43035222857358">
        <ele>13.9</ele>
        <time>2024-11-09T23:37:46Z</time>
      </trkpt>
      <trkpt lat="39.27689825069327" lon="118.43036120181256">
        <ele>13.9</ele>
        <time>2024-11-09T23:37:47Z</time>
      </trkpt>
      <trkpt lat="39.27687337065856" lon="118.4303726852808">
        <ele>13.8</ele>
        <time>2024-11-09T23:37:48Z</time>
      </trkpt>
      <trkpt lat="39.27685125947427" lon="118.43038526512228">
        <ele>13.8</ele>
        <time>2024-11-09T23:37:49Z</time>
      </trkpt>
      <trkpt lat="39.27682960028779" lon="118.43039973688445">
        <ele>13.8</ele>
        <time>2024-11-09T23:37:50Z</time>
      </trkpt>
      <trkpt lat="39.276808729880536" lon="118.4304166928052">
        <ele>13.8</ele>
        <time>2024-11-09T23:37:51Z</time>
      </trkpt>
      <trkpt lat="39.276789045246154" lon="118.43043493999407">
        <ele>13.8</ele>
        <time>2024-11-09T23:37:52Z</time>
      </trkpt>
      <trkpt lat="39.27676833586747" lon="118.43045702437892">
        <ele>13.9</ele>
        <time>2024-11-09T23:37:53Z</time>
      </trkpt>
      <trkpt lat="39.27675072992001" lon="118.43047962338025">
        <ele>13.9</ele>
        <time>2024-11-09T23:37:54Z</time>
      </trkpt>
      <trkpt lat="39.27673205421938" lon="118.4305078633748">
        <ele>13.9</ele>
        <time>2024-11-09T23:37:55Z</time>
      </trkpt>
      <trkpt lat="39.276715745185584" lon="118.43053804788478">
        <ele>13.9</ele>
        <time>2024-11-09T23:37:56Z</time>
      </trkpt>
      <trkpt lat="39.276699423021235" lon="118.43057303995617">
        <ele>13.9</ele>
        <time>2024-11-09T23:37:57Z</time>
      </trkpt>
      <trkpt lat="39.27668500217495" lon="118.43060958559447">
        <ele>14</ele>
        <time>2024-11-09T23:37:58Z</time>
      </trkpt>
      <trkpt lat="39.276669826150304" lon="118.43065144018762">
        <ele>14</ele>
        <time>2024-11-09T23:37:59Z</time>
      </trkpt>
      <trkpt lat="39.27665899678339" lon="118.43069015541045">
        <ele>14</ele>
        <time>2024-11-09T23:38:00Z</time>
      </trkpt>
      <trkpt lat="39.276651912930454" lon="118.4307294099189">
        <ele>14</ele>
        <time>2024-11-09T23:38:01Z</time>
      </trkpt>
      <trkpt lat="39.27664969631626" lon="118.43076244158398">
        <ele>14</ele>
        <time>2024-11-09T23:38:02Z</time>
      </trkpt>
      <trkpt lat="39.27664743833997" lon="118.4307959236317">
        <ele>13.9</ele>
        <time>2024-11-09T23:38:03Z</time>
      </trkpt>
      <trkpt lat="39.276645309225266" lon="118.43083061777685">
        <ele>13.9</ele>
        <time>2024-11-09T23:38:04Z</time>
      </trkpt>
      <trkpt lat="39.27664344416339" lon="118.43086533122883">
        <ele>13.9</ele>
        <time>2024-11-09T23:38:05Z</time>
      </trkpt>
      <trkpt lat="39.27664188060636" lon="118.43090435974942">
        <ele>13.9</ele>
        <time>2024-11-09T23:38:06Z</time>
      </trkpt>
      <trkpt lat="39.27664074192767" lon="118.43093821855948">
        <ele>13.9</ele>
        <time>2024-11-09T23:38:07Z</time>
      </trkpt>
      <trkpt lat="39.276639932219" lon="118.4309764022127">
        <ele>13.9</ele>
        <time>2024-11-09T23:38:08Z</time>
      </trkpt>
      <trkpt lat="39.27663944909764" lon="118.43101036706011">
        <ele>13.9</ele>
        <time>2024-11-09T23:38:09Z</time>
      </trkpt>
      <trkpt lat="39.27663918403664" lon="118.43104877392325">
        <ele>13.9</ele>
        <time>2024-11-09T23:38:10Z</time>
      </trkpt>
      <trkpt lat="39.27663913725045" lon="118.43108266694263">
        <ele>13.9</ele>
        <time>2024-11-09T23:38:11Z</time>
      </trkpt>
      <trkpt lat="39.276639292574565" lon="118.43112061926692">
        <ele>13.9</ele>
        <time>2024-11-09T23:38:12Z</time>
      </trkpt>
      <trkpt lat="39.27663965564321" lon="118.43115422198225">
        <ele>13.9</ele>
        <time>2024-11-09T23:38:13Z</time>
      </trkpt>
      <trkpt lat="39.276640195253506" lon="118.43119199677619">
        <ele>13.9</ele>
        <time>2024-11-09T23:38:14Z</time>
      </trkpt>
      <trkpt lat="39.27664087819018" lon="118.43122550323368">
        <ele>13.9</ele>
        <time>2024-11-09T23:38:15Z</time>
      </trkpt>
      <trkpt lat="39.276641705372235" lon="118.43126292882089">
        <ele>13.9</ele>
        <time>2024-11-09T23:38:16Z</time>
      </trkpt>
      <trkpt lat="39.27664263870925" lon="118.4312963329384">
        <ele>13.9</ele>
        <time>2024-11-09T23:38:17Z</time>
      </trkpt>
      <trkpt lat="39.27664365621659" lon="118.43132989845475">
        <ele>13.9</ele>
        <time>2024-11-09T23:38:18Z</time>
      </trkpt>
      <trkpt lat="39.27664475072361" lon="118.4313643621743">
        <ele>13.9</ele>
        <time>2024-11-09T23:38:19Z</time>
      </trkpt>
      <trkpt lat="39.27664587447565" lon="118.43139919291559">
        <ele>13.9</ele>
        <time>2024-11-09T23:38:20Z</time>
      </trkpt>
      <trkpt lat="39.27664703887545" lon="118.43143894009746">
        <ele>13.9</ele>
        <time>2024-11-09T23:38:21Z</time>
      </trkpt>
      <trkpt lat="39.27664813114315" lon="118.43147444471077">
        <ele>13.9</ele>
        <time>2024-11-09T23:38:22Z</time>
      </trkpt>
      <trkpt lat="39.276649213425934" lon="118.43151463353931">
        <ele>13.9</ele>
        <time>2024-11-09T23:38:23Z</time>
      </trkpt>
      <trkpt lat="39.276650202927165" lon="118.43155029104565">
        <ele>13.9</ele>
        <time>2024-11-09T23:38:24Z</time>
      </trkpt>
      <trkpt lat="39.27665123246043" lon="118.43159027576921">
        <ele>13.9</ele>
        <time>2024-11-09T23:38:25Z</time>
      </trkpt>
      <trkpt lat="39.276652263491656" lon="118.43162552628431">
        <ele>13.9</ele>
        <time>2024-11-09T23:38:26Z</time>
      </trkpt>
      <trkpt lat="39.276653443205056" lon="118.43166488704026">
        <ele>13.9</ele>
        <time>2024-11-09T23:38:27Z</time>
      </trkpt>
      <trkpt lat="39.27665470404038" lon="118.43169956616602">
        <ele>13.9</ele>
        <time>2024-11-09T23:38:28Z</time>
      </trkpt>
      <trkpt lat="39.27665618546749" lon="118.4317383854402">
        <ele>13.9</ele>
        <time>2024-11-09T23:38:29Z</time>
      </trkpt>
      <trkpt lat="39.27665786061359" lon="118.43177238184123">
        <ele>13.9</ele>
        <time>2024-11-09T23:38:30Z</time>
      </trkpt>
      <trkpt lat="39.27666006670065" lon="118.43181078127678">
        <ele>13.9</ele>
        <time>2024-11-09T23:38:31Z</time>
      </trkpt>
      <trkpt lat="39.27666306399846" lon="118.43184534604332">
        <ele>13.9</ele>
        <time>2024-11-09T23:38:32Z</time>
      </trkpt>
      <trkpt lat="39.276667809298324" lon="118.43188352420353">
        <ele>13.8</ele>
        <time>2024-11-09T23:38:33Z</time>
      </trkpt>
      <trkpt lat="39.27667530189136" lon="118.43192283598366">
        <ele>13.8</ele>
        <time>2024-11-09T23:38:34Z</time>
      </trkpt>
      <trkpt lat="39.27668412828297" lon="118.43196027213561">
        <ele>13.8</ele>
        <time>2024-11-09T23:38:35Z</time>
      </trkpt>
      <trkpt lat="39.27669436315402" lon="118.43199645239741">
        <ele>13.8</ele>
        <time>2024-11-09T23:38:36Z</time>
      </trkpt>
      <trkpt lat="39.276704150227566" lon="118.43202817151041">
        <ele>13.8</ele>
        <time>2024-11-09T23:38:37Z</time>
      </trkpt>
      <trkpt lat="39.276714029269996" lon="118.43206138873718">
        <ele>12.7</ele>
        <time>2024-11-09T23:38:38Z</time>
      </trkpt>
      <trkpt lat="39.27672287440683" lon="118.43209302264164">
        <ele>12.7</ele>
        <time>2024-11-09T23:38:39Z</time>
      </trkpt>
      <trkpt lat="39.276730630652125" lon="118.43212241533627">
        <ele>12.7</ele>
        <time>2024-11-09T23:38:40Z</time>
      </trkpt>
      <trkpt lat="39.27673854238091" lon="118.43215350843073">
        <ele>12.7</ele>
        <time>2024-11-09T23:38:41Z</time>
      </trkpt>
      <trkpt lat="39.27674567473857" lon="118.43218315529771">
        <ele>12.7</ele>
        <time>2024-11-09T23:38:42Z</time>
      </trkpt>
      <trkpt lat="39.276752717555496" lon="118.4322123249297">
        <ele>11.5</ele>
        <time>2024-11-09T23:38:43Z</time>
      </trkpt>
      <trkpt lat="39.27676019590224" lon="118.43224085322205">
        <ele>11.5</ele>
        <time>2024-11-09T23:38:44Z</time>
      </trkpt>
      <trkpt lat="39.27676815402631" lon="118.4322680446814">
        <ele>11.5</ele>
        <time>2024-11-09T23:38:45Z</time>
      </trkpt>
      <trkpt lat="39.27677683597819" lon="118.43229761779705">
        <ele>11.5</ele>
        <time>2024-11-09T23:38:46Z</time>
      </trkpt>
      <trkpt lat="39.27678351087152" lon="118.43232360013313">
        <ele>11.5</ele>
        <time>2024-11-09T23:38:47Z</time>
      </trkpt>
      <trkpt lat="39.276789354356424" lon="118.43235257313968">
        <ele>11.3</ele>
        <time>2024-11-09T23:38:48Z</time>
      </trkpt>
      <trkpt lat="39.276793072187154" lon="118.43237855895737">
        <ele>11.3</ele>
        <time>2024-11-09T23:38:49Z</time>
      </trkpt>
      <trkpt lat="39.2767956944877" lon="118.43240364342407">
        <ele>11.3</ele>
        <time>2024-11-09T23:38:50Z</time>
      </trkpt>
      <trkpt lat="39.27679672746397" lon="118.43242663889069">
        <ele>11.3</ele>
        <time>2024-11-09T23:38:51Z</time>
      </trkpt>
      <trkpt lat="39.27679615406397" lon="118.43244606353885">
        <ele>11.3</ele>
        <time>2024-11-09T23:38:52Z</time>
      </trkpt>
      <trkpt lat="39.27679331208628" lon="118.43246212959093">
        <ele>12.4</ele>
        <time>2024-11-09T23:38:53Z</time>
      </trkpt>
      <trkpt lat="39.2767863285453" lon="118.43247274673007">
        <ele>12.4</ele>
        <time>2024-11-09T23:38:54Z</time>
      </trkpt>
      <trkpt lat="39.27677507313691" lon="118.43248103403322">
        <ele>12.4</ele>
        <time>2024-11-09T23:38:55Z</time>
      </trkpt>
      <trkpt lat="39.2767562616067" lon="118.43248873101459">
        <ele>12.4</ele>
        <time>2024-11-09T23:38:56Z</time>
      </trkpt>
      <trkpt lat="39.27673547975158" lon="118.43249511478821">
        <ele>12.4</ele>
        <time>2024-11-09T23:38:57Z</time>
      </trkpt>
      <trkpt lat="39.276710877323154" lon="118.43250233811646">
        <ele>13.4</ele>
        <time>2024-11-09T23:38:58Z</time>
      </trkpt>
      <trkpt lat="39.276689422228856" lon="118.43250882685031">
        <ele>13.4</ele>
        <time>2024-11-09T23:38:59Z</time>
      </trkpt>
      <trkpt lat="39.27666762843758" lon="118.43251568265713">
        <ele>13.4</ele>
        <time>2024-11-09T23:39:00Z</time>
      </trkpt>
      <trkpt lat="39.27664503534748" lon="118.43252314827531">
        <ele>13.4</ele>
        <time>2024-11-09T23:39:01Z</time>
      </trkpt>
      <trkpt lat="39.27662228491502" lon="118.43253104889368">
        <ele>13.4</ele>
        <time>2024-11-09T23:39:02Z</time>
      </trkpt>
      <trkpt lat="39.27659654591971" lon="118.43254018000604">
        <ele>13.6</ele>
        <time>2024-11-09T23:39:03Z</time>
      </trkpt>
      <trkpt lat="39.27657355975963" lon="118.4325487575084">
        <ele>13.6</ele>
        <time>2024-11-09T23:39:04Z</time>
      </trkpt>
      <trkpt lat="39.27654997280192" lon="118.43255769764751">
        <ele>13.6</ele>
        <time>2024-11-09T23:39:05Z</time>
      </trkpt>
      <trkpt lat="39.276525680080596" lon="118.43256695148136">
        <ele>13.6</ele>
        <time>2024-11-09T23:39:06Z</time>
      </trkpt>
      <trkpt lat="39.276501313410144" lon="118.4325762163849">
        <ele>13.6</ele>
        <time>2024-11-09T23:39:07Z</time>
      </trkpt>
      <trkpt lat="39.27647676271075" lon="118.43258541669805">
        <ele>13.5</ele>
        <time>2024-11-09T23:39:08Z</time>
      </trkpt>
      <trkpt lat="39.276452062587296" lon="118.4325944533103">
        <ele>13.5</ele>
        <time>2024-11-09T23:39:09Z</time>
      </trkpt>
      <trkpt lat="39.27642701024618" lon="118.43260336660927">
        <ele>13.5</ele>
        <time>2024-11-09T23:39:10Z</time>
      </trkpt>
      <trkpt lat="39.27640185498596" lon="118.43261205266593">
        <ele>13.5</ele>
        <time>2024-11-09T23:39:11Z</time>
      </trkpt>
      <trkpt lat="39.27637629676462" lon="118.43262053106986">
        <ele>13.5</ele>
        <time>2024-11-09T23:39:12Z</time>
      </trkpt>
      <trkpt lat="39.27635099467032" lon="118.4326285764055">
        <ele>13.4</ele>
        <time>2024-11-09T23:39:13Z</time>
      </trkpt>
      <trkpt lat="39.27632281177948" lon="118.43263703121237">
        <ele>13.4</ele>
        <time>2024-11-09T23:39:14Z</time>
      </trkpt>
      <trkpt lat="39.276297878961" lon="118.43264415746778">
        <ele>13.4</ele>
        <time>2024-11-09T23:39:15Z</time>
      </trkpt>
      <trkpt lat="39.27627261253188" lon="118.43265100948486">
        <ele>13.4</ele>
        <time>2024-11-09T23:39:16Z</time>
      </trkpt>
      <trkpt lat="39.27624680013623" lon="118.43265766506539">
        <ele>13.4</ele>
        <time>2024-11-09T23:39:17Z</time>
      </trkpt>
      <trkpt lat="39.27622097998726" lon="118.43266404036741">
        <ele>13.3</ele>
        <time>2024-11-09T23:39:18Z</time>
      </trkpt>
      <trkpt lat="39.27619245752466" lon="118.43267084561698">
        <ele>13.3</ele>
        <time>2024-11-09T23:39:19Z</time>
      </trkpt>
      <trkpt lat="39.276167243696285" lon="118.43267640370897">
        <ele>13.3</ele>
        <time>2024-11-09T23:39:20Z</time>
      </trkpt>
      <trkpt lat="39.27614146000206" lon="118.43268168570154">
        <ele>13.3</ele>
        <time>2024-11-09T23:39:21Z</time>
      </trkpt>
      <trkpt lat="39.276115340798924" lon="118.43268655348864">
        <ele>13.3</ele>
        <time>2024-11-09T23:39:22Z</time>
      </trkpt>
      <trkpt lat="39.27608676445365" lon="118.432691623694">
        <ele>13.4</ele>
        <time>2024-11-09T23:39:23Z</time>
      </trkpt>
      <trkpt lat="39.27605887775143" lon="118.43269621669415">
        <ele>13.4</ele>
        <time>2024-11-09T23:39:24Z</time>
      </trkpt>
      <trkpt lat="39.2760343839118" lon="118.43269978613442">
        <ele>13.4</ele>
        <time>2024-11-09T23:39:25Z</time>
      </trkpt>
      <trkpt lat="39.276009873410466" lon="118.43270339188099">
        <ele>13.4</ele>
        <time>2024-11-09T23:39:26Z</time>
      </trkpt>
      <trkpt lat="39.27598571594776" lon="118.43270685217628">
        <ele>13.4</ele>
        <time>2024-11-09T23:39:27Z</time>
      </trkpt>
      <trkpt lat="39.27595970152789" lon="118.43271112475517">
        <ele>13.5</ele>
        <time>2024-11-09T23:39:28Z</time>
      </trkpt>
      <trkpt lat="39.27593698396228" lon="118.43271341990146">
        <ele>13.5</ele>
        <time>2024-11-09T23:39:29Z</time>
      </trkpt>
      <trkpt lat="39.27591588909315" lon="118.43271712022627">
        <ele>13.5</ele>
        <time>2024-11-09T23:39:30Z</time>
      </trkpt>
      <trkpt lat="39.27589783423013" lon="118.43272469044048">
        <ele>13.5</ele>
        <time>2024-11-09T23:39:31Z</time>
      </trkpt>
      <trkpt lat="39.27588412245355" lon="118.43273896058989">
        <ele>13.5</ele>
        <time>2024-11-09T23:39:32Z</time>
      </trkpt>
      <trkpt lat="39.27587422583859" lon="118.43275847599546">
        <ele>13.5</ele>
        <time>2024-11-09T23:39:33Z</time>
      </trkpt>
      <trkpt lat="39.2758691089826" lon="118.43278351559368">
        <ele>13.5</ele>
        <time>2024-11-09T23:39:34Z</time>
      </trkpt>
      <trkpt lat="39.27586624894076" lon="118.43281003066946">
        <ele>13.5</ele>
        <time>2024-11-09T23:39:35Z</time>
      </trkpt>
      <trkpt lat="39.27586459552124" lon="118.43284036083959">
        <ele>13.5</ele>
        <time>2024-11-09T23:39:36Z</time>
      </trkpt>
      <trkpt lat="39.27586391382684" lon="118.43286738514897">
        <ele>13.5</ele>
        <time>2024-11-09T23:39:37Z</time>
      </trkpt>
      <trkpt lat="39.27586295073436" lon="118.4328980170234">
        <ele>13.4</ele>
        <time>2024-11-09T23:39:38Z</time>
      </trkpt>
      <trkpt lat="39.275861640526" lon="118.43292567800431">
        <ele>13.4</ele>
        <time>2024-11-09T23:39:39Z</time>
      </trkpt>
      <trkpt lat="39.275859469726306" lon="118.43295717315536">
        <ele>13.4</ele>
        <time>2024-11-09T23:39:40Z</time>
      </trkpt>
      <trkpt lat="39.27585606341827" lon="118.43298597660751">
        <ele>13.4</ele>
        <time>2024-11-09T23:39:41Z</time>
      </trkpt>
      <trkpt lat="39.27585111543267" lon="118.43301533874529">
        <ele>13.4</ele>
        <time>2024-11-09T23:39:42Z</time>
      </trkpt>
      <trkpt lat="39.275843690053655" lon="118.43304380579835">
        <ele>13.2</ele>
        <time>2024-11-09T23:39:43Z</time>
      </trkpt>
      <trkpt lat="39.27583417352864" lon="118.43307095142492">
        <ele>13.2</ele>
        <time>2024-11-09T23:39:44Z</time>
      </trkpt>
      <trkpt lat="39.27582314687846" lon="118.4330959284423">
        <ele>13.2</ele>
        <time>2024-11-09T23:39:45Z</time>
      </trkpt>
      <trkpt lat="39.275810784307794" lon="118.43311890391317">
        <ele>13.2</ele>
        <time>2024-11-09T23:39:46Z</time>
      </trkpt>
      <trkpt lat="39.27579944362197" lon="118.4331398812875">
        <ele>13.2</ele>
        <time>2024-11-09T23:39:47Z</time>
      </trkpt>
      <trkpt lat="39.275789217433754" lon="118.43315973025463">
        <ele>13.1</ele>
        <time>2024-11-09T23:39:48Z</time>
      </trkpt>
      <trkpt lat="39.27578154663823" lon="118.4331765107343">
        <ele>13.1</ele>
        <time>2024-11-09T23:39:49Z</time>
      </trkpt>
      <trkpt lat="39.27577300189517" lon="118.43319595524454">
        <ele>13.1</ele>
        <time>2024-11-09T23:39:50Z</time>
      </trkpt>
      <trkpt lat="39.27576314570613" lon="118.43321911492154">
        <ele>13.1</ele>
        <time>2024-11-09T23:39:51Z</time>
      </trkpt>
      <trkpt lat="39.275753059800536" lon="118.43324501401321">
        <ele>13.1</ele>
        <time>2024-11-09T23:39:52Z</time>
      </trkpt>
      <trkpt lat="39.275743770702164" lon="118.43327293184306">
        <ele>13.1</ele>
        <time>2024-11-09T23:39:53Z</time>
      </trkpt>
      <trkpt lat="39.27573768853005" lon="118.43330420230501">
        <ele>13.1</ele>
        <time>2024-11-09T23:39:54Z</time>
      </trkpt>
      <trkpt lat="39.275733638588875" lon="118.43333663602999">
        <ele>13.1</ele>
        <time>2024-11-09T23:39:55Z</time>
      </trkpt>
      <trkpt lat="39.27573183029553" lon="118.43336856958108">
        <ele>13.1</ele>
        <time>2024-11-09T23:39:56Z</time>
      </trkpt>
      <trkpt lat="39.275730026817335" lon="118.43340187112624">
        <ele>13.1</ele>
        <time>2024-11-09T23:39:57Z</time>
      </trkpt>
      <trkpt lat="39.27572832179999" lon="118.43343517041278">
        <ele>13.1</ele>
        <time>2024-11-09T23:39:58Z</time>
      </trkpt>
      <trkpt lat="39.275726567225796" lon="118.43347211803228">
        <ele>13.1</ele>
        <time>2024-11-09T23:39:59Z</time>
      </trkpt>
      <trkpt lat="39.275724994799845" lon="118.43350506714968">
        <ele>13.1</ele>
        <time>2024-11-09T23:40:00Z</time>
      </trkpt>
      <trkpt lat="39.275723372287004" lon="118.43353822283449">
        <ele>13.1</ele>
        <time>2024-11-09T23:40:01Z</time>
      </trkpt>
      <trkpt lat="39.27572163624427" lon="118.43357124449759">
        <ele>13.1</ele>
        <time>2024-11-09T23:40:02Z</time>
      </trkpt>
      <trkpt lat="39.27571973232793" lon="118.43360364635494">
        <ele>13</ele>
        <time>2024-11-09T23:40:03Z</time>
      </trkpt>
      <trkpt lat="39.27571763445313" lon="118.4336356377681">
        <ele>13</ele>
        <time>2024-11-09T23:40:04Z</time>
      </trkpt>
      <trkpt lat="39.27571549295037" lon="118.43366485570071">
        <ele>13</ele>
        <time>2024-11-09T23:40:05Z</time>
      </trkpt>
      <trkpt lat="39.275713308628525" lon="118.43369493813003">
        <ele>13</ele>
        <time>2024-11-09T23:40:06Z</time>
      </trkpt>
      <trkpt lat="39.27571110237215" lon="118.43373034612402">
        <ele>13</ele>
        <time>2024-11-09T23:40:07Z</time>
      </trkpt>
      <trkpt lat="39.27570921291407" lon="118.4337650745595">
        <ele>12.8</ele>
        <time>2024-11-09T23:40:08Z</time>
      </trkpt>
      <trkpt lat="39.275707607919486" lon="118.4338030722703">
        <ele>12.8</ele>
        <time>2024-11-09T23:40:09Z</time>
      </trkpt>
      <trkpt lat="39.27570656949234" lon="118.43383597455366">
        <ele>12.8</ele>
        <time>2024-11-09T23:40:10Z</time>
      </trkpt>
      <trkpt lat="39.27570587573777" lon="118.43386873416723">
        <ele>12.8</ele>
        <time>2024-11-09T23:40:11Z</time>
      </trkpt>
      <trkpt lat="39.2757054595762" lon="118.43390118491969">
        <ele>12.8</ele>
        <time>2024-11-09T23:40:12Z</time>
      </trkpt>
      <trkpt lat="39.275705206363845" lon="118.43393391413072">
        <ele>12.8</ele>
        <time>2024-11-09T23:40:13Z</time>
      </trkpt>
      <trkpt lat="39.27570507052409" lon="118.43396659181113">
        <ele>12.8</ele>
        <time>2024-11-09T23:40:14Z</time>
      </trkpt>
      <trkpt lat="39.27570499231785" lon="118.43399998983053">
        <ele>12.8</ele>
        <time>2024-11-09T23:40:15Z</time>
      </trkpt>
      <trkpt lat="39.27570495389586" lon="118.43403269669639">
        <ele>12.8</ele>
        <time>2024-11-09T23:40:16Z</time>
      </trkpt>
      <trkpt lat="39.27570479990986" lon="118.43406876443346">
        <ele>12.8</ele>
        <time>2024-11-09T23:40:17Z</time>
      </trkpt>
      <trkpt lat="39.27570470339724" lon="118.43409950173856">
        <ele>12.9</ele>
        <time>2024-11-09T23:40:18Z</time>
      </trkpt>
      <trkpt lat="39.2757045331892" lon="118.43412960436378">
        <ele>12.9</ele>
        <time>2024-11-09T23:40:19Z</time>
      </trkpt>
      <trkpt lat="39.27570438609068" lon="118.43415645029052">
        <ele>12.9</ele>
        <time>2024-11-09T23:40:20Z</time>
      </trkpt>
      <trkpt lat="39.27570420964396" lon="118.4341840906692">
        <ele>12.9</ele>
        <time>2024-11-09T23:40:21Z</time>
      </trkpt>
      <trkpt lat="39.27570394852788" lon="118.43421615010092">
        <ele>12.9</ele>
        <time>2024-11-09T23:40:22Z</time>
      </trkpt>
      <trkpt lat="39.275703712282" lon="118.43424799549521">
        <ele>12.9</ele>
        <time>2024-11-09T23:40:23Z</time>
      </trkpt>
      <trkpt lat="39.27570347912823" lon="118.43427988244503">
        <ele>12.9</ele>
        <time>2024-11-09T23:40:24Z</time>
      </trkpt>
      <trkpt lat="39.27570322610893" lon="118.43431243030116">
        <ele>12.9</ele>
        <time>2024-11-09T23:40:25Z</time>
      </trkpt>
      <trkpt lat="39.27570294923081" lon="118.43434484855302">
        <ele>12.9</ele>
        <time>2024-11-09T23:40:26Z</time>
      </trkpt>
      <trkpt lat="39.27570256240945" lon="118.43438081897249">
        <ele>12.9</ele>
        <time>2024-11-09T23:40:27Z</time>
      </trkpt>
      <trkpt lat="39.27570221832418" lon="118.43441272446537">
        <ele>13</ele>
        <time>2024-11-09T23:40:28Z</time>
      </trkpt>
      <trkpt lat="39.27570181686872" lon="118.43444466350847">
        <ele>13</ele>
        <time>2024-11-09T23:40:29Z</time>
      </trkpt>
      <trkpt lat="39.27570134808008" lon="118.43447669345488">
        <ele>13</ele>
        <time>2024-11-09T23:40:30Z</time>
      </trkpt>
      <trkpt lat="39.27570082589264" lon="118.43450852648887">
        <ele>13</ele>
        <time>2024-11-09T23:40:31Z</time>
      </trkpt>
      <trkpt lat="39.27570025015797" lon="118.43454103920965">
        <ele>13</ele>
        <time>2024-11-09T23:40:32Z</time>
      </trkpt>
      <trkpt lat="39.27569964655559" lon="118.4345735514655">
        <ele>13</ele>
        <time>2024-11-09T23:40:33Z</time>
      </trkpt>
      <trkpt lat="39.27569892395504" lon="118.43460927949249">
        <ele>13</ele>
        <time>2024-11-09T23:40:34Z</time>
      </trkpt>
      <trkpt lat="39.27569812956004" lon="118.43464427420525">
        <ele>13</ele>
        <time>2024-11-09T23:40:35Z</time>
      </trkpt>
      <trkpt lat="39.27569725858701" lon="118.43467537698143">
        <ele>13</ele>
        <time>2024-11-09T23:40:36Z</time>
      </trkpt>
      <trkpt lat="39.27569613203787" lon="118.43470731120769">
        <ele>13</ele>
        <time>2024-11-09T23:40:37Z</time>
      </trkpt>
      <trkpt lat="39.27569452978096" lon="118.43473967468054">
        <ele>12.9</ele>
        <time>2024-11-09T23:40:38Z</time>
      </trkpt>
      <trkpt lat="39.275692162253954" lon="118.43477583615449">
        <ele>12.9</ele>
        <time>2024-11-09T23:40:39Z</time>
      </trkpt>
      <trkpt lat="39.27568821335507" lon="118.43481174699068">
        <ele>12.9</ele>
        <time>2024-11-09T23:40:40Z</time>
      </trkpt>
      <trkpt lat="39.27568240219522" lon="118.43484687451108">
        <ele>12.9</ele>
        <time>2024-11-09T23:40:41Z</time>
      </trkpt>
      <trkpt lat="39.27567450311772" lon="118.43487695891761">
        <ele>12.9</ele>
        <time>2024-11-09T23:40:42Z</time>
      </trkpt>
      <trkpt lat="39.27566333789363" lon="118.43490334002892">
        <ele>12.9</ele>
        <time>2024-11-09T23:40:43Z</time>
      </trkpt>
      <trkpt lat="39.27565033866089" lon="118.43492557690706">
        <ele>12.9</ele>
        <time>2024-11-09T23:40:44Z</time>
      </trkpt>
      <trkpt lat="39.27563196478675" lon="118.43494474319863">
        <ele>12.9</ele>
        <time>2024-11-09T23:40:45Z</time>
      </trkpt>
      <trkpt lat="39.275612644710755" lon="118.43495541786143">
        <ele>12.9</ele>
        <time>2024-11-09T23:40:46Z</time>
      </trkpt>
      <trkpt lat="39.27559128395531" lon="118.43496232927706">
        <ele>12.9</ele>
        <time>2024-11-09T23:40:47Z</time>
      </trkpt>
      <trkpt lat="39.27557109243247" lon="118.43496558214196">
        <ele>12.8</ele>
        <time>2024-11-09T23:40:48Z</time>
      </trkpt>
      <trkpt lat="39.27554997699374" lon="118.43496908393287">
        <ele>12.8</ele>
        <time>2024-11-09T23:40:49Z</time>
      </trkpt>
      <trkpt lat="39.27552479048357" lon="118.43497324846709">
        <ele>12.8</ele>
        <time>2024-11-09T23:40:50Z</time>
      </trkpt>
      <trkpt lat="39.27549976541954" lon="118.4349774890505">
        <ele>12.8</ele>
        <time>2024-11-09T23:40:51Z</time>
      </trkpt>
      <trkpt lat="39.27547180122324" lon="118.43498216697088">
        <ele>12.8</ele>
        <time>2024-11-09T23:40:52Z</time>
      </trkpt>
      <trkpt lat="39.275446975969494" lon="118.43498645934028">
        <ele>12.8</ele>
        <time>2024-11-09T23:40:53Z</time>
      </trkpt>
      <trkpt lat="39.27542212793173" lon="118.4349907754061">
        <ele>12.8</ele>
        <time>2024-11-09T23:40:54Z</time>
      </trkpt>
      <trkpt lat="39.27539743125772" lon="118.43499505010311">
        <ele>12.8</ele>
        <time>2024-11-09T23:40:55Z</time>
      </trkpt>
      <trkpt lat="39.27537279004083" lon="118.43499924922715">
        <ele>12.8</ele>
        <time>2024-11-09T23:40:56Z</time>
      </trkpt>
      <trkpt lat="39.27534811225354" lon="118.4350033340697">
        <ele>12.8</ele>
        <time>2024-11-09T23:40:57Z</time>
      </trkpt>
      <trkpt lat="39.27532290423799" lon="118.43500733378558">
        <ele>12.7</ele>
        <time>2024-11-09T23:40:58Z</time>
      </trkpt>
      <trkpt lat="39.27529787498176" lon="118.43501117361897">
        <ele>12.7</ele>
        <time>2024-11-09T23:40:59Z</time>
      </trkpt>
      <trkpt lat="39.27526974365405" lon="118.43501523248177">
        <ele>12.7</ele>
        <time>2024-11-09T23:41:00Z</time>
      </trkpt>
      <trkpt lat="39.27524511769644" lon="118.4350187197488">
        <ele>12.7</ele>
        <time>2024-11-09T23:41:01Z</time>
      </trkpt>
      <trkpt lat="39.27521773692497" lon="118.43502237796183">
        <ele>12.7</ele>
        <time>2024-11-09T23:41:02Z</time>
      </trkpt>
      <trkpt lat="39.27519350810245" lon="118.43502550397224">
        <ele>12.7</ele>
        <time>2024-11-09T23:41:03Z</time>
      </trkpt>
      <trkpt lat="39.27516897014301" lon="118.43502848781007">
        <ele>12.7</ele>
        <time>2024-11-09T23:41:04Z</time>
      </trkpt>
      <trkpt lat="39.27514388596192" lon="118.43503136231392">
        <ele>12.7</ele>
        <time>2024-11-09T23:41:05Z</time>
      </trkpt>
      <trkpt lat="39.27511891666779" lon="118.43503412149408">
        <ele>12.7</ele>
        <time>2024-11-09T23:41:06Z</time>
      </trkpt>
      <trkpt lat="39.27509119225772" lon="118.43503713619737">
        <ele>12.7</ele>
        <time>2024-11-09T23:41:07Z</time>
      </trkpt>
      <trkpt lat="39.27506674489863" lon="118.4350397474986">
        <ele>12.7</ele>
        <time>2024-11-09T23:41:08Z</time>
      </trkpt>
      <trkpt lat="39.27504207250837" lon="118.43504232737546">
        <ele>12.7</ele>
        <time>2024-11-09T23:41:09Z</time>
      </trkpt>
      <trkpt lat="39.27501755551019" lon="118.43504477717015">
        <ele>12.7</ele>
        <time>2024-11-09T23:41:10Z</time>
      </trkpt>
      <trkpt lat="39.27499305881571" lon="118.43504711995905">
        <ele>12.7</ele>
        <time>2024-11-09T23:41:11Z</time>
      </trkpt>
      <trkpt lat="39.27496863075818" lon="118.43504937094956">
        <ele>12.7</ele>
        <time>2024-11-09T23:41:12Z</time>
      </trkpt>
      <trkpt lat="39.27494423533139" lon="118.43505157039706">
        <ele>12.7</ele>
        <time>2024-11-09T23:41:13Z</time>
      </trkpt>
      <trkpt lat="39.274919834606926" lon="118.43505376965201">
        <ele>12.7</ele>
        <time>2024-11-09T23:41:14Z</time>
      </trkpt>
      <trkpt lat="39.27489515714349" lon="118.4350559578812">
        <ele>12.7</ele>
        <time>2024-11-09T23:41:15Z</time>
      </trkpt>
      <trkpt lat="39.27487021726217" lon="118.43505799971196">
        <ele>12.7</ele>
        <time>2024-11-09T23:41:16Z</time>
      </trkpt>
      <trkpt lat="39.274842783681756" lon="118.43506002573183">
        <ele>12.7</ele>
        <time>2024-11-09T23:41:17Z</time>
      </trkpt>
      <trkpt lat="39.274815952374695" lon="118.43506172250615">
        <ele>12.8</ele>
        <time>2024-11-09T23:41:18Z</time>
      </trkpt>
      <trkpt lat="39.27479227640568" lon="118.43506291062508">
        <ele>12.8</ele>
        <time>2024-11-09T23:41:19Z</time>
      </trkpt>
      <trkpt lat="39.27476832604826" lon="118.43506393252567">
        <ele>12.8</ele>
        <time>2024-11-09T23:41:20Z</time>
      </trkpt>
      <trkpt lat="39.274743984190486" lon="118.43506484550578">
        <ele>12.8</ele>
        <time>2024-11-09T23:41:21Z</time>
      </trkpt>
      <trkpt lat="39.27471925732734" lon="118.43506569589537">
        <ele>12.8</ele>
        <time>2024-11-09T23:41:22Z</time>
      </trkpt>
      <trkpt lat="39.27469366679918" lon="118.43506656765086">
        <ele>12.8</ele>
        <time>2024-11-09T23:41:23Z</time>
      </trkpt>
      <trkpt lat="39.27466785153279" lon="118.43506748530007">
        <ele>12.8</ele>
        <time>2024-11-09T23:41:24Z</time>
      </trkpt>
      <trkpt lat="39.27463881812701" lon="118.43506872219808">
        <ele>12.8</ele>
        <time>2024-11-09T23:41:25Z</time>
      </trkpt>
      <trkpt lat="39.274612722810986" lon="118.43506978621757">
        <ele>12.8</ele>
        <time>2024-11-09T23:41:26Z</time>
      </trkpt>
      <trkpt lat="39.274586241305045" lon="118.43507096384923">
        <ele>12.8</ele>
        <time>2024-11-09T23:41:27Z</time>
      </trkpt>
      <trkpt lat="39.2745593428436" lon="118.43507227260123">
        <ele>12.8</ele>
        <time>2024-11-09T23:41:28Z</time>
      </trkpt>
      <trkpt lat="39.27453238801857" lon="118.4350737088863">
        <ele>12.8</ele>
        <time>2024-11-09T23:41:29Z</time>
      </trkpt>
      <trkpt lat="39.27450484832098" lon="118.43507531497674">
        <ele>12.8</ele>
        <time>2024-11-09T23:41:30Z</time>
      </trkpt>
      <trkpt lat="39.274479832930325" lon="118.43507684680459">
        <ele>12.8</ele>
        <time>2024-11-09T23:41:31Z</time>
      </trkpt>
      <trkpt lat="39.27445144152732" lon="118.43507874412973">
        <ele>12.8</ele>
        <time>2024-11-09T23:41:32Z</time>
      </trkpt>
      <trkpt lat="39.274423056938254" lon="118.43508070304787">
        <ele>12.8</ele>
        <time>2024-11-09T23:41:33Z</time>
      </trkpt>
      <trkpt lat="39.27439479198948" lon="118.43508268597132">
        <ele>12.8</ele>
        <time>2024-11-09T23:41:34Z</time>
      </trkpt>
      <trkpt lat="39.27436623921488" lon="118.43508470975479">
        <ele>12.8</ele>
        <time>2024-11-09T23:41:35Z</time>
      </trkpt>
      <trkpt lat="39.2743381946157" lon="118.435086728432">
        <ele>12.8</ele>
        <time>2024-11-09T23:41:36Z</time>
      </trkpt>
      <trkpt lat="39.274307617920435" lon="118.43508900686533">
        <ele>12.8</ele>
        <time>2024-11-09T23:41:37Z</time>
      </trkpt>
      <trkpt lat="39.27428044649493" lon="118.43509108819414">
        <ele>12.8</ele>
        <time>2024-11-09T23:41:38Z</time>
      </trkpt>
      <trkpt lat="39.274253203294144" lon="118.43509323839363">
        <ele>12.8</ele>
        <time>2024-11-09T23:41:39Z</time>
      </trkpt>
      <trkpt lat="39.27422558399692" lon="118.43509548050969">
        <ele>12.8</ele>
        <time>2024-11-09T23:41:40Z</time>
      </trkpt>
      <trkpt lat="39.274198195258286" lon="118.4350978258466">
        <ele>12.8</ele>
        <time>2024-11-09T23:41:41Z</time>
      </trkpt>
      <trkpt lat="39.27416779451739" lon="118.43510060147179">
        <ele>12.8</ele>
        <time>2024-11-09T23:41:42Z</time>
      </trkpt>
      <trkpt lat="39.27414046047086" lon="118.43510347626686">
        <ele>12.8</ele>
        <time>2024-11-09T23:41:43Z</time>
      </trkpt>
      <trkpt lat="39.27410955506945" lon="118.4351069029056">
        <ele>12.8</ele>
        <time>2024-11-09T23:41:44Z</time>
      </trkpt>
      <trkpt lat="39.2740792449426" lon="118.43511113606128">
        <ele>12.8</ele>
        <time>2024-11-09T23:41:45Z</time>
      </trkpt>
      <trkpt lat="39.274045497011464" lon="118.43511572409841">
        <ele>12.8</ele>
        <time>2024-11-09T23:41:46Z</time>
      </trkpt>
      <trkpt lat="39.27401385494939" lon="118.43512005111717">
        <ele>12.8</ele>
        <time>2024-11-09T23:41:47Z</time>
      </trkpt>
      <trkpt lat="39.273983044192185" lon="118.43512321418224">
        <ele>12.7</ele>
        <time>2024-11-09T23:41:48Z</time>
      </trkpt>
      <trkpt lat="39.27395164975761" lon="118.43512564333231">
        <ele>12.7</ele>
        <time>2024-11-09T23:41:49Z</time>
      </trkpt>
      <trkpt lat="39.273920003800036" lon="118.43512767186394">
        <ele>12.7</ele>
        <time>2024-11-09T23:41:50Z</time>
      </trkpt>
      <trkpt lat="39.27388553060179" lon="118.43512996302496">
        <ele>12.7</ele>
        <time>2024-11-09T23:41:51Z</time>
      </trkpt>
      <trkpt lat="39.273853124734664" lon="118.43513336690573">
        <ele>12.7</ele>
        <time>2024-11-09T23:41:52Z</time>
      </trkpt>
      <trkpt lat="39.27382010481605" lon="118.4351381320521">
        <ele>12.5</ele>
        <time>2024-11-09T23:41:53Z</time>
      </trkpt>
      <trkpt lat="39.27378701663995" lon="118.43514475731402">
        <ele>12.5</ele>
        <time>2024-11-09T23:41:54Z</time>
      </trkpt>
      <trkpt lat="39.27375373103044" lon="118.43515147161246">
        <ele>12.5</ele>
        <time>2024-11-09T23:41:55Z</time>
      </trkpt>
      <trkpt lat="39.273720398003015" lon="118.43515789388232">
        <ele>12.5</ele>
        <time>2024-11-09T23:41:56Z</time>
      </trkpt>
      <trkpt lat="39.27368764958731" lon="118.43516377926028">
        <ele>12.5</ele>
        <time>2024-11-09T23:41:57Z</time>
      </trkpt>
      <trkpt lat="39.27365390020373" lon="118.4351695234541">
        <ele>12.3</ele>
        <time>2024-11-09T23:41:58Z</time>
      </trkpt>
      <trkpt lat="39.273621195537096" lon="118.43517452659964">
        <ele>12.3</ele>
        <time>2024-11-09T23:41:59Z</time>
      </trkpt>
      <trkpt lat="39.27359122240205" lon="118.43517787717083">
        <ele>12.3</ele>
        <time>2024-11-09T23:42:00Z</time>
      </trkpt>
      <trkpt lat="39.273561028885254" lon="118.43518039321341">
        <ele>12.3</ele>
        <time>2024-11-09T23:42:01Z</time>
      </trkpt>
      <trkpt lat="39.27353123717544" lon="118.43518236234357">
        <ele>12.3</ele>
        <time>2024-11-09T23:42:02Z</time>
      </trkpt>
      <trkpt lat="39.27349914981374" lon="118.43518460027138">
        <ele>12</ele>
        <time>2024-11-09T23:42:03Z</time>
      </trkpt>
      <trkpt lat="39.27346921401385" lon="118.43518655532816">
        <ele>12</ele>
        <time>2024-11-09T23:42:04Z</time>
      </trkpt>
      <trkpt lat="39.2734390188654" lon="118.43518849937666">
        <ele>12</ele>
        <time>2024-11-09T23:42:05Z</time>
      </trkpt>
      <trkpt lat="39.273408959573544" lon="118.43518981164954">
        <ele>12</ele>
        <time>2024-11-09T23:42:06Z</time>
      </trkpt>
      <trkpt lat="39.27337928887552" lon="118.43519045183099">
        <ele>12</ele>
        <time>2024-11-09T23:42:07Z</time>
      </trkpt>
      <trkpt lat="39.27334979380448" lon="118.43519103094613">
        <ele>11.5</ele>
        <time>2024-11-09T23:42:08Z</time>
      </trkpt>
      <trkpt lat="39.27332078683823" lon="118.43519102557343">
        <ele>11.5</ele>
        <time>2024-11-09T23:42:09Z</time>
      </trkpt>
      <trkpt lat="39.27329230554371" lon="118.43519162468408">
        <ele>11.5</ele>
        <time>2024-11-09T23:42:10Z</time>
      </trkpt>
      <trkpt lat="39.27326448131393" lon="118.4351929351129">
        <ele>11.5</ele>
        <time>2024-11-09T23:42:11Z</time>
      </trkpt>
      <trkpt lat="39.273234039103706" lon="118.43519311911629">
        <ele>11.5</ele>
        <time>2024-11-09T23:42:12Z</time>
      </trkpt>
      <trkpt lat="39.27319927672372" lon="118.43519238543625">
        <ele>11.4</ele>
        <time>2024-11-09T23:42:13Z</time>
      </trkpt>
      <trkpt lat="39.27316830783552" lon="118.43519152362609">
        <ele>11.4</ele>
        <time>2024-11-09T23:42:14Z</time>
      </trkpt>
      <trkpt lat="39.27314028910509" lon="118.43519192998436">
        <ele>11.4</ele>
        <time>2024-11-09T23:42:15Z</time>
      </trkpt>
      <trkpt lat="39.273113284616684" lon="118.43519259505688">
        <ele>11.4</ele>
        <time>2024-11-09T23:42:16Z</time>
      </trkpt>
      <trkpt lat="39.27308681196125" lon="118.4351936908778">
        <ele>11.4</ele>
        <time>2024-11-09T23:42:17Z</time>
      </trkpt>
      <trkpt lat="39.273060227324976" lon="118.43519517684017">
        <ele>11.5</ele>
        <time>2024-11-09T23:42:18Z</time>
      </trkpt>
      <trkpt lat="39.273033641004496" lon="118.43519717813496">
        <ele>11.5</ele>
        <time>2024-11-09T23:42:19Z</time>
      </trkpt>
      <trkpt lat="39.273006756433624" lon="118.43519982832271">
        <ele>11.5</ele>
        <time>2024-11-09T23:42:20Z</time>
      </trkpt>
      <trkpt lat="39.272976044881915" lon="118.43520344636181">
        <ele>11.5</ele>
        <time>2024-11-09T23:42:21Z</time>
      </trkpt>
      <trkpt lat="39.27294749674896" lon="118.43520738278166">
        <ele>11.5</ele>
        <time>2024-11-09T23:42:22Z</time>
      </trkpt>
      <trkpt lat="39.272918672633395" lon="118.4352116499019">
        <ele>11.9</ele>
        <time>2024-11-09T23:42:23Z</time>
      </trkpt>
      <trkpt lat="39.27289068188227" lon="118.43521603539975">
        <ele>11.9</ele>
        <time>2024-11-09T23:42:24Z</time>
      </trkpt>
      <trkpt lat="39.272862980863486" lon="118.43522048498974">
        <ele>11.9</ele>
        <time>2024-11-09T23:42:25Z</time>
      </trkpt>
      <trkpt lat="39.27283202972628" lon="118.43522526543597">
        <ele>11.9</ele>
        <time>2024-11-09T23:42:26Z</time>
      </trkpt>
      <trkpt lat="39.2728035623921" lon="118.43522977816819">
        <ele>11.9</ele>
        <time>2024-11-09T23:42:27Z</time>
      </trkpt>
      <trkpt lat="39.27277502637814" lon="118.43523419688275">
        <ele>12.3</ele>
        <time>2024-11-09T23:42:28Z</time>
      </trkpt>
      <trkpt lat="39.272747094459476" lon="118.43523835645144">
        <ele>12.3</ele>
        <time>2024-11-09T23:42:29Z</time>
      </trkpt>
      <trkpt lat="39.27271957723066" lon="118.435242238878">
        <ele>12.3</ele>
        <time>2024-11-09T23:42:30Z</time>
      </trkpt>
      <trkpt lat="39.27268879095181" lon="118.43524613191872">
        <ele>12.3</ele>
        <time>2024-11-09T23:42:31Z</time>
      </trkpt>
      <trkpt lat="39.2726607264329" lon="118.43524957194535">
        <ele>12.3</ele>
        <time>2024-11-09T23:42:32Z</time>
      </trkpt>
      <trkpt lat="39.27263223203496" lon="118.43525284372468">
        <ele>12.6</ele>
        <time>2024-11-09T23:42:33Z</time>
      </trkpt>
      <trkpt lat="39.272604037472114" lon="118.43525586837455">
        <ele>12.6</ele>
        <time>2024-11-09T23:42:34Z</time>
      </trkpt>
      <trkpt lat="39.272575315010684" lon="118.43525873759125">
        <ele>12.6</ele>
        <time>2024-11-09T23:42:35Z</time>
      </trkpt>
      <trkpt lat="39.272543174372956" lon="118.43526168804637">
        <ele>12.6</ele>
        <time>2024-11-09T23:42:36Z</time>
      </trkpt>
      <trkpt lat="39.27251340908641" lon="118.43526430000969">
        <ele>12.6</ele>
        <time>2024-11-09T23:42:37Z</time>
      </trkpt>
      <trkpt lat="39.27248364858293" lon="118.43526673711614">
        <ele>12.8</ele>
        <time>2024-11-09T23:42:38Z</time>
      </trkpt>
      <trkpt lat="39.27245757477302" lon="118.4352686811155">
        <ele>12.8</ele>
        <time>2024-11-09T23:42:39Z</time>
      </trkpt>
      <trkpt lat="39.272429038000936" lon="118.43527052647039">
        <ele>12.8</ele>
        <time>2024-11-09T23:42:40Z</time>
      </trkpt>
      <trkpt lat="39.272400782168006" lon="118.43527208845596">
        <ele>12.8</ele>
        <time>2024-11-09T23:42:41Z</time>
      </trkpt>
      <trkpt lat="39.27237246141807" lon="118.43527340955808">
        <ele>12.8</ele>
        <time>2024-11-09T23:42:42Z</time>
      </trkpt>
      <trkpt lat="39.27234415129056" lon="118.43527450889115">
        <ele>12.8</ele>
        <time>2024-11-09T23:42:43Z</time>
      </trkpt>
      <trkpt lat="39.272315953204064" lon="118.43527545048694">
        <ele>12.8</ele>
        <time>2024-11-09T23:42:44Z</time>
      </trkpt>
      <trkpt lat="39.27228428670166" lon="118.43527651453456">
        <ele>12.8</ele>
        <time>2024-11-09T23:42:45Z</time>
      </trkpt>
      <trkpt lat="39.27225563489753" lon="118.4352773911187">
        <ele>12.8</ele>
        <time>2024-11-09T23:42:46Z</time>
      </trkpt>
      <trkpt lat="39.27222680459896" lon="118.43527831893792">
        <ele>12.8</ele>
        <time>2024-11-09T23:42:47Z</time>
      </trkpt>
      <trkpt lat="39.272198473302694" lon="118.43527924778924">
        <ele>12.8</ele>
        <time>2024-11-09T23:42:48Z</time>
      </trkpt>
      <trkpt lat="39.27216996066383" lon="118.43528019480888">
        <ele>12.8</ele>
        <time>2024-11-09T23:42:49Z</time>
      </trkpt>
      <trkpt lat="39.272141624314166" lon="118.43528106029676">
        <ele>12.8</ele>
        <time>2024-11-09T23:42:50Z</time>
      </trkpt>
      <trkpt lat="39.272113374347406" lon="118.4352817646366">
        <ele>12.8</ele>
        <time>2024-11-09T23:42:51Z</time>
      </trkpt>
      <trkpt lat="39.27208527401563" lon="118.43528226534826">
        <ele>12.8</ele>
        <time>2024-11-09T23:42:52Z</time>
      </trkpt>
      <trkpt lat="39.27205714933119" lon="118.43528258795553">
        <ele>12.8</ele>
        <time>2024-11-09T23:42:53Z</time>
      </trkpt>
      <trkpt lat="39.27203239255763" lon="118.4352826316674">
        <ele>12.8</ele>
        <time>2024-11-09T23:42:54Z</time>
      </trkpt>
      <trkpt lat="39.27200496516302" lon="118.43528278728563">
        <ele>12.8</ele>
        <time>2024-11-09T23:42:55Z</time>
      </trkpt>
      <trkpt lat="39.2719777133452" lon="118.43528302360616">
        <ele>12.8</ele>
        <time>2024-11-09T23:42:56Z</time>
      </trkpt>
      <trkpt lat="39.271949833313386" lon="118.43528345325485">
        <ele>12.8</ele>
        <time>2024-11-09T23:42:57Z</time>
      </trkpt>
      <trkpt lat="39.271921752753165" lon="118.4352840971942">
        <ele>12.9</ele>
        <time>2024-11-09T23:42:58Z</time>
      </trkpt>
      <trkpt lat="39.27189364956034" lon="118.43528492601293">
        <ele>12.9</ele>
        <time>2024-11-09T23:42:59Z</time>
      </trkpt>
      <trkpt lat="39.27186213747086" lon="118.43528603614611">
        <ele>12.9</ele>
        <time>2024-11-09T23:43:00Z</time>
      </trkpt>
      <trkpt lat="39.27183350350425" lon="118.43528705612793">
        <ele>12.9</ele>
        <time>2024-11-09T23:43:01Z</time>
      </trkpt>
      <trkpt lat="39.27180495620811" lon="118.43528809051529">
        <ele>12.9</ele>
        <time>2024-11-09T23:43:02Z</time>
      </trkpt>
      <trkpt lat="39.27177736812614" lon="118.43528908622925">
        <ele>12.7</ele>
        <time>2024-11-09T23:43:03Z</time>
      </trkpt>
      <trkpt lat="39.271750159595086" lon="118.43529007790681">
        <ele>12.7</ele>
        <time>2024-11-09T23:43:04Z</time>
      </trkpt>
      <trkpt lat="39.27171963368403" lon="118.43529120588956">
        <ele>12.7</ele>
        <time>2024-11-09T23:43:05Z</time>
      </trkpt>
      <trkpt lat="39.27169200550052" lon="118.43529218458957">
        <ele>12.7</ele>
        <time>2024-11-09T23:43:06Z</time>
      </trkpt>
      <trkpt lat="39.271664462285635" lon="118.43529310108357">
        <ele>12.7</ele>
        <time>2024-11-09T23:43:07Z</time>
      </trkpt>
      <trkpt lat="39.27164139103005" lon="118.43529376342914">
        <ele>12.6</ele>
        <time>2024-11-09T23:43:08Z</time>
      </trkpt>
      <trkpt lat="39.27161312024358" lon="118.43529356245344">
        <ele>12.6</ele>
        <time>2024-11-09T23:43:09Z</time>
      </trkpt>
      <trkpt lat="39.27158243702862" lon="118.43529215585411">
        <ele>12.6</ele>
        <time>2024-11-09T23:43:10Z</time>
      </trkpt>
      <trkpt lat="39.27154776479802" lon="118.43529059282055">
        <ele>12.6</ele>
        <time>2024-11-09T23:43:11Z</time>
      </trkpt>
      <trkpt lat="39.271517435008086" lon="118.4352951147602">
        <ele>12.6</ele>
        <time>2024-11-09T23:43:12Z</time>
      </trkpt>
      <trkpt lat="39.271490844237526" lon="118.43530060646304">
        <ele>12.6</ele>
        <time>2024-11-09T23:43:13Z</time>
      </trkpt>
      <trkpt lat="39.27146500734684" lon="118.43530323892998">
        <ele>12.6</ele>
        <time>2024-11-09T23:43:14Z</time>
      </trkpt>
      <trkpt lat="39.27143910078822" lon="118.43530066760346">
        <ele>12.6</ele>
        <time>2024-11-09T23:43:15Z</time>
      </trkpt>
      <trkpt lat="39.271410941593466" lon="118.4352985161206">
        <ele>12.6</ele>
        <time>2024-11-09T23:43:16Z</time>
      </trkpt>
      <trkpt lat="39.2713820212214" lon="118.43530024681826">
        <ele>12.6</ele>
        <time>2024-11-09T23:43:17Z</time>
      </trkpt>
      <trkpt lat="39.27135330429042" lon="118.435302600755">
        <ele>12.6</ele>
        <time>2024-11-09T23:43:18Z</time>
      </trkpt>
      <trkpt lat="39.27132183408409" lon="118.43530459487407">
        <ele>12.6</ele>
        <time>2024-11-09T23:43:19Z</time>
      </trkpt>
      <trkpt lat="39.27129189500666" lon="118.43530693383454">
        <ele>12.6</ele>
        <time>2024-11-09T23:43:20Z</time>
      </trkpt>
      <trkpt lat="39.27126111085326" lon="118.43530965209484">
        <ele>12.6</ele>
        <time>2024-11-09T23:43:21Z</time>
      </trkpt>
      <trkpt lat="39.27123297496769" lon="118.4353141146799">
        <ele>12.6</ele>
        <time>2024-11-09T23:43:22Z</time>
      </trkpt>
      <trkpt lat="39.271203034209826" lon="118.43531778894533">
        <ele>12.6</ele>
        <time>2024-11-09T23:43:23Z</time>
      </trkpt>
      <trkpt lat="39.27117390390383" lon="118.43532108060356">
        <ele>12.6</ele>
        <time>2024-11-09T23:43:24Z</time>
      </trkpt>
      <trkpt lat="39.27114482034679" lon="118.43532384756611">
        <ele>12.6</ele>
        <time>2024-11-09T23:43:25Z</time>
      </trkpt>
      <trkpt lat="39.27111618989167" lon="118.43532831395515">
        <ele>12.6</ele>
        <time>2024-11-09T23:43:26Z</time>
      </trkpt>
      <trkpt lat="39.27108715875342" lon="118.43533298266816">
        <ele>12.6</ele>
        <time>2024-11-09T23:43:27Z</time>
      </trkpt>
      <trkpt lat="39.27105805359236" lon="118.43533670165186">
        <ele>12.5</ele>
        <time>2024-11-09T23:43:28Z</time>
      </trkpt>
      <trkpt lat="39.27102918139757" lon="118.43533903444043">
        <ele>12.5</ele>
        <time>2024-11-09T23:43:29Z</time>
      </trkpt>
      <trkpt lat="39.27100117835608" lon="118.4353422279259">
        <ele>12.5</ele>
        <time>2024-11-09T23:43:30Z</time>
      </trkpt>
      <trkpt lat="39.27097175687547" lon="118.43534786014722">
        <ele>12.5</ele>
        <time>2024-11-09T23:43:31Z</time>
      </trkpt>
      <trkpt lat="39.27094476732084" lon="118.43535414646067">
        <ele>12.5</ele>
        <time>2024-11-09T23:43:32Z</time>
      </trkpt>
      <trkpt lat="39.27091822001636" lon="118.43535989801445">
        <ele>12.6</ele>
        <time>2024-11-09T23:43:33Z</time>
      </trkpt>
      <trkpt lat="39.27089226251721" lon="118.4353640845214">
        <ele>12.6</ele>
        <time>2024-11-09T23:43:34Z</time>
      </trkpt>
      <trkpt lat="39.27086753742103" lon="118.43536730652039">
        <ele>12.6</ele>
        <time>2024-11-09T23:43:35Z</time>
      </trkpt>
      <trkpt lat="39.27084329078063" lon="118.43536924783275">
        <ele>12.6</ele>
        <time>2024-11-09T23:43:36Z</time>
      </trkpt>
      <trkpt lat="39.270819272559976" lon="118.43536981199243">
        <ele>12.6</ele>
        <time>2024-11-09T23:43:37Z</time>
      </trkpt>
      <trkpt lat="39.27079505017222" lon="118.43536966320842">
        <ele>12.7</ele>
        <time>2024-11-09T23:43:38Z</time>
      </trkpt>
      <trkpt lat="39.27076816529602" lon="118.43536975570532">
        <ele>12.7</ele>
        <time>2024-11-09T23:43:39Z</time>
      </trkpt>
      <trkpt lat="39.27074362094308" lon="118.43537040589668">
        <ele>12.7</ele>
        <time>2024-11-09T23:43:40Z</time>
      </trkpt>
      <trkpt lat="39.270718798089476" lon="118.43537202825064">
        <ele>12.7</ele>
        <time>2024-11-09T23:43:41Z</time>
      </trkpt>
      <trkpt lat="39.27069949088822" lon="118.43537396288592">
        <ele>12.7</ele>
        <time>2024-11-09T23:43:42Z</time>
      </trkpt>
      <trkpt lat="39.27068249289707" lon="118.43537637481452">
        <ele>12.8</ele>
        <time>2024-11-09T23:43:43Z</time>
      </trkpt>
      <trkpt lat="39.27066900751142" lon="118.43537811994396">
        <ele>12.8</ele>
        <time>2024-11-09T23:43:44Z</time>
      </trkpt>
      <trkpt lat="39.27065538725841" lon="118.4353786070732">
        <ele>12.8</ele>
        <time>2024-11-09T23:43:45Z</time>
      </trkpt>
      <trkpt lat="39.270641876149256" lon="118.43537689904723">
        <ele>12.8</ele>
        <time>2024-11-09T23:43:46Z</time>
      </trkpt>
      <trkpt lat="39.27062610889264" lon="118.43537180981572">
        <ele>12.8</ele>
        <time>2024-11-09T23:43:47Z</time>
      </trkpt>
      <trkpt lat="39.27061261256761" lon="118.43536606279909">
        <ele>12.8</ele>
        <time>2024-11-09T23:43:48Z</time>
      </trkpt>
      <trkpt lat="39.2705999166839" lon="118.43536060356766">
        <ele>12.8</ele>
        <time>2024-11-09T23:43:49Z</time>
      </trkpt>
      <trkpt lat="39.270589833683445" lon="118.43535771623004">
        <ele>12.8</ele>
        <time>2024-11-09T23:43:50Z</time>
      </trkpt>
      <trkpt lat="39.27057818867893" lon="118.43535568461458">
        <ele>12.8</ele>
        <time>2024-11-09T23:43:51Z</time>
      </trkpt>
      <trkpt lat="39.270565694753266" lon="118.43535472061004">
        <ele>12.8</ele>
        <time>2024-11-09T23:43:52Z</time>
      </trkpt>
      <trkpt lat="39.27055190347658" lon="118.4353546434504">
        <ele>12.8</ele>
        <time>2024-11-09T23:43:53Z</time>
      </trkpt>
      <trkpt lat="39.27053235254567" lon="118.43535592608818">
        <ele>12.8</ele>
        <time>2024-11-09T23:43:54Z</time>
      </trkpt>
      <trkpt lat="39.270511129981884" lon="118.43535809803012">
        <ele>12.8</ele>
        <time>2024-11-09T23:43:55Z</time>
      </trkpt>
      <trkpt lat="39.27048421319884" lon="118.4353614180957">
        <ele>12.8</ele>
        <time>2024-11-09T23:43:56Z</time>
      </trkpt>
      <trkpt lat="39.27045955275137" lon="118.43536487929964">
        <ele>12.8</ele>
        <time>2024-11-09T23:43:57Z</time>
      </trkpt>
      <trkpt lat="39.27043375272197" lon="118.4353685757257">
        <ele>12.7</ele>
        <time>2024-11-09T23:43:58Z</time>
      </trkpt>
      <trkpt lat="39.27040784446268" lon="118.43537221714041">
        <ele>12.7</ele>
        <time>2024-11-09T23:43:59Z</time>
      </trkpt>
      <trkpt lat="39.2703818040147" lon="118.43537571301131">
        <ele>12.7</ele>
        <time>2024-11-09T23:44:00Z</time>
      </trkpt>
      <trkpt lat="39.27035231551173" lon="118.43537937516814">
        <ele>12.7</ele>
        <time>2024-11-09T23:44:01Z</time>
      </trkpt>
      <trkpt lat="39.2703255747907" lon="118.43538262540268">
        <ele>12.7</ele>
        <time>2024-11-09T23:44:02Z</time>
      </trkpt>
      <trkpt lat="39.27029508967196" lon="118.43538613856201">
        <ele>12.6</ele>
        <time>2024-11-09T23:44:03Z</time>
      </trkpt>
      <trkpt lat="39.27026789219654" lon="118.43538926277768">
        <ele>12.6</ele>
        <time>2024-11-09T23:44:04Z</time>
      </trkpt>
      <trkpt lat="39.270237047285825" lon="118.43539264170545">
        <ele>12.6</ele>
        <time>2024-11-09T23:44:05Z</time>
      </trkpt>
      <trkpt lat="39.27020964272677" lon="118.43539556948274">
        <ele>12.6</ele>
        <time>2024-11-09T23:44:06Z</time>
      </trkpt>
      <trkpt lat="39.27017845921031" lon="118.43539867700325">
        <ele>12.6</ele>
        <time>2024-11-09T23:44:07Z</time>
      </trkpt>
      <trkpt lat="39.270150521610645" lon="118.43540129236794">
        <ele>12.2</ele>
        <time>2024-11-09T23:44:08Z</time>
      </trkpt>
      <trkpt lat="39.270122613626796" lon="118.43540370439126">
        <ele>12.2</ele>
        <time>2024-11-09T23:44:09Z</time>
      </trkpt>
      <trkpt lat="39.27009550397208" lon="118.43540584659074">
        <ele>12.2</ele>
        <time>2024-11-09T23:44:10Z</time>
      </trkpt>
      <trkpt lat="39.270068728224985" lon="118.4354078005714">
        <ele>12.2</ele>
        <time>2024-11-09T23:44:11Z</time>
      </trkpt>
      <trkpt lat="39.27003844157007" lon="118.43540994247066">
        <ele>12.2</ele>
        <time>2024-11-09T23:44:12Z</time>
      </trkpt>
      <trkpt lat="39.270010651956675" lon="118.43541176963028">
        <ele>12</ele>
        <time>2024-11-09T23:44:13Z</time>
      </trkpt>
      <trkpt lat="39.26998260266417" lon="118.43541354219826">
        <ele>12</ele>
        <time>2024-11-09T23:44:14Z</time>
      </trkpt>
      <trkpt lat="39.269955156200695" lon="118.43541518534067">
        <ele>12</ele>
        <time>2024-11-09T23:44:15Z</time>
      </trkpt>
      <trkpt lat="39.269927976721256" lon="118.43541673354434">
        <ele>12</ele>
        <time>2024-11-09T23:44:16Z</time>
      </trkpt>
      <trkpt lat="39.2698976413578" lon="118.43541850406152">
        <ele>12</ele>
        <time>2024-11-09T23:44:17Z</time>
      </trkpt>
      <trkpt lat="39.269869910650236" lon="118.43542001010596">
        <ele>11.8</ele>
        <time>2024-11-09T23:44:18Z</time>
      </trkpt>
      <trkpt lat="39.26983848231505" lon="118.43542181599942">
        <ele>11.8</ele>
        <time>2024-11-09T23:44:19Z</time>
      </trkpt>
      <trkpt lat="39.269810269111595" lon="118.4354233100543">
        <ele>11.8</ele>
        <time>2024-11-09T23:44:20Z</time>
      </trkpt>
      <trkpt lat="39.26977844667054" lon="118.43542510349057">
        <ele>11.8</ele>
        <time>2024-11-09T23:44:21Z</time>
      </trkpt>
      <trkpt lat="39.26974971975217" lon="118.4354266280758">
        <ele>11.8</ele>
        <time>2024-11-09T23:44:22Z</time>
      </trkpt>
      <trkpt lat="39.26972073175801" lon="118.43542822070486">
        <ele>12</ele>
        <time>2024-11-09T23:44:23Z</time>
      </trkpt>
      <trkpt lat="39.269692200461456" lon="118.4354298948905">
        <ele>12</ele>
        <time>2024-11-09T23:44:24Z</time>
      </trkpt>
      <trkpt lat="39.2696639932409" lon="118.43543171944293">
        <ele>12</ele>
        <time>2024-11-09T23:44:25Z</time>
      </trkpt>
      <trkpt lat="39.269632325473815" lon="118.43543410700873">
        <ele>12</ele>
        <time>2024-11-09T23:44:26Z</time>
      </trkpt>
      <trkpt lat="39.26960309653981" lon="118.43543653819998">
        <ele>12</ele>
        <time>2024-11-09T23:44:27Z</time>
      </trkpt>
      <trkpt lat="39.26957318978293" lon="118.4354392985509">
        <ele>12</ele>
        <time>2024-11-09T23:44:28Z</time>
      </trkpt>
      <trkpt lat="39.269543567246075" lon="118.43544228009475">
        <ele>12</ele>
        <time>2024-11-09T23:44:29Z</time>
      </trkpt>
      <trkpt lat="39.26951426714289" lon="118.43544543176664">
        <ele>12</ele>
        <time>2024-11-09T23:44:30Z</time>
      </trkpt>
      <trkpt lat="39.2694818580825" lon="118.43544902830953">
        <ele>12</ele>
        <time>2024-11-09T23:44:31Z</time>
      </trkpt>
      <trkpt lat="39.26945258336193" lon="118.43545243387162">
        <ele>12</ele>
        <time>2024-11-09T23:44:32Z</time>
      </trkpt>
      <trkpt lat="39.269419733316795" lon="118.43545624960858">
        <ele>12.2</ele>
        <time>2024-11-09T23:44:33Z</time>
      </trkpt>
      <trkpt lat="39.26939045754939" lon="118.4354597700263">
        <ele>12.2</ele>
        <time>2024-11-09T23:44:34Z</time>
      </trkpt>
      <trkpt lat="39.26935759717885" lon="118.4354636963862">
        <ele>12.2</ele>
        <time>2024-11-09T23:44:35Z</time>
      </trkpt>
      <trkpt lat="39.26932844911065" lon="118.43546728443648">
        <ele>12.2</ele>
        <time>2024-11-09T23:44:36Z</time>
      </trkpt>
      <trkpt lat="39.26929958788741" lon="118.43547083019038">
        <ele>12.2</ele>
        <time>2024-11-09T23:44:37Z</time>
      </trkpt>
      <trkpt lat="39.2692720927968" lon="118.43547414297086">
        <ele>12.2</ele>
        <time>2024-11-09T23:44:38Z</time>
      </trkpt>
      <trkpt lat="39.269245408831104" lon="118.43547724302437">
        <ele>12.2</ele>
        <time>2024-11-09T23:44:39Z</time>
      </trkpt>
      <trkpt lat="39.26921254315203" lon="118.43548072795595">
        <ele>12.2</ele>
        <time>2024-11-09T23:44:40Z</time>
      </trkpt>
      <trkpt lat="39.26917911375201" lon="118.43548326036158">
        <ele>12.2</ele>
        <time>2024-11-09T23:44:41Z</time>
      </trkpt>
      <trkpt lat="39.26914071823788" lon="118.43548399462577">
        <ele>12.2</ele>
        <time>2024-11-09T23:44:42Z</time>
      </trkpt>
      <trkpt lat="39.269104945311916" lon="118.43548379488075">
        <ele>12.2</ele>
        <time>2024-11-09T23:44:43Z</time>
      </trkpt>
      <trkpt lat="39.269071928394155" lon="118.43548332610274">
        <ele>12.2</ele>
        <time>2024-11-09T23:44:44Z</time>
      </trkpt>
      <trkpt lat="39.26904000460602" lon="118.4354843670304">
        <ele>12.2</ele>
        <time>2024-11-09T23:44:45Z</time>
      </trkpt>
      <trkpt lat="39.26901210157255" lon="118.43548506140397">
        <ele>12.2</ele>
        <time>2024-11-09T23:44:46Z</time>
      </trkpt>
      <trkpt lat="39.2689812360391" lon="118.43548641880025">
        <ele>12.2</ele>
        <time>2024-11-09T23:44:47Z</time>
      </trkpt>
      <trkpt lat="39.268953841859535" lon="118.43548752183364">
        <ele>12.2</ele>
        <time>2024-11-09T23:44:48Z</time>
      </trkpt>
      <trkpt lat="39.268922745661264" lon="118.43548932375846">
        <ele>12.2</ele>
        <time>2024-11-09T23:44:49Z</time>
      </trkpt>
      <trkpt lat="39.26889500941642" lon="118.43549097967619">
        <ele>12.2</ele>
        <time>2024-11-09T23:44:50Z</time>
      </trkpt>
      <trkpt lat="39.268863342957125" lon="118.43549342510205">
        <ele>12.2</ele>
        <time>2024-11-09T23:44:51Z</time>
      </trkpt>
      <trkpt lat="39.26883458174336" lon="118.43549581128363">
        <ele>12.2</ele>
        <time>2024-11-09T23:44:52Z</time>
      </trkpt>
      <trkpt lat="39.26880516891037" lon="118.43549859611363">
        <ele>12.5</ele>
        <time>2024-11-09T23:44:53Z</time>
      </trkpt>
      <trkpt lat="39.26877621863391" lon="118.43550165232155">
        <ele>12.5</ele>
        <time>2024-11-09T23:44:54Z</time>
      </trkpt>
      <trkpt lat="39.268747144673526" lon="118.43550503426059">
        <ele>12.5</ele>
        <time>2024-11-09T23:44:55Z</time>
      </trkpt>
      <trkpt lat="39.26871474878965" lon="118.43550916233717">
        <ele>12.5</ele>
        <time>2024-11-09T23:44:56Z</time>
      </trkpt>
      <trkpt lat="39.2686849641229" lon="118.43551322412874">
        <ele>12.5</ele>
        <time>2024-11-09T23:44:57Z</time>
      </trkpt>
      <trkpt lat="39.26865499233288" lon="118.43551761536725">
        <ele>12.9</ele>
        <time>2024-11-09T23:44:58Z</time>
      </trkpt>
      <trkpt lat="39.26862545744733" lon="118.43552233223687">
        <ele>12.9</ele>
        <time>2024-11-09T23:44:59Z</time>
      </trkpt>
      <trkpt lat="39.26859588180381" lon="118.43552746913765">
        <ele>12.9</ele>
        <time>2024-11-09T23:45:00Z</time>
      </trkpt>
      <trkpt lat="39.268566422462165" lon="118.43553306380869">
        <ele>12.9</ele>
        <time>2024-11-09T23:45:01Z</time>
      </trkpt>
      <trkpt lat="39.268540194713204" lon="118.4355386781966">
        <ele>12.9</ele>
        <time>2024-11-09T23:45:02Z</time>
      </trkpt>
      <trkpt lat="39.26851121617697" lon="118.4355452416303">
        <ele>13.2</ele>
        <time>2024-11-09T23:45:03Z</time>
      </trkpt>
      <trkpt lat="39.26848194884263" lon="118.43555240909224">
        <ele>13.2</ele>
        <time>2024-11-09T23:45:04Z</time>
      </trkpt>
      <trkpt lat="39.268448647887304" lon="118.43556073165082">
        <ele>13.2</ele>
        <time>2024-11-09T23:45:05Z</time>
      </trkpt>
      <trkpt lat="39.2684178948906" lon="118.43556901177634">
        <ele>13.2</ele>
        <time>2024-11-09T23:45:06Z</time>
      </trkpt>
      <trkpt lat="39.26838673674541" lon="118.4355773926475">
        <ele>13.2</ele>
        <time>2024-11-09T23:45:07Z</time>
      </trkpt>
      <trkpt lat="39.26835576031114" lon="118.43558545717241">
        <ele>13.6</ele>
        <time>2024-11-09T23:45:08Z</time>
      </trkpt>
      <trkpt lat="39.26832448916752" lon="118.43559309711029">
        <ele>13.6</ele>
        <time>2024-11-09T23:45:09Z</time>
      </trkpt>
      <trkpt lat="39.26828977041826" lon="118.43560062796801">
        <ele>13.6</ele>
        <time>2024-11-09T23:45:10Z</time>
      </trkpt>
      <trkpt lat="39.268257728411186" lon="118.43560705931452">
        <ele>13.6</ele>
        <time>2024-11-09T23:45:11Z</time>
      </trkpt>
      <trkpt lat="39.26822199243159" lon="118.43561330369525">
        <ele>13.6</ele>
        <time>2024-11-09T23:45:12Z</time>
      </trkpt>
      <trkpt lat="39.268189591738256" lon="118.43561835935972">
        <ele>13.9</ele>
        <time>2024-11-09T23:45:13Z</time>
      </trkpt>
      <trkpt lat="39.26815717817254" lon="118.43562278778599">
        <ele>13.9</ele>
        <time>2024-11-09T23:45:14Z</time>
      </trkpt>
      <trkpt lat="39.26812901753005" lon="118.43562605031882">
        <ele>13.9</ele>
        <time>2024-11-09T23:45:15Z</time>
      </trkpt>
      <trkpt lat="39.2680984831233" lon="118.43562919456181">
        <ele>13.9</ele>
        <time>2024-11-09T23:45:16Z</time>
      </trkpt>
      <trkpt lat="39.26806830197979" lon="118.43563194706391">
        <ele>13.9</ele>
        <time>2024-11-09T23:45:17Z</time>
      </trkpt>
      <trkpt lat="39.26803788238624" lon="118.43563450432161">
        <ele>14</ele>
        <time>2024-11-09T23:45:18Z</time>
      </trkpt>
      <trkpt lat="39.268007667397285" lon="118.43563690269835">
        <ele>14</ele>
        <time>2024-11-09T23:45:19Z</time>
      </trkpt>
      <trkpt lat="39.26797784623751" lon="118.43563921908397">
        <ele>14</ele>
        <time>2024-11-09T23:45:20Z</time>
      </trkpt>
      <trkpt lat="39.26794838923283" lon="118.43564155355557">
        <ele>14</ele>
        <time>2024-11-09T23:45:21Z</time>
      </trkpt>
      <trkpt lat="39.267923460274346" lon="118.4356434740222">
        <ele>14</ele>
        <time>2024-11-09T23:45:22Z</time>
      </trkpt>
      <trkpt lat="39.26790075475896" lon="118.43564535868363">
        <ele>13.9</ele>
        <time>2024-11-09T23:45:23Z</time>
      </trkpt>
      <trkpt lat="39.267871947937365" lon="118.43564749751665">
        <ele>13.9</ele>
        <time>2024-11-09T23:45:24Z</time>
      </trkpt>
      <trkpt lat="39.26783879595641" lon="118.43564902045749">
        <ele>13.9</ele>
        <time>2024-11-09T23:45:25Z</time>
      </trkpt>
      <trkpt lat="39.267798337581155" lon="118.43564918046519">
        <ele>13.9</ele>
        <time>2024-11-09T23:45:26Z</time>
      </trkpt>
      <trkpt lat="39.26776189432896" lon="118.43564766879933">
        <ele>13.9</ele>
        <time>2024-11-09T23:45:27Z</time>
      </trkpt>
      <trkpt lat="39.2677262465276" lon="118.43564529012924">
        <ele>13.7</ele>
        <time>2024-11-09T23:45:28Z</time>
      </trkpt>
      <trkpt lat="39.26769454796186" lon="118.4356428715474">
        <ele>13.7</ele>
        <time>2024-11-09T23:45:29Z</time>
      </trkpt>
      <trkpt lat="39.26766424694441" lon="118.43564058134223">
        <ele>13.7</ele>
        <time>2024-11-09T23:45:30Z</time>
      </trkpt>
      <trkpt lat="39.2676341082977" lon="118.43563868685659">
        <ele>13.7</ele>
        <time>2024-11-09T23:45:31Z</time>
      </trkpt>
      <trkpt lat="39.26760478376392" lon="118.43563715449176">
        <ele>13.7</ele>
        <time>2024-11-09T23:45:32Z</time>
      </trkpt>
      <trkpt lat="39.267576279256616" lon="118.43563589537573">
        <ele>13.7</ele>
        <time>2024-11-09T23:45:33Z</time>
      </trkpt>
      <trkpt lat="39.267547751470616" lon="118.43563442547621">
        <ele>13.7</ele>
        <time>2024-11-09T23:45:34Z</time>
      </trkpt>
      <trkpt lat="39.26752029821098" lon="118.4356325393268">
        <ele>13.7</ele>
        <time>2024-11-09T23:45:35Z</time>
      </trkpt>
      <trkpt lat="39.26749371580771" lon="118.43563008815622">
        <ele>13.7</ele>
        <time>2024-11-09T23:45:36Z</time>
      </trkpt>
      <trkpt lat="39.2674683365581" lon="118.43562681206915">
        <ele>13.7</ele>
        <time>2024-11-09T23:45:37Z</time>
      </trkpt>
      <trkpt lat="39.26744429686865" lon="118.43562302850545">
        <ele>13.7</ele>
        <time>2024-11-09T23:45:38Z</time>
      </trkpt>
      <trkpt lat="39.26741927395497" lon="118.43561685278088">
        <ele>13.7</ele>
        <time>2024-11-09T23:45:39Z</time>
      </trkpt>
      <trkpt lat="39.267397849499055" lon="118.43560885977301">
        <ele>13.7</ele>
        <time>2024-11-09T23:45:40Z</time>
      </trkpt>
      <trkpt lat="39.2673773081958" lon="118.4355982937643">
        <ele>13.7</ele>
        <time>2024-11-09T23:45:41Z</time>
      </trkpt>
      <trkpt lat="39.267359464543716" lon="118.43558356241975">
        <ele>13.7</ele>
        <time>2024-11-09T23:45:42Z</time>
      </trkpt>
      <trkpt lat="39.26734389311028" lon="118.43556629156421">
        <ele>13.8</ele>
        <time>2024-11-09T23:45:43Z</time>
      </trkpt>
      <trkpt lat="39.26733089189794" lon="118.43554336218116">
        <ele>13.8</ele>
        <time>2024-11-09T23:45:44Z</time>
      </trkpt>
      <trkpt lat="39.26732204725002" lon="118.4355204866005">
        <ele>13.8</ele>
        <time>2024-11-09T23:45:45Z</time>
      </trkpt>
      <trkpt lat="39.2673148225854" lon="118.43549538635185">
        <ele>13.8</ele>
        <time>2024-11-09T23:45:46Z</time>
      </trkpt>
      <trkpt lat="39.26730876532964" lon="118.43547216909039">
        <ele>13.8</ele>
        <time>2024-11-09T23:45:47Z</time>
      </trkpt>
      <trkpt lat="39.26730063433578" lon="118.43544757834808">
        <ele>13.7</ele>
        <time>2024-11-09T23:45:48Z</time>
      </trkpt>
      <trkpt lat="39.26729032811673" lon="118.43542484876822">
        <ele>13.7</ele>
        <time>2024-11-09T23:45:49Z</time>
      </trkpt>
      <trkpt lat="39.2672774481874" lon="118.43540480703852">
        <ele>13.7</ele>
        <time>2024-11-09T23:45:50Z</time>
      </trkpt>
      <trkpt lat="39.26726050987544" lon="118.43538941837468">
        <ele>13.7</ele>
        <time>2024-11-09T23:45:51Z</time>
      </trkpt>
      <trkpt lat="39.26724080698707" lon="118.43537766618417">
        <ele>13.7</ele>
        <time>2024-11-09T23:45:52Z</time>
      </trkpt>
      <trkpt lat="39.267218540248365" lon="118.43536884864876">
        <ele>13.6</ele>
        <time>2024-11-09T23:45:53Z</time>
      </trkpt>
      <trkpt lat="39.267197093448246" lon="118.43536241423477">
        <ele>13.6</ele>
        <time>2024-11-09T23:45:54Z</time>
      </trkpt>
      <trkpt lat="39.26717239431636" lon="118.43535611357434">
        <ele>13.6</ele>
        <time>2024-11-09T23:45:55Z</time>
      </trkpt>
      <trkpt lat="39.26714688978876" lon="118.43535006202234">
        <ele>13.6</ele>
        <time>2024-11-09T23:45:56Z</time>
      </trkpt>
      <trkpt lat="39.267120194105274" lon="118.43534401482829">
        <ele>13.6</ele>
        <time>2024-11-09T23:45:57Z</time>
      </trkpt>
      <trkpt lat="39.26709608125781" lon="118.4353388579269">
        <ele>13.4</ele>
        <time>2024-11-09T23:45:58Z</time>
      </trkpt>
      <trkpt lat="39.267070160437044" lon="118.43533387288457">
        <ele>13.4</ele>
        <time>2024-11-09T23:45:59Z</time>
      </trkpt>
      <trkpt lat="39.26704517975921" lon="118.43532927645599">
        <ele>13.4</ele>
        <time>2024-11-09T23:46:00Z</time>
      </trkpt>
      <trkpt lat="39.26702057491835" lon="118.43532459313134">
        <ele>13.4</ele>
        <time>2024-11-09T23:46:01Z</time>
      </trkpt>
      <trkpt lat="39.26699683055551" lon="118.4353196676379">
        <ele>13.4</ele>
        <time>2024-11-09T23:46:02Z</time>
      </trkpt>
      <trkpt lat="39.26697371060625" lon="118.43531501013064">
        <ele>13.2</ele>
        <time>2024-11-09T23:46:03Z</time>
      </trkpt>
      <trkpt lat="39.26694762239437" lon="118.43531193441474">
        <ele>13.2</ele>
        <time>2024-11-09T23:46:04Z</time>
      </trkpt>
      <trkpt lat="39.26692250284114" lon="118.43531124718928">
        <ele>13.2</ele>
        <time>2024-11-09T23:46:05Z</time>
      </trkpt>
      <trkpt lat="39.26689566153284" lon="118.43531262787317">
        <ele>13.2</ele>
        <time>2024-11-09T23:46:06Z</time>
      </trkpt>
      <trkpt lat="39.26686830902689" lon="118.43531598771351">
        <ele>13.2</ele>
        <time>2024-11-09T23:46:07Z</time>
      </trkpt>
      <trkpt lat="39.26684096316431" lon="118.43531968921587">
        <ele>12.9</ele>
        <time>2024-11-09T23:46:08Z</time>
      </trkpt>
      <trkpt lat="39.26681153387718" lon="118.43532309271959">
        <ele>12.9</ele>
        <time>2024-11-09T23:46:09Z</time>
      </trkpt>
      <trkpt lat="39.266784676312135" lon="118.4353240170505">
        <ele>12.9</ele>
        <time>2024-11-09T23:46:10Z</time>
      </trkpt>
      <trkpt lat="39.266757794684956" lon="118.4353223348964">
        <ele>12.9</ele>
        <time>2024-11-09T23:46:11Z</time>
      </trkpt>
      <trkpt lat="39.26673438481141" lon="118.4353172841357">
        <ele>12.9</ele>
        <time>2024-11-09T23:46:12Z</time>
      </trkpt>
      <trkpt lat="39.26671055565672" lon="118.43530694016869">
        <ele>12.7</ele>
        <time>2024-11-09T23:46:13Z</time>
      </trkpt>
      <trkpt lat="39.26668901069591" lon="118.43529257212577">
        <ele>12.7</ele>
        <time>2024-11-09T23:46:14Z</time>
      </trkpt>
      <trkpt lat="39.2666700426812" lon="118.43527355124364">
        <ele>12.7</ele>
        <time>2024-11-09T23:46:15Z</time>
      </trkpt>
      <trkpt lat="39.26665617031579" lon="118.43524955426183">
        <ele>12.7</ele>
        <time>2024-11-09T23:46:16Z</time>
      </trkpt>
      <trkpt lat="39.26664583870168" lon="118.43522318234655">
        <ele>12.7</ele>
        <time>2024-11-09T23:46:17Z</time>
      </trkpt>
      <trkpt lat="39.26663808615186" lon="118.43519631819525">
        <ele>12.5</ele>
        <time>2024-11-09T23:46:18Z</time>
      </trkpt>
      <trkpt lat="39.2666316565544" lon="118.43516967252081">
        <ele>12.5</ele>
        <time>2024-11-09T23:46:19Z</time>
      </trkpt>
      <trkpt lat="39.26662612916935" lon="118.43514361609627">
        <ele>12.5</ele>
        <time>2024-11-09T23:46:20Z</time>
      </trkpt>
      <trkpt lat="39.26662108520032" lon="118.43511403526061">
        <ele>12.5</ele>
        <time>2024-11-09T23:46:21Z</time>
      </trkpt>
      <trkpt lat="39.266617000645724" lon="118.43508717062639">
        <ele>12.5</ele>
        <time>2024-11-09T23:46:22Z</time>
      </trkpt>
      <trkpt lat="39.26661301738692" lon="118.4350597134957">
        <ele>12.4</ele>
        <time>2024-11-09T23:46:23Z</time>
      </trkpt>
      <trkpt lat="39.26660876815248" lon="118.43503270708464">
        <ele>12.4</ele>
        <time>2024-11-09T23:46:24Z</time>
      </trkpt>
      <trkpt lat="39.26660480796916" lon="118.4350049458017">
        <ele>12.4</ele>
        <time>2024-11-09T23:46:25Z</time>
      </trkpt>
      <trkpt lat="39.26660150556237" lon="118.43497627106612">
        <ele>12.4</ele>
        <time>2024-11-09T23:46:26Z</time>
      </trkpt>
      <trkpt lat="39.26659974150056" lon="118.43494998579366">
        <ele>12.4</ele>
        <time>2024-11-09T23:46:27Z</time>
      </trkpt>
      <trkpt lat="39.26659857238249" lon="118.43492080626915">
        <ele>12.4</ele>
        <time>2024-11-09T23:46:28Z</time>
      </trkpt>
      <trkpt lat="39.266597683029275" lon="118.43489216782808">
        <ele>12.4</ele>
        <time>2024-11-09T23:46:29Z</time>
      </trkpt>
      <trkpt lat="39.266596425703305" lon="118.43486314070532">
        <ele>12.4</ele>
        <time>2024-11-09T23:46:30Z</time>
      </trkpt>
      <trkpt lat="39.26659373951545" lon="118.43483441725691">
        <ele>12.4</ele>
        <time>2024-11-09T23:46:31Z</time>
      </trkpt>
      <trkpt lat="39.26658927090052" lon="118.43480640012724">
        <ele>12.4</ele>
        <time>2024-11-09T23:46:32Z</time>
      </trkpt>
      <trkpt lat="39.26658231436624" lon="118.4347804068395">
        <ele>12.6</ele>
        <time>2024-11-09T23:46:33Z</time>
      </trkpt>
      <trkpt lat="39.266570939456656" lon="118.4347593224837">
        <ele>12.6</ele>
        <time>2024-11-09T23:46:34Z</time>
      </trkpt>
      <trkpt lat="39.26655642034536" lon="118.4347426055307">
        <ele>12.6</ele>
        <time>2024-11-09T23:46:35Z</time>
      </trkpt>
      <trkpt lat="39.266538985295014" lon="118.43472991826098">
        <ele>12.6</ele>
        <time>2024-11-09T23:46:36Z</time>
      </trkpt>
      <trkpt lat="39.26651900130831" lon="118.43471963454664">
        <ele>12.6</ele>
        <time>2024-11-09T23:46:37Z</time>
      </trkpt>
      <trkpt lat="39.26649780433394" lon="118.43470821911292">
        <ele>12.8</ele>
        <time>2024-11-09T23:46:38Z</time>
      </trkpt>
      <trkpt lat="39.26647513235778" lon="118.4346904016753">
        <ele>12.8</ele>
        <time>2024-11-09T23:46:39Z</time>
      </trkpt>
      <trkpt lat="39.26645616041637" lon="118.4346666833364">
        <ele>12.8</ele>
        <time>2024-11-09T23:46:40Z</time>
      </trkpt>
      <trkpt lat="39.26644057571965" lon="118.43463466885495">
        <ele>12.8</ele>
        <time>2024-11-09T23:46:41Z</time>
      </trkpt>
      <trkpt lat="39.26643056887795" lon="118.43460267201316">
        <ele>12.8</ele>
        <time>2024-11-09T23:46:42Z</time>
      </trkpt>
      <trkpt lat="39.26642426543753" lon="118.43457109046237">
        <ele>12.5</ele>
        <time>2024-11-09T23:46:43Z</time>
      </trkpt>
      <trkpt lat="39.26641989332106" lon="118.43453949347482">
        <ele>12.5</ele>
        <time>2024-11-09T23:46:44Z</time>
      </trkpt>
      <trkpt lat="39.26641668264827" lon="118.43450747495817">
        <ele>12.5</ele>
        <time>2024-11-09T23:46:45Z</time>
      </trkpt>
      <trkpt lat="39.26641424281168" lon="118.4344769613404">
        <ele>12.5</ele>
        <time>2024-11-09T23:46:46Z</time>
      </trkpt>
      <trkpt lat="39.26641222942943" lon="118.43444625328463">
        <ele>12.5</ele>
        <time>2024-11-09T23:46:47Z</time>
      </trkpt>
      <trkpt lat="39.26641053044542" lon="118.43441594630535">
        <ele>12.1</ele>
        <time>2024-11-09T23:46:48Z</time>
      </trkpt>
      <trkpt lat="39.26640893902599" lon="118.43438380964204">
        <ele>12.1</ele>
        <time>2024-11-09T23:46:49Z</time>
      </trkpt>
      <trkpt lat="39.26640750282559" lon="118.43435133468425">
        <ele>12.1</ele>
        <time>2024-11-09T23:46:50Z</time>
      </trkpt>
      <trkpt lat="39.26640616819573" lon="118.43431807888324">
        <ele>12.1</ele>
        <time>2024-11-09T23:46:51Z</time>
      </trkpt>
      <trkpt lat="39.26640464632909" lon="118.43427999961595">
        <ele>12.1</ele>
        <time>2024-11-09T23:46:52Z</time>
      </trkpt>
      <trkpt lat="39.266403354996925" lon="118.43424472155179">
        <ele>11.9</ele>
        <time>2024-11-09T23:46:53Z</time>
      </trkpt>
      <trkpt lat="39.26640201609843" lon="118.43420848471548">
        <ele>11.9</ele>
        <time>2024-11-09T23:46:54Z</time>
      </trkpt>
      <trkpt lat="39.266400987522225" lon="118.43417732610999">
        <ele>11.9</ele>
        <time>2024-11-09T23:46:55Z</time>
      </trkpt>
      <trkpt lat="39.26640002933102" lon="118.43414722693082">
        <ele>11.9</ele>
        <time>2024-11-09T23:46:56Z</time>
      </trkpt>
      <trkpt lat="39.26639914303369" lon="118.43411812368703">
        <ele>11.9</ele>
        <time>2024-11-09T23:46:57Z</time>
      </trkpt>
      <trkpt lat="39.26639802155175" lon="118.43408573007164">
        <ele>12.3</ele>
        <time>2024-11-09T23:46:58Z</time>
      </trkpt>
      <trkpt lat="39.2663967567184" lon="118.43405228026903">
        <ele>12.3</ele>
        <time>2024-11-09T23:46:59Z</time>
      </trkpt>
      <trkpt lat="39.2663953306985" lon="118.43401834827037">
        <ele>12.3</ele>
        <time>2024-11-09T23:47:00Z</time>
      </trkpt>
      <trkpt lat="39.26639362435184" lon="118.43398272933315">
        <ele>12.3</ele>
        <time>2024-11-09T23:47:01Z</time>
      </trkpt>
      <trkpt lat="39.26639173230787" lon="118.43394694647348">
        <ele>12.3</ele>
        <time>2024-11-09T23:47:02Z</time>
      </trkpt>
      <trkpt lat="39.26638966826168" lon="118.43391106503816">
        <ele>12.6</ele>
        <time>2024-11-09T23:47:03Z</time>
      </trkpt>
      <trkpt lat="39.26638744426262" lon="118.43387541150992">
        <ele>12.6</ele>
        <time>2024-11-09T23:47:04Z</time>
      </trkpt>
      <trkpt lat="39.26638509423167" lon="118.43384028389764">
        <ele>12.6</ele>
        <time>2024-11-09T23:47:05Z</time>
      </trkpt>
      <trkpt lat="39.266382259119176" lon="118.43380095991323">
        <ele>12.6</ele>
        <time>2024-11-09T23:47:06Z</time>
      </trkpt>
      <trkpt lat="39.26637946715906" lon="118.43376536316475">
        <ele>12.6</ele>
        <time>2024-11-09T23:47:07Z</time>
      </trkpt>
      <trkpt lat="39.26637608558574" lon="118.43372509717332">
        <ele>12.8</ele>
        <time>2024-11-09T23:47:08Z</time>
      </trkpt>
      <trkpt lat="39.26637276145432" lon="118.43368889129232">
        <ele>12.8</ele>
        <time>2024-11-09T23:47:09Z</time>
      </trkpt>
      <trkpt lat="39.26636888662523" lon="118.43364807782712">
        <ele>12.8</ele>
        <time>2024-11-09T23:47:10Z</time>
      </trkpt>
      <trkpt lat="39.26636514647164" lon="118.43361133602909">
        <ele>12.8</ele>
        <time>2024-11-09T23:47:11Z</time>
      </trkpt>
      <trkpt lat="39.2663612378847" lon="118.43357434500227">
        <ele>12.8</ele>
        <time>2024-11-09T23:47:12Z</time>
      </trkpt>
      <trkpt lat="39.266357261497184" lon="118.43353806694083">
        <ele>12.9</ele>
        <time>2024-11-09T23:47:13Z</time>
      </trkpt>
      <trkpt lat="39.2663532574911" lon="118.43350213729131">
        <ele>12.9</ele>
        <time>2024-11-09T23:47:14Z</time>
      </trkpt>
      <trkpt lat="39.26634896862538" lon="118.4334619310498">
        <ele>12.9</ele>
        <time>2024-11-09T23:47:15Z</time>
      </trkpt>
      <trkpt lat="39.266345149611794" lon="118.43342579437261">
        <ele>12.9</ele>
        <time>2024-11-09T23:47:16Z</time>
      </trkpt>
      <trkpt lat="39.26634167512971" lon="118.43339111460462">
        <ele>12.9</ele>
        <time>2024-11-09T23:47:17Z</time>
      </trkpt>
      <trkpt lat="39.26633894623938" lon="118.43336267456989">
        <ele>13</ele>
        <time>2024-11-09T23:47:18Z</time>
      </trkpt>
      <trkpt lat="39.266336255498956" lon="118.43333162109917">
        <ele>13</ele>
        <time>2024-11-09T23:47:19Z</time>
      </trkpt>
      <trkpt lat="39.266333563764945" lon="118.43329582936636">
        <ele>13</ele>
        <time>2024-11-09T23:47:20Z</time>
      </trkpt>
      <trkpt lat="39.26633091786315" lon="118.43325253850988">
        <ele>13</ele>
        <time>2024-11-09T23:47:21Z</time>
      </trkpt>
      <trkpt lat="39.26632882129494" lon="118.43320898029732">
        <ele>13</ele>
        <time>2024-11-09T23:47:22Z</time>
      </trkpt>
      <trkpt lat="39.26632667783619" lon="118.43316564025649">
        <ele>12.9</ele>
        <time>2024-11-09T23:47:23Z</time>
      </trkpt>
      <trkpt lat="39.26632289389833" lon="118.43312319283532">
        <ele>12.9</ele>
        <time>2024-11-09T23:47:24Z</time>
      </trkpt>
      <trkpt lat="39.266316555959264" lon="118.43308034591722">
        <ele>12.9</ele>
        <time>2024-11-09T23:47:25Z</time>
      </trkpt>
      <trkpt lat="39.266308688041825" lon="118.43303810734942">
        <ele>12.9</ele>
        <time>2024-11-09T23:47:26Z</time>
      </trkpt>
      <trkpt lat="39.26630145443667" lon="118.4329996747269">
        <ele>12.9</ele>
        <time>2024-11-09T23:47:27Z</time>
      </trkpt>
      <trkpt lat="39.26629618098424" lon="118.43296326857534">
        <ele>12.9</ele>
        <time>2024-11-09T23:47:28Z</time>
      </trkpt>
      <trkpt lat="39.26629236745349" lon="118.43292512796585">
        <ele>12.9</ele>
        <time>2024-11-09T23:47:29Z</time>
      </trkpt>
      <trkpt lat="39.26628966416491" lon="118.43288729364538">
        <ele>12.9</ele>
        <time>2024-11-09T23:47:30Z</time>
      </trkpt>
      <trkpt lat="39.26628775555345" lon="118.43284976607472">
        <ele>12.9</ele>
        <time>2024-11-09T23:47:31Z</time>
      </trkpt>
      <trkpt lat="39.266286231886" lon="118.43281274325926">
        <ele>12.9</ele>
        <time>2024-11-09T23:47:32Z</time>
      </trkpt>
      <trkpt lat="39.266285331153306" lon="118.43277605334039">
        <ele>13</ele>
        <time>2024-11-09T23:47:33Z</time>
      </trkpt>
      <trkpt lat="39.266284363521166" lon="118.43273928804454">
        <ele>13</ele>
        <time>2024-11-09T23:47:34Z</time>
      </trkpt>
      <trkpt lat="39.266283736827155" lon="118.43270676932501">
        <ele>13</ele>
        <time>2024-11-09T23:47:35Z</time>
      </trkpt>
      <trkpt lat="39.26628279916221" lon="118.43267191707659">
        <ele>13</ele>
        <time>2024-11-09T23:47:36Z</time>
      </trkpt>
      <trkpt lat="39.26628177347162" lon="118.43263859979965">
        <ele>13</ele>
        <time>2024-11-09T23:47:37Z</time>
      </trkpt>
      <trkpt lat="39.26627984568671" lon="118.43260244328995">
        <ele>13.2</ele>
        <time>2024-11-09T23:47:38Z</time>
      </trkpt>
      <trkpt lat="39.266277406921624" lon="118.4325658972571">
        <ele>13.2</ele>
        <time>2024-11-09T23:47:39Z</time>
      </trkpt>
      <trkpt lat="39.26627510481304" lon="118.43252731886881">
        <ele>13.2</ele>
        <time>2024-11-09T23:47:40Z</time>
      </trkpt>
      <trkpt lat="39.26627407949012" lon="118.43248976460534">
        <ele>13.2</ele>
        <time>2024-11-09T23:47:41Z</time>
      </trkpt>
      <trkpt lat="39.26627399015576" lon="118.43245513323733">
        <ele>13.2</ele>
        <time>2024-11-09T23:47:42Z</time>
      </trkpt>
      <trkpt lat="39.266274884785396" lon="118.43242112301631">
        <ele>13.4</ele>
        <time>2024-11-09T23:47:43Z</time>
      </trkpt>
      <trkpt lat="39.266275575746434" lon="118.4323883019498">
        <ele>13.4</ele>
        <time>2024-11-09T23:47:44Z</time>
      </trkpt>
      <trkpt lat="39.26627710999478" lon="118.4323377464149">
        <ele>13.4</ele>
        <time>2024-11-09T23:47:45Z</time>
      </trkpt>
      <trkpt lat="39.26627748496653" lon="118.43231279163612">
        <ele>13.4</ele>
        <time>2024-11-09T23:47:46Z</time>
      </trkpt>
    </trkseg>
  </trk>
</gpx>