<?xml version="1.0" encoding="UTF-8"?>
<gpx xmlns="http://www.topografix.com/GPX/1/1" xmlns:gpxtpx="http://www.garmin.com/xmlschemas/TrackPointExtension/v1" xmlns:xsi="http://www.w3.org/2001/XMLSchema-instance" xsi:schemaLocation="http://www.topografix.com/GPX/1/1 http://www.topografix.com/GPX/1/1/gpx.xsd" version="1.1" creator="gpx.py -- https://github.com/tkrajina/gpxpy">
  <trk>
    <name>gpx from codoon</name>
    <type>Run</type>
    <trkseg>
      <trkpt lat="39.26614110530057" lon="118.43159088001397">
        <ele>63</ele>
        <time>2024-11-11T15:23:31Z</time>
      </trkpt>
      <trkpt lat="39.266486506513374" lon="118.43158059041136">
        <ele>63</ele>
        <time>2024-11-11T15:23:32Z</time>
      </trkpt>
      <trkpt lat="39.26653779395069" lon="118.43157924389963">
        <ele>63</ele>
        <time>2024-11-11T15:23:33Z</time>
      </trkpt>
      <trkpt lat="39.26664289645514" lon="118.43157669482135">
        <ele>63</ele>
        <time>2024-11-11T15:23:34Z</time>
      </trkpt>
      <trkpt lat="39.266656505971625" lon="118.43157755423235">
        <ele>63</ele>
        <time>2024-11-11T15:23:35Z</time>
      </trkpt>
      <trkpt lat="39.26667727170332" lon="118.4315787882965">
        <ele>63</ele>
        <time>2024-11-11T15:23:36Z</time>
      </trkpt>
      <trkpt lat="39.266703434357744" lon="118.4315802210573">
        <ele>63</ele>
        <time>2024-11-11T15:23:37Z</time>
      </trkpt>
      <trkpt lat="39.26674438648829" lon="118.43158172313453">
        <ele>63</ele>
        <time>2024-11-11T15:23:38Z</time>
      </trkpt>
      <trkpt lat="39.266790882309195" lon="118.43158299415505">
        <ele>63</ele>
        <time>2024-11-11T15:23:39Z</time>
      </trkpt>
      <trkpt lat="39.266907180335686" lon="118.43158454204628">
        <ele>63</ele>
        <time>2024-11-11T15:23:54Z</time>
      </trkpt>
      <trkpt lat="39.26699037394028" lon="118.4315853601389">
        <ele>63</ele>
        <time>2024-11-11T15:23:55Z</time>
      </trkpt>
      <trkpt lat="39.26707839885821" lon="118.43158643650061">
        <ele>63</ele>
        <time>2024-11-11T15:23:56Z</time>
      </trkpt>
      <trkpt lat="39.26708457063223" lon="118.43158584474463">
        <ele>0</ele>
        <time>2024-11-11T15:23:57Z</time>
      </trkpt>
      <trkpt lat="39.2671071373244" lon="118.43158522030083">
        <ele>0</ele>
        <time>2024-11-11T15:24:03Z</time>
      </trkpt>
      <trkpt lat="39.267114849827955" lon="118.43158373444079">
        <ele>0</ele>
        <time>2024-11-11T15:24:04Z</time>
      </trkpt>
      <trkpt lat="39.267121438500574" lon="118.43158297546152">
        <ele>0</ele>
        <time>2024-11-11T15:24:05Z</time>
      </trkpt>
      <trkpt lat="39.26713244185626" lon="118.43157737748997">
        <ele>0</ele>
        <time>2024-11-11T15:24:06Z</time>
      </trkpt>
      <trkpt lat="39.26714617009239" lon="118.43156912151028">
        <ele>0</ele>
        <time>2024-11-11T15:24:07Z</time>
      </trkpt>
      <trkpt lat="39.26715649484983" lon="118.43156263468994">
        <ele>0</ele>
        <time>2024-11-11T15:24:08Z</time>
      </trkpt>
    </trkseg>
  </trk>
</gpx>