<?xml version="1.0" encoding="UTF-8"?>
<gpx xmlns="http://www.topografix.com/GPX/1/1" xmlns:gpxtpx="http://www.garmin.com/xmlschemas/TrackPointExtension/v1" xmlns:xsi="http://www.w3.org/2001/XMLSchema-instance" xsi:schemaLocation="http://www.topografix.com/GPX/1/1 http://www.topografix.com/GPX/1/1/gpx.xsd" version="1.1" creator="gpx.py -- https://github.com/tkrajina/gpxpy">
  <trk>
    <name>gpx from codoon</name>
    <type>Run</type>
    <trkseg>
      <trkpt lat="39.26884188004484" lon="118.43549640236888">
        <ele>13</ele>
        <time>2025-02-15T00:52:30Z</time>
      </trkpt>
      <trkpt lat="39.26889722508793" lon="118.43549257320491">
        <ele>13</ele>
        <time>2025-02-15T00:52:31Z</time>
      </trkpt>
      <trkpt lat="39.26891085778043" lon="118.43549147612751">
        <ele>13</ele>
        <time>2025-02-15T00:52:32Z</time>
      </trkpt>
      <trkpt lat="39.26893879838056" lon="118.43548927390553">
        <ele>13</ele>
        <time>2025-02-15T00:52:33Z</time>
      </trkpt>
      <trkpt lat="39.268960437882356" lon="118.43548734693223">
        <ele>13</ele>
        <time>2025-02-15T00:52:34Z</time>
      </trkpt>
      <trkpt lat="39.26898589461665" lon="118.43548511204813">
        <ele>13</ele>
        <time>2025-02-15T00:52:35Z</time>
      </trkpt>
      <trkpt lat="39.26901206386891" lon="118.4354828279811">
        <ele>13</ele>
        <time>2025-02-15T00:52:36Z</time>
      </trkpt>
      <trkpt lat="39.26903905867658" lon="118.43548037862922">
        <ele>12.9</ele>
        <time>2025-02-15T00:52:37Z</time>
      </trkpt>
      <trkpt lat="39.26906670753908" lon="118.43547768867897">
        <ele>12.9</ele>
        <time>2025-02-15T00:52:38Z</time>
      </trkpt>
      <trkpt lat="39.26909513898416" lon="118.43547468099834">
        <ele>12.9</ele>
        <time>2025-02-15T00:52:39Z</time>
      </trkpt>
      <trkpt lat="39.26912647926103" lon="118.43547113283287">
        <ele>12.9</ele>
        <time>2025-02-15T00:52:40Z</time>
      </trkpt>
      <trkpt lat="39.269155361571805" lon="118.4354677104507">
        <ele>12.9</ele>
        <time>2025-02-15T00:52:41Z</time>
      </trkpt>
      <trkpt lat="39.26918404866547" lon="118.4354642436631">
        <ele>12.7</ele>
        <time>2025-02-15T00:52:42Z</time>
      </trkpt>
      <trkpt lat="39.269213496107646" lon="118.43546066621538">
        <ele>12.7</ele>
        <time>2025-02-15T00:52:43Z</time>
      </trkpt>
      <trkpt lat="39.26924276412145" lon="118.43545708828155">
        <ele>12.7</ele>
        <time>2025-02-15T00:52:44Z</time>
      </trkpt>
      <trkpt lat="39.269275216177505" lon="118.43545310228225">
        <ele>12.7</ele>
        <time>2025-02-15T00:52:45Z</time>
      </trkpt>
      <trkpt lat="39.26930403872373" lon="118.43544946013394">
        <ele>12.7</ele>
        <time>2025-02-15T00:52:46Z</time>
      </trkpt>
      <trkpt lat="39.26933614611521" lon="118.43544541089736">
        <ele>12.4</ele>
        <time>2025-02-15T00:52:47Z</time>
      </trkpt>
      <trkpt lat="39.269364848397544" lon="118.43544175731563">
        <ele>12.4</ele>
        <time>2025-02-15T00:52:48Z</time>
      </trkpt>
      <trkpt lat="39.26939680057465" lon="118.43543777924681">
        <ele>12.4</ele>
        <time>2025-02-15T00:52:49Z</time>
      </trkpt>
      <trkpt lat="39.26942532659671" lon="118.43543421379671">
        <ele>12.4</ele>
        <time>2025-02-15T00:52:50Z</time>
      </trkpt>
      <trkpt lat="39.269456736442926" lon="118.43543034877979">
        <ele>12.4</ele>
        <time>2025-02-15T00:52:51Z</time>
      </trkpt>
      <trkpt lat="39.26948488738908" lon="118.43542689653322">
        <ele>12.1</ele>
        <time>2025-02-15T00:52:52Z</time>
      </trkpt>
      <trkpt lat="39.26951307437971" lon="118.43542351311018">
        <ele>12.1</ele>
        <time>2025-02-15T00:52:53Z</time>
      </trkpt>
      <trkpt lat="39.269541847726636" lon="118.43542013627868">
        <ele>12.1</ele>
        <time>2025-02-15T00:52:54Z</time>
      </trkpt>
      <trkpt lat="39.269570551217676" lon="118.43541681449948">
        <ele>12.1</ele>
        <time>2025-02-15T00:52:55Z</time>
      </trkpt>
      <trkpt lat="39.26960273555023" lon="118.4354131313417">
        <ele>12.1</ele>
        <time>2025-02-15T00:52:56Z</time>
      </trkpt>
      <trkpt lat="39.26963146046917" lon="118.43540986150207">
        <ele>11.8</ele>
        <time>2025-02-15T00:52:57Z</time>
      </trkpt>
      <trkpt lat="39.269663330131905" lon="118.43540628202318">
        <ele>11.8</ele>
        <time>2025-02-15T00:52:58Z</time>
      </trkpt>
      <trkpt lat="39.26969196957122" lon="118.43540313083479">
        <ele>11.8</ele>
        <time>2025-02-15T00:52:59Z</time>
      </trkpt>
      <trkpt lat="39.26972124695101" lon="118.43539998566833">
        <ele>11.8</ele>
        <time>2025-02-15T00:53:00Z</time>
      </trkpt>
      <trkpt lat="39.26975088697431" lon="118.43539686487752">
        <ele>11.8</ele>
        <time>2025-02-15T00:53:01Z</time>
      </trkpt>
      <trkpt lat="39.26978321996915" lon="118.43539347354903">
        <ele>11.6</ele>
        <time>2025-02-15T00:53:02Z</time>
      </trkpt>
      <trkpt lat="39.26981506646878" lon="118.43539013262222">
        <ele>11.6</ele>
        <time>2025-02-15T00:53:03Z</time>
      </trkpt>
      <trkpt lat="39.26984364083481" lon="118.43538715524268">
        <ele>11.6</ele>
        <time>2025-02-15T00:53:04Z</time>
      </trkpt>
      <trkpt lat="39.26987297477311" lon="118.43538409747423">
        <ele>11.6</ele>
        <time>2025-02-15T00:53:05Z</time>
      </trkpt>
      <trkpt lat="39.26990224905764" lon="118.43538104240267">
        <ele>11.6</ele>
        <time>2025-02-15T00:53:06Z</time>
      </trkpt>
      <trkpt lat="39.26993480786358" lon="118.43537756221912">
        <ele>11.6</ele>
        <time>2025-02-15T00:53:07Z</time>
      </trkpt>
      <trkpt lat="39.26996359374299" lon="118.43537442378603">
        <ele>11.6</ele>
        <time>2025-02-15T00:53:08Z</time>
      </trkpt>
      <trkpt lat="39.26999508970123" lon="118.43537092873211">
        <ele>11.6</ele>
        <time>2025-02-15T00:53:09Z</time>
      </trkpt>
      <trkpt lat="39.27002298702118" lon="118.4353678270614">
        <ele>11.6</ele>
        <time>2025-02-15T00:53:10Z</time>
      </trkpt>
      <trkpt lat="39.27005070659242" lon="118.43536475506303">
        <ele>11.6</ele>
        <time>2025-02-15T00:53:11Z</time>
      </trkpt>
      <trkpt lat="39.27007863580111" lon="118.43536166226892">
        <ele>11.7</ele>
        <time>2025-02-15T00:53:12Z</time>
      </trkpt>
      <trkpt lat="39.27010600029495" lon="118.43535860828933">
        <ele>11.7</ele>
        <time>2025-02-15T00:53:13Z</time>
      </trkpt>
      <trkpt lat="39.270135870744646" lon="118.43535522740397">
        <ele>11.7</ele>
        <time>2025-02-15T00:53:14Z</time>
      </trkpt>
      <trkpt lat="39.27016145804672" lon="118.43535220830238">
        <ele>11.7</ele>
        <time>2025-02-15T00:53:15Z</time>
      </trkpt>
      <trkpt lat="39.27018719678184" lon="118.43534895715298">
        <ele>11.7</ele>
        <time>2025-02-15T00:53:16Z</time>
      </trkpt>
      <trkpt lat="39.27020997034097" lon="118.4353457469688">
        <ele>11.8</ele>
        <time>2025-02-15T00:53:17Z</time>
      </trkpt>
      <trkpt lat="39.270237571675366" lon="118.43534137133443">
        <ele>11.8</ele>
        <time>2025-02-15T00:53:18Z</time>
      </trkpt>
      <trkpt lat="39.27026490848335" lon="118.43533651111515">
        <ele>11.8</ele>
        <time>2025-02-15T00:53:19Z</time>
      </trkpt>
      <trkpt lat="39.27029114532669" lon="118.43533189271005">
        <ele>11.8</ele>
        <time>2025-02-15T00:53:20Z</time>
      </trkpt>
      <trkpt lat="39.27031328289669" lon="118.43532840595365">
        <ele>11.8</ele>
        <time>2025-02-15T00:53:21Z</time>
      </trkpt>
      <trkpt lat="39.27033239130423" lon="118.43532635680279">
        <ele>11.8</ele>
        <time>2025-02-15T00:53:22Z</time>
      </trkpt>
      <trkpt lat="39.27034917987262" lon="118.43532479674822">
        <ele>11.8</ele>
        <time>2025-02-15T00:53:23Z</time>
      </trkpt>
      <trkpt lat="39.270359649314834" lon="118.43532373925719">
        <ele>11.8</ele>
        <time>2025-02-15T00:53:24Z</time>
      </trkpt>
      <trkpt lat="39.270367609203355" lon="118.43532147455012">
        <ele>11.8</ele>
        <time>2025-02-15T00:53:25Z</time>
      </trkpt>
      <trkpt lat="39.27037193232315" lon="118.43531823571362">
        <ele>11.8</ele>
        <time>2025-02-15T00:53:26Z</time>
      </trkpt>
      <trkpt lat="39.27037484834381" lon="118.43531281920258">
        <ele>11.8</ele>
        <time>2025-02-15T00:53:27Z</time>
      </trkpt>
      <trkpt lat="39.27037529889725" lon="118.43530759837711">
        <ele>11.8</ele>
        <time>2025-02-15T00:53:28Z</time>
      </trkpt>
      <trkpt lat="39.27037553213055" lon="118.43530032917876">
        <ele>11.8</ele>
        <time>2025-02-15T00:53:29Z</time>
      </trkpt>
      <trkpt lat="39.27037604902436" lon="118.43529489937657">
        <ele>11.8</ele>
        <time>2025-02-15T00:53:30Z</time>
      </trkpt>
      <trkpt lat="39.2703772765485" lon="118.43529087111173">
        <ele>11.8</ele>
        <time>2025-02-15T00:53:31Z</time>
      </trkpt>
      <trkpt lat="39.27037831760403" lon="118.43529081302509">
        <ele>11.8</ele>
        <time>2025-02-15T00:53:32Z</time>
      </trkpt>
      <trkpt lat="39.27038005258792" lon="118.4352918754272">
        <ele>11.8</ele>
        <time>2025-02-15T00:53:33Z</time>
      </trkpt>
      <trkpt lat="39.27038102492721" lon="118.435292698735">
        <ele>11.8</ele>
        <time>2025-02-15T00:53:34Z</time>
      </trkpt>
      <trkpt lat="39.27038326108644" lon="118.43529265559214">
        <ele>11.8</ele>
        <time>2025-02-15T00:53:35Z</time>
      </trkpt>
      <trkpt lat="39.27038680001504" lon="118.4352917590306">
        <ele>11.8</ele>
        <time>2025-02-15T00:53:36Z</time>
      </trkpt>
      <trkpt lat="39.27039398312413" lon="118.43529051037767">
        <ele>11.8</ele>
        <time>2025-02-15T00:53:37Z</time>
      </trkpt>
      <trkpt lat="39.27040243507333" lon="118.43529025581448">
        <ele>11.8</ele>
        <time>2025-02-15T00:53:38Z</time>
      </trkpt>
      <trkpt lat="39.270413150383874" lon="118.43529124094168">
        <ele>11.8</ele>
        <time>2025-02-15T00:53:39Z</time>
      </trkpt>
      <trkpt lat="39.270425500010965" lon="118.43529344898194">
        <ele>11.8</ele>
        <time>2025-02-15T00:53:40Z</time>
      </trkpt>
      <trkpt lat="39.270440555901445" lon="118.43529642238128">
        <ele>11.8</ele>
        <time>2025-02-15T00:53:41Z</time>
      </trkpt>
      <trkpt lat="39.270456264277975" lon="118.43530035722341">
        <ele>11.8</ele>
        <time>2025-02-15T00:53:42Z</time>
      </trkpt>
      <trkpt lat="39.270474908786724" lon="118.43530601026809">
        <ele>11.8</ele>
        <time>2025-02-15T00:53:43Z</time>
      </trkpt>
      <trkpt lat="39.27049349960317" lon="118.4353124067558">
        <ele>11.8</ele>
        <time>2025-02-15T00:53:44Z</time>
      </trkpt>
      <trkpt lat="39.27051458485999" lon="118.4353201579365">
        <ele>11.8</ele>
        <time>2025-02-15T00:53:45Z</time>
      </trkpt>
      <trkpt lat="39.27053349374278" lon="118.43532659821831">
        <ele>11.8</ele>
        <time>2025-02-15T00:53:46Z</time>
      </trkpt>
      <trkpt lat="39.27055521693383" lon="118.43533239242842">
        <ele>11.8</ele>
        <time>2025-02-15T00:53:47Z</time>
      </trkpt>
      <trkpt lat="39.270575833667735" lon="118.4353351598073">
        <ele>11.8</ele>
        <time>2025-02-15T00:53:48Z</time>
      </trkpt>
      <trkpt lat="39.27059793738996" lon="118.43533654772548">
        <ele>11.8</ele>
        <time>2025-02-15T00:53:49Z</time>
      </trkpt>
      <trkpt lat="39.270622025703126" lon="118.4353360771897">
        <ele>11.8</ele>
        <time>2025-02-15T00:53:50Z</time>
      </trkpt>
      <trkpt lat="39.270647335289304" lon="118.43533579291439">
        <ele>11.8</ele>
        <time>2025-02-15T00:53:51Z</time>
      </trkpt>
      <trkpt lat="39.27067619413086" lon="118.43533583091622">
        <ele>11.8</ele>
        <time>2025-02-15T00:53:52Z</time>
      </trkpt>
      <trkpt lat="39.2707039793096" lon="118.43533626198196">
        <ele>11.8</ele>
        <time>2025-02-15T00:53:53Z</time>
      </trkpt>
      <trkpt lat="39.27073296801854" lon="118.43533630495003">
        <ele>11.8</ele>
        <time>2025-02-15T00:53:54Z</time>
      </trkpt>
      <trkpt lat="39.270763114995766" lon="118.4353357577996">
        <ele>11.8</ele>
        <time>2025-02-15T00:53:55Z</time>
      </trkpt>
      <trkpt lat="39.2707928340652" lon="118.43533491324719">
        <ele>11.8</ele>
        <time>2025-02-15T00:53:56Z</time>
      </trkpt>
      <trkpt lat="39.2708252189269" lon="118.4353338675913">
        <ele>11.9</ele>
        <time>2025-02-15T00:53:57Z</time>
      </trkpt>
      <trkpt lat="39.27085427091798" lon="118.43533312940745">
        <ele>11.9</ele>
        <time>2025-02-15T00:53:58Z</time>
      </trkpt>
      <trkpt lat="39.27088637359727" lon="118.43533275572939">
        <ele>11.9</ele>
        <time>2025-02-15T00:53:59Z</time>
      </trkpt>
      <trkpt lat="39.2709151764716" lon="118.43533297779456">
        <ele>11.9</ele>
        <time>2025-02-15T00:54:00Z</time>
      </trkpt>
      <trkpt lat="39.27094709537763" lon="118.43533360096983">
        <ele>11.9</ele>
        <time>2025-02-15T00:54:01Z</time>
      </trkpt>
      <trkpt lat="39.270975746154924" lon="118.43533426263464">
        <ele>11.9</ele>
        <time>2025-02-15T00:54:02Z</time>
      </trkpt>
      <trkpt lat="39.27100702619673" lon="118.43533455140684">
        <ele>11.9</ele>
        <time>2025-02-15T00:54:03Z</time>
      </trkpt>
      <trkpt lat="39.271035739609125" lon="118.43533388814184">
        <ele>11.9</ele>
        <time>2025-02-15T00:54:04Z</time>
      </trkpt>
      <trkpt lat="39.27106497733175" lon="118.43533220343791">
        <ele>11.9</ele>
        <time>2025-02-15T00:54:05Z</time>
      </trkpt>
      <trkpt lat="39.27109449196355" lon="118.43532907687603">
        <ele>11.9</ele>
        <time>2025-02-15T00:54:06Z</time>
      </trkpt>
      <trkpt lat="39.27112337455499" lon="118.43532518425316">
        <ele>11.9</ele>
        <time>2025-02-15T00:54:07Z</time>
      </trkpt>
      <trkpt lat="39.27115397354874" lon="118.4353205333726">
        <ele>11.9</ele>
        <time>2025-02-15T00:54:08Z</time>
      </trkpt>
      <trkpt lat="39.271181497665545" lon="118.43531641931186">
        <ele>11.9</ele>
        <time>2025-02-15T00:54:09Z</time>
      </trkpt>
      <trkpt lat="39.271209341706104" lon="118.43531249552775">
        <ele>11.9</ele>
        <time>2025-02-15T00:54:10Z</time>
      </trkpt>
      <trkpt lat="39.27123715700692" lon="118.43530893001304">
        <ele>11.9</ele>
        <time>2025-02-15T00:54:11Z</time>
      </trkpt>
      <trkpt lat="39.271267177937276" lon="118.43530484505979">
        <ele>11.9</ele>
        <time>2025-02-15T00:54:12Z</time>
      </trkpt>
      <trkpt lat="39.271297640064624" lon="118.43530112521927">
        <ele>11.9</ele>
        <time>2025-02-15T00:54:13Z</time>
      </trkpt>
      <trkpt lat="39.271326992821464" lon="118.43529804367377">
        <ele>11.9</ele>
        <time>2025-02-15T00:54:14Z</time>
      </trkpt>
      <trkpt lat="39.27135810262228" lon="118.43529555360915">
        <ele>11.9</ele>
        <time>2025-02-15T00:54:15Z</time>
      </trkpt>
      <trkpt lat="39.27138939888787" lon="118.43529316726114">
        <ele>11.9</ele>
        <time>2025-02-15T00:54:16Z</time>
      </trkpt>
      <trkpt lat="39.27142303335005" lon="118.43529064752242">
        <ele>11.8</ele>
        <time>2025-02-15T00:54:17Z</time>
      </trkpt>
      <trkpt lat="39.2714536394231" lon="118.43528837254752">
        <ele>11.8</ele>
        <time>2025-02-15T00:54:18Z</time>
      </trkpt>
      <trkpt lat="39.27148372903622" lon="118.43528611401865">
        <ele>11.8</ele>
        <time>2025-02-15T00:54:19Z</time>
      </trkpt>
      <trkpt lat="39.27151314561258" lon="118.43528354810368">
        <ele>11.8</ele>
        <time>2025-02-15T00:54:20Z</time>
      </trkpt>
      <trkpt lat="39.27154128587336" lon="118.43528115021302">
        <ele>11.8</ele>
        <time>2025-02-15T00:54:21Z</time>
      </trkpt>
      <trkpt lat="39.271571472150974" lon="118.43527888955056">
        <ele>11.8</ele>
        <time>2025-02-15T00:54:22Z</time>
      </trkpt>
      <trkpt lat="39.27159915121608" lon="118.43527730894938">
        <ele>11.8</ele>
        <time>2025-02-15T00:54:23Z</time>
      </trkpt>
      <trkpt lat="39.27162749409693" lon="118.4352760724628">
        <ele>11.8</ele>
        <time>2025-02-15T00:54:24Z</time>
      </trkpt>
      <trkpt lat="39.27165607745429" lon="118.43527487334879">
        <ele>11.8</ele>
        <time>2025-02-15T00:54:25Z</time>
      </trkpt>
      <trkpt lat="39.271684316478435" lon="118.4352738111843">
        <ele>11.8</ele>
        <time>2025-02-15T00:54:26Z</time>
      </trkpt>
      <trkpt lat="39.27171277253844" lon="118.4352730485979">
        <ele>11.8</ele>
        <time>2025-02-15T00:54:27Z</time>
      </trkpt>
      <trkpt lat="39.27173879463053" lon="118.43527304132867">
        <ele>11.8</ele>
        <time>2025-02-15T00:54:28Z</time>
      </trkpt>
      <trkpt lat="39.27176748304845" lon="118.43527353356784">
        <ele>11.8</ele>
        <time>2025-02-15T00:54:29Z</time>
      </trkpt>
      <trkpt lat="39.27179532631316" lon="118.43527419509515">
        <ele>11.8</ele>
        <time>2025-02-15T00:54:30Z</time>
      </trkpt>
      <trkpt lat="39.27182565396488" lon="118.43527500404868">
        <ele>11.8</ele>
        <time>2025-02-15T00:54:31Z</time>
      </trkpt>
      <trkpt lat="39.27185343970034" lon="118.4352760559367">
        <ele>11.9</ele>
        <time>2025-02-15T00:54:32Z</time>
      </trkpt>
      <trkpt lat="39.27188424000272" lon="118.43527713404079">
        <ele>11.9</ele>
        <time>2025-02-15T00:54:33Z</time>
      </trkpt>
      <trkpt lat="39.271912856501" lon="118.43527796173855">
        <ele>11.9</ele>
        <time>2025-02-15T00:54:34Z</time>
      </trkpt>
      <trkpt lat="39.27194183730484" lon="118.43527821872547">
        <ele>11.9</ele>
        <time>2025-02-15T00:54:35Z</time>
      </trkpt>
      <trkpt lat="39.271971313100316" lon="118.43527775658144">
        <ele>11.9</ele>
        <time>2025-02-15T00:54:36Z</time>
      </trkpt>
      <trkpt lat="39.27200027399048" lon="118.43527657684133">
        <ele>12</ele>
        <time>2025-02-15T00:54:37Z</time>
      </trkpt>
      <trkpt lat="39.27203126015434" lon="118.43527470018138">
        <ele>12</ele>
        <time>2025-02-15T00:54:38Z</time>
      </trkpt>
      <trkpt lat="39.272059118781435" lon="118.43527240327613">
        <ele>12</ele>
        <time>2025-02-15T00:54:39Z</time>
      </trkpt>
      <trkpt lat="39.2720875372133" lon="118.43526983567976">
        <ele>12</ele>
        <time>2025-02-15T00:54:40Z</time>
      </trkpt>
      <trkpt lat="39.27211393568682" lon="118.43526739594155">
        <ele>12</ele>
        <time>2025-02-15T00:54:41Z</time>
      </trkpt>
      <trkpt lat="39.272143330723075" lon="118.43526488607614">
        <ele>12.1</ele>
        <time>2025-02-15T00:54:42Z</time>
      </trkpt>
      <trkpt lat="39.27217202638727" lon="118.43526250430932">
        <ele>12.1</ele>
        <time>2025-02-15T00:54:43Z</time>
      </trkpt>
      <trkpt lat="39.272202541614746" lon="118.43525992862871">
        <ele>12.1</ele>
        <time>2025-02-15T00:54:44Z</time>
      </trkpt>
      <trkpt lat="39.27223018820602" lon="118.43525831990772">
        <ele>12.1</ele>
        <time>2025-02-15T00:54:45Z</time>
      </trkpt>
      <trkpt lat="39.27225788227582" lon="118.43525779001948">
        <ele>12.1</ele>
        <time>2025-02-15T00:54:46Z</time>
      </trkpt>
      <trkpt lat="39.272285478784994" lon="118.43525867096858">
        <ele>12.1</ele>
        <time>2025-02-15T00:54:47Z</time>
      </trkpt>
      <trkpt lat="39.27231192304705" lon="118.43526019429781">
        <ele>12.1</ele>
        <time>2025-02-15T00:54:48Z</time>
      </trkpt>
      <trkpt lat="39.2723395288279" lon="118.43526208758765">
        <ele>12.1</ele>
        <time>2025-02-15T00:54:49Z</time>
      </trkpt>
      <trkpt lat="39.27236417285488" lon="118.4352634801645">
        <ele>12.1</ele>
        <time>2025-02-15T00:54:50Z</time>
      </trkpt>
      <trkpt lat="39.27238903255696" lon="118.4352639261718">
        <ele>12.1</ele>
        <time>2025-02-15T00:54:51Z</time>
      </trkpt>
      <trkpt lat="39.27241456528957" lon="118.43526273708571">
        <ele>12.1</ele>
        <time>2025-02-15T00:54:52Z</time>
      </trkpt>
      <trkpt lat="39.272439732922024" lon="118.4352607536545">
        <ele>12.1</ele>
        <time>2025-02-15T00:54:53Z</time>
      </trkpt>
      <trkpt lat="39.27246729773452" lon="118.43525813640572">
        <ele>12.1</ele>
        <time>2025-02-15T00:54:54Z</time>
      </trkpt>
      <trkpt lat="39.272491827305" lon="118.43525581039341">
        <ele>12.1</ele>
        <time>2025-02-15T00:54:55Z</time>
      </trkpt>
      <trkpt lat="39.27251947648908" lon="118.43525348465903">
        <ele>12.1</ele>
        <time>2025-02-15T00:54:56Z</time>
      </trkpt>
      <trkpt lat="39.27254433672602" lon="118.43525173990736">
        <ele>12.1</ele>
        <time>2025-02-15T00:54:57Z</time>
      </trkpt>
      <trkpt lat="39.27257226558873" lon="118.43525034026948">
        <ele>12.1</ele>
        <time>2025-02-15T00:54:58Z</time>
      </trkpt>
      <trkpt lat="39.27259705479366" lon="118.43524962738972">
        <ele>12.1</ele>
        <time>2025-02-15T00:54:59Z</time>
      </trkpt>
      <trkpt lat="39.27262484449402" lon="118.43524920274766">
        <ele>12.1</ele>
        <time>2025-02-15T00:55:00Z</time>
      </trkpt>
      <trkpt lat="39.27265050161161" lon="118.43524890420859">
        <ele>12.1</ele>
        <time>2025-02-15T00:55:01Z</time>
      </trkpt>
      <trkpt lat="39.27267682007165" lon="118.43524855050782">
        <ele>12.2</ele>
        <time>2025-02-15T00:55:02Z</time>
      </trkpt>
      <trkpt lat="39.27270320987006" lon="118.43524742249498">
        <ele>12.2</ele>
        <time>2025-02-15T00:55:03Z</time>
      </trkpt>
      <trkpt lat="39.272728665771446" lon="118.43524550962503">
        <ele>12.2</ele>
        <time>2025-02-15T00:55:04Z</time>
      </trkpt>
      <trkpt lat="39.272756023297895" lon="118.43524219854693">
        <ele>12.2</ele>
        <time>2025-02-15T00:55:05Z</time>
      </trkpt>
      <trkpt lat="39.27278102770223" lon="118.43523858160485">
        <ele>12.2</ele>
        <time>2025-02-15T00:55:06Z</time>
      </trkpt>
      <trkpt lat="39.27280695081125" lon="118.43523513517404">
        <ele>12.3</ele>
        <time>2025-02-15T00:55:07Z</time>
      </trkpt>
      <trkpt lat="39.27283339933068" lon="118.4352324068834">
        <ele>12.3</ele>
        <time>2025-02-15T00:55:08Z</time>
      </trkpt>
      <trkpt lat="39.2728599259855" lon="118.4352302761115">
        <ele>12.3</ele>
        <time>2025-02-15T00:55:09Z</time>
      </trkpt>
      <trkpt lat="39.27288642874315" lon="118.4352285025962">
        <ele>12.3</ele>
        <time>2025-02-15T00:55:10Z</time>
      </trkpt>
      <trkpt lat="39.272912811594416" lon="118.43522699687927">
        <ele>12.3</ele>
        <time>2025-02-15T00:55:11Z</time>
      </trkpt>
      <trkpt lat="39.2729394260977" lon="118.435225462413">
        <ele>12.4</ele>
        <time>2025-02-15T00:55:12Z</time>
      </trkpt>
      <trkpt lat="39.272966079938946" lon="118.43522387260668">
        <ele>12.4</ele>
        <time>2025-02-15T00:55:13Z</time>
      </trkpt>
      <trkpt lat="39.27299322367736" lon="118.43522189087876">
        <ele>12.4</ele>
        <time>2025-02-15T00:55:14Z</time>
      </trkpt>
      <trkpt lat="39.273019417590554" lon="118.43521986141363">
        <ele>12.4</ele>
        <time>2025-02-15T00:55:15Z</time>
      </trkpt>
      <trkpt lat="39.273047757109005" lon="118.43521723063402">
        <ele>12.4</ele>
        <time>2025-02-15T00:55:16Z</time>
      </trkpt>
      <trkpt lat="39.27307280165531" lon="118.43521457579648">
        <ele>12.5</ele>
        <time>2025-02-15T00:55:17Z</time>
      </trkpt>
      <trkpt lat="39.27310082227247" lon="118.43521100404514">
        <ele>12.5</ele>
        <time>2025-02-15T00:55:18Z</time>
      </trkpt>
      <trkpt lat="39.27312671758944" lon="118.43520691870835">
        <ele>12.5</ele>
        <time>2025-02-15T00:55:19Z</time>
      </trkpt>
      <trkpt lat="39.27315300827743" lon="118.4352022588406">
        <ele>12.5</ele>
        <time>2025-02-15T00:55:20Z</time>
      </trkpt>
      <trkpt lat="39.27317927064959" lon="118.43519722986032">
        <ele>12.5</ele>
        <time>2025-02-15T00:55:21Z</time>
      </trkpt>
      <trkpt lat="39.27320453716509" lon="118.4351925965932">
        <ele>12.4</ele>
        <time>2025-02-15T00:55:22Z</time>
      </trkpt>
      <trkpt lat="39.27323215325602" lon="118.4351880608936">
        <ele>12.4</ele>
        <time>2025-02-15T00:55:23Z</time>
      </trkpt>
      <trkpt lat="39.273256862711435" lon="118.43518456471851">
        <ele>12.4</ele>
        <time>2025-02-15T00:55:24Z</time>
      </trkpt>
      <trkpt lat="39.27328507387738" lon="118.4351811997218">
        <ele>12.4</ele>
        <time>2025-02-15T00:55:25Z</time>
      </trkpt>
      <trkpt lat="39.27331092835809" lon="118.43517871707913">
        <ele>12.4</ele>
        <time>2025-02-15T00:55:26Z</time>
      </trkpt>
      <trkpt lat="39.27334028628822" lon="118.43517670053403">
        <ele>12.3</ele>
        <time>2025-02-15T00:55:27Z</time>
      </trkpt>
      <trkpt lat="39.27336673948544" lon="118.43517570717134">
        <ele>12.3</ele>
        <time>2025-02-15T00:55:28Z</time>
      </trkpt>
      <trkpt lat="39.27339535466872" lon="118.43517540623212">
        <ele>12.3</ele>
        <time>2025-02-15T00:55:29Z</time>
      </trkpt>
      <trkpt lat="39.273420698095094" lon="118.43517543559894">
        <ele>12.3</ele>
        <time>2025-02-15T00:55:30Z</time>
      </trkpt>
      <trkpt lat="39.27344566312085" lon="118.435174996505">
        <ele>12.3</ele>
        <time>2025-02-15T00:55:31Z</time>
      </trkpt>
      <trkpt lat="39.27347032780724" lon="118.43517327910659">
        <ele>12.2</ele>
        <time>2025-02-15T00:55:32Z</time>
      </trkpt>
      <trkpt lat="39.27349377836663" lon="118.43517030695774">
        <ele>12.2</ele>
        <time>2025-02-15T00:55:33Z</time>
      </trkpt>
      <trkpt lat="39.273518404819235" lon="118.43516538103616">
        <ele>12.2</ele>
        <time>2025-02-15T00:55:34Z</time>
      </trkpt>
      <trkpt lat="39.27353913110803" lon="118.43515914105636">
        <ele>12.2</ele>
        <time>2025-02-15T00:55:35Z</time>
      </trkpt>
      <trkpt lat="39.273559031013875" lon="118.43515165255458">
        <ele>12.2</ele>
        <time>2025-02-15T00:55:36Z</time>
      </trkpt>
      <trkpt lat="39.27357584158691" lon="118.4351439770564">
        <ele>12.3</ele>
        <time>2025-02-15T00:55:37Z</time>
      </trkpt>
      <trkpt lat="39.2735916653859" lon="118.43513623041311">
        <ele>12.3</ele>
        <time>2025-02-15T00:55:38Z</time>
      </trkpt>
      <trkpt lat="39.27360741417848" lon="118.43512806526148">
        <ele>12.3</ele>
        <time>2025-02-15T00:55:39Z</time>
      </trkpt>
      <trkpt lat="39.27362279375074" lon="118.43512114022549">
        <ele>12.3</ele>
        <time>2025-02-15T00:55:40Z</time>
      </trkpt>
      <trkpt lat="39.27364124957768" lon="118.43511528761472">
        <ele>12.3</ele>
        <time>2025-02-15T00:55:41Z</time>
      </trkpt>
      <trkpt lat="39.273661925485555" lon="118.43511063178363">
        <ele>12.2</ele>
        <time>2025-02-15T00:55:42Z</time>
      </trkpt>
      <trkpt lat="39.273685269330365" lon="118.43510791047258">
        <ele>12.2</ele>
        <time>2025-02-15T00:55:43Z</time>
      </trkpt>
      <trkpt lat="39.27370857345471" lon="118.43510585337764">
        <ele>12.2</ele>
        <time>2025-02-15T00:55:44Z</time>
      </trkpt>
      <trkpt lat="39.2737314674747" lon="118.43510407585806">
        <ele>12.2</ele>
        <time>2025-02-15T00:55:45Z</time>
      </trkpt>
      <trkpt lat="39.27375429835709" lon="118.4351023927794">
        <ele>12.2</ele>
        <time>2025-02-15T00:55:46Z</time>
      </trkpt>
      <trkpt lat="39.273777050730295" lon="118.43510066672602">
        <ele>12</ele>
        <time>2025-02-15T00:55:47Z</time>
      </trkpt>
      <trkpt lat="39.27380015647442" lon="118.43509878900234">
        <ele>12</ele>
        <time>2025-02-15T00:55:48Z</time>
      </trkpt>
      <trkpt lat="39.27382355732802" lon="118.43509673082006">
        <ele>12</ele>
        <time>2025-02-15T00:55:49Z</time>
      </trkpt>
      <trkpt lat="39.27384735938595" lon="118.43509445838767">
        <ele>12</ele>
        <time>2025-02-15T00:55:50Z</time>
      </trkpt>
      <trkpt lat="39.27387160089363" lon="118.43509196520016">
        <ele>12</ele>
        <time>2025-02-15T00:55:51Z</time>
      </trkpt>
      <trkpt lat="39.273896322399835" lon="118.43508926110745">
        <ele>11.9</ele>
        <time>2025-02-15T00:55:52Z</time>
      </trkpt>
      <trkpt lat="39.27392135116378" lon="118.43508646211812">
        <ele>11.9</ele>
        <time>2025-02-15T00:55:53Z</time>
      </trkpt>
      <trkpt lat="39.273946617490516" lon="118.43508368943942">
        <ele>11.9</ele>
        <time>2025-02-15T00:55:54Z</time>
      </trkpt>
      <trkpt lat="39.27397185300242" lon="118.43508110666369">
        <ele>11.9</ele>
        <time>2025-02-15T00:55:55Z</time>
      </trkpt>
      <trkpt lat="39.27400069599709" lon="118.43507849625675">
        <ele>11.9</ele>
        <time>2025-02-15T00:55:56Z</time>
      </trkpt>
      <trkpt lat="39.27402696538221" lon="118.43507630997594">
        <ele>12</ele>
        <time>2025-02-15T00:55:57Z</time>
      </trkpt>
      <trkpt lat="39.274053504918434" lon="118.43507425633035">
        <ele>12</ele>
        <time>2025-02-15T00:55:58Z</time>
      </trkpt>
      <trkpt lat="39.27407938284125" lon="118.43507233573361">
        <ele>12</ele>
        <time>2025-02-15T00:55:59Z</time>
      </trkpt>
      <trkpt lat="39.27410509627378" lon="118.43507047210873">
        <ele>12</ele>
        <time>2025-02-15T00:56:00Z</time>
      </trkpt>
      <trkpt lat="39.27413389120357" lon="118.43506843877114">
        <ele>12</ele>
        <time>2025-02-15T00:56:01Z</time>
      </trkpt>
      <trkpt lat="39.27415984082188" lon="118.4350666569482">
        <ele>12.2</ele>
        <time>2025-02-15T00:56:02Z</time>
      </trkpt>
      <trkpt lat="39.27418934356641" lon="118.43506466694814">
        <ele>12.2</ele>
        <time>2025-02-15T00:56:03Z</time>
      </trkpt>
      <trkpt lat="39.27421562037898" lon="118.43506292632416">
        <ele>12.2</ele>
        <time>2025-02-15T00:56:04Z</time>
      </trkpt>
      <trkpt lat="39.27424531588671" lon="118.43506100981799">
        <ele>12.2</ele>
        <time>2025-02-15T00:56:05Z</time>
      </trkpt>
      <trkpt lat="39.27427161859551" lon="118.43505942871928">
        <ele>12.2</ele>
        <time>2025-02-15T00:56:06Z</time>
      </trkpt>
      <trkpt lat="39.274301180842535" lon="118.43505775118358">
        <ele>12.3</ele>
        <time>2025-02-15T00:56:07Z</time>
      </trkpt>
      <trkpt lat="39.274327199311166" lon="118.43505642265188">
        <ele>12.3</ele>
        <time>2025-02-15T00:56:08Z</time>
      </trkpt>
      <trkpt lat="39.27435634783494" lon="118.43505494401082">
        <ele>12.3</ele>
        <time>2025-02-15T00:56:09Z</time>
      </trkpt>
      <trkpt lat="39.274384095591145" lon="118.435054834341">
        <ele>12.3</ele>
        <time>2025-02-15T00:56:10Z</time>
      </trkpt>
      <trkpt lat="39.27441361546571" lon="118.43505549947372">
        <ele>12.3</ele>
        <time>2025-02-15T00:56:11Z</time>
      </trkpt>
      <trkpt lat="39.2744440024321" lon="118.43505653885245">
        <ele>12.3</ele>
        <time>2025-02-15T00:56:12Z</time>
      </trkpt>
      <trkpt lat="39.27447467314009" lon="118.43505627954184">
        <ele>12.3</ele>
        <time>2025-02-15T00:56:13Z</time>
      </trkpt>
      <trkpt lat="39.27450870812918" lon="118.43505476093532">
        <ele>12.3</ele>
        <time>2025-02-15T00:56:14Z</time>
      </trkpt>
      <trkpt lat="39.27454029438406" lon="118.43505292129703">
        <ele>12.3</ele>
        <time>2025-02-15T00:56:15Z</time>
      </trkpt>
      <trkpt lat="39.27457392159732" lon="118.43505115213215">
        <ele>12.3</ele>
        <time>2025-02-15T00:56:16Z</time>
      </trkpt>
      <trkpt lat="39.274603960825694" lon="118.43504985028054">
        <ele>12.1</ele>
        <time>2025-02-15T00:56:17Z</time>
      </trkpt>
      <trkpt lat="39.2746366226691" lon="118.43504845533134">
        <ele>12.1</ele>
        <time>2025-02-15T00:56:18Z</time>
      </trkpt>
      <trkpt lat="39.27466645027537" lon="118.435047436428">
        <ele>12.1</ele>
        <time>2025-02-15T00:56:19Z</time>
      </trkpt>
      <trkpt lat="39.27469526044706" lon="118.43504662959582">
        <ele>12.1</ele>
        <time>2025-02-15T00:56:20Z</time>
      </trkpt>
      <trkpt lat="39.27472211640461" lon="118.43504616124153">
        <ele>12.1</ele>
        <time>2025-02-15T00:56:21Z</time>
      </trkpt>
      <trkpt lat="39.27474761315344" lon="118.43504553608797">
        <ele>12</ele>
        <time>2025-02-15T00:56:22Z</time>
      </trkpt>
      <trkpt lat="39.274773110201735" lon="118.4350447020213">
        <ele>12</ele>
        <time>2025-02-15T00:56:23Z</time>
      </trkpt>
      <trkpt lat="39.27479857314727" lon="118.4350432821301">
        <ele>12</ele>
        <time>2025-02-15T00:56:24Z</time>
      </trkpt>
      <trkpt lat="39.274823621604156" lon="118.43504149115742">
        <ele>12</ele>
        <time>2025-02-15T00:56:25Z</time>
      </trkpt>
      <trkpt lat="39.274850564884204" lon="118.43503956393235">
        <ele>12</ele>
        <time>2025-02-15T00:56:26Z</time>
      </trkpt>
      <trkpt lat="39.2748749288158" lon="118.43503813530782">
        <ele>12</ele>
        <time>2025-02-15T00:56:27Z</time>
      </trkpt>
      <trkpt lat="39.2749025513488" lon="118.43503660339371">
        <ele>12</ele>
        <time>2025-02-15T00:56:28Z</time>
      </trkpt>
      <trkpt lat="39.274928367677894" lon="118.43503500572784">
        <ele>12</ele>
        <time>2025-02-15T00:56:29Z</time>
      </trkpt>
      <trkpt lat="39.274955084282006" lon="118.43503299427667">
        <ele>12</ele>
        <time>2025-02-15T00:56:30Z</time>
      </trkpt>
      <trkpt lat="39.274982034306014" lon="118.43503044072">
        <ele>12</ele>
        <time>2025-02-15T00:56:31Z</time>
      </trkpt>
      <trkpt lat="39.27500940650432" lon="118.43502753866618">
        <ele>12.1</ele>
        <time>2025-02-15T00:56:32Z</time>
      </trkpt>
      <trkpt lat="39.27503721560144" lon="118.43502472416338">
        <ele>12.1</ele>
        <time>2025-02-15T00:56:33Z</time>
      </trkpt>
      <trkpt lat="39.275066050672756" lon="118.43502296438388">
        <ele>12.1</ele>
        <time>2025-02-15T00:56:34Z</time>
      </trkpt>
      <trkpt lat="39.27509542194844" lon="118.4350219577839">
        <ele>12.1</ele>
        <time>2025-02-15T00:56:35Z</time>
      </trkpt>
      <trkpt lat="39.27512811203858" lon="118.43502150283493">
        <ele>12.1</ele>
        <time>2025-02-15T00:56:36Z</time>
      </trkpt>
      <trkpt lat="39.275157800256196" lon="118.43502108098727">
        <ele>12.2</ele>
        <time>2025-02-15T00:56:37Z</time>
      </trkpt>
      <trkpt lat="39.2751896236302" lon="118.43502047999806">
        <ele>12.2</ele>
        <time>2025-02-15T00:56:38Z</time>
      </trkpt>
      <trkpt lat="39.27521732156998" lon="118.43501993969578">
        <ele>12.2</ele>
        <time>2025-02-15T00:56:39Z</time>
      </trkpt>
      <trkpt lat="39.275246976487395" lon="118.43501958418584">
        <ele>12.2</ele>
        <time>2025-02-15T00:56:40Z</time>
      </trkpt>
      <trkpt lat="39.275273323720256" lon="118.43501939682639">
        <ele>12.2</ele>
        <time>2025-02-15T00:56:41Z</time>
      </trkpt>
      <trkpt lat="39.275299887026875" lon="118.43501914973132">
        <ele>12.3</ele>
        <time>2025-02-15T00:56:42Z</time>
      </trkpt>
      <trkpt lat="39.275325974232466" lon="118.43501830925199">
        <ele>12.3</ele>
        <time>2025-02-15T00:56:43Z</time>
      </trkpt>
      <trkpt lat="39.27535180786636" lon="118.43501692891917">
        <ele>12.3</ele>
        <time>2025-02-15T00:56:44Z</time>
      </trkpt>
      <trkpt lat="39.275379963862314" lon="118.43501402211602">
        <ele>12.3</ele>
        <time>2025-02-15T00:56:45Z</time>
      </trkpt>
      <trkpt lat="39.275405112300064" lon="118.43501074143455">
        <ele>12.3</ele>
        <time>2025-02-15T00:56:46Z</time>
      </trkpt>
      <trkpt lat="39.27543310986212" lon="118.43500694336451">
        <ele>12.3</ele>
        <time>2025-02-15T00:56:47Z</time>
      </trkpt>
      <trkpt lat="39.27545839437807" lon="118.43500363811692">
        <ele>12.3</ele>
        <time>2025-02-15T00:56:48Z</time>
      </trkpt>
      <trkpt lat="39.275484324277166" lon="118.4349998429364">
        <ele>12.3</ele>
        <time>2025-02-15T00:56:49Z</time>
      </trkpt>
      <trkpt lat="39.27550954640744" lon="118.43499419609925">
        <ele>12.3</ele>
        <time>2025-02-15T00:56:50Z</time>
      </trkpt>
      <trkpt lat="39.27553463847221" lon="118.43498630646155">
        <ele>12.3</ele>
        <time>2025-02-15T00:56:51Z</time>
      </trkpt>
      <trkpt lat="39.275559592852446" lon="118.43497532669036">
        <ele>12.4</ele>
        <time>2025-02-15T00:56:52Z</time>
      </trkpt>
      <trkpt lat="39.27558365580709" lon="118.434960144997">
        <ele>12.4</ele>
        <time>2025-02-15T00:56:53Z</time>
      </trkpt>
      <trkpt lat="39.27560668704959" lon="118.43494196563">
        <ele>12.4</ele>
        <time>2025-02-15T00:56:54Z</time>
      </trkpt>
      <trkpt lat="39.27562763810035" lon="118.43492105093947">
        <ele>12.4</ele>
        <time>2025-02-15T00:56:55Z</time>
      </trkpt>
      <trkpt lat="39.27564505647056" lon="118.43489627304443">
        <ele>12.4</ele>
        <time>2025-02-15T00:56:56Z</time>
      </trkpt>
      <trkpt lat="39.275659645391514" lon="118.43486823633397">
        <ele>12.5</ele>
        <time>2025-02-15T00:56:57Z</time>
      </trkpt>
      <trkpt lat="39.27567172455914" lon="118.4348336436303">
        <ele>12.5</ele>
        <time>2025-02-15T00:56:58Z</time>
      </trkpt>
      <trkpt lat="39.27568053410409" lon="118.43479881651614">
        <ele>12.5</ele>
        <time>2025-02-15T00:56:59Z</time>
      </trkpt>
      <trkpt lat="39.27568737161803" lon="118.43476183229302">
        <ele>12.5</ele>
        <time>2025-02-15T00:57:00Z</time>
      </trkpt>
      <trkpt lat="39.27569254107292" lon="118.43472739122294">
        <ele>12.5</ele>
        <time>2025-02-15T00:57:01Z</time>
      </trkpt>
      <trkpt lat="39.27569687770899" lon="118.43469343815306">
        <ele>12.5</ele>
        <time>2025-02-15T00:57:02Z</time>
      </trkpt>
      <trkpt lat="39.275700654371384" lon="118.43465729428324">
        <ele>12.5</ele>
        <time>2025-02-15T00:57:03Z</time>
      </trkpt>
      <trkpt lat="39.275703924049516" lon="118.43462123757791">
        <ele>12.5</ele>
        <time>2025-02-15T00:57:04Z</time>
      </trkpt>
      <trkpt lat="39.27570696063634" lon="118.43458515025782">
        <ele>12.5</ele>
        <time>2025-02-15T00:57:05Z</time>
      </trkpt>
      <trkpt lat="39.27571028906678" lon="118.43455387562683">
        <ele>12.5</ele>
        <time>2025-02-15T00:57:06Z</time>
      </trkpt>
      <trkpt lat="39.275714572769594" lon="118.43452614849565">
        <ele>12.3</ele>
        <time>2025-02-15T00:57:07Z</time>
      </trkpt>
      <trkpt lat="39.27572029242276" lon="118.43450403639584">
        <ele>12.3</ele>
        <time>2025-02-15T00:57:08Z</time>
      </trkpt>
      <trkpt lat="39.275729989372465" lon="118.43448500554683">
        <ele>12.3</ele>
        <time>2025-02-15T00:57:09Z</time>
      </trkpt>
      <trkpt lat="39.27574267740367" lon="118.43446903796334">
        <ele>12.3</ele>
        <time>2025-02-15T00:57:10Z</time>
      </trkpt>
      <trkpt lat="39.27575830088302" lon="118.43445374584635">
        <ele>12.3</ele>
        <time>2025-02-15T00:57:11Z</time>
      </trkpt>
      <trkpt lat="39.275776452249254" lon="118.43443925220002">
        <ele>12.1</ele>
        <time>2025-02-15T00:57:12Z</time>
      </trkpt>
      <trkpt lat="39.27579617076671" lon="118.43442467628071">
        <ele>12.1</ele>
        <time>2025-02-15T00:57:13Z</time>
      </trkpt>
      <trkpt lat="39.27581709093503" lon="118.43440910761137">
        <ele>12.1</ele>
        <time>2025-02-15T00:57:14Z</time>
      </trkpt>
      <trkpt lat="39.27583567170733" lon="118.43439278387768">
        <ele>12.1</ele>
        <time>2025-02-15T00:57:15Z</time>
      </trkpt>
      <trkpt lat="39.27585375389622" lon="118.43437168989216">
        <ele>12.1</ele>
        <time>2025-02-15T00:57:16Z</time>
      </trkpt>
      <trkpt lat="39.2758689250794" lon="118.4343485137945">
        <ele>12.1</ele>
        <time>2025-02-15T00:57:17Z</time>
      </trkpt>
      <trkpt lat="39.2758813123534" lon="118.43432321964353">
        <ele>12.1</ele>
        <time>2025-02-15T00:57:18Z</time>
      </trkpt>
      <trkpt lat="39.275890245015844" lon="118.43429583644392">
        <ele>12.1</ele>
        <time>2025-02-15T00:57:19Z</time>
      </trkpt>
      <trkpt lat="39.27589715554548" lon="118.43426720782986">
        <ele>12.1</ele>
        <time>2025-02-15T00:57:20Z</time>
      </trkpt>
      <trkpt lat="39.27590271366683" lon="118.43423389823123">
        <ele>12.1</ele>
        <time>2025-02-15T00:57:21Z</time>
      </trkpt>
      <trkpt lat="39.27590682779057" lon="118.43420262188218">
        <ele>12.1</ele>
        <time>2025-02-15T00:57:22Z</time>
      </trkpt>
      <trkpt lat="39.27591031078632" lon="118.43417092868681">
        <ele>12.1</ele>
        <time>2025-02-15T00:57:23Z</time>
      </trkpt>
      <trkpt lat="39.2759133175416" lon="118.43414017609868">
        <ele>12.1</ele>
        <time>2025-02-15T00:57:24Z</time>
      </trkpt>
      <trkpt lat="39.27591605117907" lon="118.43411037898332">
        <ele>12.1</ele>
        <time>2025-02-15T00:57:25Z</time>
      </trkpt>
      <trkpt lat="39.27591900947875" lon="118.43407718143125">
        <ele>12.1</ele>
        <time>2025-02-15T00:57:26Z</time>
      </trkpt>
      <trkpt lat="39.27592173975548" lon="118.43404601772558">
        <ele>12.1</ele>
        <time>2025-02-15T00:57:27Z</time>
      </trkpt>
      <trkpt lat="39.27592421516361" lon="118.43401233343846">
        <ele>12.1</ele>
        <time>2025-02-15T00:57:28Z</time>
      </trkpt>
      <trkpt lat="39.275925517824945" lon="118.43397907146235">
        <ele>12.1</ele>
        <time>2025-02-15T00:57:29Z</time>
      </trkpt>
      <trkpt lat="39.2759260465027" lon="118.4339427244271">
        <ele>12.1</ele>
        <time>2025-02-15T00:57:30Z</time>
      </trkpt>
      <trkpt lat="39.27592593139892" lon="118.43390795344904">
        <ele>12.1</ele>
        <time>2025-02-15T00:57:31Z</time>
      </trkpt>
      <trkpt lat="39.27592556171776" lon="118.43387235550783">
        <ele>12.1</ele>
        <time>2025-02-15T00:57:32Z</time>
      </trkpt>
      <trkpt lat="39.275924916101204" lon="118.43383988770793">
        <ele>12.1</ele>
        <time>2025-02-15T00:57:33Z</time>
      </trkpt>
      <trkpt lat="39.275924303459746" lon="118.43380696904958">
        <ele>12.1</ele>
        <time>2025-02-15T00:57:34Z</time>
      </trkpt>
      <trkpt lat="39.275924021255534" lon="118.43377439155027">
        <ele>12.1</ele>
        <time>2025-02-15T00:57:35Z</time>
      </trkpt>
      <trkpt lat="39.27592422765813" lon="118.43374210340924">
        <ele>12.1</ele>
        <time>2025-02-15T00:57:36Z</time>
      </trkpt>
      <trkpt lat="39.27592472470236" lon="118.43370679398288">
        <ele>12.1</ele>
        <time>2025-02-15T00:57:37Z</time>
      </trkpt>
      <trkpt lat="39.27592531536671" lon="118.43367459697325">
        <ele>12.1</ele>
        <time>2025-02-15T00:57:38Z</time>
      </trkpt>
      <trkpt lat="39.275925639756" lon="118.43364235122348">
        <ele>12.1</ele>
        <time>2025-02-15T00:57:39Z</time>
      </trkpt>
      <trkpt lat="39.27592561787731" lon="118.43361061662324">
        <ele>12.1</ele>
        <time>2025-02-15T00:57:40Z</time>
      </trkpt>
      <trkpt lat="39.27592510079048" lon="118.43357896087402">
        <ele>12.1</ele>
        <time>2025-02-15T00:57:41Z</time>
      </trkpt>
      <trkpt lat="39.275924083644256" lon="118.43354370046004">
        <ele>12.2</ele>
        <time>2025-02-15T00:57:42Z</time>
      </trkpt>
      <trkpt lat="39.27592310292585" lon="118.43351092607755">
        <ele>12.2</ele>
        <time>2025-02-15T00:57:43Z</time>
      </trkpt>
      <trkpt lat="39.27592254754669" lon="118.43347771469095">
        <ele>12.2</ele>
        <time>2025-02-15T00:57:44Z</time>
      </trkpt>
      <trkpt lat="39.27592107905326" lon="118.4334453940813">
        <ele>12.2</ele>
        <time>2025-02-15T00:57:45Z</time>
      </trkpt>
      <trkpt lat="39.275919233681115" lon="118.43341350978368">
        <ele>12.2</ele>
        <time>2025-02-15T00:57:46Z</time>
      </trkpt>
      <trkpt lat="39.275917205896704" lon="118.43337851827401">
        <ele>12.2</ele>
        <time>2025-02-15T00:57:47Z</time>
      </trkpt>
      <trkpt lat="39.27591715845073" lon="118.43334625531463">
        <ele>12.2</ele>
        <time>2025-02-15T00:57:48Z</time>
      </trkpt>
      <trkpt lat="39.27591806634586" lon="118.43331384777494">
        <ele>12.2</ele>
        <time>2025-02-15T00:57:49Z</time>
      </trkpt>
      <trkpt lat="39.275919536898854" lon="118.4332822764233">
        <ele>12.2</ele>
        <time>2025-02-15T00:57:50Z</time>
      </trkpt>
      <trkpt lat="39.27592042801114" lon="118.43325119511067">
        <ele>12.2</ele>
        <time>2025-02-15T00:57:51Z</time>
      </trkpt>
      <trkpt lat="39.27592014825494" lon="118.43321723424185">
        <ele>12.1</ele>
        <time>2025-02-15T00:57:52Z</time>
      </trkpt>
      <trkpt lat="39.275918242511764" lon="118.43318638395051">
        <ele>12.1</ele>
        <time>2025-02-15T00:57:53Z</time>
      </trkpt>
      <trkpt lat="39.27591538045604" lon="118.43315163522307">
        <ele>12.1</ele>
        <time>2025-02-15T00:57:54Z</time>
      </trkpt>
      <trkpt lat="39.27591264837498" lon="118.43311990227058">
        <ele>12.1</ele>
        <time>2025-02-15T00:57:55Z</time>
      </trkpt>
      <trkpt lat="39.27591060658156" lon="118.43308795059254">
        <ele>12.1</ele>
        <time>2025-02-15T00:57:56Z</time>
      </trkpt>
      <trkpt lat="39.275909073957756" lon="118.43305716514763">
        <ele>12</ele>
        <time>2025-02-15T00:57:57Z</time>
      </trkpt>
      <trkpt lat="39.27590730095554" lon="118.43302344272364">
        <ele>12</ele>
        <time>2025-02-15T00:57:58Z</time>
      </trkpt>
      <trkpt lat="39.27590513883099" lon="118.43298916226486">
        <ele>12</ele>
        <time>2025-02-15T00:57:59Z</time>
      </trkpt>
      <trkpt lat="39.27590271573852" lon="118.43295695223604">
        <ele>12</ele>
        <time>2025-02-15T00:58:00Z</time>
      </trkpt>
      <trkpt lat="39.27589996552619" lon="118.43292439763384">
        <ele>12</ele>
        <time>2025-02-15T00:58:01Z</time>
      </trkpt>
      <trkpt lat="39.27589734581474" lon="118.4328915022184">
        <ele>11.9</ele>
        <time>2025-02-15T00:58:02Z</time>
      </trkpt>
      <trkpt lat="39.27589297076468" lon="118.43285367529865">
        <ele>11.9</ele>
        <time>2025-02-15T00:58:03Z</time>
      </trkpt>
      <trkpt lat="39.27588693726222" lon="118.43281770573012">
        <ele>11.9</ele>
        <time>2025-02-15T00:58:04Z</time>
      </trkpt>
      <trkpt lat="39.27587975681159" lon="118.43278316915202">
        <ele>11.9</ele>
        <time>2025-02-15T00:58:05Z</time>
      </trkpt>
      <trkpt lat="39.275878160259886" lon="118.43275246974245">
        <ele>11.9</ele>
        <time>2025-02-15T00:58:06Z</time>
      </trkpt>
      <trkpt lat="39.27588018271505" lon="118.43272173454244">
        <ele>11.8</ele>
        <time>2025-02-15T00:58:07Z</time>
      </trkpt>
      <trkpt lat="39.27588512885492" lon="118.43268903306205">
        <ele>11.8</ele>
        <time>2025-02-15T00:58:08Z</time>
      </trkpt>
      <trkpt lat="39.27589404935782" lon="118.43266156385944">
        <ele>11.8</ele>
        <time>2025-02-15T00:58:09Z</time>
      </trkpt>
      <trkpt lat="39.275906963549616" lon="118.43264116776855">
        <ele>11.8</ele>
        <time>2025-02-15T00:58:10Z</time>
      </trkpt>
      <trkpt lat="39.27592792873715" lon="118.43262864194712">
        <ele>11.8</ele>
        <time>2025-02-15T00:58:11Z</time>
      </trkpt>
      <trkpt lat="39.27594817632557" lon="118.43261988590908">
        <ele>11.8</ele>
        <time>2025-02-15T00:58:12Z</time>
      </trkpt>
      <trkpt lat="39.27597028192168" lon="118.4326136547567">
        <ele>11.8</ele>
        <time>2025-02-15T00:58:13Z</time>
      </trkpt>
      <trkpt lat="39.27598941317514" lon="118.43260942075567">
        <ele>11.8</ele>
        <time>2025-02-15T00:58:14Z</time>
      </trkpt>
      <trkpt lat="39.27601170026408" lon="118.43260569023381">
        <ele>11.8</ele>
        <time>2025-02-15T00:58:15Z</time>
      </trkpt>
      <trkpt lat="39.276033990503855" lon="118.43260248905554">
        <ele>11.8</ele>
        <time>2025-02-15T00:58:16Z</time>
      </trkpt>
      <trkpt lat="39.27606023613989" lon="118.43259884027037">
        <ele>11.8</ele>
        <time>2025-02-15T00:58:17Z</time>
      </trkpt>
      <trkpt lat="39.276083981944176" lon="118.43259551901085">
        <ele>11.8</ele>
        <time>2025-02-15T00:58:18Z</time>
      </trkpt>
      <trkpt lat="39.27610808542378" lon="118.43259186713728">
        <ele>11.8</ele>
        <time>2025-02-15T00:58:19Z</time>
      </trkpt>
      <trkpt lat="39.276131983670396" lon="118.43258783673642">
        <ele>11.8</ele>
        <time>2025-02-15T00:58:20Z</time>
      </trkpt>
      <trkpt lat="39.27615588564244" lon="118.4325832854072">
        <ele>11.8</ele>
        <time>2025-02-15T00:58:21Z</time>
      </trkpt>
      <trkpt lat="39.27618318874541" lon="118.43257766587897">
        <ele>11.6</ele>
        <time>2025-02-15T00:58:22Z</time>
      </trkpt>
      <trkpt lat="39.276207559875786" lon="118.43257207452046">
        <ele>11.6</ele>
        <time>2025-02-15T00:58:23Z</time>
      </trkpt>
      <trkpt lat="39.27623190491133" lon="118.43256616566642">
        <ele>11.6</ele>
        <time>2025-02-15T00:58:24Z</time>
      </trkpt>
      <trkpt lat="39.276255470055084" lon="118.43256017101163">
        <ele>11.6</ele>
        <time>2025-02-15T00:58:25Z</time>
      </trkpt>
      <trkpt lat="39.276281987250535" lon="118.43255360890842">
        <ele>11.6</ele>
        <time>2025-02-15T00:58:26Z</time>
      </trkpt>
      <trkpt lat="39.27630874516134" lon="118.43254704354638">
        <ele>11.5</ele>
        <time>2025-02-15T00:58:27Z</time>
      </trkpt>
      <trkpt lat="39.27633605188613" lon="118.43254061642304">
        <ele>11.5</ele>
        <time>2025-02-15T00:58:28Z</time>
      </trkpt>
      <trkpt lat="39.27636016383374" lon="118.43253508854191">
        <ele>11.5</ele>
        <time>2025-02-15T00:58:29Z</time>
      </trkpt>
      <trkpt lat="39.27638374139814" lon="118.43253021243954">
        <ele>11.5</ele>
        <time>2025-02-15T00:58:30Z</time>
      </trkpt>
      <trkpt lat="39.276406576636546" lon="118.43252618471267">
        <ele>11.5</ele>
        <time>2025-02-15T00:58:31Z</time>
      </trkpt>
      <trkpt lat="39.27642914608711" lon="118.43252296380408">
        <ele>11.5</ele>
        <time>2025-02-15T00:58:32Z</time>
      </trkpt>
      <trkpt lat="39.276454862890226" lon="118.43252002273758">
        <ele>11.5</ele>
        <time>2025-02-15T00:58:33Z</time>
      </trkpt>
      <trkpt lat="39.27647766579965" lon="118.4325180939405">
        <ele>11.5</ele>
        <time>2025-02-15T00:58:34Z</time>
      </trkpt>
      <trkpt lat="39.27650038439295" lon="118.43251659497633">
        <ele>11.5</ele>
        <time>2025-02-15T00:58:35Z</time>
      </trkpt>
      <trkpt lat="39.27652233066227" lon="118.4325154609135">
        <ele>11.5</ele>
        <time>2025-02-15T00:58:36Z</time>
      </trkpt>
      <trkpt lat="39.27654387365054" lon="118.43251449318696">
        <ele>11.5</ele>
        <time>2025-02-15T00:58:37Z</time>
      </trkpt>
      <trkpt lat="39.27656506003702" lon="118.43251355908941">
        <ele>11.5</ele>
        <time>2025-02-15T00:58:38Z</time>
      </trkpt>
      <trkpt lat="39.27658597953692" lon="118.43251255104337">
        <ele>11.5</ele>
        <time>2025-02-15T00:58:39Z</time>
      </trkpt>
      <trkpt lat="39.27661006949607" lon="118.43251087648365">
        <ele>11.5</ele>
        <time>2025-02-15T00:58:40Z</time>
      </trkpt>
      <trkpt lat="39.276633450914844" lon="118.43251060342817">
        <ele>11.5</ele>
        <time>2025-02-15T00:58:41Z</time>
      </trkpt>
      <trkpt lat="39.27665433670522" lon="118.43251158785553">
        <ele>11.5</ele>
        <time>2025-02-15T00:58:42Z</time>
      </trkpt>
      <trkpt lat="39.27667493718384" lon="118.43251493022882">
        <ele>11.5</ele>
        <time>2025-02-15T00:58:43Z</time>
      </trkpt>
      <trkpt lat="39.27669807875219" lon="118.43251796905128">
        <ele>11.5</ele>
        <time>2025-02-15T00:58:44Z</time>
      </trkpt>
      <trkpt lat="39.27672362885601" lon="118.43252091366223">
        <ele>11.5</ele>
        <time>2025-02-15T00:58:45Z</time>
      </trkpt>
      <trkpt lat="39.27674422939378" lon="118.4325247040495">
        <ele>11.5</ele>
        <time>2025-02-15T00:58:46Z</time>
      </trkpt>
      <trkpt lat="39.276760262299945" lon="118.43252541377583">
        <ele>11.5</ele>
        <time>2025-02-15T00:58:47Z</time>
      </trkpt>
      <trkpt lat="39.276771613699914" lon="118.43252471875428">
        <ele>11.5</ele>
        <time>2025-02-15T00:58:48Z</time>
      </trkpt>
      <trkpt lat="39.27678144237267" lon="118.43252059412104">
        <ele>11.5</ele>
        <time>2025-02-15T00:58:49Z</time>
      </trkpt>
      <trkpt lat="39.2767866984667" lon="118.43251917913445">
        <ele>11.5</ele>
        <time>2025-02-15T00:58:50Z</time>
      </trkpt>
    </trkseg>
  </trk>
</gpx>