<?xml version="1.0" encoding="UTF-8"?>
<gpx xmlns="http://www.topografix.com/GPX/1/1" xmlns:gpxtpx="http://www.garmin.com/xmlschemas/TrackPointExtension/v1" xmlns:xsi="http://www.w3.org/2001/XMLSchema-instance" xsi:schemaLocation="http://www.topografix.com/GPX/1/1 http://www.topografix.com/GPX/1/1/gpx.xsd" version="1.1" creator="gpx.py -- https://github.com/tkrajina/gpxpy">
  <trk>
    <name>gpx from codoon</name>
    <type>Run</type>
    <trkseg>
      <trkpt lat="39.27703387363989" lon="118.43229565763049">
        <ele>20.6</ele>
        <time>2025-03-15T00:41:58Z</time>
      </trkpt>
      <trkpt lat="39.27704420386604" lon="118.43229631840575">
        <ele>20.6</ele>
        <time>2025-03-15T00:41:59Z</time>
      </trkpt>
      <trkpt lat="39.277064884598836" lon="118.43229649159233">
        <ele>20.6</ele>
        <time>2025-03-15T00:42:00Z</time>
      </trkpt>
      <trkpt lat="39.2770855367268" lon="118.43229513376099">
        <ele>20.6</ele>
        <time>2025-03-15T00:42:01Z</time>
      </trkpt>
      <trkpt lat="39.27710609357242" lon="118.43229224924329">
        <ele>20.6</ele>
        <time>2025-03-15T00:42:02Z</time>
      </trkpt>
      <trkpt lat="39.27710609357242" lon="118.43229224924329">
        <ele>20.6</ele>
        <time>2025-03-15T00:42:03Z</time>
      </trkpt>
      <trkpt lat="39.27715663441731" lon="118.43227842993642">
        <ele>20.6</ele>
        <time>2025-03-15T00:42:04Z</time>
      </trkpt>
      <trkpt lat="39.27715663441731" lon="118.43227842993642">
        <ele>20.6</ele>
        <time>2025-03-15T00:42:05Z</time>
      </trkpt>
      <trkpt lat="39.277186048925195" lon="118.43226569662188">
        <ele>20.6</ele>
        <time>2025-03-15T00:42:06Z</time>
      </trkpt>
      <trkpt lat="39.27721451792252" lon="118.43224973671013">
        <ele>20.6</ele>
        <time>2025-03-15T00:42:07Z</time>
      </trkpt>
      <trkpt lat="39.27721451792252" lon="118.43224973671013">
        <ele>20.6</ele>
        <time>2025-03-15T00:42:08Z</time>
      </trkpt>
      <trkpt lat="39.27723286896466" lon="118.4322373586782">
        <ele>20.6</ele>
        <time>2025-03-15T00:42:09Z</time>
      </trkpt>
      <trkpt lat="39.27725064742944" lon="118.43222363463093">
        <ele>20.6</ele>
        <time>2025-03-15T00:42:10Z</time>
      </trkpt>
      <trkpt lat="39.277267795266155" lon="118.43220860740138">
        <ele>20.6</ele>
        <time>2025-03-15T00:42:11Z</time>
      </trkpt>
      <trkpt lat="39.277292212267525" lon="118.43218372673086">
        <ele>20.6</ele>
        <time>2025-03-15T00:42:12Z</time>
      </trkpt>
      <trkpt lat="39.277292212267525" lon="118.43218372673086">
        <ele>20.6</ele>
        <time>2025-03-15T00:42:13Z</time>
      </trkpt>
      <trkpt lat="39.27733569995766" lon="118.43212620495801">
        <ele>20.6</ele>
        <time>2025-03-15T00:42:14Z</time>
      </trkpt>
      <trkpt lat="39.27733569995766" lon="118.43212620495801">
        <ele>20.6</ele>
        <time>2025-03-15T00:42:15Z</time>
      </trkpt>
      <trkpt lat="39.27734218346451" lon="118.43211569795629">
        <ele>20.6</ele>
        <time>2025-03-15T00:42:16Z</time>
      </trkpt>
      <trkpt lat="39.27737099353917" lon="118.43205970769299">
        <ele>20.6</ele>
        <time>2025-03-15T00:42:17Z</time>
      </trkpt>
      <trkpt lat="39.27737099353917" lon="118.43205970769299">
        <ele>20.6</ele>
        <time>2025-03-15T00:42:18Z</time>
      </trkpt>
      <trkpt lat="39.277385218092114" lon="118.43202366635597">
        <ele>20.6</ele>
        <time>2025-03-15T00:42:19Z</time>
      </trkpt>
      <trkpt lat="39.27739700365935" lon="118.4319860956387">
        <ele>20.6</ele>
        <time>2025-03-15T00:42:20Z</time>
      </trkpt>
      <trkpt lat="39.27740345611828" lon="118.43196032832084">
        <ele>20.6</ele>
        <time>2025-03-15T00:42:21Z</time>
      </trkpt>
      <trkpt lat="39.27741287679246" lon="118.43190742659456">
        <ele>20.6</ele>
        <time>2025-03-15T00:42:22Z</time>
      </trkpt>
      <trkpt lat="39.27741580310032" lon="118.43188045655077">
        <ele>20.6</ele>
        <time>2025-03-15T00:42:23Z</time>
      </trkpt>
      <trkpt lat="39.27741800538487" lon="118.43182589627219">
        <ele>20.6</ele>
        <time>2025-03-15T00:42:24Z</time>
      </trkpt>
      <trkpt lat="39.2774177863639" lon="118.43181218858497">
        <ele>20.6</ele>
        <time>2025-03-15T00:42:25Z</time>
      </trkpt>
      <trkpt lat="39.277415386286876" lon="118.4317248391355">
        <ele>20.6</ele>
        <time>2025-03-15T00:42:26Z</time>
      </trkpt>
      <trkpt lat="39.27741602770182" lon="118.43174818402015">
        <ele>20.6</ele>
        <time>2025-03-15T00:42:27Z</time>
      </trkpt>
      <trkpt lat="39.27741283304565" lon="118.43163190381536">
        <ele>20.6</ele>
        <time>2025-03-15T00:42:28Z</time>
      </trkpt>
      <trkpt lat="39.27741507707685" lon="118.43171358487346">
        <ele>20.6</ele>
        <time>2025-03-15T00:42:29Z</time>
      </trkpt>
      <trkpt lat="39.27740938303663" lon="118.43150630734277">
        <ele>20.6</ele>
        <time>2025-03-15T00:42:30Z</time>
      </trkpt>
      <trkpt lat="39.277415386286876" lon="118.4317248391355">
        <ele>20.6</ele>
        <time>2025-03-15T00:42:31Z</time>
      </trkpt>
      <trkpt lat="39.27741751714224" lon="118.43185325166863">
        <ele>20.6</ele>
        <time>2025-03-15T00:42:33Z</time>
      </trkpt>
      <trkpt lat="39.27733569995766" lon="118.43212620495801">
        <ele>20.6</ele>
        <time>2025-03-15T00:42:35Z</time>
      </trkpt>
      <trkpt lat="39.27721451792252" lon="118.43224973671013">
        <ele>20.6</ele>
        <time>2025-03-15T00:42:37Z</time>
      </trkpt>
      <trkpt lat="39.27721451792252" lon="118.43224973671013">
        <ele>20.6</ele>
        <time>2025-03-15T00:42:39Z</time>
      </trkpt>
      <trkpt lat="39.277400406695044" lon="118.43117941995487">
        <ele>20.6</ele>
        <time>2025-03-15T00:42:42Z</time>
      </trkpt>
      <trkpt lat="39.27739919649901" lon="118.43113533699054">
        <ele>20.6</ele>
        <time>2025-03-15T00:42:43Z</time>
      </trkpt>
      <trkpt lat="39.277398561759895" lon="118.43111221466998">
        <ele>20.6</ele>
        <time>2025-03-15T00:42:44Z</time>
      </trkpt>
      <trkpt lat="39.27739744818292" lon="118.43107164734295">
        <ele>20.6</ele>
        <time>2025-03-15T00:42:45Z</time>
      </trkpt>
      <trkpt lat="39.27739649629603" lon="118.43103696845796">
        <ele>20.6</ele>
        <time>2025-03-15T00:42:46Z</time>
      </trkpt>
      <trkpt lat="39.277395477534775" lon="118.43099985129705">
        <ele>20.6</ele>
        <time>2025-03-15T00:42:47Z</time>
      </trkpt>
      <trkpt lat="39.27739466103131" lon="118.43097010168012">
        <ele>20.6</ele>
        <time>2025-03-15T00:42:48Z</time>
      </trkpt>
      <trkpt lat="39.27739379155563" lon="118.43093842059199">
        <ele>20.6</ele>
        <time>2025-03-15T00:42:49Z</time>
      </trkpt>
      <trkpt lat="39.277392860404774" lon="118.43090449063314">
        <ele>20.6</ele>
        <time>2025-03-15T00:42:50Z</time>
      </trkpt>
      <trkpt lat="39.27739317824563" lon="118.43091607253902">
        <ele>20.6</ele>
        <time>2025-03-15T00:42:51Z</time>
      </trkpt>
      <trkpt lat="39.27738474754272" lon="118.43076041625169">
        <ele>20.6</ele>
        <time>2025-03-15T00:42:52Z</time>
      </trkpt>
      <trkpt lat="39.27739317824563" lon="118.43091607253902">
        <ele>20.6</ele>
        <time>2025-03-15T00:42:53Z</time>
      </trkpt>
      <trkpt lat="39.277335161874404" lon="118.43059725060556">
        <ele>20.6</ele>
        <time>2025-03-15T00:42:54Z</time>
      </trkpt>
      <trkpt lat="39.27726784012814" lon="118.43049501532933">
        <ele>20.6</ele>
        <time>2025-03-15T00:42:56Z</time>
      </trkpt>
      <trkpt lat="39.277208847611384" lon="118.43044034625416">
        <ele>20.6</ele>
        <time>2025-03-15T00:42:58Z</time>
      </trkpt>
      <trkpt lat="39.277190576956635" lon="118.430427653718">
        <ele>20.6</ele>
        <time>2025-03-15T00:43:00Z</time>
      </trkpt>
      <trkpt lat="39.277190576956635" lon="118.430427653718">
        <ele>20.6</ele>
        <time>2025-03-15T00:43:02Z</time>
      </trkpt>
      <trkpt lat="39.27734578515112" lon="118.43062052259995">
        <ele>20.6</ele>
        <time>2025-03-15T00:43:03Z</time>
      </trkpt>
      <trkpt lat="39.277208847611384" lon="118.43044034625416">
        <ele>20.6</ele>
        <time>2025-03-15T00:43:04Z</time>
      </trkpt>
      <trkpt lat="39.27725994072533" lon="118.43048627674939">
        <ele>20.6</ele>
        <time>2025-03-15T00:43:05Z</time>
      </trkpt>
      <trkpt lat="39.277190576956635" lon="118.430427653718">
        <ele>20.6</ele>
        <time>2025-03-15T00:43:06Z</time>
      </trkpt>
      <trkpt lat="39.27719978128702" lon="118.43043383011283">
        <ele>20.6</ele>
        <time>2025-03-15T00:43:07Z</time>
      </trkpt>
      <trkpt lat="39.27716221145101" lon="118.43041120958169">
        <ele>20.6</ele>
        <time>2025-03-15T00:43:08Z</time>
      </trkpt>
      <trkpt lat="39.277152531079466" lon="118.43040643738962">
        <ele>20.6</ele>
        <time>2025-03-15T00:43:09Z</time>
      </trkpt>
      <trkpt lat="39.277132879548965" lon="118.43039797939674">
        <ele>20.6</ele>
        <time>2025-03-15T00:43:10Z</time>
      </trkpt>
      <trkpt lat="39.27709263768297" lon="118.43038549474453">
        <ele>20.6</ele>
        <time>2025-03-15T00:43:11Z</time>
      </trkpt>
      <trkpt lat="39.27709263768297" lon="118.43038549474453">
        <ele>20.6</ele>
        <time>2025-03-15T00:43:12Z</time>
      </trkpt>
      <trkpt lat="39.27706189154604" lon="118.43038008245841">
        <ele>20.6</ele>
        <time>2025-03-15T00:43:13Z</time>
      </trkpt>
      <trkpt lat="39.27704124911062" lon="118.43037837885919">
        <ele>20.6</ele>
        <time>2025-03-15T00:43:14Z</time>
      </trkpt>
      <trkpt lat="39.27702056839192" lon="118.43037820569126">
        <ele>20.6</ele>
        <time>2025-03-15T00:43:15Z</time>
      </trkpt>
      <trkpt lat="39.27699991615825" lon="118.4303795633897">
        <ele>20.6</ele>
        <time>2025-03-15T00:43:16Z</time>
      </trkpt>
      <trkpt lat="39.276989621569285" lon="118.43038081514645">
        <ele>20.6</ele>
        <time>2025-03-15T00:43:17Z</time>
      </trkpt>
      <trkpt lat="39.27696913700233" lon="118.43038445953876">
        <ele>20.6</ele>
        <time>2025-03-15T00:43:18Z</time>
      </trkpt>
      <trkpt lat="39.27695896356964" lon="118.43038684931139">
        <ele>20.6</ele>
        <time>2025-03-15T00:43:19Z</time>
      </trkpt>
      <trkpt lat="39.27692881717499" lon="118.43039626558185">
        <ele>20.6</ele>
        <time>2025-03-15T00:43:20Z</time>
      </trkpt>
      <trkpt lat="39.27690911229274" lon="118.43040439026976">
        <ele>20.6</ele>
        <time>2025-03-15T00:43:21Z</time>
      </trkpt>
      <trkpt lat="39.276880303548644" lon="118.43041928458473">
        <ele>20.6</ele>
        <time>2025-03-15T00:43:22Z</time>
      </trkpt>
      <trkpt lat="39.27686168765737" lon="118.43043097375102">
        <ele>20.6</ele>
        <time>2025-03-15T00:43:23Z</time>
      </trkpt>
      <trkpt lat="39.27682614324398" lon="118.43045840860835">
        <ele>20.6</ele>
        <time>2025-03-15T00:43:24Z</time>
      </trkpt>
      <trkpt lat="39.2768093307962" lon="118.4304740686861">
        <ele>20.6</ele>
        <time>2025-03-15T00:43:25Z</time>
      </trkpt>
      <trkpt lat="39.276785467672276" lon="118.43049985115859">
        <ele>20.6</ele>
        <time>2025-03-15T00:43:26Z</time>
      </trkpt>
      <trkpt lat="39.276770539191865" lon="118.43051848954003">
        <ele>20.6</ele>
        <time>2025-03-15T00:43:27Z</time>
      </trkpt>
      <trkpt lat="39.276756453154505" lon="118.43053822069773">
        <ele>20.6</ele>
        <time>2025-03-15T00:43:28Z</time>
      </trkpt>
      <trkpt lat="39.27673700610233" lon="118.43056973096625">
        <ele>20.6</ele>
        <time>2025-03-15T00:43:29Z</time>
      </trkpt>
      <trkpt lat="39.27673099439351" lon="118.43058071211999">
        <ele>20.6</ele>
        <time>2025-03-15T00:43:30Z</time>
      </trkpt>
      <trkpt lat="39.27670943673978" lon="118.43062679620671">
        <ele>20.6</ele>
        <time>2025-03-15T00:43:31Z</time>
      </trkpt>
      <trkpt lat="39.27670943673978" lon="118.43062679620671">
        <ele>20.6</ele>
        <time>2025-03-15T00:43:32Z</time>
      </trkpt>
      <trkpt lat="39.276692080714604" lon="118.43067589928505">
        <ele>20.6</ele>
        <time>2025-03-15T00:43:33Z</time>
      </trkpt>
      <trkpt lat="39.27668505932955" lon="118.43070139329654">
        <ele>20.6</ele>
        <time>2025-03-15T00:43:34Z</time>
      </trkpt>
      <trkpt lat="39.27667255188985" lon="118.4307672399877">
        <ele>20.6</ele>
        <time>2025-03-15T00:43:35Z</time>
      </trkpt>
      <trkpt lat="39.27667255188985" lon="118.4307672399877">
        <ele>20.6</ele>
        <time>2025-03-15T00:43:36Z</time>
      </trkpt>
      <trkpt lat="39.27666836976307" lon="118.43088913094101">
        <ele>20.6</ele>
        <time>2025-03-15T00:43:37Z</time>
      </trkpt>
      <trkpt lat="39.27666962435181" lon="118.43079420848086">
        <ele>20.6</ele>
        <time>2025-03-15T00:43:38Z</time>
      </trkpt>
      <trkpt lat="39.27667284184916" lon="118.43105207659772">
        <ele>20.6</ele>
        <time>2025-03-15T00:43:39Z</time>
      </trkpt>
      <trkpt lat="39.27668197514846" lon="118.4307143415209">
        <ele>20.6</ele>
        <time>2025-03-15T00:43:40Z</time>
      </trkpt>
      <trkpt lat="39.27677790117131" lon="118.43050903003859">
        <ele>20.6</ele>
        <time>2025-03-15T00:43:42Z</time>
      </trkpt>
      <trkpt lat="39.2766855495776" lon="118.43109287454938">
        <ele>20.6</ele>
        <time>2025-03-15T00:43:44Z</time>
      </trkpt>
      <trkpt lat="39.27667451774581" lon="118.4311131299462">
        <ele>20.6</ele>
        <time>2025-03-15T00:43:45Z</time>
      </trkpt>
      <trkpt lat="39.27667582481363" lon="118.43116074302516">
        <ele>20.6</ele>
        <time>2025-03-15T00:43:46Z</time>
      </trkpt>
      <trkpt lat="39.276676846460745" lon="118.43119795669001">
        <ele>20.6</ele>
        <time>2025-03-15T00:43:47Z</time>
      </trkpt>
      <trkpt lat="39.27667762991725" lon="118.4312264928673">
        <ele>20.6</ele>
        <time>2025-03-15T00:43:48Z</time>
      </trkpt>
      <trkpt lat="39.27667876319634" lon="118.43126776870444">
        <ele>20.6</ele>
        <time>2025-03-15T00:43:49Z</time>
      </trkpt>
      <trkpt lat="39.276679498738446" lon="118.43129455700844">
        <ele>20.6</ele>
        <time>2025-03-15T00:43:50Z</time>
      </trkpt>
      <trkpt lat="39.276680584432654" lon="118.43133409589367">
        <ele>20.6</ele>
        <time>2025-03-15T00:43:51Z</time>
      </trkpt>
      <trkpt lat="39.27668130322897" lon="118.43136027182565">
        <ele>20.6</ele>
        <time>2025-03-15T00:43:52Z</time>
      </trkpt>
      <trkpt lat="39.27668220402397" lon="118.4313930740891">
        <ele>20.6</ele>
        <time>2025-03-15T00:43:53Z</time>
      </trkpt>
      <trkpt lat="39.27668348544387" lon="118.43143973405648">
        <ele>20.6</ele>
        <time>2025-03-15T00:43:54Z</time>
      </trkpt>
      <trkpt lat="39.27668166281828" lon="118.43137336638183">
        <ele>20.6</ele>
        <time>2025-03-15T00:43:55Z</time>
      </trkpt>
      <trkpt lat="39.2766889227434" lon="118.43163768597873">
        <ele>20.6</ele>
        <time>2025-03-15T00:43:56Z</time>
      </trkpt>
      <trkpt lat="39.27667913253991" lon="118.43128122025686">
        <ele>20.6</ele>
        <time>2025-03-15T00:43:57Z</time>
      </trkpt>
      <trkpt lat="39.27666906194327" lon="118.43091435384598">
        <ele>20.6</ele>
        <time>2025-03-15T00:43:59Z</time>
      </trkpt>
      <trkpt lat="39.27671970806083" lon="118.43060333997542">
        <ele>20.6</ele>
        <time>2025-03-15T00:44:01Z</time>
      </trkpt>
      <trkpt lat="39.27669322360209" lon="118.43179422438703">
        <ele>20.6</ele>
        <time>2025-03-15T00:44:05Z</time>
      </trkpt>
      <trkpt lat="39.27669392032044" lon="118.43181957954104">
        <ele>20.6</ele>
        <time>2025-03-15T00:44:06Z</time>
      </trkpt>
      <trkpt lat="39.276694662962576" lon="118.43184637664947">
        <ele>20.6</ele>
        <time>2025-03-15T00:44:07Z</time>
      </trkpt>
      <trkpt lat="39.27669736227587" lon="118.43188728939784">
        <ele>20.6</ele>
        <time>2025-03-15T00:44:08Z</time>
      </trkpt>
      <trkpt lat="39.2767006814439" lon="118.43191425070388">
        <ele>20.6</ele>
        <time>2025-03-15T00:44:09Z</time>
      </trkpt>
      <trkpt lat="39.276707893604424" lon="118.43195401476189">
        <ele>20.6</ele>
        <time>2025-03-15T00:44:10Z</time>
      </trkpt>
      <trkpt lat="39.276714158556985" lon="118.43197995310123">
        <ele>20.6</ele>
        <time>2025-03-15T00:44:11Z</time>
      </trkpt>
      <trkpt lat="39.276730067549494" lon="118.43203010007558">
        <ele>20.6</ele>
        <time>2025-03-15T00:44:12Z</time>
      </trkpt>
      <trkpt lat="39.27671088241399" lon="118.43196704776544">
        <ele>20.6</ele>
        <time>2025-03-15T00:44:13Z</time>
      </trkpt>
      <trkpt lat="39.27678800666612" lon="118.43214186188897">
        <ele>20.6</ele>
        <time>2025-03-15T00:44:14Z</time>
      </trkpt>
      <trkpt lat="39.2767177187277" lon="118.43199272080668">
        <ele>20.6</ele>
        <time>2025-03-15T00:44:15Z</time>
      </trkpt>
      <trkpt lat="39.2768335916482" lon="118.43219685068544">
        <ele>20.6</ele>
        <time>2025-03-15T00:44:16Z</time>
      </trkpt>
      <trkpt lat="39.27673965124252" lon="118.43205415369823">
        <ele>20.6</ele>
        <time>2025-03-15T00:44:17Z</time>
      </trkpt>
      <trkpt lat="39.2768335916482" lon="118.43219685068544">
        <ele>20.6</ele>
        <time>2025-03-15T00:44:18Z</time>
      </trkpt>
      <trkpt lat="39.27678800666612" lon="118.43214186188897">
        <ele>20.6</ele>
        <time>2025-03-15T00:44:19Z</time>
      </trkpt>
      <trkpt lat="39.2768335916482" lon="118.43219685068544">
        <ele>20.6</ele>
        <time>2025-03-15T00:44:20Z</time>
      </trkpt>
      <trkpt lat="39.2768335916482" lon="118.43219685068544">
        <ele>20.6</ele>
        <time>2025-03-15T00:44:21Z</time>
      </trkpt>
      <trkpt lat="39.2768335916482" lon="118.43219685068544">
        <ele>20.6</ele>
        <time>2025-03-15T00:44:22Z</time>
      </trkpt>
      <trkpt lat="39.27685030164862" lon="118.43221280803135">
        <ele>20.6</ele>
        <time>2025-03-15T00:44:23Z</time>
      </trkpt>
      <trkpt lat="39.2768676792495" lon="118.43222749359605">
        <ele>20.6</ele>
        <time>2025-03-15T00:44:24Z</time>
      </trkpt>
      <trkpt lat="39.27688566746944" lon="118.43224086180913">
        <ele>20.6</ele>
        <time>2025-03-15T00:44:25Z</time>
      </trkpt>
      <trkpt lat="39.276923238996154" lon="118.43226348447946">
        <ele>20.6</ele>
        <time>2025-03-15T00:44:26Z</time>
      </trkpt>
      <trkpt lat="39.276962527417105" lon="118.43228039554474">
        <ele>20.6</ele>
        <time>2025-03-15T00:44:27Z</time>
      </trkpt>
      <trkpt lat="39.277003023550265" lon="118.43229138548476">
        <ele>20.6</ele>
        <time>2025-03-15T00:44:28Z</time>
      </trkpt>
      <trkpt lat="39.277003023550265" lon="118.43229138548476">
        <ele>20.6</ele>
        <time>2025-03-15T00:44:29Z</time>
      </trkpt>
      <trkpt lat="39.27702356129683" lon="118.43229461463649">
        <ele>20.6</ele>
        <time>2025-03-15T00:44:30Z</time>
      </trkpt>
      <trkpt lat="39.2770545436348" lon="118.43229659646086">
        <ele>20.6</ele>
        <time>2025-03-15T00:44:31Z</time>
      </trkpt>
      <trkpt lat="39.277095831218226" lon="118.43229388188128">
        <ele>20.6</ele>
        <time>2025-03-15T00:44:32Z</time>
      </trkpt>
      <trkpt lat="39.27710609357242" lon="118.43229224924329">
        <ele>20.6</ele>
        <time>2025-03-15T00:44:33Z</time>
      </trkpt>
      <trkpt lat="39.27710609357242" lon="118.43229224924329">
        <ele>20.6</ele>
        <time>2025-03-15T00:44:34Z</time>
      </trkpt>
      <trkpt lat="39.27715663441731" lon="118.43227842993642">
        <ele>20.6</ele>
        <time>2025-03-15T00:44:35Z</time>
      </trkpt>
      <trkpt lat="39.27715663441731" lon="118.43227842993642">
        <ele>20.6</ele>
        <time>2025-03-15T00:44:36Z</time>
      </trkpt>
      <trkpt lat="39.277186048925195" lon="118.43226569662188">
        <ele>20.6</ele>
        <time>2025-03-15T00:44:37Z</time>
      </trkpt>
      <trkpt lat="39.27721451792252" lon="118.43224973671013">
        <ele>20.6</ele>
        <time>2025-03-15T00:44:38Z</time>
      </trkpt>
      <trkpt lat="39.27721451792252" lon="118.43224973671013">
        <ele>20.6</ele>
        <time>2025-03-15T00:44:39Z</time>
      </trkpt>
      <trkpt lat="39.27725064742944" lon="118.43222363463093">
        <ele>20.6</ele>
        <time>2025-03-15T00:44:40Z</time>
      </trkpt>
      <trkpt lat="39.277267795266155" lon="118.43220860740138">
        <ele>20.6</ele>
        <time>2025-03-15T00:44:41Z</time>
      </trkpt>
      <trkpt lat="39.277292212267525" lon="118.43218372673086">
        <ele>20.6</ele>
        <time>2025-03-15T00:44:42Z</time>
      </trkpt>
      <trkpt lat="39.277292212267525" lon="118.43218372673086">
        <ele>20.6</ele>
        <time>2025-03-15T00:44:43Z</time>
      </trkpt>
      <trkpt lat="39.27733569995766" lon="118.43212620495801">
        <ele>20.6</ele>
        <time>2025-03-15T00:44:44Z</time>
      </trkpt>
      <trkpt lat="39.27733569995766" lon="118.43212620495801">
        <ele>20.6</ele>
        <time>2025-03-15T00:44:45Z</time>
      </trkpt>
      <trkpt lat="39.27735444441319" lon="118.43209396724089">
        <ele>20.6</ele>
        <time>2025-03-15T00:44:46Z</time>
      </trkpt>
      <trkpt lat="39.27737099353917" lon="118.43205970769299">
        <ele>20.6</ele>
        <time>2025-03-15T00:44:47Z</time>
      </trkpt>
      <trkpt lat="39.27738074223375" lon="118.43203586276577">
        <ele>20.6</ele>
        <time>2025-03-15T00:44:48Z</time>
      </trkpt>
      <trkpt lat="39.27739700365935" lon="118.4319860956387">
        <ele>20.6</ele>
        <time>2025-03-15T00:44:49Z</time>
      </trkpt>
      <trkpt lat="39.277393352572766" lon="118.4319987731065">
        <ele>20.6</ele>
        <time>2025-03-15T00:44:50Z</time>
      </trkpt>
      <trkpt lat="39.27741287679246" lon="118.43190742659456">
        <ele>20.6</ele>
        <time>2025-03-15T00:44:51Z</time>
      </trkpt>
      <trkpt lat="39.27740037260439" lon="118.43197327738702">
        <ele>20.6</ele>
        <time>2025-03-15T00:44:52Z</time>
      </trkpt>
      <trkpt lat="39.27741705382896" lon="118.4317855292298">
        <ele>20.6</ele>
        <time>2025-03-15T00:44:53Z</time>
      </trkpt>
      <trkpt lat="39.27739700365935" lon="118.4319860956387">
        <ele>20.6</ele>
        <time>2025-03-15T00:44:54Z</time>
      </trkpt>
      <trkpt lat="39.27741283304565" lon="118.43163190381536">
        <ele>20.6</ele>
        <time>2025-03-15T00:44:55Z</time>
      </trkpt>
      <trkpt lat="39.277407213766644" lon="118.43142732413271">
        <ele>0</ele>
        <time>2025-03-15T00:44:57Z</time>
      </trkpt>
    </trkseg>
  </trk>
</gpx>