<?xml version="1.0" encoding="UTF-8"?>
<gpx xmlns="http://www.topografix.com/GPX/1/1" xmlns:gpxtpx="http://www.garmin.com/xmlschemas/TrackPointExtension/v1" xmlns:xsi="http://www.w3.org/2001/XMLSchema-instance" xsi:schemaLocation="http://www.topografix.com/GPX/1/1 http://www.topografix.com/GPX/1/1/gpx.xsd" version="1.1" creator="gpx.py -- https://github.com/tkrajina/gpxpy">
  <trk>
    <name>gpx from codoon</name>
    <type>Run</type>
    <trkseg>
      <trkpt lat="39.27676052810765" lon="118.4316675092795">
        <ele>29.5</ele>
        <time>2025-04-03T23:44:31Z</time>
      </trkpt>
      <trkpt lat="39.2767620283443" lon="118.43169085795637">
        <ele>29.5</ele>
        <time>2025-04-03T23:44:32Z</time>
      </trkpt>
      <trkpt lat="39.27676470092561" lon="118.43173245142872">
        <ele>29.5</ele>
        <time>2025-04-03T23:44:33Z</time>
      </trkpt>
      <trkpt lat="39.27676890608041" lon="118.43179789434481">
        <ele>29.5</ele>
        <time>2025-04-03T23:44:34Z</time>
      </trkpt>
      <trkpt lat="39.27677162603223" lon="118.43184022238722">
        <ele>29.5</ele>
        <time>2025-04-03T23:44:35Z</time>
      </trkpt>
      <trkpt lat="39.276775454430926" lon="118.43189979836815">
        <ele>29.5</ele>
        <time>2025-04-03T23:44:36Z</time>
      </trkpt>
      <trkpt lat="39.276782801398326" lon="118.43198054528142">
        <ele>29.5</ele>
        <time>2025-04-03T23:44:37Z</time>
      </trkpt>
      <trkpt lat="39.276787553421016" lon="118.43200697707985">
        <ele>29.5</ele>
        <time>2025-04-03T23:44:38Z</time>
      </trkpt>
      <trkpt lat="39.276800724458624" lon="118.4320579219009">
        <ele>29.5</ele>
        <time>2025-04-03T23:44:39Z</time>
      </trkpt>
      <trkpt lat="39.276813640727774" lon="118.43209417492511">
        <ele>29.5</ele>
        <time>2025-04-03T23:44:40Z</time>
      </trkpt>
      <trkpt lat="39.27680905704393" lon="118.43208229419128">
        <ele>29.5</ele>
        <time>2025-04-03T23:44:41Z</time>
      </trkpt>
      <trkpt lat="39.27688058915735" lon="118.43220890163684">
        <ele>29.5</ele>
        <time>2025-04-03T23:44:42Z</time>
      </trkpt>
      <trkpt lat="39.27685297128023" lon="118.43217086123022">
        <ele>29.5</ele>
        <time>2025-04-03T23:44:43Z</time>
      </trkpt>
      <trkpt lat="39.2769195643288" lon="118.43224969002169">
        <ele>29.5</ele>
        <time>2025-04-03T23:44:44Z</time>
      </trkpt>
      <trkpt lat="39.2769195643288" lon="118.43224969002169">
        <ele>29.5</ele>
        <time>2025-04-03T23:44:45Z</time>
      </trkpt>
      <trkpt lat="39.27698079304939" lon="118.4322928580185">
        <ele>29.5</ele>
        <time>2025-04-03T23:44:46Z</time>
      </trkpt>
      <trkpt lat="39.27698079304939" lon="118.4322928580185">
        <ele>29.5</ele>
        <time>2025-04-03T23:44:47Z</time>
      </trkpt>
      <trkpt lat="39.277047348258336" lon="118.43231839032867">
        <ele>29.5</ele>
        <time>2025-04-03T23:44:48Z</time>
      </trkpt>
      <trkpt lat="39.277057126094256" lon="118.4323205362115">
        <ele>29.5</ele>
        <time>2025-04-03T23:44:49Z</time>
      </trkpt>
      <trkpt lat="39.27710647674367" lon="118.43232552541059">
        <ele>29.5</ele>
        <time>2025-04-03T23:44:50Z</time>
      </trkpt>
      <trkpt lat="39.27715581191882" lon="118.43232091391833">
        <ele>29.5</ele>
        <time>2025-04-03T23:44:51Z</time>
      </trkpt>
      <trkpt lat="39.27719455191287" lon="118.43231037402984">
        <ele>29.5</ele>
        <time>2025-04-03T23:44:52Z</time>
      </trkpt>
      <trkpt lat="39.27723206157529" lon="118.43229388674462">
        <ele>29.5</ele>
        <time>2025-04-03T23:44:53Z</time>
      </trkpt>
      <trkpt lat="39.27725907056248" lon="118.43227774122943">
        <ele>29.5</ele>
        <time>2025-04-03T23:44:54Z</time>
      </trkpt>
      <trkpt lat="39.27729317775192" lon="118.43225139082837">
        <ele>29.5</ele>
        <time>2025-04-03T23:44:55Z</time>
      </trkpt>
      <trkpt lat="39.27732466292183" lon="118.43221983424708">
        <ele>29.5</ele>
        <time>2025-04-03T23:44:56Z</time>
      </trkpt>
      <trkpt lat="39.2773596349723" lon="118.43217367145516">
        <ele>29.5</ele>
        <time>2025-04-03T23:44:57Z</time>
      </trkpt>
      <trkpt lat="39.27737208798759" lon="118.43215329746552">
        <ele>29.5</ele>
        <time>2025-04-03T23:44:58Z</time>
      </trkpt>
      <trkpt lat="39.27740786700582" lon="118.43207456681994">
        <ele>29.5</ele>
        <time>2025-04-03T23:44:59Z</time>
      </trkpt>
      <trkpt lat="39.277411912673465" lon="118.4320624917715">
        <ele>29.5</ele>
        <time>2025-04-03T23:45:00Z</time>
      </trkpt>
      <trkpt lat="39.277433731572316" lon="118.43196020820604">
        <ele>29.5</ele>
        <time>2025-04-03T23:45:01Z</time>
      </trkpt>
      <trkpt lat="39.277430098430415" lon="118.43198659232252">
        <ele>29.5</ele>
        <time>2025-04-03T23:45:02Z</time>
      </trkpt>
      <trkpt lat="39.27743208983769" lon="118.43180088149616">
        <ele>29.5</ele>
        <time>2025-04-03T23:45:03Z</time>
      </trkpt>
      <trkpt lat="39.277433731572316" lon="118.43196020820604">
        <ele>29.5</ele>
        <time>2025-04-03T23:45:04Z</time>
      </trkpt>
      <trkpt lat="39.27741838844028" lon="118.43158764412051">
        <ele>29.5</ele>
        <time>2025-04-03T23:45:05Z</time>
      </trkpt>
      <trkpt lat="39.27739479339322" lon="118.43122036758447">
        <ele>29.5</ele>
        <time>2025-04-03T23:45:07Z</time>
      </trkpt>
      <trkpt lat="39.2773322642122" lon="118.43071076661853">
        <ele>29.5</ele>
        <time>2025-04-03T23:45:09Z</time>
      </trkpt>
      <trkpt lat="39.27740899910169" lon="118.43144150073371">
        <ele>29.5</ele>
        <time>2025-04-03T23:45:12Z</time>
      </trkpt>
      <trkpt lat="39.277405135952954" lon="118.43138136787361">
        <ele>29.5</ele>
        <time>2025-04-03T23:45:13Z</time>
      </trkpt>
      <trkpt lat="39.277402837241155" lon="118.43134558566219">
        <ele>29.5</ele>
        <time>2025-04-03T23:45:14Z</time>
      </trkpt>
      <trkpt lat="39.27739893287206" lon="118.43128480774273">
        <ele>29.5</ele>
        <time>2025-04-03T23:45:15Z</time>
      </trkpt>
      <trkpt lat="39.277395649045765" lon="118.43123368791196">
        <ele>29.5</ele>
        <time>2025-04-03T23:45:16Z</time>
      </trkpt>
      <trkpt lat="39.27739257414405" lon="118.4311858190501">
        <ele>29.5</ele>
        <time>2025-04-03T23:45:17Z</time>
      </trkpt>
      <trkpt lat="39.27738922197741" lon="118.43113363230209">
        <ele>29.5</ele>
        <time>2025-04-03T23:45:18Z</time>
      </trkpt>
      <trkpt lat="39.27738547861601" lon="118.43107535351561">
        <ele>29.5</ele>
        <time>2025-04-03T23:45:19Z</time>
      </trkpt>
      <trkpt lat="39.277383105147116" lon="118.43103840096205">
        <ele>29.5</ele>
        <time>2025-04-03T23:45:20Z</time>
      </trkpt>
      <trkpt lat="39.27738431645353" lon="118.43105725990038">
        <ele>29.5</ele>
        <time>2025-04-03T23:45:21Z</time>
      </trkpt>
      <trkpt lat="39.277369849695695" lon="118.43084947790247">
        <ele>29.5</ele>
        <time>2025-04-03T23:45:22Z</time>
      </trkpt>
      <trkpt lat="39.27738431645353" lon="118.43105725990038">
        <ele>29.5</ele>
        <time>2025-04-03T23:45:23Z</time>
      </trkpt>
      <trkpt lat="39.277321768265665" lon="118.43068811499431">
        <ele>29.5</ele>
        <time>2025-04-03T23:45:24Z</time>
      </trkpt>
      <trkpt lat="39.27723935617557" lon="118.4305744509251">
        <ele>29.5</ele>
        <time>2025-04-03T23:45:26Z</time>
      </trkpt>
      <trkpt lat="39.27718813633071" lon="118.43053435455325">
        <ele>29.5</ele>
        <time>2025-04-03T23:45:28Z</time>
      </trkpt>
      <trkpt lat="39.27736795137505" lon="118.43083605382922">
        <ele>29.5</ele>
        <time>2025-04-03T23:45:29Z</time>
      </trkpt>
      <trkpt lat="39.27724733684914" lon="118.43058229645662">
        <ele>29.5</ele>
        <time>2025-04-03T23:45:31Z</time>
      </trkpt>
      <trkpt lat="39.27716997832308" lon="118.43052376457263">
        <ele>29.5</ele>
        <time>2025-04-03T23:45:32Z</time>
      </trkpt>
      <trkpt lat="39.27716997832308" lon="118.43052376457263">
        <ele>29.5</ele>
        <time>2025-04-03T23:45:33Z</time>
      </trkpt>
      <trkpt lat="39.27714194439874" lon="118.43051059498949">
        <ele>29.5</ele>
        <time>2025-04-03T23:45:34Z</time>
      </trkpt>
      <trkpt lat="39.27713242010051" lon="118.43050694248561">
        <ele>29.5</ele>
        <time>2025-04-03T23:45:35Z</time>
      </trkpt>
      <trkpt lat="39.277093647311325" lon="118.4304960889505">
        <ele>29.5</ele>
        <time>2025-04-03T23:45:36Z</time>
      </trkpt>
      <trkpt lat="39.277073973948816" lon="118.43049294266059">
        <ele>29.5</ele>
        <time>2025-04-03T23:45:37Z</time>
      </trkpt>
      <trkpt lat="39.2770343944955" lon="118.43049125504562">
        <ele>29.5</ele>
        <time>2025-04-03T23:45:38Z</time>
      </trkpt>
      <trkpt lat="39.27700477609487" lon="118.43049402330215">
        <ele>29.5</ele>
        <time>2025-04-03T23:45:39Z</time>
      </trkpt>
      <trkpt lat="39.27699496151997" lon="118.43049571128603">
        <ele>29.5</ele>
        <time>2025-04-03T23:45:40Z</time>
      </trkpt>
      <trkpt lat="39.27694670698225" lon="118.43050982103807">
        <ele>29.5</ele>
        <time>2025-04-03T23:45:41Z</time>
      </trkpt>
      <trkpt lat="39.27691870988437" lon="118.43052273595724">
        <ele>29.5</ele>
        <time>2025-04-03T23:45:42Z</time>
      </trkpt>
      <trkpt lat="39.27690058009927" lon="118.43053314646525">
        <ele>29.5</ele>
        <time>2025-04-03T23:45:43Z</time>
      </trkpt>
      <trkpt lat="39.27687434736338" lon="118.43055138119288">
        <ele>29.5</ele>
        <time>2025-04-03T23:45:44Z</time>
      </trkpt>
      <trkpt lat="39.27683370380518" lon="118.43058842590219">
        <ele>29.5</ele>
        <time>2025-04-03T23:45:45Z</time>
      </trkpt>
      <trkpt lat="39.27681869575926" lon="118.43060543914736">
        <ele>29.5</ele>
        <time>2025-04-03T23:45:46Z</time>
      </trkpt>
      <trkpt lat="39.276797697481484" lon="118.43063314889302">
        <ele>29.5</ele>
        <time>2025-04-03T23:45:47Z</time>
      </trkpt>
      <trkpt lat="39.276767172586474" lon="118.43068468393749">
        <ele>29.5</ele>
        <time>2025-04-03T23:45:48Z</time>
      </trkpt>
      <trkpt lat="39.276767172586474" lon="118.43068468393749">
        <ele>29.5</ele>
        <time>2025-04-03T23:45:49Z</time>
      </trkpt>
      <trkpt lat="39.27672841664765" lon="118.43079137753377">
        <ele>29.5</ele>
        <time>2025-04-03T23:45:50Z</time>
      </trkpt>
      <trkpt lat="39.27674289056209" lon="118.43074203832802">
        <ele>29.5</ele>
        <time>2025-04-03T23:45:51Z</time>
      </trkpt>
      <trkpt lat="39.27671360044134" lon="118.43091031299295">
        <ele>29.5</ele>
        <time>2025-04-03T23:45:52Z</time>
      </trkpt>
      <trkpt lat="39.27673507992389" lon="118.4307663667265">
        <ele>29.5</ele>
        <time>2025-04-03T23:45:53Z</time>
      </trkpt>
      <trkpt lat="39.27672541808567" lon="118.43112098916934">
        <ele>29.5</ele>
        <time>2025-04-03T23:45:54Z</time>
      </trkpt>
      <trkpt lat="39.27675140894951" lon="118.43152557795185">
        <ele>29.5</ele>
        <time>2025-04-03T23:45:56Z</time>
      </trkpt>
      <trkpt lat="39.276800724458624" lon="118.4320579219009">
        <ele>29.5</ele>
        <time>2025-04-03T23:45:58Z</time>
      </trkpt>
      <trkpt lat="39.276739348583895" lon="118.43133785129282">
        <ele>29.5</ele>
        <time>2025-04-03T23:46:01Z</time>
      </trkpt>
      <trkpt lat="39.27674252179696" lon="118.43138724621828">
        <ele>29.5</ele>
        <time>2025-04-03T23:46:02Z</time>
      </trkpt>
      <trkpt lat="39.27674445342521" lon="118.43141731366283">
        <ele>29.5</ele>
        <time>2025-04-03T23:46:03Z</time>
      </trkpt>
      <trkpt lat="39.27674790228318" lon="118.43147099676628">
        <ele>29.5</ele>
        <time>2025-04-03T23:46:04Z</time>
      </trkpt>
      <trkpt lat="39.27675140894951" lon="118.43152557795185">
        <ele>29.5</ele>
        <time>2025-04-03T23:46:05Z</time>
      </trkpt>
      <trkpt lat="39.2767550915638" lon="118.43158289588398">
        <ele>29.5</ele>
        <time>2025-04-03T23:46:06Z</time>
      </trkpt>
      <trkpt lat="39.2767586269911" lon="118.43163792111842">
        <ele>29.5</ele>
        <time>2025-04-03T23:46:07Z</time>
      </trkpt>
      <trkpt lat="39.2767620283443" lon="118.43169085795637">
        <ele>29.5</ele>
        <time>2025-04-03T23:46:08Z</time>
      </trkpt>
      <trkpt lat="39.27676470092561" lon="118.43173245142872">
        <ele>29.5</ele>
        <time>2025-04-03T23:46:09Z</time>
      </trkpt>
      <trkpt lat="39.276763069431915" lon="118.43170706055804">
        <ele>0</ele>
        <time>2025-04-03T23:46:10Z</time>
      </trkpt>
    </trkseg>
  </trk>
</gpx>