<?xml version="1.0" encoding="UTF-8"?>
<gpx xmlns="http://www.topografix.com/GPX/1/1" xmlns:gpxtpx="http://www.garmin.com/xmlschemas/TrackPointExtension/v1" xmlns:xsi="http://www.w3.org/2001/XMLSchema-instance" xsi:schemaLocation="http://www.topografix.com/GPX/1/1 http://www.topografix.com/GPX/1/1/gpx.xsd" version="1.1" creator="gpx.py -- https://github.com/tkrajina/gpxpy">
  <trk>
    <name>gpx from codoon</name>
    <type>Run</type>
    <trkseg>
      <trkpt lat="39.2767620283443" lon="118.43169085795637">
        <ele>29.7</ele>
        <time>2025-04-03T23:55:28Z</time>
      </trkpt>
      <trkpt lat="39.27676470092561" lon="118.43173245142872">
        <ele>29.7</ele>
        <time>2025-04-03T23:55:29Z</time>
      </trkpt>
      <trkpt lat="39.27676642795308" lon="118.43175932867662">
        <ele>29.7</ele>
        <time>2025-04-03T23:55:30Z</time>
      </trkpt>
      <trkpt lat="39.27676890608041" lon="118.43179789434481">
        <ele>29.7</ele>
        <time>2025-04-03T23:55:31Z</time>
      </trkpt>
      <trkpt lat="39.27677162603223" lon="118.43184022238722">
        <ele>29.7</ele>
        <time>2025-04-03T23:55:32Z</time>
      </trkpt>
      <trkpt lat="39.276775454430926" lon="118.43189979836815">
        <ele>29.7</ele>
        <time>2025-04-03T23:55:33Z</time>
      </trkpt>
      <trkpt lat="39.27677932872972" lon="118.43195356794413">
        <ele>29.7</ele>
        <time>2025-04-03T23:55:34Z</time>
      </trkpt>
      <trkpt lat="39.276782801398326" lon="118.43198054528142">
        <ele>29.7</ele>
        <time>2025-04-03T23:55:35Z</time>
      </trkpt>
      <trkpt lat="39.276787553421016" lon="118.43200697707985">
        <ele>29.7</ele>
        <time>2025-04-03T23:55:36Z</time>
      </trkpt>
      <trkpt lat="39.27679698673847" lon="118.43204544760238">
        <ele>29.7</ele>
        <time>2025-04-03T23:55:37Z</time>
      </trkpt>
      <trkpt lat="39.27679698673847" lon="118.43204544760238">
        <ele>29.7</ele>
        <time>2025-04-03T23:55:38Z</time>
      </trkpt>
      <trkpt lat="39.27685297128023" lon="118.43217086123022">
        <ele>29.7</ele>
        <time>2025-04-03T23:55:39Z</time>
      </trkpt>
      <trkpt lat="39.27682899232952" lon="118.43212849398122">
        <ele>29.7</ele>
        <time>2025-04-03T23:55:40Z</time>
      </trkpt>
      <trkpt lat="39.2768956281078" lon="118.43222615723367">
        <ele>29.7</ele>
        <time>2025-04-03T23:55:41Z</time>
      </trkpt>
      <trkpt lat="39.27688058915735" lon="118.43220890163684">
        <ele>29.7</ele>
        <time>2025-04-03T23:55:42Z</time>
      </trkpt>
      <trkpt lat="39.2769195643288" lon="118.43224969002169">
        <ele>29.7</ele>
        <time>2025-04-03T23:55:43Z</time>
      </trkpt>
      <trkpt lat="39.276936354076206" lon="118.43226374357371">
        <ele>29.7</ele>
        <time>2025-04-03T23:55:44Z</time>
      </trkpt>
      <trkpt lat="39.27698079304939" lon="118.4322928580185">
        <ele>29.7</ele>
        <time>2025-04-03T23:55:45Z</time>
      </trkpt>
      <trkpt lat="39.27700882793302" lon="118.43230602881455">
        <ele>29.7</ele>
        <time>2025-04-03T23:55:46Z</time>
      </trkpt>
      <trkpt lat="39.277047348258336" lon="118.43231839032867">
        <ele>29.7</ele>
        <time>2025-04-03T23:55:47Z</time>
      </trkpt>
      <trkpt lat="39.27707679969241" lon="118.43232368279946">
        <ele>29.7</ele>
        <time>2025-04-03T23:55:48Z</time>
      </trkpt>
      <trkpt lat="39.27712627260999" lon="118.43232483134734">
        <ele>29.7</ele>
        <time>2025-04-03T23:55:49Z</time>
      </trkpt>
      <trkpt lat="39.27715581191882" lon="118.43232091391833">
        <ele>29.7</ele>
        <time>2025-04-03T23:55:50Z</time>
      </trkpt>
      <trkpt lat="39.27719455191287" lon="118.43231037402984">
        <ele>29.7</ele>
        <time>2025-04-03T23:55:51Z</time>
      </trkpt>
      <trkpt lat="39.27723206157529" lon="118.43229388674462">
        <ele>29.7</ele>
        <time>2025-04-03T23:55:52Z</time>
      </trkpt>
      <trkpt lat="39.27725907056248" lon="118.43227774122943">
        <ele>29.7</ele>
        <time>2025-04-03T23:55:53Z</time>
      </trkpt>
      <trkpt lat="39.27729317775192" lon="118.43225139082837">
        <ele>29.7</ele>
        <time>2025-04-03T23:55:54Z</time>
      </trkpt>
      <trkpt lat="39.277332070004945" lon="118.43221117635436">
        <ele>29.7</ele>
        <time>2025-04-03T23:55:55Z</time>
      </trkpt>
      <trkpt lat="39.27735306649794" lon="118.43218346435313">
        <ele>29.7</ele>
        <time>2025-04-03T23:55:56Z</time>
      </trkpt>
      <trkpt lat="39.27737796020367" lon="118.43214273211292">
        <ele>29.7</ele>
        <time>2025-04-03T23:55:57Z</time>
      </trkpt>
      <trkpt lat="39.277403544336714" lon="118.43208645272013">
        <ele>29.7</ele>
        <time>2025-04-03T23:55:58Z</time>
      </trkpt>
      <trkpt lat="39.277411912673465" lon="118.4320624917715">
        <ele>29.7</ele>
        <time>2025-04-03T23:55:59Z</time>
      </trkpt>
      <trkpt lat="39.27742781544648" lon="118.43199960528587">
        <ele>29.7</ele>
        <time>2025-04-03T23:56:00Z</time>
      </trkpt>
      <trkpt lat="39.277430098430415" lon="118.43198659232252">
        <ele>29.7</ele>
        <time>2025-04-03T23:56:01Z</time>
      </trkpt>
      <trkpt lat="39.27743686708218" lon="118.43187889707085">
        <ele>29.7</ele>
        <time>2025-04-03T23:56:02Z</time>
      </trkpt>
      <trkpt lat="39.27743714910796" lon="118.43190628204309">
        <ele>29.7</ele>
        <time>2025-04-03T23:56:03Z</time>
      </trkpt>
      <trkpt lat="39.277429182506744" lon="118.43175563639184">
        <ele>29.7</ele>
        <time>2025-04-03T23:56:04Z</time>
      </trkpt>
      <trkpt lat="39.27743534216717" lon="118.43185149419425">
        <ele>29.7</ele>
        <time>2025-04-03T23:56:05Z</time>
      </trkpt>
      <trkpt lat="39.27741838844028" lon="118.43158764412051">
        <ele>29.7</ele>
        <time>2025-04-03T23:56:06Z</time>
      </trkpt>
      <trkpt lat="39.27743686708218" lon="118.43187889707085">
        <ele>29.7</ele>
        <time>2025-04-03T23:56:07Z</time>
      </trkpt>
      <trkpt lat="39.27741915314446" lon="118.43203781116236">
        <ele>29.7</ele>
        <time>2025-04-03T23:56:09Z</time>
      </trkpt>
      <trkpt lat="39.27730927750627" lon="118.43223624018391">
        <ele>29.7</ele>
        <time>2025-04-03T23:56:11Z</time>
      </trkpt>
      <trkpt lat="39.27725907056248" lon="118.43227774122943">
        <ele>29.7</ele>
        <time>2025-04-03T23:56:13Z</time>
      </trkpt>
      <trkpt lat="39.27739479339322" lon="118.43122036758447">
        <ele>29.7</ele>
        <time>2025-04-03T23:56:16Z</time>
      </trkpt>
      <trkpt lat="39.27739302814641" lon="118.43119288686523">
        <ele>29.7</ele>
        <time>2025-04-03T23:56:17Z</time>
      </trkpt>
      <trkpt lat="39.27738871428563" lon="118.43112572838376">
        <ele>29.7</ele>
        <time>2025-04-03T23:56:18Z</time>
      </trkpt>
      <trkpt lat="39.277386042737746" lon="118.43108413621255">
        <ele>29.7</ele>
        <time>2025-04-03T23:56:19Z</time>
      </trkpt>
      <trkpt lat="39.277383105147116" lon="118.43103840096205">
        <ele>29.7</ele>
        <time>2025-04-03T23:56:20Z</time>
      </trkpt>
      <trkpt lat="39.277380513644786" lon="118.43099805292672">
        <ele>29.7</ele>
        <time>2025-04-03T23:56:21Z</time>
      </trkpt>
      <trkpt lat="39.27737688990081" lon="118.43094163194104">
        <ele>29.7</ele>
        <time>2025-04-03T23:56:22Z</time>
      </trkpt>
      <trkpt lat="39.27737446113824" lon="118.43090381553274">
        <ele>29.7</ele>
        <time>2025-04-03T23:56:23Z</time>
      </trkpt>
      <trkpt lat="39.277372665246524" lon="118.43087670030164">
        <ele>29.7</ele>
        <time>2025-04-03T23:56:24Z</time>
      </trkpt>
      <trkpt lat="39.277372665246524" lon="118.43087670030164">
        <ele>29.7</ele>
        <time>2025-04-03T23:56:25Z</time>
      </trkpt>
      <trkpt lat="39.27734170091776" lon="118.43073431146084">
        <ele>29.7</ele>
        <time>2025-04-03T23:56:26Z</time>
      </trkpt>
      <trkpt lat="39.277363200619284" lon="118.43080962362725">
        <ele>29.7</ele>
        <time>2025-04-03T23:56:27Z</time>
      </trkpt>
      <trkpt lat="39.27729779188249" lon="118.43064575098705">
        <ele>29.7</ele>
        <time>2025-04-03T23:56:28Z</time>
      </trkpt>
      <trkpt lat="39.27734170091776" lon="118.43073431146084">
        <ele>29.7</ele>
        <time>2025-04-03T23:56:29Z</time>
      </trkpt>
      <trkpt lat="39.277255138625634" lon="118.43059045949414">
        <ele>29.7</ele>
        <time>2025-04-03T23:56:30Z</time>
      </trkpt>
      <trkpt lat="39.277284412592145" lon="118.43062616230503">
        <ele>29.7</ele>
        <time>2025-04-03T23:56:31Z</time>
      </trkpt>
      <trkpt lat="39.277222887818525" lon="118.43055973543264">
        <ele>29.7</ele>
        <time>2025-04-03T23:56:32Z</time>
      </trkpt>
      <trkpt lat="39.277205793913474" lon="118.43054635672375">
        <ele>29.7</ele>
        <time>2025-04-03T23:56:33Z</time>
      </trkpt>
      <trkpt lat="39.27716997832308" lon="118.43052376457263">
        <ele>29.7</ele>
        <time>2025-04-03T23:56:34Z</time>
      </trkpt>
      <trkpt lat="39.27714194439874" lon="118.43051059498949">
        <ele>29.7</ele>
        <time>2025-04-03T23:56:35Z</time>
      </trkpt>
      <trkpt lat="39.277093647311325" lon="118.4304960889505">
        <ele>29.7</ele>
        <time>2025-04-03T23:56:36Z</time>
      </trkpt>
      <trkpt lat="39.27708382745652" lon="118.43049432454455">
        <ele>29.7</ele>
        <time>2025-04-03T23:56:37Z</time>
      </trkpt>
      <trkpt lat="39.277044297036845" lon="118.43049110022574">
        <ele>29.7</ele>
        <time>2025-04-03T23:56:38Z</time>
      </trkpt>
      <trkpt lat="39.27701462547042" lon="118.43049271724698">
        <ele>29.7</ele>
        <time>2025-04-03T23:56:39Z</time>
      </trkpt>
      <trkpt lat="39.27699496151997" lon="118.43049571128603">
        <ele>29.7</ele>
        <time>2025-04-03T23:56:40Z</time>
      </trkpt>
      <trkpt lat="39.27694670698225" lon="118.43050982103807">
        <ele>29.7</ele>
        <time>2025-04-03T23:56:41Z</time>
      </trkpt>
      <trkpt lat="39.27694670698225" lon="118.43050982103807">
        <ele>29.7</ele>
        <time>2025-04-03T23:56:42Z</time>
      </trkpt>
      <trkpt lat="39.27690058009927" lon="118.43053314646525">
        <ele>29.7</ele>
        <time>2025-04-03T23:56:43Z</time>
      </trkpt>
      <trkpt lat="39.27687434736338" lon="118.43055138119288">
        <ele>29.7</ele>
        <time>2025-04-03T23:56:44Z</time>
      </trkpt>
      <trkpt lat="39.27687434736338" lon="118.43055138119288">
        <ele>29.7</ele>
        <time>2025-04-03T23:56:45Z</time>
      </trkpt>
      <trkpt lat="39.27683370380518" lon="118.43058842590219">
        <ele>29.7</ele>
        <time>2025-04-03T23:56:46Z</time>
      </trkpt>
      <trkpt lat="39.27683370380518" lon="118.43058842590219">
        <ele>29.7</ele>
        <time>2025-04-03T23:56:47Z</time>
      </trkpt>
      <trkpt lat="39.276797697481484" lon="118.43063314889302">
        <ele>29.7</ele>
        <time>2025-04-03T23:56:48Z</time>
      </trkpt>
      <trkpt lat="39.276797697481484" lon="118.43063314889302">
        <ele>29.7</ele>
        <time>2025-04-03T23:56:49Z</time>
      </trkpt>
      <trkpt lat="39.276767172586474" lon="118.43068468393749">
        <ele>29.7</ele>
        <time>2025-04-03T23:56:50Z</time>
      </trkpt>
      <trkpt lat="39.27676179390071" lon="118.4306957230226">
        <ele>29.7</ele>
        <time>2025-04-03T23:56:51Z</time>
      </trkpt>
      <trkpt lat="39.27673507992389" lon="118.4307663667265">
        <ele>29.7</ele>
        <time>2025-04-03T23:56:52Z</time>
      </trkpt>
      <trkpt lat="39.27674289056209" lon="118.43074203832802">
        <ele>29.7</ele>
        <time>2025-04-03T23:56:53Z</time>
      </trkpt>
      <trkpt lat="39.27671360044134" lon="118.43091031299295">
        <ele>29.7</ele>
        <time>2025-04-03T23:56:54Z</time>
      </trkpt>
      <trkpt lat="39.27671702029664" lon="118.43085638975248">
        <ele>29.7</ele>
        <time>2025-04-03T23:56:55Z</time>
      </trkpt>
      <trkpt lat="39.2767303790577" lon="118.4311982219469">
        <ele>29.7</ele>
        <time>2025-04-03T23:56:56Z</time>
      </trkpt>
      <trkpt lat="39.27672293826614" lon="118.43081699499727">
        <ele>29.7</ele>
        <time>2025-04-03T23:56:57Z</time>
      </trkpt>
      <trkpt lat="39.27681869575926" lon="118.43060543914736">
        <ele>29.7</ele>
        <time>2025-04-03T23:56:59Z</time>
      </trkpt>
      <trkpt lat="39.27670826347808" lon="118.43127360043317">
        <ele>29.7</ele>
        <time>2025-04-03T23:57:01Z</time>
      </trkpt>
      <trkpt lat="39.2767372800924" lon="118.43130565193297">
        <ele>29.7</ele>
        <time>2025-04-03T23:57:02Z</time>
      </trkpt>
      <trkpt lat="39.27674095184876" lon="118.43136280824169">
        <ele>29.7</ele>
        <time>2025-04-03T23:57:03Z</time>
      </trkpt>
      <trkpt lat="39.27674368377776" lon="118.431405333506">
        <ele>29.7</ele>
        <time>2025-04-03T23:57:04Z</time>
      </trkpt>
      <trkpt lat="39.2767471347831" lon="118.43145905041133">
        <ele>29.7</ele>
        <time>2025-04-03T23:57:05Z</time>
      </trkpt>
      <trkpt lat="39.276749836084285" lon="118.43150109655473">
        <ele>29.7</ele>
        <time>2025-04-03T23:57:06Z</time>
      </trkpt>
      <trkpt lat="39.27675140894951" lon="118.43152557795185">
        <ele>29.7</ele>
        <time>2025-04-03T23:57:07Z</time>
      </trkpt>
      <trkpt lat="39.2767550915638" lon="118.43158289588398">
        <ele>29.7</ele>
        <time>2025-04-03T23:57:08Z</time>
      </trkpt>
      <trkpt lat="39.2767586269911" lon="118.43163792111842">
        <ele>29.7</ele>
        <time>2025-04-03T23:57:09Z</time>
      </trkpt>
      <trkpt lat="39.2767620283443" lon="118.43169085795637">
        <ele>29.7</ele>
        <time>2025-04-03T23:57:10Z</time>
      </trkpt>
      <trkpt lat="39.27676470092561" lon="118.43173245142872">
        <ele>29.7</ele>
        <time>2025-04-03T23:57:11Z</time>
      </trkpt>
      <trkpt lat="39.27676414716372" lon="118.4317238332969">
        <ele>0</ele>
        <time>2025-04-03T23:57:12Z</time>
      </trkpt>
      <trkpt lat="39.27677714892354" lon="118.4319261667101">
        <ele>0</ele>
        <time>2025-04-03T23:57:13Z</time>
      </trkpt>
    </trkseg>
  </trk>
</gpx>