<?xml version="1.0" encoding="UTF-8"?>
<gpx xmlns="http://www.topografix.com/GPX/1/1" xmlns:gpxtpx="http://www.garmin.com/xmlschemas/TrackPointExtension/v1" xmlns:xsi="http://www.w3.org/2001/XMLSchema-instance" xsi:schemaLocation="http://www.topografix.com/GPX/1/1 http://www.topografix.com/GPX/1/1/gpx.xsd" version="1.1" creator="gpx.py -- https://github.com/tkrajina/gpxpy">
  <trk>
    <name>gpx from codoon</name>
    <type>Run</type>
    <trkseg>
      <trkpt lat="39.2767620283443" lon="118.43169085795637">
        <ele>1.6</ele>
        <time>2025-04-05T23:29:11Z</time>
      </trkpt>
      <trkpt lat="39.27676470092561" lon="118.43173245142872">
        <ele>1.6</ele>
        <time>2025-04-05T23:29:12Z</time>
      </trkpt>
      <trkpt lat="39.27676826579848" lon="118.43178793008933">
        <ele>1.6</ele>
        <time>2025-04-05T23:29:13Z</time>
      </trkpt>
      <trkpt lat="39.27677162603223" lon="118.43184022238722">
        <ele>1.6</ele>
        <time>2025-04-05T23:29:14Z</time>
      </trkpt>
      <trkpt lat="39.276775454430926" lon="118.43189979836815">
        <ele>1.6</ele>
        <time>2025-04-05T23:29:15Z</time>
      </trkpt>
      <trkpt lat="39.27677932872972" lon="118.43195356794413">
        <ele>1.6</ele>
        <time>2025-04-05T23:29:16Z</time>
      </trkpt>
      <trkpt lat="39.2767850201679" lon="118.43199383376782">
        <ele>1.6</ele>
        <time>2025-04-05T23:29:17Z</time>
      </trkpt>
      <trkpt lat="39.27679698673847" lon="118.43204544760238">
        <ele>1.6</ele>
        <time>2025-04-05T23:29:18Z</time>
      </trkpt>
      <trkpt lat="39.276813640727774" lon="118.43209417492511">
        <ele>1.6</ele>
        <time>2025-04-05T23:29:19Z</time>
      </trkpt>
      <trkpt lat="39.27682899232952" lon="118.43212849398122">
        <ele>1.6</ele>
        <time>2025-04-05T23:29:20Z</time>
      </trkpt>
      <trkpt lat="39.27682899232952" lon="118.43212849398122">
        <ele>1.6</ele>
        <time>2025-04-05T23:29:21Z</time>
      </trkpt>
      <trkpt lat="39.2769195643288" lon="118.43224969002169">
        <ele>1.6</ele>
        <time>2025-04-05T23:29:22Z</time>
      </trkpt>
      <trkpt lat="39.2768956281078" lon="118.43222615723367">
        <ele>1.6</ele>
        <time>2025-04-05T23:29:23Z</time>
      </trkpt>
      <trkpt lat="39.276936354076206" lon="118.43226374357371">
        <ele>1.6</ele>
        <time>2025-04-05T23:29:24Z</time>
      </trkpt>
      <trkpt lat="39.27698079304939" lon="118.4322928580185">
        <ele>1.6</ele>
        <time>2025-04-05T23:29:25Z</time>
      </trkpt>
      <trkpt lat="39.27700882793302" lon="118.43230602881455">
        <ele>1.6</ele>
        <time>2025-04-05T23:29:26Z</time>
      </trkpt>
      <trkpt lat="39.277047348258336" lon="118.43231839032867">
        <ele>1.6</ele>
        <time>2025-04-05T23:29:27Z</time>
      </trkpt>
      <trkpt lat="39.27706694608105" lon="118.43232230078439">
        <ele>1.6</ele>
        <time>2025-04-05T23:29:28Z</time>
      </trkpt>
      <trkpt lat="39.277116379273934" lon="118.43232537057673">
        <ele>1.6</ele>
        <time>2025-04-05T23:29:29Z</time>
      </trkpt>
      <trkpt lat="39.27716558303841" lon="118.4323188452091">
        <ele>1.6</ele>
        <time>2025-04-05T23:29:30Z</time>
      </trkpt>
      <trkpt lat="39.27720406541626" lon="118.43230680285092">
        <ele>1.6</ele>
        <time>2025-04-05T23:29:31Z</time>
      </trkpt>
      <trkpt lat="39.27723206157529" lon="118.43229388674462">
        <ele>1.6</ele>
        <time>2025-04-05T23:29:32Z</time>
      </trkpt>
      <trkpt lat="39.27727642206127" lon="118.43226523893598">
        <ele>1.6</ele>
        <time>2025-04-05T23:29:33Z</time>
      </trkpt>
      <trkpt lat="39.27729317775192" lon="118.43225139082837">
        <ele>1.6</ele>
        <time>2025-04-05T23:29:34Z</time>
      </trkpt>
      <trkpt lat="39.277332070004945" lon="118.43221117635436">
        <ele>1.6</ele>
        <time>2025-04-05T23:29:35Z</time>
      </trkpt>
      <trkpt lat="39.27735306649794" lon="118.43218346435313">
        <ele>1.6</ele>
        <time>2025-04-05T23:29:36Z</time>
      </trkpt>
      <trkpt lat="39.27737796020367" lon="118.43214273211292">
        <ele>1.6</ele>
        <time>2025-04-05T23:29:37Z</time>
      </trkpt>
      <trkpt lat="39.277403544336714" lon="118.43208645272013">
        <ele>1.6</ele>
        <time>2025-04-05T23:29:38Z</time>
      </trkpt>
      <trkpt lat="39.27741567634281" lon="118.43205023677902">
        <ele>1.6</ele>
        <time>2025-04-05T23:29:39Z</time>
      </trkpt>
      <trkpt lat="39.27743207189131" lon="118.43197345670087">
        <ele>1.6</ele>
        <time>2025-04-05T23:29:40Z</time>
      </trkpt>
      <trkpt lat="39.27743207189131" lon="118.43197345670087">
        <ele>1.6</ele>
        <time>2025-04-05T23:29:41Z</time>
      </trkpt>
      <trkpt lat="39.27743621355624" lon="118.4318651331791">
        <ele>1.6</ele>
        <time>2025-04-05T23:29:42Z</time>
      </trkpt>
      <trkpt lat="39.27743678617644" lon="118.4319198837439">
        <ele>1.6</ele>
        <time>2025-04-05T23:29:43Z</time>
      </trkpt>
      <trkpt lat="39.27742655247947" lon="118.43171470577215">
        <ele>1.6</ele>
        <time>2025-04-05T23:29:44Z</time>
      </trkpt>
      <trkpt lat="39.27743714910796" lon="118.43190628204309">
        <ele>1.6</ele>
        <time>2025-04-05T23:29:45Z</time>
      </trkpt>
      <trkpt lat="39.2774252272727" lon="118.43201248585311">
        <ele>1.6</ele>
        <time>2025-04-05T23:29:47Z</time>
      </trkpt>
      <trkpt lat="39.277332070004945" lon="118.43221117635436">
        <ele>1.6</ele>
        <time>2025-04-05T23:29:49Z</time>
      </trkpt>
      <trkpt lat="39.27725907056248" lon="118.43227774122943">
        <ele>1.6</ele>
        <time>2025-04-05T23:29:51Z</time>
      </trkpt>
      <trkpt lat="39.27727642206127" lon="118.43226523893598">
        <ele>1.6</ele>
        <time>2025-04-05T23:29:53Z</time>
      </trkpt>
      <trkpt lat="39.27739648917195" lon="118.43124676643198">
        <ele>1.6</ele>
        <time>2025-04-05T23:29:56Z</time>
      </trkpt>
      <trkpt lat="39.27739302814641" lon="118.43119288686523">
        <ele>1.6</ele>
        <time>2025-04-05T23:29:57Z</time>
      </trkpt>
      <trkpt lat="39.277390214004335" lon="118.43114907640846">
        <ele>1.6</ele>
        <time>2025-04-05T23:29:58Z</time>
      </trkpt>
      <trkpt lat="39.277386042737746" lon="118.43108413621255">
        <ele>1.6</ele>
        <time>2025-04-05T23:29:59Z</time>
      </trkpt>
      <trkpt lat="39.277383105147116" lon="118.43103840096205">
        <ele>1.6</ele>
        <time>2025-04-05T23:30:00Z</time>
      </trkpt>
      <trkpt lat="39.277379826107456" lon="118.43098734824893">
        <ele>1.6</ele>
        <time>2025-04-05T23:30:01Z</time>
      </trkpt>
      <trkpt lat="39.27737688990081" lon="118.43094163194104">
        <ele>1.6</ele>
        <time>2025-04-05T23:30:02Z</time>
      </trkpt>
      <trkpt lat="39.27737360142185" lon="118.43089042934302">
        <ele>1.6</ele>
        <time>2025-04-05T23:30:03Z</time>
      </trkpt>
      <trkpt lat="39.277372665246524" lon="118.43087670030164">
        <ele>1.6</ele>
        <time>2025-04-05T23:30:04Z</time>
      </trkpt>
      <trkpt lat="39.277369849695695" lon="118.43084947790247">
        <ele>1.6</ele>
        <time>2025-04-05T23:30:05Z</time>
      </trkpt>
      <trkpt lat="39.2773322642122" lon="118.43071076661853">
        <ele>1.6</ele>
        <time>2025-04-05T23:30:06Z</time>
      </trkpt>
      <trkpt lat="39.277360358853834" lon="118.43079663513613">
        <ele>1.6</ele>
        <time>2025-04-05T23:30:07Z</time>
      </trkpt>
      <trkpt lat="39.27729779188249" lon="118.43064575098705">
        <ele>1.6</ele>
        <time>2025-04-05T23:30:08Z</time>
      </trkpt>
      <trkpt lat="39.277321768265665" lon="118.43068811499431">
        <ele>1.6</ele>
        <time>2025-04-05T23:30:09Z</time>
      </trkpt>
      <trkpt lat="39.277255138625634" lon="118.43059045949414">
        <ele>1.6</ele>
        <time>2025-04-05T23:30:10Z</time>
      </trkpt>
      <trkpt lat="39.27727739821392" lon="118.43061679199246">
        <ele>1.6</ele>
        <time>2025-04-05T23:30:11Z</time>
      </trkpt>
      <trkpt lat="39.277222887818525" lon="118.43055973543264">
        <ele>1.6</ele>
        <time>2025-04-05T23:30:12Z</time>
      </trkpt>
      <trkpt lat="39.277205793913474" lon="118.43054635672375">
        <ele>1.6</ele>
        <time>2025-04-05T23:30:13Z</time>
      </trkpt>
      <trkpt lat="39.27716997832308" lon="118.43052376457263">
        <ele>1.6</ele>
        <time>2025-04-05T23:30:14Z</time>
      </trkpt>
      <trkpt lat="39.27714194439874" lon="118.43051059498949">
        <ele>1.6</ele>
        <time>2025-04-05T23:30:15Z</time>
      </trkpt>
      <trkpt lat="39.277093647311325" lon="118.4304960889505">
        <ele>1.6</ele>
        <time>2025-04-05T23:30:16Z</time>
      </trkpt>
      <trkpt lat="39.27706409533441" lon="118.43049194425387">
        <ele>1.6</ele>
        <time>2025-04-05T23:30:17Z</time>
      </trkpt>
      <trkpt lat="39.27702450111962" lon="118.4304917942247">
        <ele>1.6</ele>
        <time>2025-04-05T23:30:18Z</time>
      </trkpt>
      <trkpt lat="39.27699496151997" lon="118.43049571128603">
        <ele>1.6</ele>
        <time>2025-04-05T23:30:19Z</time>
      </trkpt>
      <trkpt lat="39.27694670698225" lon="118.43050982103807">
        <ele>1.6</ele>
        <time>2025-04-05T23:30:20Z</time>
      </trkpt>
      <trkpt lat="39.27694670698225" lon="118.43050982103807">
        <ele>1.6</ele>
        <time>2025-04-05T23:30:21Z</time>
      </trkpt>
      <trkpt lat="39.27690058009927" lon="118.43053314646525">
        <ele>1.6</ele>
        <time>2025-04-05T23:30:22Z</time>
      </trkpt>
      <trkpt lat="39.27687434736338" lon="118.43055138119288">
        <ele>1.6</ele>
        <time>2025-04-05T23:30:23Z</time>
      </trkpt>
      <trkpt lat="39.276857590712645" lon="118.43056522808672">
        <ele>1.6</ele>
        <time>2025-04-05T23:30:24Z</time>
      </trkpt>
      <trkpt lat="39.27683370380518" lon="118.43058842590219">
        <ele>1.6</ele>
        <time>2025-04-05T23:30:25Z</time>
      </trkpt>
      <trkpt lat="39.276797697481484" lon="118.43063314889302">
        <ele>1.6</ele>
        <time>2025-04-05T23:30:26Z</time>
      </trkpt>
      <trkpt lat="39.276797697481484" lon="118.43063314889302">
        <ele>1.6</ele>
        <time>2025-04-05T23:30:27Z</time>
      </trkpt>
      <trkpt lat="39.27675667088569" lon="118.43070698672781">
        <ele>1.6</ele>
        <time>2025-04-05T23:30:28Z</time>
      </trkpt>
      <trkpt lat="39.27675667088569" lon="118.43070698672781">
        <ele>1.6</ele>
        <time>2025-04-05T23:30:29Z</time>
      </trkpt>
      <trkpt lat="39.27672552706997" lon="118.43080411522475">
        <ele>1.6</ele>
        <time>2025-04-05T23:30:30Z</time>
      </trkpt>
      <trkpt lat="39.27673160247621" lon="118.4307787915279">
        <ele>1.6</ele>
        <time>2025-04-05T23:30:31Z</time>
      </trkpt>
      <trkpt lat="39.276715405266856" lon="118.43096509817971">
        <ele>1.6</ele>
        <time>2025-04-05T23:30:32Z</time>
      </trkpt>
      <trkpt lat="39.27672552706997" lon="118.43080411522475">
        <ele>1.6</ele>
        <time>2025-04-05T23:30:33Z</time>
      </trkpt>
      <trkpt lat="39.27674289056209" lon="118.43074203832802">
        <ele>1.6</ele>
        <time>2025-04-05T23:30:35Z</time>
      </trkpt>
      <trkpt lat="39.276857590712645" lon="118.43056522808672">
        <ele>1.6</ele>
        <time>2025-04-05T23:30:37Z</time>
      </trkpt>
      <trkpt lat="39.27670242845146" lon="118.4312670983147">
        <ele>1.6</ele>
        <time>2025-04-05T23:30:39Z</time>
      </trkpt>
      <trkpt lat="39.2767372800924" lon="118.43130565193297">
        <ele>1.6</ele>
        <time>2025-04-05T23:30:40Z</time>
      </trkpt>
      <trkpt lat="39.276740155072275" lon="118.43135040540228">
        <ele>1.6</ele>
        <time>2025-04-05T23:30:41Z</time>
      </trkpt>
      <trkpt lat="39.27674368377776" lon="118.431405333506">
        <ele>1.6</ele>
        <time>2025-04-05T23:30:42Z</time>
      </trkpt>
      <trkpt lat="39.27674636890152" lon="118.43144712916516">
        <ele>1.6</ele>
        <time>2025-04-05T23:30:43Z</time>
      </trkpt>
      <trkpt lat="39.27674790228318" lon="118.43147099676628">
        <ele>1.6</ele>
        <time>2025-04-05T23:30:44Z</time>
      </trkpt>
      <trkpt lat="39.27675140894951" lon="118.43152557795185">
        <ele>1.6</ele>
        <time>2025-04-05T23:30:45Z</time>
      </trkpt>
      <trkpt lat="39.2767550915638" lon="118.43158289588398">
        <ele>1.6</ele>
        <time>2025-04-05T23:30:46Z</time>
      </trkpt>
      <trkpt lat="39.27675771311435" lon="118.43162369775082">
        <ele>1.6</ele>
        <time>2025-04-05T23:30:47Z</time>
      </trkpt>
      <trkpt lat="39.27676052810765" lon="118.4316675092795">
        <ele>1.6</ele>
        <time>2025-04-05T23:30:48Z</time>
      </trkpt>
      <trkpt lat="39.2767620283443" lon="118.43169085795637">
        <ele>1.6</ele>
        <time>2025-04-05T23:30:49Z</time>
      </trkpt>
      <trkpt lat="39.27676414716372" lon="118.4317238332969">
        <ele>1.6</ele>
        <time>2025-04-05T23:30:50Z</time>
      </trkpt>
    </trkseg>
  </trk>
</gpx>