<?xml version="1.0" encoding="UTF-8"?>
<gpx xmlns="http://www.topografix.com/GPX/1/1" xmlns:gpxtpx="http://www.garmin.com/xmlschemas/TrackPointExtension/v1" xmlns:xsi="http://www.w3.org/2001/XMLSchema-instance" xsi:schemaLocation="http://www.topografix.com/GPX/1/1 http://www.topografix.com/GPX/1/1/gpx.xsd" version="1.1" creator="gpx.py -- https://github.com/tkrajina/gpxpy">
  <trk>
    <name>gpx from codoon</name>
    <type>Run</type>
    <trkseg>
      <trkpt lat="39.27676470092561" lon="118.43173245142872">
        <ele>1.4</ele>
        <time>2025-04-05T23:22:12Z</time>
      </trkpt>
      <trkpt lat="39.27676763981639" lon="118.43177818831606">
        <ele>1.4</ele>
        <time>2025-04-05T23:22:13Z</time>
      </trkpt>
      <trkpt lat="39.27677092050999" lon="118.43182924311135">
        <ele>1.4</ele>
        <time>2025-04-05T23:22:14Z</time>
      </trkpt>
      <trkpt lat="39.27677464479953" lon="118.43188719938708">
        <ele>1.4</ele>
        <time>2025-04-05T23:22:16Z</time>
      </trkpt>
      <trkpt lat="39.276782801398326" lon="118.43198054528142">
        <ele>1.4</ele>
        <time>2025-04-05T23:22:17Z</time>
      </trkpt>
      <trkpt lat="39.276793542057774" lon="118.4320327928319">
        <ele>1.4</ele>
        <time>2025-04-05T23:22:18Z</time>
      </trkpt>
      <trkpt lat="39.276813640727774" lon="118.43209417492511">
        <ele>1.4</ele>
        <time>2025-04-05T23:22:19Z</time>
      </trkpt>
      <trkpt lat="39.27682899232952" lon="118.43212849398122">
        <ele>1.4</ele>
        <time>2025-04-05T23:22:20Z</time>
      </trkpt>
      <trkpt lat="39.27685297128023" lon="118.43217086123022">
        <ele>1.4</ele>
        <time>2025-04-05T23:22:21Z</time>
      </trkpt>
      <trkpt lat="39.27688058915735" lon="118.43220890163684">
        <ele>1.4</ele>
        <time>2025-04-05T23:22:22Z</time>
      </trkpt>
      <trkpt lat="39.27688801195497" lon="118.43221768203149">
        <ele>1.4</ele>
        <time>2025-04-05T23:22:23Z</time>
      </trkpt>
      <trkpt lat="39.27696263428082" lon="118.43228226707586">
        <ele>1.4</ele>
        <time>2025-04-05T23:22:24Z</time>
      </trkpt>
      <trkpt lat="39.27698079304939" lon="118.4322928580185">
        <ele>1.4</ele>
        <time>2025-04-05T23:22:25Z</time>
      </trkpt>
      <trkpt lat="39.27700882793302" lon="118.43230602881455">
        <ele>1.4</ele>
        <time>2025-04-05T23:22:26Z</time>
      </trkpt>
      <trkpt lat="39.277047348258336" lon="118.43231839032867">
        <ele>1.4</ele>
        <time>2025-04-05T23:22:27Z</time>
      </trkpt>
      <trkpt lat="39.27709657358886" lon="118.43232529562762">
        <ele>1.4</ele>
        <time>2025-04-05T23:22:28Z</time>
      </trkpt>
      <trkpt lat="39.27715581191882" lon="118.43232091391833">
        <ele>1.4</ele>
        <time>2025-04-05T23:22:29Z</time>
      </trkpt>
      <trkpt lat="39.27719455191287" lon="118.43231037402984">
        <ele>1.4</ele>
        <time>2025-04-05T23:22:30Z</time>
      </trkpt>
      <trkpt lat="39.27720406541626" lon="118.43230680285092">
        <ele>1.4</ele>
        <time>2025-04-05T23:22:31Z</time>
      </trkpt>
      <trkpt lat="39.27725907056248" lon="118.43227774122943">
        <ele>1.4</ele>
        <time>2025-04-05T23:22:32Z</time>
      </trkpt>
      <trkpt lat="39.27727642206127" lon="118.43226523893598">
        <ele>1.4</ele>
        <time>2025-04-05T23:22:33Z</time>
      </trkpt>
      <trkpt lat="39.27730927750627" lon="118.43223624018391">
        <ele>1.4</ele>
        <time>2025-04-05T23:22:34Z</time>
      </trkpt>
      <trkpt lat="39.27735306649794" lon="118.43218346435313">
        <ele>1.4</ele>
        <time>2025-04-05T23:22:35Z</time>
      </trkpt>
      <trkpt lat="39.27736597754587" lon="118.43216361323441">
        <ele>1.4</ele>
        <time>2025-04-05T23:22:36Z</time>
      </trkpt>
      <trkpt lat="39.27740786700582" lon="118.43207456681994">
        <ele>1.4</ele>
        <time>2025-04-05T23:22:37Z</time>
      </trkpt>
      <trkpt lat="39.277411912673465" lon="118.4320624917715">
        <ele>1.4</ele>
        <time>2025-04-05T23:22:38Z</time>
      </trkpt>
      <trkpt lat="39.277433731572316" lon="118.43196020820604">
        <ele>1.4</ele>
        <time>2025-04-05T23:22:39Z</time>
      </trkpt>
      <trkpt lat="39.277430098430415" lon="118.43198659232252">
        <ele>1.4</ele>
        <time>2025-04-05T23:22:40Z</time>
      </trkpt>
      <trkpt lat="39.277432867510065" lon="118.43181298375718">
        <ele>1.4</ele>
        <time>2025-04-05T23:22:41Z</time>
      </trkpt>
      <trkpt lat="39.277433731572316" lon="118.43196020820604">
        <ele>1.4</ele>
        <time>2025-04-05T23:22:42Z</time>
      </trkpt>
      <trkpt lat="39.27741936046989" lon="118.4316027728739">
        <ele>1.4</ele>
        <time>2025-04-05T23:22:43Z</time>
      </trkpt>
      <trkpt lat="39.27739731546736" lon="118.43125962954595">
        <ele>1.4</ele>
        <time>2025-04-05T23:22:45Z</time>
      </trkpt>
      <trkpt lat="39.27735721327471" lon="118.43078380950415">
        <ele>1.4</ele>
        <time>2025-04-05T23:22:47Z</time>
      </trkpt>
      <trkpt lat="39.27727739821392" lon="118.43061679199246">
        <ele>1.4</ele>
        <time>2025-04-05T23:22:49Z</time>
      </trkpt>
      <trkpt lat="39.277222887818525" lon="118.43055973543264">
        <ele>1.4</ele>
        <time>2025-04-05T23:22:51Z</time>
      </trkpt>
      <trkpt lat="39.27739648917195" lon="118.43124676643198">
        <ele>1.4</ele>
        <time>2025-04-05T23:22:54Z</time>
      </trkpt>
      <trkpt lat="39.27739302814641" lon="118.43119288686523">
        <ele>1.4</ele>
        <time>2025-04-05T23:22:55Z</time>
      </trkpt>
      <trkpt lat="39.277390214004335" lon="118.43114907640846">
        <ele>1.4</ele>
        <time>2025-04-05T23:22:56Z</time>
      </trkpt>
      <trkpt lat="39.277386596273864" lon="118.4310927540601">
        <ele>1.4</ele>
        <time>2025-04-05T23:22:57Z</time>
      </trkpt>
      <trkpt lat="39.277383105147116" lon="118.43103840096205">
        <ele>1.4</ele>
        <time>2025-04-05T23:22:58Z</time>
      </trkpt>
      <trkpt lat="39.277379826107456" lon="118.43098734824893">
        <ele>1.4</ele>
        <time>2025-04-05T23:22:59Z</time>
      </trkpt>
      <trkpt lat="39.27737688990081" lon="118.43094163194104">
        <ele>1.4</ele>
        <time>2025-04-05T23:23:00Z</time>
      </trkpt>
      <trkpt lat="39.27737360142185" lon="118.43089042934302">
        <ele>1.4</ele>
        <time>2025-04-05T23:23:01Z</time>
      </trkpt>
      <trkpt lat="39.277369849695695" lon="118.43084947790247">
        <ele>1.4</ele>
        <time>2025-04-05T23:23:02Z</time>
      </trkpt>
      <trkpt lat="39.277363200619284" lon="118.43080962362725">
        <ele>1.4</ele>
        <time>2025-04-05T23:23:03Z</time>
      </trkpt>
      <trkpt lat="39.277363200619284" lon="118.43080962362725">
        <ele>1.4</ele>
        <time>2025-04-05T23:23:04Z</time>
      </trkpt>
      <trkpt lat="39.27729779188249" lon="118.43064575098705">
        <ele>1.4</ele>
        <time>2025-04-05T23:23:05Z</time>
      </trkpt>
      <trkpt lat="39.27734170091776" lon="118.43073431146084">
        <ele>1.4</ele>
        <time>2025-04-05T23:23:06Z</time>
      </trkpt>
      <trkpt lat="39.277255138625634" lon="118.43059045949414">
        <ele>1.4</ele>
        <time>2025-04-05T23:23:07Z</time>
      </trkpt>
      <trkpt lat="39.27729779188249" lon="118.43064575098705">
        <ele>1.4</ele>
        <time>2025-04-05T23:23:08Z</time>
      </trkpt>
      <trkpt lat="39.277222887818525" lon="118.43055973543264">
        <ele>1.4</ele>
        <time>2025-04-05T23:23:09Z</time>
      </trkpt>
      <trkpt lat="39.277222887818525" lon="118.43055973543264">
        <ele>1.4</ele>
        <time>2025-04-05T23:23:10Z</time>
      </trkpt>
      <trkpt lat="39.27718813633071" lon="118.43053435455325">
        <ele>1.4</ele>
        <time>2025-04-05T23:23:11Z</time>
      </trkpt>
      <trkpt lat="39.27714194439874" lon="118.43051059498949">
        <ele>1.4</ele>
        <time>2025-04-05T23:23:12Z</time>
      </trkpt>
      <trkpt lat="39.27714194439874" lon="118.43051059498949">
        <ele>1.4</ele>
        <time>2025-04-05T23:23:13Z</time>
      </trkpt>
      <trkpt lat="39.277093647311325" lon="118.4304960889505">
        <ele>1.4</ele>
        <time>2025-04-05T23:23:14Z</time>
      </trkpt>
      <trkpt lat="39.27705420017396" lon="118.43049132998628">
        <ele>1.4</ele>
        <time>2025-04-05T23:23:15Z</time>
      </trkpt>
      <trkpt lat="39.27701462547042" lon="118.43049271724698">
        <ele>1.4</ele>
        <time>2025-04-05T23:23:16Z</time>
      </trkpt>
      <trkpt lat="39.27699496151997" lon="118.43049571128603">
        <ele>1.4</ele>
        <time>2025-04-05T23:23:17Z</time>
      </trkpt>
      <trkpt lat="39.27694670698225" lon="118.43050982103807">
        <ele>1.4</ele>
        <time>2025-04-05T23:23:18Z</time>
      </trkpt>
      <trkpt lat="39.27694670698225" lon="118.43050982103807">
        <ele>1.4</ele>
        <time>2025-04-05T23:23:19Z</time>
      </trkpt>
      <trkpt lat="39.27690058009927" lon="118.43053314646525">
        <ele>1.4</ele>
        <time>2025-04-05T23:23:20Z</time>
      </trkpt>
      <trkpt lat="39.27687434736338" lon="118.43055138119288">
        <ele>1.4</ele>
        <time>2025-04-05T23:23:21Z</time>
      </trkpt>
      <trkpt lat="39.276849454643546" lon="118.43057264281153">
        <ele>1.4</ele>
        <time>2025-04-05T23:23:22Z</time>
      </trkpt>
      <trkpt lat="39.27681148773296" lon="118.43061439069197">
        <ele>1.4</ele>
        <time>2025-04-05T23:23:23Z</time>
      </trkpt>
      <trkpt lat="39.276797697481484" lon="118.43063314889302">
        <ele>1.4</ele>
        <time>2025-04-05T23:23:24Z</time>
      </trkpt>
      <trkpt lat="39.27676179390071" lon="118.4306957230226">
        <ele>1.4</ele>
        <time>2025-04-05T23:23:25Z</time>
      </trkpt>
      <trkpt lat="39.27675667088569" lon="118.43070698672781">
        <ele>1.4</ele>
        <time>2025-04-05T23:23:26Z</time>
      </trkpt>
      <trkpt lat="39.27671702029664" lon="118.43085638975248">
        <ele>1.4</ele>
        <time>2025-04-05T23:23:27Z</time>
      </trkpt>
      <trkpt lat="39.27672552706997" lon="118.43080411522475">
        <ele>1.4</ele>
        <time>2025-04-05T23:23:28Z</time>
      </trkpt>
      <trkpt lat="39.2767208636346" lon="118.43105008205092">
        <ele>1.4</ele>
        <time>2025-04-05T23:23:29Z</time>
      </trkpt>
      <trkpt lat="39.27673160247621" lon="118.4307787915279">
        <ele>1.4</ele>
        <time>2025-04-05T23:23:30Z</time>
      </trkpt>
      <trkpt lat="39.276797697481484" lon="118.43063314889302">
        <ele>1.4</ele>
        <time>2025-04-05T23:23:32Z</time>
      </trkpt>
      <trkpt lat="39.27672557371985" lon="118.43118507145212">
        <ele>1.4</ele>
        <time>2025-04-05T23:23:34Z</time>
      </trkpt>
      <trkpt lat="39.27673282791646" lon="118.43123634466758">
        <ele>1.4</ele>
        <time>2025-04-05T23:23:35Z</time>
      </trkpt>
      <trkpt lat="39.27673555808114" lon="118.43127884562448">
        <ele>1.4</ele>
        <time>2025-04-05T23:23:36Z</time>
      </trkpt>
      <trkpt lat="39.276739348583895" lon="118.43133785129282">
        <ele>1.4</ele>
        <time>2025-04-05T23:23:37Z</time>
      </trkpt>
      <trkpt lat="39.27674368377776" lon="118.431405333506">
        <ele>1.4</ele>
        <time>2025-04-05T23:23:38Z</time>
      </trkpt>
      <trkpt lat="39.2767471347831" lon="118.43145905041133">
        <ele>1.4</ele>
        <time>2025-04-05T23:23:39Z</time>
      </trkpt>
      <trkpt lat="39.27675061889444" lon="118.43151328091426">
        <ele>1.4</ele>
        <time>2025-04-05T23:23:40Z</time>
      </trkpt>
      <trkpt lat="39.27675342479918" lon="118.43155695381789">
        <ele>1.4</ele>
        <time>2025-04-05T23:23:41Z</time>
      </trkpt>
      <trkpt lat="39.27675682061775" lon="118.4316098070249">
        <ele>1.4</ele>
        <time>2025-04-05T23:23:42Z</time>
      </trkpt>
      <trkpt lat="39.27676052810765" lon="118.4316675092795">
        <ele>1.4</ele>
        <time>2025-04-05T23:23:43Z</time>
      </trkpt>
      <trkpt lat="39.276763069431915" lon="118.43170706055804">
        <ele>1.4</ele>
        <time>2025-04-05T23:23:44Z</time>
      </trkpt>
      <trkpt lat="39.27676254452689" lon="118.431698891402">
        <ele>1.4</ele>
        <time>2025-04-05T23:23:45Z</time>
      </trkpt>
      <trkpt lat="39.27677309389179" lon="118.43186306486487">
        <ele>0</ele>
        <time>2025-04-05T23:23:46Z</time>
      </trkpt>
    </trkseg>
  </trk>
</gpx>