<?xml version="1.0" encoding="UTF-8"?>
<gpx xmlns="http://www.topografix.com/GPX/1/1" xmlns:gpxtpx="http://www.garmin.com/xmlschemas/TrackPointExtension/v1" xmlns:xsi="http://www.w3.org/2001/XMLSchema-instance" xsi:schemaLocation="http://www.topografix.com/GPX/1/1 http://www.topografix.com/GPX/1/1/gpx.xsd" version="1.1" creator="gpx.py -- https://github.com/tkrajina/gpxpy">
  <trk>
    <name>gpx from codoon</name>
    <type>Run</type>
    <trkseg>
      <trkpt lat="39.17190113181036" lon="117.76304477208059">
        <ele>5</ele>
        <time>2025-09-12T09:24:58Z</time>
      </trkpt>
      <trkpt lat="39.17182226404755" lon="117.76316793667776">
        <ele>5</ele>
        <time>2025-09-12T09:24:59Z</time>
      </trkpt>
      <trkpt lat="39.17176339626467" lon="117.76330711967789">
        <ele>4.9</ele>
        <time>2025-09-12T09:25:00Z</time>
      </trkpt>
      <trkpt lat="39.171700513830515" lon="117.76342127229132">
        <ele>4.9</ele>
        <time>2025-09-12T09:25:02Z</time>
      </trkpt>
      <trkpt lat="39.17165756964556" lon="117.76346433245973">
        <ele>4.8</ele>
        <time>2025-09-12T09:25:05Z</time>
      </trkpt>
      <trkpt lat="39.17159758168316" lon="117.76343129810878">
        <ele>4.8</ele>
        <time>2025-09-12T09:25:07Z</time>
      </trkpt>
      <trkpt lat="39.17153057883162" lon="117.76337123042647">
        <ele>4.8</ele>
        <time>2025-09-12T09:25:09Z</time>
      </trkpt>
      <trkpt lat="39.17146954937613" lon="117.7632781203967">
        <ele>4.7</ele>
        <time>2025-09-12T09:25:11Z</time>
      </trkpt>
      <trkpt lat="39.171413505398256" lon="117.76316798871673">
        <ele>4.7</ele>
        <time>2025-09-12T09:25:13Z</time>
      </trkpt>
      <trkpt lat="39.171356474942804" lon="117.76307588030866">
        <ele>4.7</ele>
        <time>2025-09-12T09:25:15Z</time>
      </trkpt>
      <trkpt lat="39.171295476929366" lon="117.76302682662863">
        <ele>4.7</ele>
        <time>2025-09-12T09:25:17Z</time>
      </trkpt>
      <trkpt lat="39.1712355061055" lon="117.76301782298971">
        <ele>4.7</ele>
        <time>2025-09-12T09:25:19Z</time>
      </trkpt>
      <trkpt lat="39.171179554416476" lon="117.76303985767775">
        <ele>4.4</ele>
        <time>2025-09-12T09:25:21Z</time>
      </trkpt>
      <trkpt lat="39.17112860535215" lon="117.76306990178864">
        <ele>4.4</ele>
        <time>2025-09-12T09:25:23Z</time>
      </trkpt>
      <trkpt lat="39.17107865781819" lon="117.76310294958266">
        <ele>3.8</ele>
        <time>2025-09-12T09:25:25Z</time>
      </trkpt>
      <trkpt lat="39.171022706895485" lon="117.76312598561465">
        <ele>3.8</ele>
        <time>2025-09-12T09:25:27Z</time>
      </trkpt>
      <trkpt lat="39.1709557478439" lon="117.763127996654">
        <ele>3.8</ele>
        <time>2025-09-12T09:25:29Z</time>
      </trkpt>
      <trkpt lat="39.1708827651811" lon="117.76309095944806">
        <ele>3.7</ele>
        <time>2025-09-12T09:25:31Z</time>
      </trkpt>
      <trkpt lat="39.17081974268502" lon="117.76300485964249">
        <ele>3.7</ele>
        <time>2025-09-12T09:25:33Z</time>
      </trkpt>
      <trkpt lat="39.17076968659658" lon="117.7628807111459">
        <ele>3.9</ele>
        <time>2025-09-12T09:25:35Z</time>
      </trkpt>
      <trkpt lat="39.17072461716079" lon="117.76274054289071">
        <ele>3.9</ele>
        <time>2025-09-12T09:25:37Z</time>
      </trkpt>
      <trkpt lat="39.170677546206264" lon="117.7625953696382">
        <ele>3.9</ele>
        <time>2025-09-12T09:25:39Z</time>
      </trkpt>
      <trkpt lat="39.17062747507408" lon="117.76244619284377">
        <ele>4</ele>
        <time>2025-09-12T09:25:41Z</time>
      </trkpt>
      <trkpt lat="39.170576404650085" lon="117.76229601599354">
        <ele>4</ele>
        <time>2025-09-12T09:25:43Z</time>
      </trkpt>
      <trkpt lat="39.17052233745693" lon="117.76214684178774">
        <ele>3.8</ele>
        <time>2025-09-12T09:25:45Z</time>
      </trkpt>
      <trkpt lat="39.170464273413415" lon="117.76199766912903">
        <ele>3.8</ele>
        <time>2025-09-12T09:25:47Z</time>
      </trkpt>
      <trkpt lat="39.17040121571876" lon="117.76185250293763">
        <ele>3.8</ele>
        <time>2025-09-12T09:25:49Z</time>
      </trkpt>
      <trkpt lat="39.17033516248428" lon="117.76171034168725">
        <ele>3.8</ele>
        <time>2025-09-12T09:25:51Z</time>
      </trkpt>
      <trkpt lat="39.17026711243302" lon="117.76157018400686">
        <ele>3.8</ele>
        <time>2025-09-12T09:25:53Z</time>
      </trkpt>
      <trkpt lat="39.17019606485277" lon="117.76143002762869">
        <ele>3.7</ele>
        <time>2025-09-12T09:25:55Z</time>
      </trkpt>
      <trkpt lat="39.17012401856306" lon="117.76128987229919">
        <ele>3.7</ele>
        <time>2025-09-12T09:25:57Z</time>
      </trkpt>
      <trkpt lat="39.1700519736009" lon="117.76115071905708">
        <ele>3.7</ele>
        <time>2025-09-12T09:25:59Z</time>
      </trkpt>
      <trkpt lat="39.16998092873927" lon="117.76101156659779">
        <ele>3.9</ele>
        <time>2025-09-12T09:26:01Z</time>
      </trkpt>
      <trkpt lat="39.169908886394616" lon="117.76087441748085">
        <ele>3.9</ele>
        <time>2025-09-12T09:26:03Z</time>
      </trkpt>
      <trkpt lat="39.16983185012643" lon="117.76074127446888">
        <ele>3.8</ele>
        <time>2025-09-12T09:26:05Z</time>
      </trkpt>
      <trkpt lat="39.169749818663256" lon="117.76061013520804">
        <ele>3.8</ele>
        <time>2025-09-12T09:26:07Z</time>
      </trkpt>
      <trkpt lat="39.16966778902343" lon="117.76048099902556">
        <ele>3.8</ele>
        <time>2025-09-12T09:26:09Z</time>
      </trkpt>
      <trkpt lat="39.169586759990295" lon="117.76035286463078">
        <ele>3.9</ele>
        <time>2025-09-12T09:26:11Z</time>
      </trkpt>
      <trkpt lat="39.16950373451138" lon="117.76022773463097">
        <ele>3.9</ele>
        <time>2025-09-12T09:26:13Z</time>
      </trkpt>
      <trkpt lat="39.16942170900525" lon="117.76010260524461">
        <ele>3.9</ele>
        <time>2025-09-12T09:26:15Z</time>
      </trkpt>
      <trkpt lat="39.16933968523343" lon="117.75997947881903">
        <ele>3.9</ele>
        <time>2025-09-12T09:26:17Z</time>
      </trkpt>
      <trkpt lat="39.169259661406926" lon="117.75985735396122">
        <ele>3.9</ele>
        <time>2025-09-12T09:26:19Z</time>
      </trkpt>
      <trkpt lat="39.16917963811876" lon="117.75973522981073">
        <ele>3.9</ele>
        <time>2025-09-12T09:26:21Z</time>
      </trkpt>
      <trkpt lat="39.16909861538861" lon="117.759612105403">
        <ele>3.9</ele>
        <time>2025-09-12T09:26:23Z</time>
      </trkpt>
      <trkpt lat="39.169016592095595" lon="117.75948597858337">
        <ele>3.9</ele>
        <time>2025-09-12T09:26:25Z</time>
      </trkpt>
      <trkpt lat="39.168936568195655" lon="117.75935985226543">
        <ele>3.8</ele>
        <time>2025-09-12T09:26:27Z</time>
      </trkpt>
      <trkpt lat="39.168860544181385" lon="117.75923672941838">
        <ele>3.8</ele>
        <time>2025-09-12T09:26:29Z</time>
      </trkpt>
      <trkpt lat="39.1687845234861" lon="117.75911861263667">
        <ele>3</ele>
        <time>2025-09-12T09:26:31Z</time>
      </trkpt>
      <trkpt lat="39.16871050376364" lon="117.759003499455">
        <ele>3</ele>
        <time>2025-09-12T09:26:33Z</time>
      </trkpt>
      <trkpt lat="39.16863548729669" lon="117.75889239126423">
        <ele>3</ele>
        <time>2025-09-12T09:26:35Z</time>
      </trkpt>
      <trkpt lat="39.168562471179285" lon="117.75878328551352">
        <ele>3.2</ele>
        <time>2025-09-12T09:26:37Z</time>
      </trkpt>
      <trkpt lat="39.168475455171176" lon="117.75865816535749">
        <ele>3.2</ele>
        <time>2025-09-12T09:26:39Z</time>
      </trkpt>
      <trkpt lat="39.16838644251457" lon="117.75853604932693">
        <ele>3.4</ele>
        <time>2025-09-12T09:26:42Z</time>
      </trkpt>
      <trkpt lat="39.16829842928135" lon="117.75841293284708">
        <ele>3.4</ele>
        <time>2025-09-12T09:26:44Z</time>
      </trkpt>
      <trkpt lat="39.16822541401914" lon="117.75830182753728">
        <ele>3</ele>
        <time>2025-09-12T09:26:46Z</time>
      </trkpt>
      <trkpt lat="39.168153396533796" lon="117.75818671859386">
        <ele>3</ele>
        <time>2025-09-12T09:26:48Z</time>
      </trkpt>
      <trkpt lat="39.168084375176605" lon="117.75806660481032">
        <ele>3</ele>
        <time>2025-09-12T09:26:50Z</time>
      </trkpt>
      <trkpt lat="39.16801335552864" lon="117.75794649197317">
        <ele>3.4</ele>
        <time>2025-09-12T09:26:52Z</time>
      </trkpt>
      <trkpt lat="39.16794033556193" lon="117.75782237605537">
        <ele>3.4</ele>
        <time>2025-09-12T09:26:54Z</time>
      </trkpt>
      <trkpt lat="39.16786132021039" lon="117.75769926264186">
        <ele>3.7</ele>
        <time>2025-09-12T09:26:56Z</time>
      </trkpt>
      <trkpt lat="39.16778230242527" lon="117.75757014398795">
        <ele>3.7</ele>
        <time>2025-09-12T09:26:58Z</time>
      </trkpt>
      <trkpt lat="39.167702285348675" lon="117.75744002527462">
        <ele>3.7</ele>
        <time>2025-09-12T09:27:00Z</time>
      </trkpt>
      <trkpt lat="39.16762226791525" lon="117.7573079054119">
        <ele>3.7</ele>
        <time>2025-09-12T09:27:02Z</time>
      </trkpt>
      <trkpt lat="39.16754025375551" lon="117.75717878957155">
        <ele>3.7</ele>
        <time>2025-09-12T09:27:04Z</time>
      </trkpt>
      <trkpt lat="39.16745823924952" lon="117.75704767259559">
        <ele>4</ele>
        <time>2025-09-12T09:27:06Z</time>
      </trkpt>
      <trkpt lat="39.167373227150044" lon="117.7569165568306">
        <ele>4</ele>
        <time>2025-09-12T09:27:08Z</time>
      </trkpt>
      <trkpt lat="39.16728821474378" lon="117.75678343998177">
        <ele>4</ele>
        <time>2025-09-12T09:27:10Z</time>
      </trkpt>
      <trkpt lat="39.167205200876495" lon="117.7566483218337">
        <ele>3.9</ele>
        <time>2025-09-12T09:27:12Z</time>
      </trkpt>
      <trkpt lat="39.167123188007054" lon="117.75651520632798">
        <ele>3.9</ele>
        <time>2025-09-12T09:27:14Z</time>
      </trkpt>
      <trkpt lat="39.16703718361329" lon="117.75639410343939">
        <ele>4.1</ele>
        <time>2025-09-12T09:27:16Z</time>
      </trkpt>
      <trkpt lat="39.16694718753602" lon="117.75628501295729">
        <ele>4.1</ele>
        <time>2025-09-12T09:27:18Z</time>
      </trkpt>
      <trkpt lat="39.16685420038171" lon="117.75619093734835">
        <ele>4.1</ele>
        <time>2025-09-12T09:27:20Z</time>
      </trkpt>
      <trkpt lat="39.16675323296279" lon="117.75612989368732">
        <ele>4</ele>
        <time>2025-09-12T09:27:22Z</time>
      </trkpt>
      <trkpt lat="39.166644297062916" lon="117.75612890663886">
        <ele>4</ele>
        <time>2025-09-12T09:27:24Z</time>
      </trkpt>
      <trkpt lat="39.166536389135956" lon="117.75619197876014">
        <ele>4</ele>
        <time>2025-09-12T09:27:26Z</time>
      </trkpt>
      <trkpt lat="39.166435493428494" lon="117.75629108373445">
        <ele>4</ele>
        <time>2025-09-12T09:27:28Z</time>
      </trkpt>
      <trkpt lat="39.16633460172423" lon="117.75639819668658">
        <ele>4</ele>
        <time>2025-09-12T09:27:30Z</time>
      </trkpt>
      <trkpt lat="39.16623270966039" lon="117.75650230749103">
        <ele>4</ele>
        <time>2025-09-12T09:27:32Z</time>
      </trkpt>
      <trkpt lat="39.16613081846051" lon="117.75660741976718">
        <ele>4</ele>
        <time>2025-09-12T09:27:34Z</time>
      </trkpt>
      <trkpt lat="39.16602992801009" lon="117.75671453435604">
        <ele>4.2</ele>
        <time>2025-09-12T09:27:36Z</time>
      </trkpt>
      <trkpt lat="39.165929037042694" lon="117.75681964758154">
        <ele>4.2</ele>
        <time>2025-09-12T09:27:38Z</time>
      </trkpt>
      <trkpt lat="39.16582414648259" lon="117.75691975703211">
        <ele>4.2</ele>
        <time>2025-09-12T09:27:40Z</time>
      </trkpt>
      <trkpt lat="39.16571925438251" lon="117.75701586309367">
        <ele>4.4</ele>
        <time>2025-09-12T09:27:42Z</time>
      </trkpt>
      <trkpt lat="39.16561336129267" lon="117.75710796583763">
        <ele>4.4</ele>
        <time>2025-09-12T09:27:44Z</time>
      </trkpt>
      <trkpt lat="39.1655074675485" lon="117.75719806703648">
        <ele>4.5</ele>
        <time>2025-09-12T09:27:46Z</time>
      </trkpt>
      <trkpt lat="39.16540057274786" lon="117.7572841648295">
        <ele>4.5</ele>
        <time>2025-09-12T09:27:48Z</time>
      </trkpt>
      <trkpt lat="39.165292676853" lon="117.75736625916672">
        <ele>4.5</ele>
        <time>2025-09-12T09:27:50Z</time>
      </trkpt>
      <trkpt lat="39.165185779135726" lon="117.75744535073457">
        <ele>4.5</ele>
        <time>2025-09-12T09:27:52Z</time>
      </trkpt>
      <trkpt lat="39.16508387819077" lon="117.75752344097413">
        <ele>4.5</ele>
        <time>2025-09-12T09:27:54Z</time>
      </trkpt>
      <trkpt lat="39.1649839752885" lon="117.75759952925982">
        <ele>4.4</ele>
        <time>2025-09-12T09:27:56Z</time>
      </trkpt>
      <trkpt lat="39.16488706981903" lon="117.75767361544234">
        <ele>4.4</ele>
        <time>2025-09-12T09:27:58Z</time>
      </trkpt>
      <trkpt lat="39.16478816473043" lon="117.75774570013657">
        <ele>4.4</ele>
        <time>2025-09-12T09:28:00Z</time>
      </trkpt>
      <trkpt lat="39.1646912596627" lon="117.75781978683852">
        <ele>4.2</ele>
        <time>2025-09-12T09:28:02Z</time>
      </trkpt>
      <trkpt lat="39.16459035717048" lon="117.75789387431267">
        <ele>4.2</ele>
        <time>2025-09-12T09:28:04Z</time>
      </trkpt>
      <trkpt lat="39.16448745401892" lon="117.75796395824993">
        <ele>4.3</ele>
        <time>2025-09-12T09:28:06Z</time>
      </trkpt>
      <trkpt lat="39.164379551442345" lon="117.758029037975">
        <ele>4.3</ele>
        <time>2025-09-12T09:28:08Z</time>
      </trkpt>
      <trkpt lat="39.16426864873632" lon="117.75809011420597">
        <ele>4.3</ele>
        <time>2025-09-12T09:28:10Z</time>
      </trkpt>
      <trkpt lat="39.1641557468381" lon="117.75815018984741">
        <ele>4.2</ele>
        <time>2025-09-12T09:28:12Z</time>
      </trkpt>
      <trkpt lat="39.16404284611838" lon="117.75821226771214">
        <ele>4.2</ele>
        <time>2025-09-12T09:28:14Z</time>
      </trkpt>
      <trkpt lat="39.16393094599734" lon="117.75827634769068">
        <ele>4.1</ele>
        <time>2025-09-12T09:28:16Z</time>
      </trkpt>
      <trkpt lat="39.163819049186195" lon="117.75834643405558">
        <ele>4.1</ele>
        <time>2025-09-12T09:28:18Z</time>
      </trkpt>
      <trkpt lat="39.16370415539564" lon="117.75841852310742">
        <ele>4.1</ele>
        <time>2025-09-12T09:28:20Z</time>
      </trkpt>
      <trkpt lat="39.16358926339285" lon="117.75849361552383">
        <ele>4.3</ele>
        <time>2025-09-12T09:28:22Z</time>
      </trkpt>
      <trkpt lat="39.16347537260874" lon="117.75857171120977">
        <ele>4.3</ele>
        <time>2025-09-12T09:28:24Z</time>
      </trkpt>
      <trkpt lat="39.163364482418736" lon="117.75865381099071">
        <ele>4.1</ele>
        <time>2025-09-12T09:28:26Z</time>
      </trkpt>
      <trkpt lat="39.16325859004996" lon="117.75873691150733">
        <ele>4.1</ele>
        <time>2025-09-12T09:28:28Z</time>
      </trkpt>
      <trkpt lat="39.163156696104274" lon="117.75882101289866">
        <ele>4.1</ele>
        <time>2025-09-12T09:28:30Z</time>
      </trkpt>
      <trkpt lat="39.16305880004383" lon="117.75890511411805">
        <ele>3.9</ele>
        <time>2025-09-12T09:28:32Z</time>
      </trkpt>
      <trkpt lat="39.16296390301109" lon="117.75899021635516">
        <ele>3.9</ele>
        <time>2025-09-12T09:28:34Z</time>
      </trkpt>
      <trkpt lat="39.162871006161076" lon="117.75907732081598">
        <ele>3.9</ele>
        <time>2025-09-12T09:28:36Z</time>
      </trkpt>
      <trkpt lat="39.16278010951228" lon="117.75916642752522">
        <ele>3.8</ele>
        <time>2025-09-12T09:28:38Z</time>
      </trkpt>
      <trkpt lat="39.16269320966008" lon="117.75925353195272">
        <ele>3.8</ele>
        <time>2025-09-12T09:28:40Z</time>
      </trkpt>
      <trkpt lat="39.162616294034805" lon="117.75932261604895">
        <ele>3.5</ele>
        <time>2025-09-12T09:28:42Z</time>
      </trkpt>
      <trkpt lat="39.16255534543001" lon="117.75934965294584">
        <ele>3.5</ele>
        <time>2025-09-12T09:28:44Z</time>
      </trkpt>
      <trkpt lat="39.16250936206837" lon="117.759330638293">
        <ele>3.5</ele>
        <time>2025-09-12T09:28:46Z</time>
      </trkpt>
      <trkpt lat="39.1624673561718" lon="117.75927558437468">
        <ele>3.3</ele>
        <time>2025-09-12T09:28:48Z</time>
      </trkpt>
      <trkpt lat="39.1624233404256" lon="117.75920050939334">
        <ele>3.3</ele>
        <time>2025-09-12T09:28:50Z</time>
      </trkpt>
      <trkpt lat="39.162373318475446" lon="117.75910741620896">
        <ele>3.4</ele>
        <time>2025-09-12T09:28:52Z</time>
      </trkpt>
      <trkpt lat="39.16231929481371" lon="117.75900631543814">
        <ele>3.4</ele>
        <time>2025-09-12T09:28:54Z</time>
      </trkpt>
      <trkpt lat="39.16226327052513" lon="117.75890121117538">
        <ele>3.4</ele>
        <time>2025-09-12T09:28:56Z</time>
      </trkpt>
      <trkpt lat="39.16220225069176" lon="117.7587981101826">
        <ele>3.7</ele>
        <time>2025-09-12T09:28:58Z</time>
      </trkpt>
      <trkpt lat="39.162138233565045" lon="117.7586960111275">
        <ele>3.7</ele>
        <time>2025-09-12T09:29:00Z</time>
      </trkpt>
      <trkpt lat="39.16207421735222" lon="117.75859491361402">
        <ele>3.5</ele>
        <time>2025-09-12T09:29:02Z</time>
      </trkpt>
      <trkpt lat="39.16201120304306" lon="117.75849782061763">
        <ele>3.5</ele>
        <time>2025-09-12T09:29:04Z</time>
      </trkpt>
      <trkpt lat="39.16195419079492" lon="117.75841073765498">
        <ele>3.5</ele>
        <time>2025-09-12T09:29:06Z</time>
      </trkpt>
      <trkpt lat="39.16190618241074" lon="117.75834067143894">
        <ele>3.3</ele>
        <time>2025-09-12T09:29:08Z</time>
      </trkpt>
      <trkpt lat="39.16187117381223" lon="117.75828461820264">
        <ele>3.3</ele>
        <time>2025-09-12T09:29:10Z</time>
      </trkpt>
      <trkpt lat="39.161844164750796" lon="117.75823657230951">
        <ele>3.4</ele>
        <time>2025-09-12T09:29:12Z</time>
      </trkpt>
      <trkpt lat="39.16181615480665" lon="117.75818552358172">
        <ele>3.4</ele>
        <time>2025-09-12T09:29:14Z</time>
      </trkpt>
      <trkpt lat="39.16178414215191" lon="117.75812446527382">
        <ele>3.4</ele>
        <time>2025-09-12T09:29:16Z</time>
      </trkpt>
      <trkpt lat="39.16174712641668" lon="117.75805139556556">
        <ele>3.7</ele>
        <time>2025-09-12T09:29:18Z</time>
      </trkpt>
      <trkpt lat="39.16170211101644" lon="117.75796931800599">
        <ele>3.7</ele>
        <time>2025-09-12T09:29:20Z</time>
      </trkpt>
      <trkpt lat="39.16165310078609" lon="117.75789224632808">
        <ele>3.7</ele>
        <time>2025-09-12T09:29:22Z</time>
      </trkpt>
      <trkpt lat="39.16160409432101" lon="117.75782218198063">
        <ele>3.7</ele>
        <time>2025-09-12T09:29:24Z</time>
      </trkpt>
      <trkpt lat="39.161557087351454" lon="117.75775311861769">
        <ele>3.7</ele>
        <time>2025-09-12T09:29:26Z</time>
      </trkpt>
      <trkpt lat="39.161506078918556" lon="117.75767604799437">
        <ele>3.9</ele>
        <time>2025-09-12T09:29:28Z</time>
      </trkpt>
      <trkpt lat="39.16145406830447" lon="117.75759297180915">
        <ele>3.9</ele>
        <time>2025-09-12T09:29:30Z</time>
      </trkpt>
      <trkpt lat="39.1614050566556" lon="117.75751089656562">
        <ele>3.5</ele>
        <time>2025-09-12T09:29:32Z</time>
      </trkpt>
      <trkpt lat="39.16136904344199" lon="117.75744083184782">
        <ele>3.5</ele>
        <time>2025-09-12T09:29:34Z</time>
      </trkpt>
      <trkpt lat="39.161347030432324" lon="117.75738778233529">
        <ele>3.3</ele>
        <time>2025-09-12T09:29:38Z</time>
      </trkpt>
      <trkpt lat="39.161338016162645" lon="117.75734774408933">
        <ele>3.3</ele>
        <time>2025-09-12T09:29:42Z</time>
      </trkpt>
      <trkpt lat="39.161320011207806" lon="117.75731571492257">
        <ele>3.3</ele>
        <time>2025-09-12T09:29:44Z</time>
      </trkpt>
      <trkpt lat="39.16129800574417" lon="117.75727768043073">
        <ele>3.3</ele>
        <time>2025-09-12T09:29:46Z</time>
      </trkpt>
      <trkpt lat="39.161262013514154" lon="117.75724965757877">
        <ele>3.4</ele>
        <time>2025-09-12T09:29:50Z</time>
      </trkpt>
      <trkpt lat="39.16123501305388" lon="117.7572156277537">
        <ele>3.1</ele>
        <time>2025-09-12T09:29:58Z</time>
      </trkpt>
      <trkpt lat="39.16120701419795" lon="117.7571836000634">
        <ele>3.1</ele>
        <time>2025-09-12T09:30:00Z</time>
      </trkpt>
      <trkpt lat="39.16119000498214" lon="117.75714356322926">
        <ele>3</ele>
        <time>2025-09-12T09:30:02Z</time>
      </trkpt>
      <trkpt lat="39.16116900156912" lon="117.75711053378696">
        <ele>3</ele>
        <time>2025-09-12T09:30:04Z</time>
      </trkpt>
      <trkpt lat="39.16114499901969" lon="117.75707550283752">
        <ele>3</ele>
        <time>2025-09-12T09:30:06Z</time>
      </trkpt>
      <trkpt lat="39.16111399828413" lon="117.75703546799375">
        <ele>2.9</ele>
        <time>2025-09-12T09:30:08Z</time>
      </trkpt>
      <trkpt lat="39.1610829937938" lon="117.7569874254942">
        <ele>2.9</ele>
        <time>2025-09-12T09:30:10Z</time>
      </trkpt>
      <trkpt lat="39.1610549904544" lon="117.75694538850978">
        <ele>3</ele>
        <time>2025-09-12T09:30:12Z</time>
      </trkpt>
      <trkpt lat="39.16102798753252" lon="117.7569053534082">
        <ele>3</ele>
        <time>2025-09-12T09:30:14Z</time>
      </trkpt>
      <trkpt lat="39.16099298848109" lon="117.75686331748115">
        <ele>3</ele>
        <time>2025-09-12T09:30:16Z</time>
      </trkpt>
      <trkpt lat="39.160966981792534" lon="117.75681627570249">
        <ele>3</ele>
        <time>2025-09-12T09:30:18Z</time>
      </trkpt>
      <trkpt lat="39.16094896902376" lon="117.75676623014505">
        <ele>3</ele>
        <time>2025-09-12T09:30:20Z</time>
      </trkpt>
      <trkpt lat="39.16094094993529" lon="117.75671518248254">
        <ele>3.1</ele>
        <time>2025-09-12T09:30:22Z</time>
      </trkpt>
      <trkpt lat="39.160940940144755" lon="117.75669416247413">
        <ele>3.1</ele>
        <time>2025-09-12T09:30:24Z</time>
      </trkpt>
      <trkpt lat="39.16095094819138" lon="117.75672418979141">
        <ele>2.7</ele>
        <time>2025-09-12T09:30:34Z</time>
      </trkpt>
      <trkpt lat="39.16096896979631" lon="117.75679325342273">
        <ele>2.8</ele>
        <time>2025-09-12T09:30:38Z</time>
      </trkpt>
      <trkpt lat="39.1609869911039" lon="117.75686131632395">
        <ele>2.8</ele>
        <time>2025-09-12T09:30:42Z</time>
      </trkpt>
      <trkpt lat="39.1610040017994" lon="117.75690535646262">
        <ele>2.6</ele>
        <time>2025-09-12T09:30:44Z</time>
      </trkpt>
      <trkpt lat="39.16102400650748" lon="117.75694038763359">
        <ele>2.6</ele>
        <time>2025-09-12T09:30:46Z</time>
      </trkpt>
      <trkpt lat="39.16104600388514" lon="117.75696240605714">
        <ele>2.7</ele>
        <time>2025-09-12T09:30:50Z</time>
      </trkpt>
      <trkpt lat="39.16106400413492" lon="117.75698542597947">
        <ele>2.7</ele>
        <time>2025-09-12T09:30:52Z</time>
      </trkpt>
      <trkpt lat="39.161087006684966" lon="117.75701945593596">
        <ele>2.7</ele>
        <time>2025-09-12T09:30:54Z</time>
      </trkpt>
      <trkpt lat="39.16111001263132" lon="117.7570604927369">
        <ele>2.8</ele>
        <time>2025-09-12T09:30:58Z</time>
      </trkpt>
      <trkpt lat="39.161137014339104" lon="117.75709752522256">
        <ele>2.8</ele>
        <time>2025-09-12T09:31:00Z</time>
      </trkpt>
      <trkpt lat="39.161157018330556" lon="117.75713055477142">
        <ele>2.8</ele>
        <time>2025-09-12T09:31:02Z</time>
      </trkpt>
      <trkpt lat="39.16118002202802" lon="117.75716658691613">
        <ele>2.9</ele>
        <time>2025-09-12T09:31:06Z</time>
      </trkpt>
      <trkpt lat="39.161206029320944" lon="117.75721362948956">
        <ele>3</ele>
        <time>2025-09-12T09:31:12Z</time>
      </trkpt>
      <trkpt lat="39.16124402518501" lon="117.75725166182781">
        <ele>3.2</ele>
        <time>2025-09-12T09:31:16Z</time>
      </trkpt>
      <trkpt lat="39.16130802518333" lon="117.75732973020632">
        <ele>3</ele>
        <time>2025-09-12T09:31:50Z</time>
      </trkpt>
      <trkpt lat="39.16131805307322" lon="117.75739879687204">
        <ele>2.9</ele>
        <time>2025-09-12T09:31:56Z</time>
      </trkpt>
      <trkpt lat="39.161337068380455" lon="117.7574528477833">
        <ele>3.2</ele>
        <time>2025-09-12T09:31:58Z</time>
      </trkpt>
      <trkpt lat="39.161364069631084" lon="117.75748787898756">
        <ele>3.2</ele>
        <time>2025-09-12T09:32:00Z</time>
      </trkpt>
      <trkpt lat="39.16139207231722" lon="117.75752691409299">
        <ele>3.2</ele>
        <time>2025-09-12T09:32:02Z</time>
      </trkpt>
      <trkpt lat="39.16141907714672" lon="117.75756895238214">
        <ele>3.3</ele>
        <time>2025-09-12T09:32:04Z</time>
      </trkpt>
      <trkpt lat="39.1614490837543" lon="117.75761799735113">
        <ele>3.3</ele>
        <time>2025-09-12T09:32:06Z</time>
      </trkpt>
      <trkpt lat="39.16148409500328" lon="117.75768205679269">
        <ele>3.4</ele>
        <time>2025-09-12T09:32:08Z</time>
      </trkpt>
      <trkpt lat="39.16152510636735" lon="117.75775312268998">
        <ele>3.4</ele>
        <time>2025-09-12T09:32:10Z</time>
      </trkpt>
      <trkpt lat="39.161568120785375" lon="117.75783219663082">
        <ele>3.4</ele>
        <time>2025-09-12T09:32:12Z</time>
      </trkpt>
      <trkpt lat="39.16161513203422" lon="117.75790926834105">
        <ele>3.4</ele>
        <time>2025-09-12T09:32:14Z</time>
      </trkpt>
      <trkpt lat="39.16166214298691" lon="117.75798533932185">
        <ele>3.4</ele>
        <time>2025-09-12T09:32:16Z</time>
      </trkpt>
      <trkpt lat="39.161708153713555" lon="117.75805940867133">
        <ele>3.4</ele>
        <time>2025-09-12T09:32:18Z</time>
      </trkpt>
      <trkpt lat="39.161752166865426" lon="117.75813548058167">
        <ele>3.4</ele>
        <time>2025-09-12T09:32:20Z</time>
      </trkpt>
      <trkpt lat="39.161795177695836" lon="117.75820554674544">
        <ele>3.4</ele>
        <time>2025-09-12T09:32:22Z</time>
      </trkpt>
      <trkpt lat="39.16183918758751" lon="117.75827461198878">
        <ele>3.4</ele>
        <time>2025-09-12T09:32:24Z</time>
      </trkpt>
      <trkpt lat="39.16188419600698" lon="117.75834167527006">
        <ele>3.4</ele>
        <time>2025-09-12T09:32:26Z</time>
      </trkpt>
      <trkpt lat="39.16193220492177" lon="117.75841274252441">
        <ele>3.5</ele>
        <time>2025-09-12T09:32:28Z</time>
      </trkpt>
      <trkpt lat="39.16198321276942" lon="117.75848481067709">
        <ele>3.5</ele>
        <time>2025-09-12T09:32:30Z</time>
      </trkpt>
      <trkpt lat="39.1620612298921" lon="117.75860392466349">
        <ele>3.5</ele>
        <time>2025-09-12T09:32:32Z</time>
      </trkpt>
      <trkpt lat="39.16214924915078" lon="117.75873705275774">
        <ele>3.8</ele>
        <time>2025-09-12T09:32:36Z</time>
      </trkpt>
      <trkpt lat="39.16224227535525" lon="117.7588871990356">
        <ele>3.8</ele>
        <time>2025-09-12T09:32:38Z</time>
      </trkpt>
      <trkpt lat="39.162314297233436" lon="117.75900531501105">
        <ele>3.8</ele>
        <time>2025-09-12T09:32:40Z</time>
      </trkpt>
      <trkpt lat="39.16238031930233" lon="117.75911642493375">
        <ele>3.8</ele>
        <time>2025-09-12T09:32:42Z</time>
      </trkpt>
      <trkpt lat="39.16243833653172" lon="117.7592095171401">
        <ele>3.5</ele>
        <time>2025-09-12T09:32:44Z</time>
      </trkpt>
      <trkpt lat="39.16248933918939" lon="117.75926857404315">
        <ele>3.5</ele>
        <time>2025-09-12T09:32:46Z</time>
      </trkpt>
      <trkpt lat="39.1625373185201" lon="117.75928258300209">
        <ele>3.5</ele>
        <time>2025-09-12T09:32:48Z</time>
      </trkpt>
      <trkpt lat="39.162584278298866" lon="117.75926055334959">
        <ele>3.3</ele>
        <time>2025-09-12T09:32:50Z</time>
      </trkpt>
      <trkpt lat="39.162635223445086" lon="117.75921649958528">
        <ele>3.3</ele>
        <time>2025-09-12T09:32:52Z</time>
      </trkpt>
      <trkpt lat="39.16268916298985" lon="117.7591654380337">
        <ele>3.4</ele>
        <time>2025-09-12T09:32:54Z</time>
      </trkpt>
      <trkpt lat="39.162746099186975" lon="117.75911137301905">
        <ele>3.4</ele>
        <time>2025-09-12T09:32:56Z</time>
      </trkpt>
      <trkpt lat="39.16280203553277" lon="117.75905630720493">
        <ele>3.4</ele>
        <time>2025-09-12T09:32:58Z</time>
      </trkpt>
      <trkpt lat="39.16285697368268" lon="117.75900324378871">
        <ele>3.4</ele>
        <time>2025-09-12T09:33:00Z</time>
      </trkpt>
      <trkpt lat="39.162902923856976" lon="117.75896219438346">
        <ele>3.4</ele>
        <time>2025-09-12T09:33:02Z</time>
      </trkpt>
      <trkpt lat="39.16297484991123" lon="117.75890512480723">
        <ele>3.3</ele>
        <time>2025-09-12T09:33:04Z</time>
      </trkpt>
      <trkpt lat="39.163046779351504" lon="117.75885406172183">
        <ele>3.3</ele>
        <time>2025-09-12T09:33:08Z</time>
      </trkpt>
      <trkpt lat="39.16312969693368" lon="117.7587929868266">
        <ele>3.2</ele>
        <time>2025-09-12T09:33:10Z</time>
      </trkpt>
      <trkpt lat="39.16318664089531" lon="117.75875193643272">
        <ele>3.2</ele>
        <time>2025-09-12T09:33:12Z</time>
      </trkpt>
      <trkpt lat="39.163241583949386" lon="117.75870688217697">
        <ele>3.1</ele>
        <time>2025-09-12T09:33:14Z</time>
      </trkpt>
      <trkpt lat="39.16329652707808" lon="117.75866182801802">
        <ele>3.1</ele>
        <time>2025-09-12T09:33:16Z</time>
      </trkpt>
      <trkpt lat="39.16335047033909" lon="117.75861577303841">
        <ele>3.1</ele>
        <time>2025-09-12T09:33:18Z</time>
      </trkpt>
      <trkpt lat="39.16340641302522" lon="117.75857071894805">
        <ele>3.1</ele>
        <time>2025-09-12T09:33:20Z</time>
      </trkpt>
      <trkpt lat="39.16346435353401" lon="117.7585236626193">
        <ele>3.1</ele>
        <time>2025-09-12T09:33:22Z</time>
      </trkpt>
      <trkpt lat="39.16352329353088" lon="117.75847660626901">
        <ele>3</ele>
        <time>2025-09-12T09:33:24Z</time>
      </trkpt>
      <trkpt lat="39.16358523288736" lon="117.7584315517144">
        <ele>3</ele>
        <time>2025-09-12T09:33:26Z</time>
      </trkpt>
      <trkpt lat="39.16364517561622" lon="117.75839050164664">
        <ele>3</ele>
        <time>2025-09-12T09:33:28Z</time>
      </trkpt>
      <trkpt lat="39.163703121173135" lon="117.75835245501007">
        <ele>3</ele>
        <time>2025-09-12T09:33:30Z</time>
      </trkpt>
      <trkpt lat="39.163758068563965" lon="117.75831440882443">
        <ele>3</ele>
        <time>2025-09-12T09:33:32Z</time>
      </trkpt>
      <trkpt lat="39.16381601527564" lon="117.75827836438326">
        <ele>3.1</ele>
        <time>2025-09-12T09:33:34Z</time>
      </trkpt>
      <trkpt lat="39.16387296315144" lon="117.7582433211583">
        <ele>3.1</ele>
        <time>2025-09-12T09:33:36Z</time>
      </trkpt>
      <trkpt lat="39.163930911000904" lon="117.75820927889002">
        <ele>3.1</ele>
        <time>2025-09-12T09:33:38Z</time>
      </trkpt>
      <trkpt lat="39.16398686060019" lon="117.75817623795533">
        <ele>3.2</ele>
        <time>2025-09-12T09:33:40Z</time>
      </trkpt>
      <trkpt lat="39.16404281179667" lon="117.75814620013935">
        <ele>3.2</ele>
        <time>2025-09-12T09:33:42Z</time>
      </trkpt>
      <trkpt lat="39.16409976295168" lon="117.75811716326008">
        <ele>3.2</ele>
        <time>2025-09-12T09:33:44Z</time>
      </trkpt>
      <trkpt lat="39.16415871191885" lon="117.75808612412777">
        <ele>3.2</ele>
        <time>2025-09-12T09:33:46Z</time>
      </trkpt>
      <trkpt lat="39.16421865878285" lon="117.75805208186084">
        <ele>3.2</ele>
        <time>2025-09-12T09:33:48Z</time>
      </trkpt>
      <trkpt lat="39.16427760679771" lon="117.75801904079276">
        <ele>3.2</ele>
        <time>2025-09-12T09:33:50Z</time>
      </trkpt>
      <trkpt lat="39.16433555493378" lon="117.75798499888964">
        <ele>3.2</ele>
        <time>2025-09-12T09:33:52Z</time>
      </trkpt>
      <trkpt lat="39.16439350260159" lon="117.75794995602914">
        <ele>3.3</ele>
        <time>2025-09-12T09:33:54Z</time>
      </trkpt>
      <trkpt lat="39.164450449887696" lon="117.75791291133248">
        <ele>3.3</ele>
        <time>2025-09-12T09:33:56Z</time>
      </trkpt>
      <trkpt lat="39.16450539790212" lon="117.75787486594686">
        <ele>3.3</ele>
        <time>2025-09-12T09:33:58Z</time>
      </trkpt>
      <trkpt lat="39.164557349272386" lon="117.75783982403485">
        <ele>3.3</ele>
        <time>2025-09-12T09:34:00Z</time>
      </trkpt>
      <trkpt lat="39.16460430821263" lon="117.75781379187283">
        <ele>3.3</ele>
        <time>2025-09-12T09:34:02Z</time>
      </trkpt>
      <trkpt lat="39.1646442794267" lon="117.75780377672119">
        <ele>3.2</ele>
        <time>2025-09-12T09:34:04Z</time>
      </trkpt>
      <trkpt lat="39.16467426568899" lon="117.75781178095102">
        <ele>3.2</ele>
        <time>2025-09-12T09:34:06Z</time>
      </trkpt>
      <trkpt lat="39.164695264899215" lon="117.75783480143369">
        <ele>3.2</ele>
        <time>2025-09-12T09:34:08Z</time>
      </trkpt>
      <trkpt lat="39.16471127319647" lon="117.75786983468268">
        <ele>3.3</ele>
        <time>2025-09-12T09:34:10Z</time>
      </trkpt>
      <trkpt lat="39.1647282834962" lon="117.75790987291731">
        <ele>3.3</ele>
        <time>2025-09-12T09:34:12Z</time>
      </trkpt>
      <trkpt lat="39.164748295658185" lon="117.7579569179381">
        <ele>3.3</ele>
        <time>2025-09-12T09:34:14Z</time>
      </trkpt>
      <trkpt lat="39.16476930679418" lon="117.75800296192237">
        <ele>3.3</ele>
        <time>2025-09-12T09:34:16Z</time>
      </trkpt>
      <trkpt lat="39.16479431048448" lon="117.75803899532566">
        <ele>3.3</ele>
        <time>2025-09-12T09:34:18Z</time>
      </trkpt>
      <trkpt lat="39.164822301094915" lon="117.75805300600638">
        <ele>3.2</ele>
        <time>2025-09-12T09:34:20Z</time>
      </trkpt>
      <trkpt lat="39.16485427696879" lon="117.7580429917581">
        <ele>3.2</ele>
        <time>2025-09-12T09:34:22Z</time>
      </trkpt>
      <trkpt lat="39.164886244101865" lon="117.75801596023541">
        <ele>3.3</ele>
        <time>2025-09-12T09:34:24Z</time>
      </trkpt>
      <trkpt lat="39.1649202069981" lon="117.75798292240576">
        <ele>3.3</ele>
        <time>2025-09-12T09:34:26Z</time>
      </trkpt>
      <trkpt lat="39.16495616823703" lon="117.75794888336098">
        <ele>3.3</ele>
        <time>2025-09-12T09:34:28Z</time>
      </trkpt>
      <trkpt lat="39.1649971265543" lon="117.75791484373535">
        <ele>3.2</ele>
        <time>2025-09-12T09:34:30Z</time>
      </trkpt>
      <trkpt lat="39.16504208152471" lon="117.75787880163718">
        <ele>3.2</ele>
        <time>2025-09-12T09:34:32Z</time>
      </trkpt>
      <trkpt lat="39.165088036458165" lon="117.7578437604817">
        <ele>3.4</ele>
        <time>2025-09-12T09:34:34Z</time>
      </trkpt>
      <trkpt lat="39.16513698813921" lon="117.75780571598526">
        <ele>3.4</ele>
        <time>2025-09-12T09:34:36Z</time>
      </trkpt>
      <trkpt lat="39.165188937590486" lon="117.75776667017229">
        <ele>3.4</ele>
        <time>2025-09-12T09:34:38Z</time>
      </trkpt>
      <trkpt lat="39.16524288540923" lon="117.75772662317571">
        <ele>3.6</ele>
        <time>2025-09-12T09:34:40Z</time>
      </trkpt>
      <trkpt lat="39.16529683378962" lon="117.75768757725628">
        <ele>3.6</ele>
        <time>2025-09-12T09:34:42Z</time>
      </trkpt>
      <trkpt lat="39.16535178113326" lon="117.75764753028436">
        <ele>3.4</ele>
        <time>2025-09-12T09:34:44Z</time>
      </trkpt>
      <trkpt lat="39.16540972725769" lon="117.75760848400395">
        <ele>3.4</ele>
        <time>2025-09-12T09:34:46Z</time>
      </trkpt>
      <trkpt lat="39.16546767294117" lon="117.75756843680216">
        <ele>3.4</ele>
        <time>2025-09-12T09:34:48Z</time>
      </trkpt>
      <trkpt lat="39.16552561769181" lon="117.75752638769225">
        <ele>3.4</ele>
        <time>2025-09-12T09:34:50Z</time>
      </trkpt>
      <trkpt lat="39.16557856398729" lon="117.75748133633245">
        <ele>3.4</ele>
        <time>2025-09-12T09:34:52Z</time>
      </trkpt>
      <trkpt lat="39.16563050897882" lon="117.75743228124516">
        <ele>3.4</ele>
        <time>2025-09-12T09:34:54Z</time>
      </trkpt>
      <trkpt lat="39.165682453077146" lon="117.75738122430239">
        <ele>3.5</ele>
        <time>2025-09-12T09:34:56Z</time>
      </trkpt>
      <trkpt lat="39.165736395597406" lon="117.75732916624732">
        <ele>3.5</ele>
        <time>2025-09-12T09:34:58Z</time>
      </trkpt>
      <trkpt lat="39.165789337835946" lon="117.75727510648895">
        <ele>3.3</ele>
        <time>2025-09-12T09:35:00Z</time>
      </trkpt>
      <trkpt lat="39.16584228115256" lon="117.75722304882684">
        <ele>3.3</ele>
        <time>2025-09-12T09:35:02Z</time>
      </trkpt>
      <trkpt lat="39.16589622591018" lon="117.75717499506976">
        <ele>3.3</ele>
        <time>2025-09-12T09:35:04Z</time>
      </trkpt>
      <trkpt lat="39.16594917182746" lon="117.75712794252439">
        <ele>3.3</ele>
        <time>2025-09-12T09:35:06Z</time>
      </trkpt>
      <trkpt lat="39.166002117346714" lon="117.75707988911456">
        <ele>3.3</ele>
        <time>2025-09-12T09:35:08Z</time>
      </trkpt>
      <trkpt lat="39.16605606283724" lon="117.75703283665733">
        <ele>3.4</ele>
        <time>2025-09-12T09:35:10Z</time>
      </trkpt>
      <trkpt lat="39.16611000888638" lon="117.75698678527318">
        <ele>3.4</ele>
        <time>2025-09-12T09:35:12Z</time>
      </trkpt>
      <trkpt lat="39.16616195572409" lon="117.75693973328151">
        <ele>3.4</ele>
        <time>2025-09-12T09:35:14Z</time>
      </trkpt>
      <trkpt lat="39.16621390169765" lon="117.75689067947272">
        <ele>3.4</ele>
        <time>2025-09-12T09:35:16Z</time>
      </trkpt>
      <trkpt lat="39.1662618491872" lon="117.75683962437017">
        <ele>3.4</ele>
        <time>2025-09-12T09:35:18Z</time>
      </trkpt>
      <trkpt lat="39.16630879783467" lon="117.75678957047758">
        <ele>3.5</ele>
        <time>2025-09-12T09:35:20Z</time>
      </trkpt>
      <trkpt lat="39.16635474669947" lon="117.75673851587858">
        <ele>3.5</ele>
        <time>2025-09-12T09:35:22Z</time>
      </trkpt>
      <trkpt lat="39.16640169413709" lon="117.75668545937403">
        <ele>3.5</ele>
        <time>2025-09-12T09:35:24Z</time>
      </trkpt>
      <trkpt lat="39.166448641215055" lon="117.75663140205597">
        <ele>3.4</ele>
        <time>2025-09-12T09:35:26Z</time>
      </trkpt>
      <trkpt lat="39.16649658642413" lon="117.75657434191173">
        <ele>3.4</ele>
        <time>2025-09-12T09:35:28Z</time>
      </trkpt>
      <trkpt lat="39.16654553207995" lon="117.75651928368514">
        <ele>3.5</ele>
        <time>2025-09-12T09:35:30Z</time>
      </trkpt>
      <trkpt lat="39.16659847822419" lon="117.75647023074417">
        <ele>3.5</ele>
        <time>2025-09-12T09:35:32Z</time>
      </trkpt>
      <trkpt lat="39.166654433632026" lon="117.75644520009163">
        <ele>3.5</ele>
        <time>2025-09-12T09:35:34Z</time>
      </trkpt>
      <trkpt lat="39.16670840713841" lon="117.75645720450473">
        <ele>3.5</ele>
        <time>2025-09-12T09:35:36Z</time>
      </trkpt>
      <trkpt lat="39.166756398866276" lon="117.75650123984141">
        <ele>3.5</ele>
        <time>2025-09-12T09:35:38Z</time>
      </trkpt>
      <trkpt lat="39.16679540382724" lon="117.75656229249272">
        <ele>3.4</ele>
        <time>2025-09-12T09:35:40Z</time>
      </trkpt>
      <trkpt lat="39.166831411628266" lon="117.7566253476042">
        <ele>3.4</ele>
        <time>2025-09-12T09:35:42Z</time>
      </trkpt>
      <trkpt lat="39.16686841851771" lon="117.75668740182844">
        <ele>3.4</ele>
        <time>2025-09-12T09:35:44Z</time>
      </trkpt>
      <trkpt lat="39.16690542601657" lon="117.75675045719383">
        <ele>3.3</ele>
        <time>2025-09-12T09:35:46Z</time>
      </trkpt>
      <trkpt lat="39.16694443200717" lon="117.75681251153853">
        <ele>3.3</ele>
        <time>2025-09-12T09:35:48Z</time>
      </trkpt>
      <trkpt lat="39.16698044038787" lon="117.7568755674122">
        <ele>3.5</ele>
        <time>2025-09-12T09:35:50Z</time>
      </trkpt>
      <trkpt lat="39.16701844773044" lon="117.75693862322318">
        <ele>3.5</ele>
        <time>2025-09-12T09:35:52Z</time>
      </trkpt>
      <trkpt lat="39.16705545628811" lon="117.7570026803206">
        <ele>3.5</ele>
        <time>2025-09-12T09:35:54Z</time>
      </trkpt>
      <trkpt lat="39.167094465250926" lon="117.7570697402727">
        <ele>3.5</ele>
        <time>2025-09-12T09:35:56Z</time>
      </trkpt>
      <trkpt lat="39.167135472712665" lon="117.75713579921332">
        <ele>3.5</ele>
        <time>2025-09-12T09:35:58Z</time>
      </trkpt>
      <trkpt lat="39.16717448103396" lon="117.75720085764199">
        <ele>3.5</ele>
        <time>2025-09-12T09:36:00Z</time>
      </trkpt>
      <trkpt lat="39.1672144884317" lon="117.75726491516735">
        <ele>3.5</ele>
        <time>2025-09-12T09:36:02Z</time>
      </trkpt>
      <trkpt lat="39.167253497060855" lon="117.75732997400074">
        <ele>3.5</ele>
        <time>2025-09-12T09:36:04Z</time>
      </trkpt>
      <trkpt lat="39.167293504270226" lon="117.7573930309383">
        <ele>3.2</ele>
        <time>2025-09-12T09:36:06Z</time>
      </trkpt>
      <trkpt lat="39.167334510046004" lon="117.75745408596175">
        <ele>3.2</ele>
        <time>2025-09-12T09:36:08Z</time>
      </trkpt>
      <trkpt lat="39.167375514966714" lon="117.7575131391807">
        <ele>3.1</ele>
        <time>2025-09-12T09:36:10Z</time>
      </trkpt>
      <trkpt lat="39.167416520015195" lon="117.75757219256741">
        <ele>3.1</ele>
        <time>2025-09-12T09:36:12Z</time>
      </trkpt>
      <trkpt lat="39.167454527467065" lon="117.75763224750129">
        <ele>3.1</ele>
        <time>2025-09-12T09:36:14Z</time>
      </trkpt>
      <trkpt lat="39.16749253505086" lon="117.75769230260856">
        <ele>3.3</ele>
        <time>2025-09-12T09:36:16Z</time>
      </trkpt>
      <trkpt lat="39.16752954335838" lon="117.75775235801643">
        <ele>3.3</ele>
        <time>2025-09-12T09:36:18Z</time>
      </trkpt>
      <trkpt lat="39.167568549600766" lon="117.7578104113305">
        <ele>3.3</ele>
        <time>2025-09-12T09:36:20Z</time>
      </trkpt>
      <trkpt lat="39.167609555800375" lon="117.75787046656988">
        <ele>3.3</ele>
        <time>2025-09-12T09:36:22Z</time>
      </trkpt>
      <trkpt lat="39.1676525609483" lon="117.75793052172783">
        <ele>3.3</ele>
        <time>2025-09-12T09:36:24Z</time>
      </trkpt>
      <trkpt lat="39.16769556725455" lon="117.75799257908866">
        <ele>3.5</ele>
        <time>2025-09-12T09:36:26Z</time>
      </trkpt>
      <trkpt lat="39.16773457606842" lon="117.75805463714342">
        <ele>3.5</ele>
        <time>2025-09-12T09:36:28Z</time>
      </trkpt>
      <trkpt lat="39.16776958635423" lon="117.75811469385032">
        <ele>3.5</ele>
        <time>2025-09-12T09:36:30Z</time>
      </trkpt>
      <trkpt lat="39.16780359684337" lon="117.75817374983372">
        <ele>3.5</ele>
        <time>2025-09-12T09:36:32Z</time>
      </trkpt>
      <trkpt lat="39.167838604780236" lon="117.75822880175146">
        <ele>3.5</ele>
        <time>2025-09-12T09:36:34Z</time>
      </trkpt>
      <trkpt lat="39.16787661105258" lon="117.75828385343252">
        <ele>3.4</ele>
        <time>2025-09-12T09:36:36Z</time>
      </trkpt>
      <trkpt lat="39.16791361750129" lon="117.75833790435449">
        <ele>3.4</ele>
        <time>2025-09-12T09:36:38Z</time>
      </trkpt>
      <trkpt lat="39.16795262392884" lon="117.75839395723006">
        <ele>3.4</ele>
        <time>2025-09-12T09:36:40Z</time>
      </trkpt>
      <trkpt lat="39.16798863277568" lon="117.75845101167475">
        <ele>3.4</ele>
        <time>2025-09-12T09:36:42Z</time>
      </trkpt>
      <trkpt lat="39.1680266410898" lon="117.75850906706029">
        <ele>3.4</ele>
        <time>2025-09-12T09:36:44Z</time>
      </trkpt>
      <trkpt lat="39.168063649050055" lon="117.75856512064945">
        <ele>3.6</ele>
        <time>2025-09-12T09:36:46Z</time>
      </trkpt>
      <trkpt lat="39.168099658252345" lon="117.7586221755612">
        <ele>3.6</ele>
        <time>2025-09-12T09:36:48Z</time>
      </trkpt>
      <trkpt lat="39.168134668164576" lon="117.75867923075583">
        <ele>3.6</ele>
        <time>2025-09-12T09:36:50Z</time>
      </trkpt>
      <trkpt lat="39.168168678246445" lon="117.75873528518271">
        <ele>3.6</ele>
        <time>2025-09-12T09:36:52Z</time>
      </trkpt>
      <trkpt lat="39.16820268790024" lon="117.75879033870648">
        <ele>3.6</ele>
        <time>2025-09-12T09:36:54Z</time>
      </trkpt>
      <trkpt lat="39.16823869702529" lon="117.75884639317621">
        <ele>3.6</ele>
        <time>2025-09-12T09:36:56Z</time>
      </trkpt>
      <trkpt lat="39.168275706219234" lon="117.75890344872715">
        <ele>3.6</ele>
        <time>2025-09-12T09:36:58Z</time>
      </trkpt>
      <trkpt lat="39.168313715488274" lon="117.75896150536745">
        <ele>3.6</ele>
        <time>2025-09-12T09:37:00Z</time>
      </trkpt>
      <trkpt lat="39.16835272153619" lon="117.75901455672131">
        <ele>3.6</ele>
        <time>2025-09-12T09:37:02Z</time>
      </trkpt>
      <trkpt lat="39.16838972886929" lon="117.75906760846392">
        <ele>3.6</ele>
        <time>2025-09-12T09:37:04Z</time>
      </trkpt>
      <trkpt lat="39.168426735750444" lon="117.75911965927178">
        <ele>3.8</ele>
        <time>2025-09-12T09:37:06Z</time>
      </trkpt>
      <trkpt lat="39.168459747876064" lon="117.75917671607526">
        <ele>3.8</ele>
        <time>2025-09-12T09:37:08Z</time>
      </trkpt>
      <trkpt lat="39.16849275956137" lon="117.75923277195949">
        <ele>3.8</ele>
        <time>2025-09-12T09:37:10Z</time>
      </trkpt>
      <trkpt lat="39.16852777017763" lon="117.75928882773879">
        <ele>3.8</ele>
        <time>2025-09-12T09:37:12Z</time>
      </trkpt>
      <trkpt lat="39.16856577913352" lon="117.7593448832858">
        <ele>3.8</ele>
        <time>2025-09-12T09:37:14Z</time>
      </trkpt>
      <trkpt lat="39.16860378820325" lon="117.75940093898234">
        <ele>3.6</ele>
        <time>2025-09-12T09:37:16Z</time>
      </trkpt>
      <trkpt lat="39.1686437973367" lon="117.75945899674379">
        <ele>3.6</ele>
        <time>2025-09-12T09:37:18Z</time>
      </trkpt>
      <trkpt lat="39.16868080836622" lon="117.75951705504733">
        <ele>3.6</ele>
        <time>2025-09-12T09:37:20Z</time>
      </trkpt>
      <trkpt lat="39.1687188177853" lon="117.75957311120274">
        <ele>3.6</ele>
        <time>2025-09-12T09:37:22Z</time>
      </trkpt>
      <trkpt lat="39.16875482907318" lon="117.75963016885517">
        <ele>3.6</ele>
        <time>2025-09-12T09:37:24Z</time>
      </trkpt>
      <trkpt lat="39.16879283699809" lon="117.75968322202445">
        <ele>3.7</ele>
        <time>2025-09-12T09:37:26Z</time>
      </trkpt>
      <trkpt lat="39.16882984561609" lon="117.75973627545466">
        <ele>3.7</ele>
        <time>2025-09-12T09:37:28Z</time>
      </trkpt>
      <trkpt lat="39.16886685144503" lon="117.75978432351529">
        <ele>3.7</ele>
        <time>2025-09-12T09:37:30Z</time>
      </trkpt>
      <trkpt lat="39.16889985972248" lon="117.75983237219457">
        <ele>3.9</ele>
        <time>2025-09-12T09:37:32Z</time>
      </trkpt>
      <trkpt lat="39.168928870448255" lon="117.75988042149243">
        <ele>3.9</ele>
        <time>2025-09-12T09:37:34Z</time>
      </trkpt>
      <trkpt lat="39.16895887949963" lon="117.7599264685579">
        <ele>3.8</ele>
        <time>2025-09-12T09:37:36Z</time>
      </trkpt>
      <trkpt lat="39.16899088802993" lon="117.75997351657877">
        <ele>3.8</ele>
        <time>2025-09-12T09:37:38Z</time>
      </trkpt>
      <trkpt lat="39.16902489487116" lon="117.7600195633383">
        <ele>3.8</ele>
        <time>2025-09-12T09:37:40Z</time>
      </trkpt>
      <trkpt lat="39.16905590297432" lon="117.76006460946628">
        <ele>3.8</ele>
        <time>2025-09-12T09:37:42Z</time>
      </trkpt>
      <trkpt lat="39.16908191469629" lon="117.76011065744265">
        <ele>3.8</ele>
        <time>2025-09-12T09:37:44Z</time>
      </trkpt>
      <trkpt lat="39.16910292531112" lon="117.76014969832971">
        <ele>3.8</ele>
        <time>2025-09-12T09:37:48Z</time>
      </trkpt>
      <trkpt lat="39.16912193597794" lon="117.76018673730417">
        <ele>3.8</ele>
        <time>2025-09-12T09:37:50Z</time>
      </trkpt>
      <trkpt lat="39.16914294313667" lon="117.76021977160397">
        <ele>3.8</ele>
        <time>2025-09-12T09:37:52Z</time>
      </trkpt>
      <trkpt lat="39.16916694856126" lon="117.7602528055736">
        <ele>3.8</ele>
        <time>2025-09-12T09:37:54Z</time>
      </trkpt>
      <trkpt lat="39.16919694928635" lon="117.76028383658277">
        <ele>3.9</ele>
        <time>2025-09-12T09:37:56Z</time>
      </trkpt>
      <trkpt lat="39.16922794527624" lon="117.76030785963177">
        <ele>3.9</ele>
        <time>2025-09-12T09:37:58Z</time>
      </trkpt>
      <trkpt lat="39.16926292816951" lon="117.76031386193026">
        <ele>3.9</ele>
        <time>2025-09-12T09:38:00Z</time>
      </trkpt>
      <trkpt lat="39.1692889020595" lon="117.76029583836795">
        <ele>3.8</ele>
        <time>2025-09-12T09:38:04Z</time>
      </trkpt>
      <trkpt lat="39.16931286582998" lon="117.76025879372979">
        <ele>4</ele>
        <time>2025-09-12T09:38:06Z</time>
      </trkpt>
      <trkpt lat="39.16933282785852" lon="117.76021474181789">
        <ele>4</ele>
        <time>2025-09-12T09:38:08Z</time>
      </trkpt>
      <trkpt lat="39.169356784041454" lon="117.76016468277645">
        <ele>4</ele>
        <time>2025-09-12T09:38:10Z</time>
      </trkpt>
      <trkpt lat="39.16938473559078" lon="117.76011061888005">
        <ele>4</ele>
        <time>2025-09-12T09:38:12Z</time>
      </trkpt>
      <trkpt lat="39.1694186919325" lon="117.760070569951">
        <ele>4</ele>
        <time>2025-09-12T09:38:14Z</time>
      </trkpt>
      <trkpt lat="39.1694546665381" lon="117.76006355757171">
        <ele>3.9</ele>
        <time>2025-09-12T09:38:16Z</time>
      </trkpt>
      <trkpt lat="39.169488664103206" lon="117.76009358667885">
        <ele>3.9</ele>
        <time>2025-09-12T09:38:18Z</time>
      </trkpt>
      <trkpt lat="39.16951967705962" lon="117.76014664190515">
        <ele>3.9</ele>
        <time>2025-09-12T09:38:20Z</time>
      </trkpt>
      <trkpt lat="39.169552690714504" lon="117.760202700371">
        <ele>3.9</ele>
        <time>2025-09-12T09:38:22Z</time>
      </trkpt>
      <trkpt lat="39.16958870389987" lon="117.76026076084985">
        <ele>3.9</ele>
        <time>2025-09-12T09:38:24Z</time>
      </trkpt>
      <trkpt lat="39.16962571661556" lon="117.76031882136085">
        <ele>4.2</ele>
        <time>2025-09-12T09:38:26Z</time>
      </trkpt>
      <trkpt lat="39.16966272945253" lon="117.76037688203125">
        <ele>4.2</ele>
        <time>2025-09-12T09:38:28Z</time>
      </trkpt>
      <trkpt lat="39.16970174183032" lon="117.76043594373778">
        <ele>4.2</ele>
        <time>2025-09-12T09:38:30Z</time>
      </trkpt>
      <trkpt lat="39.16974475257357" lon="117.76049600623425">
        <ele>4</ele>
        <time>2025-09-12T09:38:32Z</time>
      </trkpt>
      <trkpt lat="39.169787765869906" lon="117.76056007344974">
        <ele>4</ele>
        <time>2025-09-12T09:38:34Z</time>
      </trkpt>
      <trkpt lat="39.169827780478116" lon="117.7606231401005">
        <ele>4</ele>
        <time>2025-09-12T09:38:36Z</time>
      </trkpt>
      <trkpt lat="39.16986679704084" lon="117.76068820935272">
        <ele>4</ele>
        <time>2025-09-12T09:38:38Z</time>
      </trkpt>
      <trkpt lat="39.16990481434622" lon="117.76075327893186">
        <ele>4</ele>
        <time>2025-09-12T09:38:40Z</time>
      </trkpt>
      <trkpt lat="39.16994583064605" lon="117.76081934947825">
        <ele>3.9</ele>
        <time>2025-09-12T09:38:42Z</time>
      </trkpt>
      <trkpt lat="39.16998584769311" lon="117.7608854203576">
        <ele>3.9</ele>
        <time>2025-09-12T09:38:44Z</time>
      </trkpt>
      <trkpt lat="39.17002586365682" lon="117.76094948913112">
        <ele>4</ele>
        <time>2025-09-12T09:38:46Z</time>
      </trkpt>
      <trkpt lat="39.17006487973618" lon="117.76101255706651">
        <ele>4</ele>
        <time>2025-09-12T09:38:48Z</time>
      </trkpt>
      <trkpt lat="39.170101898388076" lon="117.76107762776681">
        <ele>4</ele>
        <time>2025-09-12T09:38:50Z</time>
      </trkpt>
      <trkpt lat="39.17013691899949" lon="117.76114370008551">
        <ele>4</ele>
        <time>2025-09-12T09:38:52Z</time>
      </trkpt>
      <trkpt lat="39.170168942168054" lon="117.76121077415907">
        <ele>4</ele>
        <time>2025-09-12T09:38:54Z</time>
      </trkpt>
      <trkpt lat="39.170201965537935" lon="117.76127884948785">
        <ele>4</ele>
        <time>2025-09-12T09:38:56Z</time>
      </trkpt>
      <trkpt lat="39.17023698915969" lon="117.76134892712848">
        <ele>4</ele>
        <time>2025-09-12T09:38:58Z</time>
      </trkpt>
      <trkpt lat="39.17027401241172" lon="117.76142000592282">
        <ele>4</ele>
        <time>2025-09-12T09:39:00Z</time>
      </trkpt>
      <trkpt lat="39.17031003451727" lon="117.76148808153832">
        <ele>3.9</ele>
        <time>2025-09-12T09:39:02Z</time>
      </trkpt>
      <trkpt lat="39.17034405732779" lon="117.76155515644147">
        <ele>3.9</ele>
        <time>2025-09-12T09:39:04Z</time>
      </trkpt>
      <trkpt lat="39.170377079601614" lon="117.7616202293083">
        <ele>3.9</ele>
        <time>2025-09-12T09:39:06Z</time>
      </trkpt>
      <trkpt lat="39.17041110143547" lon="117.76168530224625">
        <ele>3.8</ele>
        <time>2025-09-12T09:39:08Z</time>
      </trkpt>
      <trkpt lat="39.17044412336222" lon="117.76174937431644">
        <ele>3.8</ele>
        <time>2025-09-12T09:39:10Z</time>
      </trkpt>
      <trkpt lat="39.17047814809749" lon="117.76181845243315">
        <ele>3.9</ele>
        <time>2025-09-12T09:39:12Z</time>
      </trkpt>
      <trkpt lat="39.170510174183356" lon="117.76188753102755">
        <ele>3.9</ele>
        <time>2025-09-12T09:39:14Z</time>
      </trkpt>
      <trkpt lat="39.17054020227532" lon="117.76195761130244">
        <ele>3.9</ele>
        <time>2025-09-12T09:39:16Z</time>
      </trkpt>
      <trkpt lat="39.170568228432245" lon="117.76202268603069">
        <ele>3.8</ele>
        <time>2025-09-12T09:39:18Z</time>
      </trkpt>
      <trkpt lat="39.170597255469296" lon="117.7620897632476">
        <ele>3.8</ele>
        <time>2025-09-12T09:39:20Z</time>
      </trkpt>
      <trkpt lat="39.17062528259355" lon="117.76215583958954">
        <ele>3.6</ele>
        <time>2025-09-12T09:39:22Z</time>
      </trkpt>
      <trkpt lat="39.17065331120243" lon="117.76222391856587">
        <ele>3.6</ele>
        <time>2025-09-12T09:39:24Z</time>
      </trkpt>
      <trkpt lat="39.170679338486615" lon="117.76228799313886">
        <ele>3.6</ele>
        <time>2025-09-12T09:39:26Z</time>
      </trkpt>
      <trkpt lat="39.17070536725522" lon="117.762354070346">
        <ele>3.8</ele>
        <time>2025-09-12T09:39:28Z</time>
      </trkpt>
      <trkpt lat="39.17072839794953" lon="117.76242014813826">
        <ele>3.8</ele>
        <time>2025-09-12T09:39:30Z</time>
      </trkpt>
      <trkpt lat="39.17075143082114" lon="117.76248922981688">
        <ele>3.9</ele>
        <time>2025-09-12T09:39:32Z</time>
      </trkpt>
      <trkpt lat="39.170775463270644" lon="117.76255831159033">
        <ele>3.9</ele>
        <time>2025-09-12T09:39:34Z</time>
      </trkpt>
      <trkpt lat="39.17080149606622" lon="117.76262939579969">
        <ele>3.9</ele>
        <time>2025-09-12T09:39:36Z</time>
      </trkpt>
      <trkpt lat="39.17082952717715" lon="117.76269947875188">
        <ele>3.8</ele>
        <time>2025-09-12T09:39:38Z</time>
      </trkpt>
      <trkpt lat="39.170858558555075" lon="117.76277056304583">
        <ele>3.8</ele>
        <time>2025-09-12T09:39:40Z</time>
      </trkpt>
      <trkpt lat="39.17088359178578" lon="117.7628406468392">
        <ele>3.7</ele>
        <time>2025-09-12T09:39:42Z</time>
      </trkpt>
      <trkpt lat="39.17090362745205" lon="117.76290973024929">
        <ele>3.7</ele>
        <time>2025-09-12T09:39:44Z</time>
      </trkpt>
      <trkpt lat="39.17092266249317" lon="117.76297681150697">
        <ele>3.7</ele>
        <time>2025-09-12T09:39:46Z</time>
      </trkpt>
      <trkpt lat="39.17094469175804" lon="117.76303788507104">
        <ele>3.8</ele>
        <time>2025-09-12T09:39:48Z</time>
      </trkpt>
    </trkseg>
  </trk>
</gpx>