<?xml version="1.0" encoding="UTF-8"?>
<gpx xmlns="http://www.topografix.com/GPX/1/1" xmlns:gpxtpx="http://www.garmin.com/xmlschemas/TrackPointExtension/v1" xmlns:xsi="http://www.w3.org/2001/XMLSchema-instance" xsi:schemaLocation="http://www.topografix.com/GPX/1/1 http://www.topografix.com/GPX/1/1/gpx.xsd" version="1.1" creator="gpx.py -- https://github.com/tkrajina/gpxpy">
  <trk>
    <name>gpx from codoon</name>
    <type>Run</type>
    <trkseg>
      <trkpt lat="39.17104970908595" lon="117.7631520148864">
        <ele>10</ele>
        <time>2025-09-14T23:18:53Z</time>
      </trkpt>
      <trkpt lat="39.17105468800439" lon="117.76312598154323">
        <ele>10</ele>
        <time>2025-09-14T23:18:54Z</time>
      </trkpt>
      <trkpt lat="39.17100868522861" lon="117.76308293337242">
        <ele>10</ele>
        <time>2025-09-14T23:18:55Z</time>
      </trkpt>
      <trkpt lat="39.1709516709854" lon="117.76301385411523">
        <ele>9.1</ele>
        <time>2025-09-14T23:18:58Z</time>
      </trkpt>
      <trkpt lat="39.17088065758359" lon="117.76293376312488">
        <ele>9.1</ele>
        <time>2025-09-14T23:19:00Z</time>
      </trkpt>
      <trkpt lat="39.17085461371653" lon="117.762847659239">
        <ele>8.9</ele>
        <time>2025-09-14T23:19:02Z</time>
      </trkpt>
      <trkpt lat="39.17082656718747" lon="117.76275554850974">
        <ele>8.9</ele>
        <time>2025-09-14T23:19:04Z</time>
      </trkpt>
      <trkpt lat="39.170798513472725" lon="117.76265242458255">
        <ele>10.5</ele>
        <time>2025-09-14T23:19:06Z</time>
      </trkpt>
      <trkpt lat="39.17076446029286" lon="117.76254429576069">
        <ele>10.5</ele>
        <time>2025-09-14T23:19:08Z</time>
      </trkpt>
      <trkpt lat="39.17072940408088" lon="117.76243016025889">
        <ele>10.5</ele>
        <time>2025-09-14T23:19:10Z</time>
      </trkpt>
      <trkpt lat="39.17069135477921" lon="117.76232303428421">
        <ele>9.5</ele>
        <time>2025-09-14T23:19:12Z</time>
      </trkpt>
      <trkpt lat="39.17065130905851" lon="117.76221891274393">
        <ele>9.5</ele>
        <time>2025-09-14T23:19:14Z</time>
      </trkpt>
      <trkpt lat="39.170607269389876" lon="117.76211979827028">
        <ele>9</ele>
        <time>2025-09-14T23:19:16Z</time>
      </trkpt>
      <trkpt lat="39.170563226122454" lon="117.7620146770204">
        <ele>9</ele>
        <time>2025-09-14T23:19:18Z</time>
      </trkpt>
      <trkpt lat="39.1705141848916" lon="117.76190755452151">
        <ele>9</ele>
        <time>2025-09-14T23:19:20Z</time>
      </trkpt>
      <trkpt lat="39.170466146077885" lon="117.7618044372145">
        <ele>9</ele>
        <time>2025-09-14T23:19:22Z</time>
      </trkpt>
      <trkpt lat="39.170428117263526" lon="117.76172534772888">
        <ele>9</ele>
        <time>2025-09-14T23:19:24Z</time>
      </trkpt>
      <trkpt lat="39.17039810136402" lon="117.76167328962138">
        <ele>9.2</ele>
        <time>2025-09-14T23:19:26Z</time>
      </trkpt>
      <trkpt lat="39.170371095381896" lon="117.76163925263633">
        <ele>9.2</ele>
        <time>2025-09-14T23:19:28Z</time>
      </trkpt>
      <trkpt lat="39.170337088431545" lon="117.76159720710618">
        <ele>9.2</ele>
        <time>2025-09-14T23:19:30Z</time>
      </trkpt>
      <trkpt lat="39.17030106670236" lon="117.76153013232536">
        <ele>9.2</ele>
        <time>2025-09-14T23:19:32Z</time>
      </trkpt>
      <trkpt lat="39.1702610347411" lon="117.76144303467815">
        <ele>9.2</ele>
        <time>2025-09-14T23:19:34Z</time>
      </trkpt>
      <trkpt lat="39.17021899852408" lon="117.76134692707033">
        <ele>9.2</ele>
        <time>2025-09-14T23:19:36Z</time>
      </trkpt>
      <trkpt lat="39.17017096554978" lon="117.76124981948973">
        <ele>9.2</ele>
        <time>2025-09-14T23:19:38Z</time>
      </trkpt>
      <trkpt lat="39.17011993342997" lon="117.7611507104035">
        <ele>9.2</ele>
        <time>2025-09-14T23:19:40Z</time>
      </trkpt>
      <trkpt lat="39.170066901595504" lon="117.76104959971265">
        <ele>8.9</ele>
        <time>2025-09-14T23:19:42Z</time>
      </trkpt>
      <trkpt lat="39.17001187378731" lon="117.76095249437991">
        <ele>8.9</ele>
        <time>2025-09-14T23:19:44Z</time>
      </trkpt>
      <trkpt lat="39.16995584998999" lon="117.76086039537482">
        <ele>8.6</ele>
        <time>2025-09-14T23:19:46Z</time>
      </trkpt>
      <trkpt lat="39.16989982956368" lon="117.7607733025053">
        <ele>8.6</ele>
        <time>2025-09-14T23:19:48Z</time>
      </trkpt>
      <trkpt lat="39.16984280755888" lon="117.76068220554804">
        <ele>8.6</ele>
        <time>2025-09-14T23:19:50Z</time>
      </trkpt>
      <trkpt lat="39.16978578403093" lon="117.76058810556616">
        <ele>8.7</ele>
        <time>2025-09-14T23:19:52Z</time>
      </trkpt>
      <trkpt lat="39.16972476137391" lon="117.760491003109">
        <ele>8.7</ele>
        <time>2025-09-14T23:19:54Z</time>
      </trkpt>
      <trkpt lat="39.16966274024651" lon="117.76039490235377">
        <ele>8.8</ele>
        <time>2025-09-14T23:19:56Z</time>
      </trkpt>
      <trkpt lat="39.16960072064435" lon="117.76030080428484">
        <ele>8.8</ele>
        <time>2025-09-14T23:19:58Z</time>
      </trkpt>
      <trkpt lat="39.16954070136545" lon="117.76020870862125">
        <ele>8.8</ele>
        <time>2025-09-14T23:20:00Z</time>
      </trkpt>
      <trkpt lat="39.169486681206266" lon="117.7601206170608">
        <ele>8.8</ele>
        <time>2025-09-14T23:20:02Z</time>
      </trkpt>
      <trkpt lat="39.16944266363769" lon="117.7600465401718">
        <ele>8.8</ele>
        <time>2025-09-14T23:20:04Z</time>
      </trkpt>
      <trkpt lat="39.16941165028718" lon="117.7599924840866">
        <ele>8.8</ele>
        <time>2025-09-14T23:20:06Z</time>
      </trkpt>
      <trkpt lat="39.169385642260785" lon="117.75995244301778">
        <ele>8.8</ele>
        <time>2025-09-14T23:20:08Z</time>
      </trkpt>
      <trkpt lat="39.16935563723913" lon="117.75991340364067">
        <ele>8.8</ele>
        <time>2025-09-14T23:20:10Z</time>
      </trkpt>
      <trkpt lat="39.16931862885608" lon="117.75986135086843">
        <ele>8.7</ele>
        <time>2025-09-14T23:20:12Z</time>
      </trkpt>
      <trkpt lat="39.169277615990225" lon="117.75979728551675">
        <ele>8.7</ele>
        <time>2025-09-14T23:20:14Z</time>
      </trkpt>
      <trkpt lat="39.16923259757322" lon="117.75971920550028">
        <ele>8.7</ele>
        <time>2025-09-14T23:20:16Z</time>
      </trkpt>
      <trkpt lat="39.16918057950456" lon="117.75963411900926">
        <ele>8.7</ele>
        <time>2025-09-14T23:20:18Z</time>
      </trkpt>
      <trkpt lat="39.16912356237507" lon="117.75954502914146">
        <ele>8.7</ele>
        <time>2025-09-14T23:20:20Z</time>
      </trkpt>
      <trkpt lat="39.16906254676487" lon="117.75945393799024">
        <ele>8.6</ele>
        <time>2025-09-14T23:20:22Z</time>
      </trkpt>
      <trkpt lat="39.16900053035772" lon="117.7593598441196">
        <ele>8.6</ele>
        <time>2025-09-14T23:20:24Z</time>
      </trkpt>
      <trkpt lat="39.16894051420759" lon="117.75926775256744">
        <ele>8.6</ele>
        <time>2025-09-14T23:20:26Z</time>
      </trkpt>
      <trkpt lat="39.16888349992843" lon="117.75918166746735">
        <ele>8.6</ele>
        <time>2025-09-14T23:20:28Z</time>
      </trkpt>
      <trkpt lat="39.168827488646784" lon="117.75910158900025">
        <ele>8.6</ele>
        <time>2025-09-14T23:20:30Z</time>
      </trkpt>
      <trkpt lat="39.16877047929041" lon="117.75902351309453">
        <ele>8.3</ele>
        <time>2025-09-14T23:20:32Z</time>
      </trkpt>
      <trkpt lat="39.1687154678773" lon="117.75894343510384">
        <ele>8.3</ele>
        <time>2025-09-14T23:20:34Z</time>
      </trkpt>
      <trkpt lat="39.16866145338201" lon="117.75885835200907">
        <ele>8.3</ele>
        <time>2025-09-14T23:20:36Z</time>
      </trkpt>
      <trkpt lat="39.168605439249255" lon="117.75877126740977">
        <ele>8.2</ele>
        <time>2025-09-14T23:20:38Z</time>
      </trkpt>
      <trkpt lat="39.16854842706028" lon="117.75868618539613">
        <ele>8.2</ele>
        <time>2025-09-14T23:20:40Z</time>
      </trkpt>
      <trkpt lat="39.168490414120136" lon="117.75859810072352">
        <ele>8</ele>
        <time>2025-09-14T23:20:42Z</time>
      </trkpt>
      <trkpt lat="39.168433399806865" lon="117.75850801421507">
        <ele>8</ele>
        <time>2025-09-14T23:20:44Z</time>
      </trkpt>
      <trkpt lat="39.16837638578894" lon="117.75841792809476">
        <ele>8</ele>
        <time>2025-09-14T23:20:46Z</time>
      </trkpt>
      <trkpt lat="39.1683173732495" lon="117.75832784261738">
        <ele>7.8</ele>
        <time>2025-09-14T23:20:48Z</time>
      </trkpt>
      <trkpt lat="39.16825836152801" lon="117.7582387585553">
        <ele>7.8</ele>
        <time>2025-09-14T23:20:50Z</time>
      </trkpt>
      <trkpt lat="39.16819735076006" lon="117.75814867410548">
        <ele>8</ele>
        <time>2025-09-14T23:20:52Z</time>
      </trkpt>
      <trkpt lat="39.16813734072811" lon="117.75806059195368">
        <ele>8</ele>
        <time>2025-09-14T23:20:54Z</time>
      </trkpt>
      <trkpt lat="39.168077330979465" lon="117.75797251017396">
        <ele>8</ele>
        <time>2025-09-14T23:20:56Z</time>
      </trkpt>
      <trkpt lat="39.168018321432015" lon="117.75788542964894">
        <ele>8.2</ele>
        <time>2025-09-14T23:20:58Z</time>
      </trkpt>
      <trkpt lat="39.16796131097848" lon="117.75779834923337">
        <ele>8.2</ele>
        <time>2025-09-14T23:21:00Z</time>
      </trkpt>
      <trkpt lat="39.16790630012187" lon="117.75771226992885">
        <ele>7.9</ele>
        <time>2025-09-14T23:21:02Z</time>
      </trkpt>
      <trkpt lat="39.167852290444436" lon="117.7576291938453">
        <ele>7.9</ele>
        <time>2025-09-14T23:21:04Z</time>
      </trkpt>
      <trkpt lat="39.167799281919" lon="117.75754912094693">
        <ele>7.9</ele>
        <time>2025-09-14T23:21:06Z</time>
      </trkpt>
      <trkpt lat="39.16774627362832" lon="117.75746904835692">
        <ele>7.9</ele>
        <time>2025-09-14T23:21:08Z</time>
      </trkpt>
      <trkpt lat="39.1676922651818" lon="117.75738697423097">
        <ele>7.9</ele>
        <time>2025-09-14T23:21:10Z</time>
      </trkpt>
      <trkpt lat="39.16763825600581" lon="117.75730289846562">
        <ele>7.8</ele>
        <time>2025-09-14T23:21:12Z</time>
      </trkpt>
      <trkpt lat="39.16758424660389" lon="117.75721782206301">
        <ele>7.8</ele>
        <time>2025-09-14T23:21:14Z</time>
      </trkpt>
      <trkpt lat="39.167530237467375" lon="117.75713274600915">
        <ele>7.8</ele>
        <time>2025-09-14T23:21:16Z</time>
      </trkpt>
      <trkpt lat="39.16747522966702" lon="117.75704867140095">
        <ele>7.8</ele>
        <time>2025-09-14T23:21:18Z</time>
      </trkpt>
      <trkpt lat="39.167421221058575" lon="117.75696359604093">
        <ele>7.8</ele>
        <time>2025-09-14T23:21:20Z</time>
      </trkpt>
      <trkpt lat="39.16736821165142" lon="117.75687751994153">
        <ele>7.9</ele>
        <time>2025-09-14T23:21:22Z</time>
      </trkpt>
      <trkpt lat="39.16731620145507" lon="117.7567904431154">
        <ele>7.9</ele>
        <time>2025-09-14T23:21:24Z</time>
      </trkpt>
      <trkpt lat="39.16726419153724" lon="117.75670336665543">
        <ele>7.9</ele>
        <time>2025-09-14T23:21:26Z</time>
      </trkpt>
      <trkpt lat="39.16721218236109" lon="117.75661729151045">
        <ele>7.9</ele>
        <time>2025-09-14T23:21:28Z</time>
      </trkpt>
      <trkpt lat="39.16716017391726" lon="117.75653221766811">
        <ele>7.9</ele>
        <time>2025-09-14T23:21:30Z</time>
      </trkpt>
      <trkpt lat="39.16710816619653" lon="117.75644814511622">
        <ele>7.8</ele>
        <time>2025-09-14T23:21:32Z</time>
      </trkpt>
      <trkpt lat="39.16705915650622" lon="117.75636307158797">
        <ele>7.8</ele>
        <time>2025-09-14T23:21:34Z</time>
      </trkpt>
      <trkpt lat="39.1670131457568" lon="117.75627899896034">
        <ele>7.8</ele>
        <time>2025-09-14T23:21:36Z</time>
      </trkpt>
      <trkpt lat="39.166972133650106" lon="117.75619792882328">
        <ele>7.6</ele>
        <time>2025-09-14T23:21:38Z</time>
      </trkpt>
      <trkpt lat="39.16693312460471" lon="117.75612586707183">
        <ele>7.6</ele>
        <time>2025-09-14T23:21:40Z</time>
      </trkpt>
      <trkpt lat="39.166897117514374" lon="117.75606181256263">
        <ele>7.7</ele>
        <time>2025-09-14T23:21:42Z</time>
      </trkpt>
      <trkpt lat="39.166865110849315" lon="117.75600376325588">
        <ele>7.7</ele>
        <time>2025-09-14T23:21:44Z</time>
      </trkpt>
      <trkpt lat="39.1668371015017" lon="117.75594471268717">
        <ele>7.7</ele>
        <time>2025-09-14T23:21:46Z</time>
      </trkpt>
      <trkpt lat="39.16681508960228" lon="117.75588766335022">
        <ele>7.7</ele>
        <time>2025-09-14T23:21:48Z</time>
      </trkpt>
      <trkpt lat="39.1667940820084" lon="117.75584162406277">
        <ele>7.7</ele>
        <time>2025-09-14T23:21:50Z</time>
      </trkpt>
      <trkpt lat="39.166770087535724" lon="117.7558216089064">
        <ele>8</ele>
        <time>2025-09-14T23:21:52Z</time>
      </trkpt>
      <trkpt lat="39.166747104192396" lon="117.75582861820651">
        <ele>8.1</ele>
        <time>2025-09-14T23:22:10Z</time>
      </trkpt>
      <trkpt lat="39.16672213159954" lon="117.75585764781266">
        <ele>8.4</ele>
        <time>2025-09-14T23:22:12Z</time>
      </trkpt>
      <trkpt lat="39.16669616355744" lon="117.75589568580833">
        <ele>8.4</ele>
        <time>2025-09-14T23:22:14Z</time>
      </trkpt>
      <trkpt lat="39.1666622020582" lon="117.75593772855517">
        <ele>8.4</ele>
        <time>2025-09-14T23:22:16Z</time>
      </trkpt>
      <trkpt lat="39.16662224593632" lon="117.755983775823">
        <ele>8.2</ele>
        <time>2025-09-14T23:22:18Z</time>
      </trkpt>
      <trkpt lat="39.16657529580463" lon="117.75603382776592">
        <ele>8.2</ele>
        <time>2025-09-14T23:22:20Z</time>
      </trkpt>
      <trkpt lat="39.16652435168358" lon="117.75609188772356">
        <ele>8.2</ele>
        <time>2025-09-14T23:22:22Z</time>
      </trkpt>
      <trkpt lat="39.16646941139418" lon="117.75615295113191">
        <ele>8.2</ele>
        <time>2025-09-14T23:22:24Z</time>
      </trkpt>
      <trkpt lat="39.16641147436457" lon="117.75621701789025">
        <ele>8.2</ele>
        <time>2025-09-14T23:22:26Z</time>
      </trkpt>
      <trkpt lat="39.16635153822085" lon="117.75628008416942">
        <ele>8.3</ele>
        <time>2025-09-14T23:22:28Z</time>
      </trkpt>
      <trkpt lat="39.16629260344435" lon="117.75634715425556">
        <ele>8.3</ele>
        <time>2025-09-14T23:22:30Z</time>
      </trkpt>
      <trkpt lat="39.166232668970984" lon="117.7564132237477">
        <ele>8.3</ele>
        <time>2025-09-14T23:22:32Z</time>
      </trkpt>
      <trkpt lat="39.16616973597824" lon="117.75647829289075">
        <ele>8.4</ele>
        <time>2025-09-14T23:22:34Z</time>
      </trkpt>
      <trkpt lat="39.16610680268193" lon="117.75654236129328">
        <ele>8.4</ele>
        <time>2025-09-14T23:22:36Z</time>
      </trkpt>
      <trkpt lat="39.16604286966739" lon="117.75660542907325">
        <ele>8</ele>
        <time>2025-09-14T23:22:38Z</time>
      </trkpt>
      <trkpt lat="39.16597893726509" lon="117.75666949799637">
        <ele>8</ele>
        <time>2025-09-14T23:22:40Z</time>
      </trkpt>
      <trkpt lat="39.16591600442221" lon="117.7567335669903">
        <ele>8</ele>
        <time>2025-09-14T23:22:42Z</time>
      </trkpt>
      <trkpt lat="39.16585207232363" lon="117.75679763630956">
        <ele>8.2</ele>
        <time>2025-09-14T23:22:44Z</time>
      </trkpt>
      <trkpt lat="39.16578913884044" lon="117.75685970377866">
        <ele>8.2</ele>
        <time>2025-09-14T23:22:46Z</time>
      </trkpt>
      <trkpt lat="39.16572720443299" lon="117.75692077034286">
        <ele>8</ele>
        <time>2025-09-14T23:22:48Z</time>
      </trkpt>
      <trkpt lat="39.16566626814185" lon="117.75697883406092">
        <ele>8</ele>
        <time>2025-09-14T23:22:50Z</time>
      </trkpt>
      <trkpt lat="39.165604330654745" lon="117.75703289419346">
        <ele>8</ele>
        <time>2025-09-14T23:22:52Z</time>
      </trkpt>
      <trkpt lat="39.165540392060564" lon="117.75708194986527">
        <ele>7.7</ele>
        <time>2025-09-14T23:22:54Z</time>
      </trkpt>
      <trkpt lat="39.16547745296327" lon="117.75713100552562">
        <ele>7.7</ele>
        <time>2025-09-14T23:22:56Z</time>
      </trkpt>
      <trkpt lat="39.16541451443909" lon="117.75718106227764">
        <ele>7.8</ele>
        <time>2025-09-14T23:22:58Z</time>
      </trkpt>
      <trkpt lat="39.165353576764794" lon="117.75723512280912">
        <ele>7.8</ele>
        <time>2025-09-14T23:23:00Z</time>
      </trkpt>
      <trkpt lat="39.16529463801317" lon="117.75728918322662">
        <ele>7.8</ele>
        <time>2025-09-14T23:23:02Z</time>
      </trkpt>
      <trkpt lat="39.16523669730822" lon="117.75734024070657">
        <ele>8</ele>
        <time>2025-09-14T23:23:04Z</time>
      </trkpt>
      <trkpt lat="39.1651767559202" lon="117.75738729462284">
        <ele>8</ele>
        <time>2025-09-14T23:23:06Z</time>
      </trkpt>
      <trkpt lat="39.16511681412146" lon="117.7574333476575">
        <ele>7.7</ele>
        <time>2025-09-14T23:23:08Z</time>
      </trkpt>
      <trkpt lat="39.165056872401486" lon="117.75747940079403">
        <ele>7.7</ele>
        <time>2025-09-14T23:23:10Z</time>
      </trkpt>
      <trkpt lat="39.16499793016738" lon="117.75752545390515">
        <ele>7.7</ele>
        <time>2025-09-14T23:23:12Z</time>
      </trkpt>
      <trkpt lat="39.16493998542771" lon="117.75756750301258">
        <ele>7.7</ele>
        <time>2025-09-14T23:23:14Z</time>
      </trkpt>
      <trkpt lat="39.16488503897508" lon="117.75760955182304">
        <ele>7.7</ele>
        <time>2025-09-14T23:23:16Z</time>
      </trkpt>
      <trkpt lat="39.164832090400616" lon="117.75764959846688">
        <ele>7.9</ele>
        <time>2025-09-14T23:23:18Z</time>
      </trkpt>
      <trkpt lat="39.16478313951388" lon="117.75768964467856">
        <ele>7.9</ele>
        <time>2025-09-14T23:23:20Z</time>
      </trkpt>
      <trkpt lat="39.16473418818282" lon="117.75772868996495">
        <ele>7.9</ele>
        <time>2025-09-14T23:23:22Z</time>
      </trkpt>
      <trkpt lat="39.16468123776513" lon="117.75776473282151">
        <ele>8.1</ele>
        <time>2025-09-14T23:23:24Z</time>
      </trkpt>
      <trkpt lat="39.16462328833611" lon="117.7577967723544">
        <ele>8.1</ele>
        <time>2025-09-14T23:23:26Z</time>
      </trkpt>
      <trkpt lat="39.16456134131792" lon="117.7578288124456">
        <ele>8.1</ele>
        <time>2025-09-14T23:23:28Z</time>
      </trkpt>
      <trkpt lat="39.164499395355584" lon="117.75786285460316">
        <ele>8.1</ele>
        <time>2025-09-14T23:23:30Z</time>
      </trkpt>
      <trkpt lat="39.164437450966375" lon="117.75789989984733">
        <ele>8.1</ele>
        <time>2025-09-14T23:23:32Z</time>
      </trkpt>
      <trkpt lat="39.164376506035495" lon="117.75793694502994">
        <ele>7.7</ele>
        <time>2025-09-14T23:23:34Z</time>
      </trkpt>
      <trkpt lat="39.16431456174911" lon="117.75797399040556">
        <ele>7.7</ele>
        <time>2025-09-14T23:23:36Z</time>
      </trkpt>
      <trkpt lat="39.16425161862123" lon="117.75801203698992">
        <ele>7.7</ele>
        <time>2025-09-14T23:23:38Z</time>
      </trkpt>
      <trkpt lat="39.16418567784244" lon="117.75805108504305">
        <ele>7.7</ele>
        <time>2025-09-14T23:23:40Z</time>
      </trkpt>
      <trkpt lat="39.16411773882401" lon="117.75809113444325">
        <ele>7.7</ele>
        <time>2025-09-14T23:23:42Z</time>
      </trkpt>
      <trkpt lat="39.164048799940645" lon="117.75813018302595">
        <ele>7.7</ele>
        <time>2025-09-14T23:23:44Z</time>
      </trkpt>
      <trkpt lat="39.16397986059491" lon="117.75816823065824">
        <ele>7.7</ele>
        <time>2025-09-14T23:23:46Z</time>
      </trkpt>
      <trkpt lat="39.16391292011702" lon="117.75820627810522">
        <ele>7.4</ele>
        <time>2025-09-14T23:23:48Z</time>
      </trkpt>
      <trkpt lat="39.163845979693455" lon="117.75824432562139">
        <ele>7.4</ele>
        <time>2025-09-14T23:23:50Z</time>
      </trkpt>
      <trkpt lat="39.163782038591755" lon="117.75828437488258">
        <ele>7.4</ele>
        <time>2025-09-14T23:23:52Z</time>
      </trkpt>
      <trkpt lat="39.16371709919392" lon="117.75832642640934">
        <ele>7.1</ele>
        <time>2025-09-14T23:23:54Z</time>
      </trkpt>
      <trkpt lat="39.16365216038879" lon="117.75836947905353">
        <ele>7.1</ele>
        <time>2025-09-14T23:23:56Z</time>
      </trkpt>
      <trkpt lat="39.1635862217175" lon="117.75841153087853">
        <ele>6.9</ele>
        <time>2025-09-14T23:23:58Z</time>
      </trkpt>
      <trkpt lat="39.163522282455126" lon="117.75845458357044">
        <ele>6.9</ele>
        <time>2025-09-14T23:24:00Z</time>
      </trkpt>
      <trkpt lat="39.16346034154301" lon="117.75849663505728">
        <ele>6.9</ele>
        <time>2025-09-14T23:24:02Z</time>
      </trkpt>
      <trkpt lat="39.16340139998217" lon="117.75854068832892">
        <ele>6.8</ele>
        <time>2025-09-14T23:24:04Z</time>
      </trkpt>
      <trkpt lat="39.16334245956254" lon="117.75858674377976">
        <ele>6.8</ele>
        <time>2025-09-14T23:24:06Z</time>
      </trkpt>
      <trkpt lat="39.16328651797693" lon="117.7586337999956">
        <ele>7.3</ele>
        <time>2025-09-14T23:24:08Z</time>
      </trkpt>
      <trkpt lat="39.16323257582379" lon="117.75868185711042">
        <ele>7.3</ele>
        <time>2025-09-14T23:24:10Z</time>
      </trkpt>
      <trkpt lat="39.163178634295384" lon="117.75873091538558">
        <ele>7.3</ele>
        <time>2025-09-14T23:24:12Z</time>
      </trkpt>
      <trkpt lat="39.163122693500625" lon="117.7587789729775">
        <ele>7.1</ele>
        <time>2025-09-14T23:24:14Z</time>
      </trkpt>
      <trkpt lat="39.16306375457154" lon="117.75882703106126">
        <ele>7.1</ele>
        <time>2025-09-14T23:24:16Z</time>
      </trkpt>
      <trkpt lat="39.16300481463689" lon="117.75887308714096">
        <ele>7.2</ele>
        <time>2025-09-14T23:24:18Z</time>
      </trkpt>
      <trkpt lat="39.16294587587404" lon="117.75892114544021">
        <ele>7.2</ele>
        <time>2025-09-14T23:24:20Z</time>
      </trkpt>
      <trkpt lat="39.162888937105954" lon="117.75897120571824">
        <ele>7.2</ele>
        <time>2025-09-14T23:24:22Z</time>
      </trkpt>
      <trkpt lat="39.16283299783594" lon="117.75902126598834">
        <ele>7.4</ele>
        <time>2025-09-14T23:24:24Z</time>
      </trkpt>
      <trkpt lat="39.16277805972108" lon="117.75907432945006">
        <ele>7.4</ele>
        <time>2025-09-14T23:24:26Z</time>
      </trkpt>
      <trkpt lat="39.1627241205609" lon="117.7591263918494">
        <ele>7.4</ele>
        <time>2025-09-14T23:24:28Z</time>
      </trkpt>
      <trkpt lat="39.162672181424576" lon="117.75918045626646">
        <ele>7.3</ele>
        <time>2025-09-14T23:24:30Z</time>
      </trkpt>
      <trkpt lat="39.162620240162084" lon="117.75923051652595">
        <ele>7.3</ele>
        <time>2025-09-14T23:24:32Z</time>
      </trkpt>
      <trkpt lat="39.1625682950726" lon="117.75927356937073">
        <ele>7.5</ele>
        <time>2025-09-14T23:24:34Z</time>
      </trkpt>
      <trkpt lat="39.1625133372536" lon="117.75929059466968">
        <ele>7.5</ele>
        <time>2025-09-14T23:24:36Z</time>
      </trkpt>
      <trkpt lat="39.162460359209604" lon="117.7592735831131">
        <ele>7.5</ele>
        <time>2025-09-14T23:24:38Z</time>
      </trkpt>
      <trkpt lat="39.162412359221435" lon="117.75922253440203">
        <ele>7.4</ele>
        <time>2025-09-14T23:24:40Z</time>
      </trkpt>
      <trkpt lat="39.16236834806174" lon="117.75915546817255">
        <ele>7.4</ele>
        <time>2025-09-14T23:24:42Z</time>
      </trkpt>
      <trkpt lat="39.162328330819534" lon="117.75908139417862">
        <ele>7.1</ele>
        <time>2025-09-14T23:24:44Z</time>
      </trkpt>
      <trkpt lat="39.16228531610792" lon="117.75900832189133">
        <ele>7.1</ele>
        <time>2025-09-14T23:24:46Z</time>
      </trkpt>
      <trkpt lat="39.16224129999443" lon="117.7589312457464">
        <ele>7.1</ele>
        <time>2025-09-14T23:24:48Z</time>
      </trkpt>
      <trkpt lat="39.162196283057035" lon="117.75885116684402">
        <ele>7.4</ele>
        <time>2025-09-14T23:24:50Z</time>
      </trkpt>
      <trkpt lat="39.1621502664048" lon="117.7587700873228">
        <ele>7.4</ele>
        <time>2025-09-14T23:24:52Z</time>
      </trkpt>
      <trkpt lat="39.16210325166227" lon="117.75869101033919">
        <ele>7.5</ele>
        <time>2025-09-14T23:24:54Z</time>
      </trkpt>
      <trkpt lat="39.16205424101404" lon="117.75861693913194">
        <ele>7.5</ele>
        <time>2025-09-14T23:24:56Z</time>
      </trkpt>
      <trkpt lat="39.162007229910486" lon="117.75854386897363">
        <ele>7.5</ele>
        <time>2025-09-14T23:24:58Z</time>
      </trkpt>
      <trkpt lat="39.16196121946839" lon="117.75847280101895">
        <ele>7.4</ele>
        <time>2025-09-14T23:25:00Z</time>
      </trkpt>
      <trkpt lat="39.16191520973825" lon="117.75840273434035">
        <ele>7.4</ele>
        <time>2025-09-14T23:25:02Z</time>
      </trkpt>
      <trkpt lat="39.161871201101334" lon="117.7583366717671">
        <ele>7</ele>
        <time>2025-09-14T23:25:04Z</time>
      </trkpt>
      <trkpt lat="39.16183219122296" lon="117.75827361185122">
        <ele>7</ele>
        <time>2025-09-14T23:25:06Z</time>
      </trkpt>
      <trkpt lat="39.16179318305308" lon="117.75821355520186">
        <ele>7</ele>
        <time>2025-09-14T23:25:08Z</time>
      </trkpt>
      <trkpt lat="39.16175517442054" lon="117.75815349859805">
        <ele>7.1</ele>
        <time>2025-09-14T23:25:10Z</time>
      </trkpt>
      <trkpt lat="39.161716167030605" lon="117.75809444331402">
        <ele>7.1</ele>
        <time>2025-09-14T23:25:12Z</time>
      </trkpt>
      <trkpt lat="39.16168115636165" lon="117.7580333856545">
        <ele>7.3</ele>
        <time>2025-09-14T23:25:14Z</time>
      </trkpt>
      <trkpt lat="39.16164614531615" lon="117.75797132715991">
        <ele>7.3</ele>
        <time>2025-09-14T23:25:16Z</time>
      </trkpt>
      <trkpt lat="39.161611133390764" lon="117.75790726682852">
        <ele>7.3</ele>
        <time>2025-09-14T23:25:18Z</time>
      </trkpt>
      <trkpt lat="39.16157312441343" lon="117.75784520909124">
        <ele>6.9</ele>
        <time>2025-09-14T23:25:20Z</time>
      </trkpt>
      <trkpt lat="39.16153511507114" lon="117.75778215053411">
        <ele>6.9</ele>
        <time>2025-09-14T23:25:22Z</time>
      </trkpt>
      <trkpt lat="39.16149810678983" lon="117.75772209504596">
        <ele>6.9</ele>
        <time>2025-09-14T23:25:24Z</time>
      </trkpt>
      <trkpt lat="39.16146909639256" lon="117.75766704370834">
        <ele>6.9</ele>
        <time>2025-09-14T23:25:26Z</time>
      </trkpt>
      <trkpt lat="39.16144508862985" lon="117.75762300284492">
        <ele>6.9</ele>
        <time>2025-09-14T23:25:28Z</time>
      </trkpt>
      <trkpt lat="39.16142308423442" lon="117.75758797077671">
        <ele>6.9</ele>
        <time>2025-09-14T23:25:30Z</time>
      </trkpt>
      <trkpt lat="39.16139808067243" lon="117.757550937162">
        <ele>6.9</ele>
        <time>2025-09-14T23:25:32Z</time>
      </trkpt>
      <trkpt lat="39.16137207577205" lon="117.75750989977358">
        <ele>7.1</ele>
        <time>2025-09-14T23:25:34Z</time>
      </trkpt>
      <trkpt lat="39.16134707083317" lon="117.75746986332861">
        <ele>7.1</ele>
        <time>2025-09-14T23:25:36Z</time>
      </trkpt>
      <trkpt lat="39.1613270654454" lon="117.7574348312639">
        <ele>7.1</ele>
        <time>2025-09-14T23:25:38Z</time>
      </trkpt>
      <trkpt lat="39.16130705715339" lon="117.75739379334115">
        <ele>6.4</ele>
        <time>2025-09-14T23:25:42Z</time>
      </trkpt>
      <trkpt lat="39.16129704150991" lon="117.75734975127486">
        <ele>6.9</ele>
        <time>2025-09-14T23:25:48Z</time>
      </trkpt>
      <trkpt lat="39.16129401884826" lon="117.7572997025212">
        <ele>7.2</ele>
        <time>2025-09-14T23:25:50Z</time>
      </trkpt>
      <trkpt lat="39.16128900281656" lon="117.75726066491555">
        <ele>6.4</ele>
        <time>2025-09-14T23:25:54Z</time>
      </trkpt>
      <trkpt lat="39.16181813750821" lon="117.75815449160353">
        <ele>7.5</ele>
        <time>2025-09-14T23:29:34Z</time>
      </trkpt>
      <trkpt lat="39.161781139273586" lon="117.75811545646708">
        <ele>7.1</ele>
        <time>2025-09-14T23:29:39Z</time>
      </trkpt>
      <trkpt lat="39.16176714603881" lon="117.75811245518669">
        <ele>7.1</ele>
        <time>2025-09-14T23:29:41Z</time>
      </trkpt>
      <trkpt lat="39.1617791575658" lon="117.75814849043176">
        <ele>7.4</ele>
        <time>2025-09-14T23:29:43Z</time>
      </trkpt>
      <trkpt lat="39.16180416037576" lon="117.75818252203675">
        <ele>7.4</ele>
        <time>2025-09-14T23:29:47Z</time>
      </trkpt>
      <trkpt lat="39.16183516279211" lon="117.75822255908801">
        <ele>7.4</ele>
        <time>2025-09-14T23:29:49Z</time>
      </trkpt>
      <trkpt lat="39.161875164628846" lon="117.75827160432277">
        <ele>7.4</ele>
        <time>2025-09-14T23:29:51Z</time>
      </trkpt>
      <trkpt lat="39.161920166734575" lon="117.75832665522073">
        <ele>7.7</ele>
        <time>2025-09-14T23:29:53Z</time>
      </trkpt>
      <trkpt lat="39.16196617046672" lon="117.75838571027091">
        <ele>7.7</ele>
        <time>2025-09-14T23:29:55Z</time>
      </trkpt>
      <trkpt lat="39.16200617736087" lon="117.75844376521502">
        <ele>7.7</ele>
        <time>2025-09-14T23:29:57Z</time>
      </trkpt>
      <trkpt lat="39.16204218834933" lon="117.75850482394735">
        <ele>7.5</ele>
        <time>2025-09-14T23:29:59Z</time>
      </trkpt>
      <trkpt lat="39.16208219869956" lon="117.75856888547608">
        <ele>7.5</ele>
        <time>2025-09-14T23:30:01Z</time>
      </trkpt>
      <trkpt lat="39.16212520795347" lon="117.75863394786481">
        <ele>7.7</ele>
        <time>2025-09-14T23:30:03Z</time>
      </trkpt>
      <trkpt lat="39.16217021779015" lon="117.75870201334754">
        <ele>7.7</ele>
        <time>2025-09-14T23:30:05Z</time>
      </trkpt>
      <trkpt lat="39.16221222957721" lon="117.75877007943335">
        <ele>7.7</ele>
        <time>2025-09-14T23:30:07Z</time>
      </trkpt>
      <trkpt lat="39.16225124440232" lon="117.75884014823285">
        <ele>7.8</ele>
        <time>2025-09-14T23:30:09Z</time>
      </trkpt>
      <trkpt lat="39.16229025940553" lon="117.75891021726665">
        <ele>7.8</ele>
        <time>2025-09-14T23:30:11Z</time>
      </trkpt>
      <trkpt lat="39.1623272746766" lon="117.75897828466503">
        <ele>7.8</ele>
        <time>2025-09-14T23:30:13Z</time>
      </trkpt>
      <trkpt lat="39.162365290624585" lon="117.75904835428773">
        <ele>7.6</ele>
        <time>2025-09-14T23:30:15Z</time>
      </trkpt>
      <trkpt lat="39.16240330619639" lon="117.75911742307574">
        <ele>7.6</ele>
        <time>2025-09-14T23:30:17Z</time>
      </trkpt>
      <trkpt lat="39.162445316227" lon="117.75918048515123">
        <ele>7.5</ele>
        <time>2025-09-14T23:30:19Z</time>
      </trkpt>
      <trkpt lat="39.162493312790275" lon="117.75922552731643">
        <ele>7.5</ele>
        <time>2025-09-14T23:30:21Z</time>
      </trkpt>
      <trkpt lat="39.16254928455689" lon="117.75923452985691">
        <ele>7.5</ele>
        <time>2025-09-14T23:30:23Z</time>
      </trkpt>
      <trkpt lat="39.16260523512838" lon="117.75920549159838">
        <ele>8.1</ele>
        <time>2025-09-14T23:30:25Z</time>
      </trkpt>
      <trkpt lat="39.1626591730269" lon="117.75915142686253">
        <ele>8.1</ele>
        <time>2025-09-14T23:30:27Z</time>
      </trkpt>
      <trkpt lat="39.162712107753684" lon="117.75909035492022">
        <ele>7.2</ele>
        <time>2025-09-14T23:30:29Z</time>
      </trkpt>
      <trkpt lat="39.16276704363224" lon="117.75903328715911">
        <ele>7.2</ele>
        <time>2025-09-14T23:30:31Z</time>
      </trkpt>
      <trkpt lat="39.16283496642375" lon="117.75896620728192">
        <ele>7.2</ele>
        <time>2025-09-14T23:30:33Z</time>
      </trkpt>
      <trkpt lat="39.1629038887859" lon="117.75889912749173">
        <ele>7.4</ele>
        <time>2025-09-14T23:30:36Z</time>
      </trkpt>
      <trkpt lat="39.16297581007518" lon="117.75883304858924">
        <ele>7.4</ele>
        <time>2025-09-14T23:30:38Z</time>
      </trkpt>
      <trkpt lat="39.1630417421267" lon="117.75877998433762">
        <ele>7.2</ele>
        <time>2025-09-14T23:30:40Z</time>
      </trkpt>
      <trkpt lat="39.16310867530796" lon="117.75872992324325">
        <ele>7.2</ele>
        <time>2025-09-14T23:30:42Z</time>
      </trkpt>
      <trkpt lat="39.163175607505345" lon="117.7586778601729">
        <ele>7.2</ele>
        <time>2025-09-14T23:30:44Z</time>
      </trkpt>
      <trkpt lat="39.16324653581981" lon="117.7586227935874">
        <ele>7.2</ele>
        <time>2025-09-14T23:30:46Z</time>
      </trkpt>
      <trkpt lat="39.163321461871874" lon="117.75856772663754">
        <ele>7.2</ele>
        <time>2025-09-14T23:30:48Z</time>
      </trkpt>
      <trkpt lat="39.16339838844549" lon="117.75851566269745">
        <ele>7.2</ele>
        <time>2025-09-14T23:30:50Z</time>
      </trkpt>
      <trkpt lat="39.16347331630659" lon="117.75846359914125">
        <ele>7.2</ele>
        <time>2025-09-14T23:30:52Z</time>
      </trkpt>
      <trkpt lat="39.163548244268135" lon="117.75841153571449">
        <ele>7.5</ele>
        <time>2025-09-14T23:30:54Z</time>
      </trkpt>
      <trkpt lat="39.16362217187051" lon="117.75835747047961">
        <ele>7.5</ele>
        <time>2025-09-14T23:30:56Z</time>
      </trkpt>
      <trkpt lat="39.163697100036785" lon="117.75830540731678">
        <ele>7.5</ele>
        <time>2025-09-14T23:30:58Z</time>
      </trkpt>
      <trkpt lat="39.163775028614694" lon="117.75825734801158">
        <ele>7.4</ele>
        <time>2025-09-14T23:31:00Z</time>
      </trkpt>
      <trkpt lat="39.16385395720663" lon="117.75821028971481">
        <ele>7.4</ele>
        <time>2025-09-14T23:31:02Z</time>
      </trkpt>
      <trkpt lat="39.163935885660045" lon="117.7581662342115">
        <ele>7.5</ele>
        <time>2025-09-14T23:31:04Z</time>
      </trkpt>
      <trkpt lat="39.16401681529782" lon="117.75812317994935">
        <ele>7.5</ele>
        <time>2025-09-14T23:31:06Z</time>
      </trkpt>
      <trkpt lat="39.16409474730163" lon="117.75808112717678">
        <ele>7.5</ele>
        <time>2025-09-14T23:31:08Z</time>
      </trkpt>
      <trkpt lat="39.164171679450384" lon="117.75803807359895">
        <ele>7.5</ele>
        <time>2025-09-14T23:31:10Z</time>
      </trkpt>
      <trkpt lat="39.164246610288956" lon="117.75799001528999">
        <ele>7.5</ele>
        <time>2025-09-14T23:31:12Z</time>
      </trkpt>
      <trkpt lat="39.16432154019098" lon="117.75793995506679">
        <ele>7.6</ele>
        <time>2025-09-14T23:31:14Z</time>
      </trkpt>
      <trkpt lat="39.16439647120542" lon="117.7578918969836">
        <ele>7.6</ele>
        <time>2025-09-14T23:31:16Z</time>
      </trkpt>
      <trkpt lat="39.16447040289915" lon="117.75784383913833">
        <ele>7.6</ele>
        <time>2025-09-14T23:31:18Z</time>
      </trkpt>
      <trkpt lat="39.16454333679051" lon="117.75779878454752">
        <ele>7.7</ele>
        <time>2025-09-14T23:31:20Z</time>
      </trkpt>
      <trkpt lat="39.16461227413907" lon="117.75775573257002">
        <ele>7.7</ele>
        <time>2025-09-14T23:31:22Z</time>
      </trkpt>
      <trkpt lat="39.16467721644466" lon="117.7577176861983">
        <ele>7.5</ele>
        <time>2025-09-14T23:31:24Z</time>
      </trkpt>
      <trkpt lat="39.16473216523613" lon="117.75768064216865">
        <ele>7.5</ele>
        <time>2025-09-14T23:31:26Z</time>
      </trkpt>
      <trkpt lat="39.16478411685875" lon="117.757645600583">
        <ele>7.5</ele>
        <time>2025-09-14T23:31:28Z</time>
      </trkpt>
      <trkpt lat="39.164840066654804" lon="117.7576115595437">
        <ele>7.5</ele>
        <time>2025-09-14T23:31:30Z</time>
      </trkpt>
      <trkpt lat="39.16490600857314" lon="117.75757351330778">
        <ele>7.5</ele>
        <time>2025-09-14T23:31:32Z</time>
      </trkpt>
      <trkpt lat="39.16497394638129" lon="117.75752946093006">
        <ele>7.4</ele>
        <time>2025-09-14T23:31:34Z</time>
      </trkpt>
      <trkpt lat="39.16504088139233" lon="117.75747840184033">
        <ele>7.4</ele>
        <time>2025-09-14T23:31:36Z</time>
      </trkpt>
      <trkpt lat="39.16510781452986" lon="117.75742333892532">
        <ele>7.4</ele>
        <time>2025-09-14T23:31:38Z</time>
      </trkpt>
      <trkpt lat="39.165178744427664" lon="117.75736627367718">
        <ele>7.3</ele>
        <time>2025-09-14T23:31:40Z</time>
      </trkpt>
      <trkpt lat="39.16525067336515" lon="117.75730820747627">
        <ele>7.3</ele>
        <time>2025-09-14T23:31:42Z</time>
      </trkpt>
      <trkpt lat="39.16532359940452" lon="117.75724513641482">
        <ele>7.3</ele>
        <time>2025-09-14T23:31:44Z</time>
      </trkpt>
      <trkpt lat="39.165393527853" lon="117.75718306690251">
        <ele>7.3</ele>
        <time>2025-09-14T23:31:46Z</time>
      </trkpt>
      <trkpt lat="39.16546245848131" lon="117.757124000622">
        <ele>7.3</ele>
        <time>2025-09-14T23:31:48Z</time>
      </trkpt>
      <trkpt lat="39.16553039174952" lon="117.75706893851813">
        <ele>7.2</ele>
        <time>2025-09-14T23:31:50Z</time>
      </trkpt>
      <trkpt lat="39.16559832369785" lon="117.75701087365705">
        <ele>7.2</ele>
        <time>2025-09-14T23:31:52Z</time>
      </trkpt>
      <trkpt lat="39.165666251494855" lon="117.75694380027662">
        <ele>7.5</ele>
        <time>2025-09-14T23:31:54Z</time>
      </trkpt>
      <trkpt lat="39.16573517744817" lon="117.75687372410233">
        <ele>7.5</ele>
        <time>2025-09-14T23:31:56Z</time>
      </trkpt>
      <trkpt lat="39.16580410358295" lon="117.75680364816478">
        <ele>7.5</ele>
        <time>2025-09-14T23:31:58Z</time>
      </trkpt>
      <trkpt lat="39.16587103342119" lon="117.7567385774906">
        <ele>7.6</ele>
        <time>2025-09-14T23:32:00Z</time>
      </trkpt>
      <trkpt lat="39.165938962823695" lon="117.75667350689335">
        <ele>7.6</ele>
        <time>2025-09-14T23:32:02Z</time>
      </trkpt>
      <trkpt lat="39.16600489403068" lon="117.75660943770329">
        <ele>7.5</ele>
        <time>2025-09-14T23:32:04Z</time>
      </trkpt>
      <trkpt lat="39.16607082631058" lon="117.75654737060182">
        <ele>7.5</ele>
        <time>2025-09-14T23:32:06Z</time>
      </trkpt>
      <trkpt lat="39.16613475945996" lon="117.75648430299873">
        <ele>7.5</ele>
        <time>2025-09-14T23:32:08Z</time>
      </trkpt>
      <trkpt lat="39.16619969079699" lon="117.75641823264318">
        <ele>7.2</ele>
        <time>2025-09-14T23:32:10Z</time>
      </trkpt>
      <trkpt lat="39.1662636215283" lon="117.75634915981864">
        <ele>7.2</ele>
        <time>2025-09-14T23:32:12Z</time>
      </trkpt>
      <trkpt lat="39.16632655212726" lon="117.75627808548747">
        <ele>7.2</ele>
        <time>2025-09-14T23:32:14Z</time>
      </trkpt>
      <trkpt lat="39.16638548528226" lon="117.75620701190982">
        <ele>7.3</ele>
        <time>2025-09-14T23:32:16Z</time>
      </trkpt>
      <trkpt lat="39.166439421139984" lon="117.75613493828781">
        <ele>7.3</ele>
        <time>2025-09-14T23:32:18Z</time>
      </trkpt>
      <trkpt lat="39.16649036029452" lon="117.7560658680648">
        <ele>7.4</ele>
        <time>2025-09-14T23:32:20Z</time>
      </trkpt>
      <trkpt lat="39.16654530077962" lon="117.75600480491396">
        <ele>7.4</ele>
        <time>2025-09-14T23:32:22Z</time>
      </trkpt>
      <trkpt lat="39.16659724800309" lon="117.75595475240492">
        <ele>7.4</ele>
        <time>2025-09-14T23:32:24Z</time>
      </trkpt>
      <trkpt lat="39.16664420221394" lon="117.75591370888296">
        <ele>7.3</ele>
        <time>2025-09-14T23:32:26Z</time>
      </trkpt>
      <trkpt lat="39.16667816549295" lon="117.75587566983563">
        <ele>7.3</ele>
        <time>2025-09-14T23:32:28Z</time>
      </trkpt>
      <trkpt lat="39.16671112941777" lon="117.75583763098572">
        <ele>7.3</ele>
        <time>2025-09-14T23:32:30Z</time>
      </trkpt>
      <trkpt lat="39.16674109907117" lon="117.75580860077119">
        <ele>7.3</ele>
        <time>2025-09-14T23:32:32Z</time>
      </trkpt>
      <trkpt lat="39.16678107538587" lon="117.7558085956787">
        <ele>8.2</ele>
        <time>2025-09-14T23:32:40Z</time>
      </trkpt>
      <trkpt lat="39.166822064994705" lon="117.75584061958695">
        <ele>8.2</ele>
        <time>2025-09-14T23:32:44Z</time>
      </trkpt>
      <trkpt lat="39.16686706186773" lon="117.7558946631244">
        <ele>8.4</ele>
        <time>2025-09-14T23:32:46Z</time>
      </trkpt>
      <trkpt lat="39.166905063870495" lon="117.75595070952737">
        <ele>8.4</ele>
        <time>2025-09-14T23:32:48Z</time>
      </trkpt>
      <trkpt lat="39.166942067903385" lon="117.75600975896751">
        <ele>8.8</ele>
        <time>2025-09-14T23:32:50Z</time>
      </trkpt>
      <trkpt lat="39.16697207753813" lon="117.75607181223444">
        <ele>8.8</ele>
        <time>2025-09-14T23:32:52Z</time>
      </trkpt>
      <trkpt lat="39.167001089688156" lon="117.75613786951672">
        <ele>8.8</ele>
        <time>2025-09-14T23:32:54Z</time>
      </trkpt>
      <trkpt lat="39.16703210215845" lon="117.75620692954199">
        <ele>7.7</ele>
        <time>2025-09-14T23:32:56Z</time>
      </trkpt>
      <trkpt lat="39.16707011246249" lon="117.75627999263608">
        <ele>7.7</ele>
        <time>2025-09-14T23:32:58Z</time>
      </trkpt>
      <trkpt lat="39.16711012313917" lon="117.7563560585419">
        <ele>7.4</ele>
        <time>2025-09-14T23:33:00Z</time>
      </trkpt>
      <trkpt lat="39.16714913507692" lon="117.7564331257948">
        <ele>7.4</ele>
        <time>2025-09-14T23:33:02Z</time>
      </trkpt>
      <trkpt lat="39.167187148284086" lon="117.75651119440583">
        <ele>7.4</ele>
        <time>2025-09-14T23:33:04Z</time>
      </trkpt>
      <trkpt lat="39.16722716145537" lon="117.75659126495175">
        <ele>7.2</ele>
        <time>2025-09-14T23:33:06Z</time>
      </trkpt>
      <trkpt lat="39.16727017122658" lon="117.7566673316209">
        <ele>7.2</ele>
        <time>2025-09-14T23:33:08Z</time>
      </trkpt>
      <trkpt lat="39.16731517909134" lon="117.7567413964056">
        <ele>7.4</ele>
        <time>2025-09-14T23:33:10Z</time>
      </trkpt>
      <trkpt lat="39.16736018621715" lon="117.75681345953886">
        <ele>7.4</ele>
        <time>2025-09-14T23:33:12Z</time>
      </trkpt>
      <trkpt lat="39.1674061934148" lon="117.75688652375725">
        <ele>7.4</ele>
        <time>2025-09-14T23:33:14Z</time>
      </trkpt>
      <trkpt lat="39.16745320164356" lon="117.75696259100187">
        <ele>7.5</ele>
        <time>2025-09-14T23:33:16Z</time>
      </trkpt>
      <trkpt lat="39.16750120901446" lon="117.75703765742936">
        <ele>7.5</ele>
        <time>2025-09-14T23:33:18Z</time>
      </trkpt>
      <trkpt lat="39.16754921611105" lon="117.75711172315604">
        <ele>7.2</ele>
        <time>2025-09-14T23:33:20Z</time>
      </trkpt>
      <trkpt lat="39.16759722099019" lon="117.75718078426713">
        <ele>7.2</ele>
        <time>2025-09-14T23:33:22Z</time>
      </trkpt>
      <trkpt lat="39.16764422663617" lon="117.75724984573537">
        <ele>7.2</ele>
        <time>2025-09-14T23:33:24Z</time>
      </trkpt>
      <trkpt lat="39.167689234618116" lon="117.75732090965319">
        <ele>7.5</ele>
        <time>2025-09-14T23:33:26Z</time>
      </trkpt>
      <trkpt lat="39.16773424327652" lon="117.7573929748003">
        <ele>7.5</ele>
        <time>2025-09-14T23:33:28Z</time>
      </trkpt>
      <trkpt lat="39.167779252125136" lon="117.75746504019737">
        <ele>7.9</ele>
        <time>2025-09-14T23:33:30Z</time>
      </trkpt>
      <trkpt lat="39.16782626047719" lon="117.75753810658283">
        <ele>7.9</ele>
        <time>2025-09-14T23:33:32Z</time>
      </trkpt>
      <trkpt lat="39.167872270115744" lon="117.757612174349">
        <ele>7.9</ele>
        <time>2025-09-14T23:33:34Z</time>
      </trkpt>
      <trkpt lat="39.16792027776753" lon="117.75768424012396">
        <ele>7.8</ele>
        <time>2025-09-14T23:33:36Z</time>
      </trkpt>
      <trkpt lat="39.1679692850177" lon="117.75775630602122">
        <ele>7.8</ele>
        <time>2025-09-14T23:33:38Z</time>
      </trkpt>
      <trkpt lat="39.168016291612254" lon="117.75782436839467">
        <ele>8.8</ele>
        <time>2025-09-14T23:33:40Z</time>
      </trkpt>
      <trkpt lat="39.16806229896783" lon="117.75789243111788">
        <ele>8.8</ele>
        <time>2025-09-14T23:33:42Z</time>
      </trkpt>
      <trkpt lat="39.16810530775539" lon="117.75795949343193">
        <ele>8.8</ele>
        <time>2025-09-14T23:33:44Z</time>
      </trkpt>
      <trkpt lat="39.168149318173874" lon="117.75803055990121">
        <ele>7.7</ele>
        <time>2025-09-14T23:33:46Z</time>
      </trkpt>
      <trkpt lat="39.168193329811174" lon="117.7581036286532">
        <ele>7.7</ele>
        <time>2025-09-14T23:33:48Z</time>
      </trkpt>
      <trkpt lat="39.168238341051634" lon="117.75817669753386">
        <ele>7.7</ele>
        <time>2025-09-14T23:33:50Z</time>
      </trkpt>
      <trkpt lat="39.1682833509191" lon="117.75824676358869">
        <ele>7.7</ele>
        <time>2025-09-14T23:33:52Z</time>
      </trkpt>
      <trkpt lat="39.16832935984902" lon="117.75831582872094">
        <ele>7.7</ele>
        <time>2025-09-14T23:33:54Z</time>
      </trkpt>
      <trkpt lat="39.16837636941646" lon="117.7583868960219">
        <ele>8.1</ele>
        <time>2025-09-14T23:33:56Z</time>
      </trkpt>
      <trkpt lat="39.16842337969809" lon="117.7584589646019">
        <ele>8.1</ele>
        <time>2025-09-14T23:33:58Z</time>
      </trkpt>
      <trkpt lat="39.16847138904465" lon="117.75853003226236">
        <ele>7.6</ele>
        <time>2025-09-14T23:34:00Z</time>
      </trkpt>
      <trkpt lat="39.16851839863118" lon="117.75860009924753">
        <ele>7.6</ele>
        <time>2025-09-14T23:34:02Z</time>
      </trkpt>
      <trkpt lat="39.168566407804995" lon="117.75867016634011">
        <ele>7.6</ele>
        <time>2025-09-14T23:34:04Z</time>
      </trkpt>
      <trkpt lat="39.16861141839118" lon="117.75873923299837">
        <ele>7.6</ele>
        <time>2025-09-14T23:34:06Z</time>
      </trkpt>
      <trkpt lat="39.16865742910229" lon="117.75880930081121">
        <ele>7.6</ele>
        <time>2025-09-14T23:34:08Z</time>
      </trkpt>
      <trkpt lat="39.16870344053726" lon="117.75888036991589">
        <ele>7.5</ele>
        <time>2025-09-14T23:34:10Z</time>
      </trkpt>
      <trkpt lat="39.16875145206917" lon="117.75895344112884">
        <ele>7.5</ele>
        <time>2025-09-14T23:34:12Z</time>
      </trkpt>
      <trkpt lat="39.16879746497752" lon="117.75902651285104">
        <ele>7.5</ele>
        <time>2025-09-14T23:34:14Z</time>
      </trkpt>
      <trkpt lat="39.168842477564134" lon="117.7590975828193">
        <ele>8.5</ele>
        <time>2025-09-14T23:34:16Z</time>
      </trkpt>
      <trkpt lat="39.16888649092515" lon="117.75916865315556">
        <ele>8.5</ele>
        <time>2025-09-14T23:34:18Z</time>
      </trkpt>
      <trkpt lat="39.168931503877964" lon="117.75923972360513">
        <ele>8.5</ele>
        <time>2025-09-14T23:34:20Z</time>
      </trkpt>
      <trkpt lat="39.16897751810575" lon="117.75931379740211">
        <ele>8.7</ele>
        <time>2025-09-14T23:34:22Z</time>
      </trkpt>
      <trkpt lat="39.169026530758615" lon="117.75938787107837">
        <ele>8.7</ele>
        <time>2025-09-14T23:34:24Z</time>
      </trkpt>
      <trkpt lat="39.1690745447678" lon="117.75946294622814">
        <ele>8.3</ele>
        <time>2025-09-14T23:34:26Z</time>
      </trkpt>
      <trkpt lat="39.16912355554418" lon="117.75953301607514">
        <ele>8.3</ele>
        <time>2025-09-14T23:34:28Z</time>
      </trkpt>
      <trkpt lat="39.169171564803506" lon="117.7595990819155">
        <ele>8.3</ele>
        <time>2025-09-14T23:34:30Z</time>
      </trkpt>
      <trkpt lat="39.16921957020522" lon="117.75965814030037">
        <ele>8.1</ele>
        <time>2025-09-14T23:34:32Z</time>
      </trkpt>
      <trkpt lat="39.16926257868881" lon="117.75971719948726">
        <ele>8.1</ele>
        <time>2025-09-14T23:34:34Z</time>
      </trkpt>
      <trkpt lat="39.16929959200067" lon="117.75977826180375">
        <ele>8.2</ele>
        <time>2025-09-14T23:34:36Z</time>
      </trkpt>
      <trkpt lat="39.16933060841343" lon="117.75983832395768">
        <ele>8.2</ele>
        <time>2025-09-14T23:34:38Z</time>
      </trkpt>
      <trkpt lat="39.169363623191906" lon="117.75989738492223">
        <ele>8.2</ele>
        <time>2025-09-14T23:34:40Z</time>
      </trkpt>
      <trkpt lat="39.16940063573193" lon="117.75995644554307">
        <ele>8.6</ele>
        <time>2025-09-14T23:34:42Z</time>
      </trkpt>
      <trkpt lat="39.16944165013919" lon="117.76002251360171">
        <ele>8.6</ele>
        <time>2025-09-14T23:34:44Z</time>
      </trkpt>
      <trkpt lat="39.16948366705821" lon="117.7600935873152">
        <ele>8.6</ele>
        <time>2025-09-14T23:34:46Z</time>
      </trkpt>
      <trkpt lat="39.16952668475165" lon="117.76016666337782">
        <ele>8.6</ele>
        <time>2025-09-14T23:34:48Z</time>
      </trkpt>
      <trkpt lat="39.16957070145188" lon="117.76023873844379">
        <ele>8.6</ele>
        <time>2025-09-14T23:34:50Z</time>
      </trkpt>
      <trkpt lat="39.16961372131814" lon="117.76031481838503">
        <ele>8.5</ele>
        <time>2025-09-14T23:34:52Z</time>
      </trkpt>
      <trkpt lat="39.16965674439208" lon="117.76039590424685">
        <ele>8.5</ele>
        <time>2025-09-14T23:34:54Z</time>
      </trkpt>
      <trkpt lat="39.169700766508235" lon="117.76047598915873">
        <ele>8.5</ele>
        <time>2025-09-14T23:34:56Z</time>
      </trkpt>
      <trkpt lat="39.16974878588526" lon="117.76055507272739">
        <ele>8.5</ele>
        <time>2025-09-14T23:34:58Z</time>
      </trkpt>
      <trkpt lat="39.16980079886434" lon="117.76062714809801">
        <ele>8.5</ele>
        <time>2025-09-14T23:35:00Z</time>
      </trkpt>
      <trkpt lat="39.169853812050185" lon="117.76070022473031">
        <ele>9</ele>
        <time>2025-09-14T23:35:02Z</time>
      </trkpt>
      <trkpt lat="39.169905824791755" lon="117.76077129944717">
        <ele>9</ele>
        <time>2025-09-14T23:35:04Z</time>
      </trkpt>
      <trkpt lat="39.16995483887117" lon="117.76084137363333">
        <ele>8.9</ele>
        <time>2025-09-14T23:35:06Z</time>
      </trkpt>
      <trkpt lat="39.169999856108376" lon="117.76091244971374">
        <ele>8.9</ele>
        <time>2025-09-14T23:35:08Z</time>
      </trkpt>
      <trkpt lat="39.17004187654098" lon="117.76098552872836">
        <ele>8.9</ele>
        <time>2025-09-14T23:35:10Z</time>
      </trkpt>
      <trkpt lat="39.17008489844515" lon="117.76106161134956">
        <ele>8.9</ele>
        <time>2025-09-14T23:35:12Z</time>
      </trkpt>
      <trkpt lat="39.170128919339014" lon="117.76113669295128">
        <ele>8.9</ele>
        <time>2025-09-14T23:35:14Z</time>
      </trkpt>
      <trkpt lat="39.170172940434355" lon="117.76121177481801">
        <ele>9.4</ele>
        <time>2025-09-14T23:35:16Z</time>
      </trkpt>
      <trkpt lat="39.17021496164883" lon="117.76128485486116">
        <ele>9.4</ele>
        <time>2025-09-14T23:35:18Z</time>
      </trkpt>
      <trkpt lat="39.170256983053946" lon="117.7613579351551">
        <ele>9.4</ele>
        <time>2025-09-14T23:35:20Z</time>
      </trkpt>
      <trkpt lat="39.17029700646789" lon="117.7614320171325">
        <ele>9.2</ele>
        <time>2025-09-14T23:35:22Z</time>
      </trkpt>
      <trkpt lat="39.17033603194743" lon="117.76150810185831">
        <ele>9.2</ele>
        <time>2025-09-14T23:35:24Z</time>
      </trkpt>
      <trkpt lat="39.170372058120215" lon="117.7615821848664">
        <ele>8.5</ele>
        <time>2025-09-14T23:35:26Z</time>
      </trkpt>
      <trkpt lat="39.170408085133246" lon="117.76165726932052">
        <ele>8.5</ele>
        <time>2025-09-14T23:35:28Z</time>
      </trkpt>
      <trkpt lat="39.17044211288027" lon="117.76173135310073">
        <ele>8.5</ele>
        <time>2025-09-14T23:35:30Z</time>
      </trkpt>
      <trkpt lat="39.17047714088196" lon="117.7618064382064">
        <ele>9.8</ele>
        <time>2025-09-14T23:35:32Z</time>
      </trkpt>
      <trkpt lat="39.17051017026497" lon="117.76188152383031">
        <ele>9.8</ele>
        <time>2025-09-14T23:35:34Z</time>
      </trkpt>
      <trkpt lat="39.17054419794629" lon="117.76195460718476">
        <ele>9.6</ele>
        <time>2025-09-14T23:35:36Z</time>
      </trkpt>
      <trkpt lat="39.17057722574947" lon="117.76202668970983">
        <ele>9.6</ele>
        <time>2025-09-14T23:35:38Z</time>
      </trkpt>
      <trkpt lat="39.170605254047146" lon="117.7620947682759">
        <ele>9.6</ele>
        <time>2025-09-14T23:35:40Z</time>
      </trkpt>
      <trkpt lat="39.17063028096636" lon="117.76215784137787">
        <ele>9.1</ele>
        <time>2025-09-14T23:35:42Z</time>
      </trkpt>
      <trkpt lat="39.170656305441085" lon="117.76221791089257">
        <ele>9.1</ele>
        <time>2025-09-14T23:35:44Z</time>
      </trkpt>
      <trkpt lat="39.170687329092125" lon="117.7622809835933">
        <ele>9.9</ele>
        <time>2025-09-14T23:35:46Z</time>
      </trkpt>
      <trkpt lat="39.17071835623099" lon="117.76234906258506">
        <ele>9.9</ele>
        <time>2025-09-14T23:35:48Z</time>
      </trkpt>
      <trkpt lat="39.17074838950053" lon="117.76242515171677">
        <ele>9.9</ele>
        <time>2025-09-14T23:35:50Z</time>
      </trkpt>
      <trkpt lat="39.170777425589726" lon="117.76250424493044">
        <ele>9.8</ele>
        <time>2025-09-14T23:35:52Z</time>
      </trkpt>
      <trkpt lat="39.17080446308053" lon="117.76258333868964">
        <ele>9.8</ele>
        <time>2025-09-14T23:35:54Z</time>
      </trkpt>
      <trkpt lat="39.17083249884041" lon="117.76266043014087">
        <ele>9.6</ele>
        <time>2025-09-14T23:35:56Z</time>
      </trkpt>
      <trkpt lat="39.1708615294378" lon="117.7627305130669">
        <ele>9.6</ele>
        <time>2025-09-14T23:35:58Z</time>
      </trkpt>
      <trkpt lat="39.17089855000282" lon="117.76279258526657">
        <ele>9.6</ele>
        <time>2025-09-14T23:36:00Z</time>
      </trkpt>
      <trkpt lat="39.1709365659902" lon="117.7628486500501">
        <ele>9.4</ele>
        <time>2025-09-14T23:36:02Z</time>
      </trkpt>
      <trkpt lat="39.170979581204136" lon="117.76290771808486">
        <ele>9.4</ele>
        <time>2025-09-14T23:36:04Z</time>
      </trkpt>
      <trkpt lat="39.17101760087573" lon="117.76296878941767">
        <ele>10.2</ele>
        <time>2025-09-14T23:36:06Z</time>
      </trkpt>
      <trkpt lat="39.17105661592829" lon="117.7630238532796">
        <ele>10.2</ele>
        <time>2025-09-14T23:36:08Z</time>
      </trkpt>
      <trkpt lat="39.17109261965651" lon="117.76305989382377">
        <ele>10.2</ele>
        <time>2025-09-14T23:36:10Z</time>
      </trkpt>
      <trkpt lat="39.17113360587544" lon="117.76307490742686">
        <ele>9.9</ele>
        <time>2025-09-14T23:36:12Z</time>
      </trkpt>
      <trkpt lat="39.171172576599766" lon="117.76306589117169">
        <ele>9.9</ele>
        <time>2025-09-14T23:36:14Z</time>
      </trkpt>
      <trkpt lat="39.17120654056052" lon="117.76304285800275">
        <ele>10.1</ele>
        <time>2025-09-14T23:36:16Z</time>
      </trkpt>
      <trkpt lat="39.17123650412921" lon="117.76301582035788">
        <ele>10.1</ele>
        <time>2025-09-14T23:36:18Z</time>
      </trkpt>
      <trkpt lat="39.171264468904425" lon="117.7629887830013">
        <ele>10.1</ele>
        <time>2025-09-14T23:36:20Z</time>
      </trkpt>
      <trkpt lat="39.17129342896955" lon="117.76295573805366">
        <ele>10.3</ele>
        <time>2025-09-14T23:36:22Z</time>
      </trkpt>
      <trkpt lat="39.171320384047846" lon="117.76291368218152">
        <ele>10.3</ele>
        <time>2025-09-14T23:36:24Z</time>
      </trkpt>
      <trkpt lat="39.171353332895904" lon="117.76286762064599">
        <ele>10.3</ele>
        <time>2025-09-14T23:36:26Z</time>
      </trkpt>
      <trkpt lat="39.171396281407304" lon="117.76282956788383">
        <ele>10.7</ele>
        <time>2025-09-14T23:36:28Z</time>
      </trkpt>
      <trkpt lat="39.17144423044539" lon="117.76279652076235">
        <ele>10.7</ele>
        <time>2025-09-14T23:36:30Z</time>
      </trkpt>
      <trkpt lat="39.17147218858982" lon="117.76275947127448">
        <ele>9.7</ele>
        <time>2025-09-14T23:36:32Z</time>
      </trkpt>
      <trkpt lat="39.171474154619695" lon="117.76271141153636">
        <ele>9.7</ele>
        <time>2025-09-14T23:36:34Z</time>
      </trkpt>
      <trkpt lat="39.171469125542515" lon="117.76266435403208">
        <ele>9.7</ele>
        <time>2025-09-14T23:36:36Z</time>
      </trkpt>
      <trkpt lat="39.17148108990576" lon="117.76262230063688">
        <ele>9.8</ele>
        <time>2025-09-14T23:36:38Z</time>
      </trkpt>
      <trkpt lat="39.17151404193819" lon="117.76258024465172">
        <ele>9.8</ele>
        <time>2025-09-14T23:36:40Z</time>
      </trkpt>
      <trkpt lat="39.17154998820654" lon="117.76253218098738">
        <ele>9.9</ele>
        <time>2025-09-14T23:36:42Z</time>
      </trkpt>
      <trkpt lat="39.17158593657975" lon="117.76248712111324">
        <ele>9.9</ele>
        <time>2025-09-14T23:36:44Z</time>
      </trkpt>
      <trkpt lat="39.17162390943606" lon="117.76248010768519">
        <ele>9.9</ele>
        <time>2025-09-14T23:36:46Z</time>
      </trkpt>
      <trkpt lat="39.171661907927536" lon="117.7625111409206">
        <ele>10</ele>
        <time>2025-09-14T23:36:48Z</time>
      </trkpt>
      <trkpt lat="39.171700927523595" lon="117.76257421346568">
        <ele>10</ele>
        <time>2025-09-14T23:36:50Z</time>
      </trkpt>
      <trkpt lat="39.171754938409705" lon="117.76263728428715">
        <ele>10.8</ele>
        <time>2025-09-14T23:36:52Z</time>
      </trkpt>
      <trkpt lat="39.17181494044299" lon="117.76269234463062">
        <ele>10.8</ele>
        <time>2025-09-14T23:36:54Z</time>
      </trkpt>
      <trkpt lat="39.17186694183717" lon="117.762739396216">
        <ele>10.8</ele>
        <time>2025-09-14T23:36:56Z</time>
      </trkpt>
      <trkpt lat="39.1719009443445" lon="117.76277243281646">
        <ele>10.7</ele>
        <time>2025-09-14T23:36:58Z</time>
      </trkpt>
      <trkpt lat="39.17193093828566" lon="117.76278945010242">
        <ele>10.7</ele>
        <time>2025-09-14T23:37:00Z</time>
      </trkpt>
      <trkpt lat="39.17196692184323" lon="117.76279645421516">
        <ele>10.2</ele>
        <time>2025-09-14T23:37:02Z</time>
      </trkpt>
      <trkpt lat="39.171998903650355" lon="117.76279745138551">
        <ele>10.2</ele>
        <time>2025-09-14T23:37:04Z</time>
      </trkpt>
    </trkseg>
  </trk>
</gpx>