<?xml version="1.0" encoding="UTF-8"?>
<gpx xmlns="http://www.topografix.com/GPX/1/1" xmlns:gpxtpx="http://www.garmin.com/xmlschemas/TrackPointExtension/v1" xmlns:xsi="http://www.w3.org/2001/XMLSchema-instance" xsi:schemaLocation="http://www.topografix.com/GPX/1/1 http://www.topografix.com/GPX/1/1/gpx.xsd" version="1.1" creator="gpx.py -- https://github.com/tkrajina/gpxpy">
  <trk>
    <name>gpx from codoon</name>
    <type>Run</type>
    <trkseg>
      <trkpt lat="39.17175474279109" lon="117.76234692818858">
        <ele>-5.5</ele>
        <time>2025-09-16T09:17:01Z</time>
      </trkpt>
      <trkpt lat="39.171716815519176" lon="117.76242202474243">
        <ele>-5.5</ele>
        <time>2025-09-16T09:17:02Z</time>
      </trkpt>
      <trkpt lat="39.17166987757409" lon="117.76247309324145">
        <ele>-5.8</ele>
        <time>2025-09-16T09:17:03Z</time>
      </trkpt>
      <trkpt lat="39.171619939465224" lon="117.76252115855536">
        <ele>-5.6</ele>
        <time>2025-09-16T09:17:08Z</time>
      </trkpt>
      <trkpt lat="39.17157299019014" lon="117.76255520635821">
        <ele>-5.6</ele>
        <time>2025-09-16T09:17:10Z</time>
      </trkpt>
      <trkpt lat="39.17152404824028" lon="117.76259826556328">
        <ele>-5.6</ele>
        <time>2025-09-16T09:17:12Z</time>
      </trkpt>
      <trkpt lat="39.171486097145994" lon="117.76263731851563">
        <ele>-5.4</ele>
        <time>2025-09-16T09:17:14Z</time>
      </trkpt>
      <trkpt lat="39.17147013652796" lon="117.76268137492251">
        <ele>-5.4</ele>
        <time>2025-09-16T09:17:16Z</time>
      </trkpt>
      <trkpt lat="39.171472169452564" lon="117.76273143656266">
        <ele>-5.4</ele>
        <time>2025-09-16T09:17:18Z</time>
      </trkpt>
      <trkpt lat="39.17146020319755" lon="117.76277048644813">
        <ele>-5.4</ele>
        <time>2025-09-16T09:17:20Z</time>
      </trkpt>
      <trkpt lat="39.17142125430251" lon="117.76281154232531">
        <ele>-5.4</ele>
        <time>2025-09-16T09:17:22Z</time>
      </trkpt>
      <trkpt lat="39.17137031942394" lon="117.76286261225663">
        <ele>-5.2</ele>
        <time>2025-09-16T09:17:24Z</time>
      </trkpt>
      <trkpt lat="39.171307400685876" lon="117.76292670005726">
        <ele>-5.2</ele>
        <time>2025-09-16T09:17:26Z</time>
      </trkpt>
      <trkpt lat="39.17124447240771" lon="117.76297677053734">
        <ele>-5.8</ele>
        <time>2025-09-16T09:17:28Z</time>
      </trkpt>
      <trkpt lat="39.17117554568097" lon="117.76302383813872">
        <ele>-5.8</ele>
        <time>2025-09-16T09:17:30Z</time>
      </trkpt>
      <trkpt lat="39.171107615664255" lon="117.76306690069647">
        <ele>-5.8</ele>
        <time>2025-09-16T09:17:32Z</time>
      </trkpt>
      <trkpt lat="39.17103966762301" lon="117.76308393068359">
        <ele>-6.8</ele>
        <time>2025-09-16T09:17:34Z</time>
      </trkpt>
      <trkpt lat="39.1709776785207" lon="117.76304689215368">
        <ele>-6.8</ele>
        <time>2025-09-16T09:17:36Z</time>
      </trkpt>
      <trkpt lat="39.17092564620599" lon="117.76295578487628">
        <ele>-6.7</ele>
        <time>2025-09-16T09:17:38Z</time>
      </trkpt>
      <trkpt lat="39.170881596401145" lon="117.76284565331484">
        <ele>-6.7</ele>
        <time>2025-09-16T09:17:40Z</time>
      </trkpt>
      <trkpt lat="39.170839539012896" lon="117.7627255096717">
        <ele>-6.7</ele>
        <time>2025-09-16T09:17:42Z</time>
      </trkpt>
      <trkpt lat="39.170796485437826" lon="117.7626093717593">
        <ele>-6.8</ele>
        <time>2025-09-16T09:17:44Z</time>
      </trkpt>
      <trkpt lat="39.1707534336875" lon="117.76249523692987">
        <ele>-6.8</ele>
        <time>2025-09-16T09:17:46Z</time>
      </trkpt>
      <trkpt lat="39.17071138448916" lon="117.76238510747062">
        <ele>-6.8</ele>
        <time>2025-09-16T09:17:48Z</time>
      </trkpt>
      <trkpt lat="39.170667338234026" lon="117.76227698126631">
        <ele>-6.8</ele>
        <time>2025-09-16T09:17:50Z</time>
      </trkpt>
      <trkpt lat="39.170621293573326" lon="117.76216885586138">
        <ele>-6.8</ele>
        <time>2025-09-16T09:17:52Z</time>
      </trkpt>
      <trkpt lat="39.17057225109805" lon="117.76206073138351">
        <ele>-7.1</ele>
        <time>2025-09-16T09:17:54Z</time>
      </trkpt>
      <trkpt lat="39.17052420713558" lon="117.76195060491885">
        <ele>-7.1</ele>
        <time>2025-09-16T09:17:56Z</time>
      </trkpt>
      <trkpt lat="39.17047516289079" lon="117.76183847675321">
        <ele>10</ele>
        <time>2025-09-16T09:17:58Z</time>
      </trkpt>
      <trkpt lat="39.17042312021656" lon="117.76172534836515">
        <ele>-6.9</ele>
        <time>2025-09-16T09:18:00Z</time>
      </trkpt>
      <trkpt lat="39.170370076657576" lon="117.76160921714316">
        <ele>-6.9</ele>
        <time>2025-09-16T09:18:02Z</time>
      </trkpt>
      <trkpt lat="39.17031603352963" lon="117.761492085499">
        <ele>-6.9</ele>
        <time>2025-09-16T09:18:04Z</time>
      </trkpt>
      <trkpt lat="39.170262992204364" lon="117.76137795789796">
        <ele>-6.9</ele>
        <time>2025-09-16T09:18:06Z</time>
      </trkpt>
      <trkpt lat="39.17020795504881" lon="117.76126783584469">
        <ele>-6.8</ele>
        <time>2025-09-16T09:18:08Z</time>
      </trkpt>
      <trkpt lat="39.170149921352476" lon="117.76115971707361">
        <ele>-6.8</ele>
        <time>2025-09-16T09:18:10Z</time>
      </trkpt>
      <trkpt lat="39.17008689040386" lon="117.76105059832783">
        <ele>-6.8</ele>
        <time>2025-09-16T09:18:12Z</time>
      </trkpt>
      <trkpt lat="39.17002286047176" lon="117.76094148026935">
        <ele>-6.8</ele>
        <time>2025-09-16T09:18:14Z</time>
      </trkpt>
      <trkpt lat="39.16995683276306" lon="117.76083336417601">
        <ele>-6.8</ele>
        <time>2025-09-16T09:18:16Z</time>
      </trkpt>
      <trkpt lat="39.16989280245624" lon="117.76072224494382">
        <ele>-6.7</ele>
        <time>2025-09-16T09:18:18Z</time>
      </trkpt>
      <trkpt lat="39.1698267749892" lon="117.76061312882771">
        <ele>-6.7</ele>
        <time>2025-09-16T09:18:20Z</time>
      </trkpt>
      <trkpt lat="39.16975874852726" lon="117.76050301239331">
        <ele>-6.7</ele>
        <time>2025-09-16T09:18:22Z</time>
      </trkpt>
      <trkpt lat="39.16968872548256" lon="117.76039590017429">
        <ele>-6.7</ele>
        <time>2025-09-16T09:18:24Z</time>
      </trkpt>
      <trkpt lat="39.16961870165816" lon="117.76028678624861">
        <ele>-6.7</ele>
        <time>2025-09-16T09:18:26Z</time>
      </trkpt>
      <trkpt lat="39.169547679445344" lon="117.76017867413238">
        <ele>-6.9</ele>
        <time>2025-09-16T09:18:28Z</time>
      </trkpt>
      <trkpt lat="39.16947865705988" lon="117.76007156342885">
        <ele>-6.9</ele>
        <time>2025-09-16T09:18:30Z</time>
      </trkpt>
      <trkpt lat="39.16941163390578" lon="117.75996445301408">
        <ele>-6.9</ele>
        <time>2025-09-16T09:18:32Z</time>
      </trkpt>
      <trkpt lat="39.16934361233707" lon="117.75985834437427">
        <ele>-6.7</ele>
        <time>2025-09-16T09:18:34Z</time>
      </trkpt>
      <trkpt lat="39.169272593524866" lon="117.75975323774924">
        <ele>-6.7</ele>
        <time>2025-09-16T09:18:36Z</time>
      </trkpt>
      <trkpt lat="39.169196576348064" lon="117.75964512900293">
        <ele>-6.8</ele>
        <time>2025-09-16T09:18:38Z</time>
      </trkpt>
      <trkpt lat="39.16911955847784" lon="117.75953401767285">
        <ele>-6.8</ele>
        <time>2025-09-16T09:18:40Z</time>
      </trkpt>
      <trkpt lat="39.16904353820331" lon="117.75941890246925">
        <ele>-6.8</ele>
        <time>2025-09-16T09:18:42Z</time>
      </trkpt>
      <trkpt lat="39.168968518378065" lon="117.75930478884628">
        <ele>-6.5</ele>
        <time>2025-09-16T09:18:44Z</time>
      </trkpt>
      <trkpt lat="39.16889349791126" lon="117.75918867369863">
        <ele>-6.5</ele>
        <time>2025-09-16T09:18:46Z</time>
      </trkpt>
      <trkpt lat="39.1688194767895" lon="117.7590715579992">
        <ele>-6.5</ele>
        <time>2025-09-16T09:18:48Z</time>
      </trkpt>
      <trkpt lat="39.16874245739097" lon="117.75895344227439">
        <ele>-6.7</ele>
        <time>2025-09-16T09:18:50Z</time>
      </trkpt>
      <trkpt lat="39.16866343913779" lon="117.75883432641429">
        <ele>-6.7</ele>
        <time>2025-09-16T09:18:52Z</time>
      </trkpt>
      <trkpt lat="39.168583421991556" lon="117.75871521135873">
        <ele>-7</ele>
        <time>2025-09-16T09:18:54Z</time>
      </trkpt>
      <trkpt lat="39.168504404769934" lon="117.75859609685364">
        <ele>-7</ele>
        <time>2025-09-16T09:18:56Z</time>
      </trkpt>
      <trkpt lat="39.16842638641155" lon="117.75847498082324">
        <ele>-7</ele>
        <time>2025-09-16T09:18:58Z</time>
      </trkpt>
      <trkpt lat="39.16834836858722" lon="117.75835386549454">
        <ele>-7.4</ele>
        <time>2025-09-16T09:19:00Z</time>
      </trkpt>
      <trkpt lat="39.16826835300233" lon="117.75823375214915">
        <ele>-7.4</ele>
        <time>2025-09-16T09:19:02Z</time>
      </trkpt>
      <trkpt lat="39.16818833897902" lon="117.75811564153653">
        <ele>-7.6</ele>
        <time>2025-09-16T09:19:04Z</time>
      </trkpt>
      <trkpt lat="39.16810832341148" lon="117.75799352753228">
        <ele>-7.6</ele>
        <time>2025-09-16T09:19:06Z</time>
      </trkpt>
      <trkpt lat="39.16802730898009" lon="117.7578714143707">
        <ele>-7.6</ele>
        <time>2025-09-16T09:19:08Z</time>
      </trkpt>
      <trkpt lat="39.167946294084956" lon="117.75774729991852">
        <ele>-7.4</ele>
        <time>2025-09-16T09:19:10Z</time>
      </trkpt>
      <trkpt lat="39.167866281160954" lon="117.75762719006826">
        <ele>-7.4</ele>
        <time>2025-09-16T09:19:12Z</time>
      </trkpt>
      <trkpt lat="39.167787268173264" lon="117.75750708078424">
        <ele>-7.4</ele>
        <time>2025-09-16T09:19:14Z</time>
      </trkpt>
      <trkpt lat="39.16771025453039" lon="117.75738697193961">
        <ele>-7.4</ele>
        <time>2025-09-16T09:19:16Z</time>
      </trkpt>
      <trkpt lat="39.167635239258956" lon="117.75726486157481">
        <ele>-7.4</ele>
        <time>2025-09-16T09:19:18Z</time>
      </trkpt>
      <trkpt lat="39.16756022405171" lon="117.75714175095423">
        <ele>-7.4</ele>
        <time>2025-09-16T09:19:20Z</time>
      </trkpt>
      <trkpt lat="39.167486209763936" lon="117.75702064287313">
        <ele>-7.4</ele>
        <time>2025-09-16T09:19:22Z</time>
      </trkpt>
      <trkpt lat="39.16741119660624" lon="117.75689953562676">
        <ele>-7.4</ele>
        <time>2025-09-16T09:19:24Z</time>
      </trkpt>
      <trkpt lat="39.167335185517004" lon="117.7567804311286">
        <ele>-7.4</ele>
        <time>2025-09-16T09:19:26Z</time>
      </trkpt>
      <trkpt lat="39.16725917541386" lon="117.75666232826639">
        <ele>-7.4</ele>
        <time>2025-09-16T09:19:28Z</time>
      </trkpt>
      <trkpt lat="39.16718516463985" lon="117.75654422582362">
        <ele>-7.3</ele>
        <time>2025-09-16T09:19:30Z</time>
      </trkpt>
      <trkpt lat="39.16711615187519" lon="117.75642712435823">
        <ele>-7.3</ele>
        <time>2025-09-16T09:19:32Z</time>
      </trkpt>
      <trkpt lat="39.16705113769889" lon="117.75631102398089">
        <ele>-7.2</ele>
        <time>2025-09-16T09:19:34Z</time>
      </trkpt>
      <trkpt lat="39.166990127471685" lon="117.75620793581781">
        <ele>-7.2</ele>
        <time>2025-09-16T09:19:36Z</time>
      </trkpt>
      <trkpt lat="39.16692713528184" lon="117.75614188263984">
        <ele>-7.2</ele>
        <time>2025-09-16T09:19:38Z</time>
      </trkpt>
      <trkpt lat="39.16686316961123" lon="117.756133883384">
        <ele>-7.2</ele>
        <time>2025-09-16T09:19:40Z</time>
      </trkpt>
      <trkpt lat="39.16679622623004" lon="117.75617192710853">
        <ele>-7.2</ele>
        <time>2025-09-16T09:19:42Z</time>
      </trkpt>
      <trkpt lat="39.166728284392214" lon="117.75621197288831">
        <ele>-7.2</ele>
        <time>2025-09-16T09:19:44Z</time>
      </trkpt>
      <trkpt lat="39.16666132720499" lon="117.75621898792235">
        <ele>-7.2</ele>
        <time>2025-09-16T09:19:46Z</time>
      </trkpt>
      <trkpt lat="39.166593362991385" lon="117.75620898728786">
        <ele>-7.2</ele>
        <time>2025-09-16T09:19:48Z</time>
      </trkpt>
      <trkpt lat="39.16652141370193" lon="117.75622701318186">
        <ele>-7.5</ele>
        <time>2025-09-16T09:19:50Z</time>
      </trkpt>
      <trkpt lat="39.166444485392354" lon="117.75628507699237">
        <ele>-7.5</ele>
        <time>2025-09-16T09:19:52Z</time>
      </trkpt>
      <trkpt lat="39.16636057450677" lon="117.75637216900367">
        <ele>-7.5</ele>
        <time>2025-09-16T09:19:54Z</time>
      </trkpt>
      <trkpt lat="39.166274667373436" lon="117.75646426634184">
        <ele>-7.5</ele>
        <time>2025-09-16T09:19:56Z</time>
      </trkpt>
      <trkpt lat="39.16618476430595" lon="117.75655936743635">
        <ele>-7.5</ele>
        <time>2025-09-16T09:19:58Z</time>
      </trkpt>
      <trkpt lat="39.16609186195719" lon="117.75665146649838">
        <ele>-7.4</ele>
        <time>2025-09-16T09:20:00Z</time>
      </trkpt>
      <trkpt lat="39.16599396382008" lon="117.75674556851588">
        <ele>-7.4</ele>
        <time>2025-09-16T09:20:02Z</time>
      </trkpt>
      <trkpt lat="39.16589506660334" lon="117.75683967108785">
        <ele>-7.3</ele>
        <time>2025-09-16T09:20:04Z</time>
      </trkpt>
      <trkpt lat="39.16579516983232" lon="117.75693277325011">
        <ele>-7.3</ele>
        <time>2025-09-16T09:20:06Z</time>
      </trkpt>
      <trkpt lat="39.165695273382184" lon="117.75702587583008">
        <ele>-7.3</ele>
        <time>2025-09-16T09:20:08Z</time>
      </trkpt>
      <trkpt lat="39.165592379512006" lon="117.7571199801823">
        <ele>-7.2</ele>
        <time>2025-09-16T09:20:10Z</time>
      </trkpt>
      <trkpt lat="39.1654874852156" lon="117.75721008130593">
        <ele>-7.2</ele>
        <time>2025-09-16T09:20:12Z</time>
      </trkpt>
      <trkpt lat="39.16537959153414" lon="117.75729718025741">
        <ele>-7.3</ele>
        <time>2025-09-16T09:20:14Z</time>
      </trkpt>
      <trkpt lat="39.16527169666105" lon="117.75738127661691">
        <ele>-7.3</ele>
        <time>2025-09-16T09:20:16Z</time>
      </trkpt>
      <trkpt lat="39.1651648009637" lon="117.75746437219945">
        <ele>-7.3</ele>
        <time>2025-09-16T09:20:18Z</time>
      </trkpt>
      <trkpt lat="39.1650569046245" lon="117.7575444652607">
        <ele>-7.3</ele>
        <time>2025-09-16T09:20:20Z</time>
      </trkpt>
      <trkpt lat="39.16495000743096" lon="117.75762355750541">
        <ele>-7.3</ele>
        <time>2025-09-16T09:20:22Z</time>
      </trkpt>
      <trkpt lat="39.16484310996713" lon="117.75770164904941">
        <ele>-7.3</ele>
        <time>2025-09-16T09:20:24Z</time>
      </trkpt>
      <trkpt lat="39.164734213915786" lon="117.75777974114044">
        <ele>-7.3</ele>
        <time>2025-09-16T09:20:26Z</time>
      </trkpt>
      <trkpt lat="39.16462431766745" lon="117.7578558316344">
        <ele>-7.3</ele>
        <time>2025-09-16T09:20:28Z</time>
      </trkpt>
      <trkpt lat="39.16451142392472" lon="117.75793292379963">
        <ele>-7.5</ele>
        <time>2025-09-16T09:20:30Z</time>
      </trkpt>
      <trkpt lat="39.164394532261674" lon="117.75800901574289">
        <ele>-7.5</ele>
        <time>2025-09-16T09:20:32Z</time>
      </trkpt>
      <trkpt lat="39.16427264481351" lon="117.75808711063841">
        <ele>-7.4</ele>
        <time>2025-09-16T09:20:34Z</time>
      </trkpt>
      <trkpt lat="39.16414775833341" lon="117.75816320416133">
        <ele>-7.4</ele>
        <time>2025-09-16T09:20:36Z</time>
      </trkpt>
      <trkpt lat="39.16402287102539" lon="117.75823729590783">
        <ele>-7.4</ele>
        <time>2025-09-16T09:20:38Z</time>
      </trkpt>
      <trkpt lat="39.163897983397966" lon="117.75831038688658">
        <ele>-7.9</ele>
        <time>2025-09-16T09:20:40Z</time>
      </trkpt>
      <trkpt lat="39.16377709306969" lon="117.75838247657789">
        <ele>-7.9</ele>
        <time>2025-09-16T09:20:42Z</time>
      </trkpt>
      <trkpt lat="39.163657203932466" lon="117.75845756950142">
        <ele>-7.7</ele>
        <time>2025-09-16T09:20:44Z</time>
      </trkpt>
      <trkpt lat="39.16354231203804" lon="117.75853266205782">
        <ele>-7.7</ele>
        <time>2025-09-16T09:20:46Z</time>
      </trkpt>
      <trkpt lat="39.16342941863056" lon="117.75860675358449">
        <ele>-7.7</ele>
        <time>2025-09-16T09:20:48Z</time>
      </trkpt>
      <trkpt lat="39.16331852154914" lon="117.75867583987994">
        <ele>-7.5</ele>
        <time>2025-09-16T09:20:50Z</time>
      </trkpt>
      <trkpt lat="39.16321162605566" lon="117.75875193325133">
        <ele>-7.5</ele>
        <time>2025-09-16T09:20:52Z</time>
      </trkpt>
      <trkpt lat="39.163105736163736" lon="117.75883903837776">
        <ele>-7.5</ele>
        <time>2025-09-16T09:20:54Z</time>
      </trkpt>
      <trkpt lat="39.163000851429615" lon="117.75893615433627">
        <ele>10</ele>
        <time>2025-09-16T09:20:56Z</time>
      </trkpt>
      <trkpt lat="39.16289396767703" lon="117.75903226993384">
        <ele>10</ele>
        <time>2025-09-16T09:20:58Z</time>
      </trkpt>
      <trkpt lat="39.162790081926836" lon="117.7591273845202">
        <ele>-7.4</ele>
        <time>2025-09-16T09:21:00Z</time>
      </trkpt>
      <trkpt lat="39.162694192872685" lon="117.75922450066635">
        <ele>-7.4</ele>
        <time>2025-09-16T09:21:02Z</time>
      </trkpt>
      <trkpt lat="39.1626082909291" lon="117.75930860197353">
        <ele>-7.4</ele>
        <time>2025-09-16T09:21:04Z</time>
      </trkpt>
      <trkpt lat="39.16254435758805" lon="117.75935966514508">
        <ele>-7.5</ele>
        <time>2025-09-16T09:21:06Z</time>
      </trkpt>
      <trkpt lat="39.1624973877507" lon="117.75936367544666">
        <ele>-7.5</ele>
        <time>2025-09-16T09:21:08Z</time>
      </trkpt>
      <trkpt lat="39.16246838473214" lon="117.75932764027374">
        <ele>-7.4</ele>
        <time>2025-09-16T09:21:12Z</time>
      </trkpt>
      <trkpt lat="39.16243936720522" lon="117.75926557717798">
        <ele>-7.4</ele>
        <time>2025-09-16T09:21:14Z</time>
      </trkpt>
      <trkpt lat="39.16240434502821" lon="117.75918849894306">
        <ele>-7.2</ele>
        <time>2025-09-16T09:21:16Z</time>
      </trkpt>
      <trkpt lat="39.162353326479234" lon="117.75910041127783">
        <ele>-7.2</ele>
        <time>2025-09-16T09:21:18Z</time>
      </trkpt>
      <trkpt lat="39.162291309244466" lon="117.75900231474803">
        <ele>-6.8</ele>
        <time>2025-09-16T09:21:20Z</time>
      </trkpt>
      <trkpt lat="39.162225288181666" lon="117.75889220648774">
        <ele>-6.8</ele>
        <time>2025-09-16T09:21:22Z</time>
      </trkpt>
      <trkpt lat="39.1621572665795" lon="117.75877809485017">
        <ele>-6.8</ele>
        <time>2025-09-16T09:21:24Z</time>
      </trkpt>
      <trkpt lat="39.162085246213586" lon="117.7586609812025">
        <ele>-6.8</ele>
        <time>2025-09-16T09:21:26Z</time>
      </trkpt>
      <trkpt lat="39.16201222480746" lon="117.75853986417273">
        <ele>-6.8</ele>
        <time>2025-09-16T09:21:28Z</time>
      </trkpt>
      <trkpt lat="39.16193520525377" lon="117.75841674628295">
        <ele>-6.9</ele>
        <time>2025-09-16T09:21:30Z</time>
      </trkpt>
      <trkpt lat="39.16185718684598" lon="117.7582936292457">
        <ele>-6.9</ele>
        <time>2025-09-16T09:21:32Z</time>
      </trkpt>
      <trkpt lat="39.161782168247434" lon="117.75817251459931">
        <ele>-6.9</ele>
        <time>2025-09-16T09:21:34Z</time>
      </trkpt>
      <trkpt lat="39.16171314919583" lon="117.75805640498115">
        <ele>-6.9</ele>
        <time>2025-09-16T09:21:36Z</time>
      </trkpt>
      <trkpt lat="39.16164813030461" lon="117.75794429955005">
        <ele>-6.9</ele>
        <time>2025-09-16T09:21:38Z</time>
      </trkpt>
      <trkpt lat="39.16158511372846" lon="117.75783820051105">
        <ele>-7.1</ele>
        <time>2025-09-16T09:21:40Z</time>
      </trkpt>
      <trkpt lat="39.161523098480465" lon="117.75773510489239">
        <ele>-7.1</ele>
        <time>2025-09-16T09:21:42Z</time>
      </trkpt>
      <trkpt lat="39.16146108512128" lon="117.75763501277706">
        <ele>-7.1</ele>
        <time>2025-09-16T09:21:44Z</time>
      </trkpt>
      <trkpt lat="39.16139907262501" lon="117.75753592213611">
        <ele>-7.1</ele>
        <time>2025-09-16T09:21:46Z</time>
      </trkpt>
      <trkpt lat="39.1613390612716" lon="117.75744083566569">
        <ele>-7.1</ele>
        <time>2025-09-16T09:21:48Z</time>
      </trkpt>
      <trkpt lat="39.16129204693112" lon="117.75735475683135">
        <ele>-7.2</ele>
        <time>2025-09-16T09:21:50Z</time>
      </trkpt>
      <trkpt lat="39.16126503023126" lon="117.75728769443728">
        <ele>-7.2</ele>
        <time>2025-09-16T09:21:52Z</time>
      </trkpt>
      <trkpt lat="39.16609901111525" lon="117.75697777797684">
        <ele>-8.4</ele>
        <time>2025-09-16T09:30:24Z</time>
      </trkpt>
      <trkpt lat="39.16616394789515" lon="117.7569257195324">
        <ele>-8.4</ele>
        <time>2025-09-16T09:30:26Z</time>
      </trkpt>
      <trkpt lat="39.16622089518637" lon="117.75688567377291">
        <ele>-8.1</ele>
        <time>2025-09-16T09:30:29Z</time>
      </trkpt>
      <trkpt lat="39.16627184185047" lon="117.75683662021922">
        <ele>-8.1</ele>
        <time>2025-09-16T09:30:31Z</time>
      </trkpt>
      <trkpt lat="39.16632978398817" lon="117.75678656493358">
        <ele>-8</ele>
        <time>2025-09-16T09:30:33Z</time>
      </trkpt>
      <trkpt lat="39.166388715819245" lon="117.7567154896093">
        <ele>-8</ele>
        <time>2025-09-16T09:30:35Z</time>
      </trkpt>
      <trkpt lat="39.1664466488929" lon="117.75664541560609">
        <ele>-7.9</ele>
        <time>2025-09-16T09:30:37Z</time>
      </trkpt>
      <trkpt lat="39.16650358366299" lon="117.75657734386057">
        <ele>-7.9</ele>
        <time>2025-09-16T09:30:39Z</time>
      </trkpt>
      <trkpt lat="39.166561518470964" lon="117.75651027315497">
        <ele>-7.9</ele>
        <time>2025-09-16T09:30:41Z</time>
      </trkpt>
      <trkpt lat="39.166617456456386" lon="117.75644720668264">
        <ele>-8</ele>
        <time>2025-09-16T09:30:43Z</time>
      </trkpt>
      <trkpt lat="39.166663401419584" lon="117.7563861435504">
        <ele>-8</ele>
        <time>2025-09-16T09:30:45Z</time>
      </trkpt>
      <trkpt lat="39.16670335188283" lon="117.75632908510073">
        <ele>-8</ele>
        <time>2025-09-16T09:30:47Z</time>
      </trkpt>
      <trkpt lat="39.16674130410078" lon="117.75627302799508">
        <ele>-7.9</ele>
        <time>2025-09-16T09:30:49Z</time>
      </trkpt>
      <trkpt lat="39.16678325585976" lon="117.75622097424974">
        <ele>-7.9</ele>
        <time>2025-09-16T09:30:51Z</time>
      </trkpt>
      <trkpt lat="39.16682621025375" lon="117.75617592699807">
        <ele>-7.9</ele>
        <time>2025-09-16T09:30:53Z</time>
      </trkpt>
      <trkpt lat="39.16686716946981" lon="117.75613888750166">
        <ele>-7.9</ele>
        <time>2025-09-16T09:30:55Z</time>
      </trkpt>
      <trkpt lat="39.16690913614495" lon="117.7561198645789">
        <ele>-7.9</ele>
        <time>2025-09-16T09:30:57Z</time>
      </trkpt>
      <trkpt lat="39.166947119877086" lon="117.75613387269001">
        <ele>-8.2</ele>
        <time>2025-09-16T09:30:59Z</time>
      </trkpt>
      <trkpt lat="39.16698411894085" lon="117.75618091152039">
        <ele>-8.2</ele>
        <time>2025-09-16T09:31:01Z</time>
      </trkpt>
      <trkpt lat="39.167019129601485" lon="117.75625097211126">
        <ele>-8.2</ele>
        <time>2025-09-16T09:31:03Z</time>
      </trkpt>
      <trkpt lat="39.1670591411012" lon="117.7563290397795">
        <ele>-8.2</ele>
        <time>2025-09-16T09:31:05Z</time>
      </trkpt>
      <trkpt lat="39.16710415168674" lon="117.75641111086061">
        <ele>-8.2</ele>
        <time>2025-09-16T09:31:07Z</time>
      </trkpt>
      <trkpt lat="39.16715116317033" lon="117.75649718578407">
        <ele>-8.3</ele>
        <time>2025-09-16T09:31:09Z</time>
      </trkpt>
      <trkpt lat="39.16720217255852" lon="117.75658326055662">
        <ele>-8.3</ele>
        <time>2025-09-16T09:31:11Z</time>
      </trkpt>
      <trkpt lat="39.167254181162285" lon="117.75666833460889">
        <ele>-8.3</ele>
        <time>2025-09-16T09:31:13Z</time>
      </trkpt>
      <trkpt lat="39.16730918732044" lon="117.75675140671858">
        <ele>-8.3</ele>
        <time>2025-09-16T09:31:15Z</time>
      </trkpt>
      <trkpt lat="39.16736119550804" lon="117.75683447954353">
        <ele>-8.3</ele>
        <time>2025-09-16T09:31:17Z</time>
      </trkpt>
      <trkpt lat="39.16741420430546" lon="117.75691955450084">
        <ele>-8.2</ele>
        <time>2025-09-16T09:31:19Z</time>
      </trkpt>
      <trkpt lat="39.16746621491501" lon="117.7570066318696">
        <ele>-8.2</ele>
        <time>2025-09-16T09:31:21Z</time>
      </trkpt>
      <trkpt lat="39.16752222247461" lon="117.75709170715164">
        <ele>-8.2</ele>
        <time>2025-09-16T09:31:23Z</time>
      </trkpt>
      <trkpt lat="39.167578229816385" lon="117.75717578180698">
        <ele>-8.2</ele>
        <time>2025-09-16T09:31:25Z</time>
      </trkpt>
      <trkpt lat="39.167634236931" lon="117.75725885582331">
        <ele>-8.2</ele>
        <time>2025-09-16T09:31:27Z</time>
      </trkpt>
      <trkpt lat="39.16768924635931" lon="117.7573449332506">
        <ele>-8.4</ele>
        <time>2025-09-16T09:31:29Z</time>
      </trkpt>
      <trkpt lat="39.16774425803061" lon="117.7574350149868">
        <ele>-8.4</ele>
        <time>2025-09-16T09:31:31Z</time>
      </trkpt>
      <trkpt lat="39.167799269998994" lon="117.75752509711351">
        <ele>-8.4</ele>
        <time>2025-09-16T09:31:33Z</time>
      </trkpt>
      <trkpt lat="39.167854282264315" lon="117.75761517963056">
        <ele>-8.4</ele>
        <time>2025-09-16T09:31:35Z</time>
      </trkpt>
      <trkpt lat="39.16791229204593" lon="117.75770326015365">
        <ele>-8.4</ele>
        <time>2025-09-16T09:31:37Z</time>
      </trkpt>
      <trkpt lat="39.1679683027887" lon="117.75779034029884">
        <ele>-8.2</ele>
        <time>2025-09-16T09:31:39Z</time>
      </trkpt>
      <trkpt lat="39.168026312625436" lon="117.75787742055367">
        <ele>-8.2</ele>
        <time>2025-09-16T09:31:41Z</time>
      </trkpt>
      <trkpt lat="39.1680833233309" lon="117.7579645012998">
        <ele>-8.3</ele>
        <time>2025-09-16T09:31:43Z</time>
      </trkpt>
      <trkpt lat="39.1681523339179" lon="117.75806459411757">
        <ele>-8.3</ele>
        <time>2025-09-16T09:31:45Z</time>
      </trkpt>
      <trkpt lat="39.16822134331241" lon="117.75816168434635">
        <ele>-8.1</ele>
        <time>2025-09-16T09:31:48Z</time>
      </trkpt>
      <trkpt lat="39.16828935416558" lon="117.75825977618197">
        <ele>-8.1</ele>
        <time>2025-09-16T09:31:50Z</time>
      </trkpt>
      <trkpt lat="39.16834736391667" lon="117.75834385530142">
        <ele>-8.1</ele>
        <time>2025-09-16T09:31:52Z</time>
      </trkpt>
      <trkpt lat="39.16840337616665" lon="117.75842993708564">
        <ele>-8</ele>
        <time>2025-09-16T09:31:54Z</time>
      </trkpt>
      <trkpt lat="39.16845838874569" lon="117.7585150183117">
        <ele>-8</ele>
        <time>2025-09-16T09:31:56Z</time>
      </trkpt>
      <trkpt lat="39.168514400996806" lon="117.75860009975668">
        <ele>-7.8</ele>
        <time>2025-09-16T09:31:58Z</time>
      </trkpt>
      <trkpt lat="39.16856841469409" lon="117.75868518180225">
        <ele>-7.8</ele>
        <time>2025-09-16T09:32:00Z</time>
      </trkpt>
      <trkpt lat="39.16862442909642" lon="117.75877326709596">
        <ele>-7.8</ele>
        <time>2025-09-16T09:32:02Z</time>
      </trkpt>
      <trkpt lat="39.168679444916805" lon="117.75886235394401">
        <ele>-7.7</ele>
        <time>2025-09-16T09:32:04Z</time>
      </trkpt>
      <trkpt lat="39.168736458198765" lon="117.75894843773389">
        <ele>-7.7</ele>
        <time>2025-09-16T09:32:06Z</time>
      </trkpt>
      <trkpt lat="39.16879347064782" lon="117.75903251974769">
        <ele>-7.7</ele>
        <time>2025-09-16T09:32:08Z</time>
      </trkpt>
      <trkpt lat="39.16885048390752" lon="117.75911760316731">
        <ele>-7.7</ele>
        <time>2025-09-16T09:32:10Z</time>
      </trkpt>
      <trkpt lat="39.168906499135375" lon="117.75920468920494">
        <ele>-7.7</ele>
        <time>2025-09-16T09:32:12Z</time>
      </trkpt>
      <trkpt lat="39.16896151635002" lon="117.7592937778853">
        <ele>-7.7</ele>
        <time>2025-09-16T09:32:14Z</time>
      </trkpt>
      <trkpt lat="39.1690175321337" lon="117.75938086465338">
        <ele>-7.7</ele>
        <time>2025-09-16T09:32:16Z</time>
      </trkpt>
      <trkpt lat="39.16907454646746" lon="117.75946594948408">
        <ele>-7.7</ele>
        <time>2025-09-16T09:32:18Z</time>
      </trkpt>
      <trkpt lat="39.16913255876325" lon="117.75954803126362">
        <ele>-7.7</ele>
        <time>2025-09-16T09:32:20Z</time>
      </trkpt>
      <trkpt lat="39.16918757021414" lon="117.7596251082798">
        <ele>-7.7</ele>
        <time>2025-09-16T09:32:22Z</time>
      </trkpt>
      <trkpt lat="39.16923958192811" lon="117.75969918267035">
        <ele>-8</ele>
        <time>2025-09-16T09:32:24Z</time>
      </trkpt>
      <trkpt lat="39.16928559392161" lon="117.75976725148593">
        <ele>-8</ele>
        <time>2025-09-16T09:32:26Z</time>
      </trkpt>
      <trkpt lat="39.16932860553635" lon="117.75983131649181">
        <ele>-7.8</ele>
        <time>2025-09-16T09:32:28Z</time>
      </trkpt>
      <trkpt lat="39.16936961615343" lon="117.75989137752413">
        <ele>-7.8</ele>
        <time>2025-09-16T09:32:30Z</time>
      </trkpt>
      <trkpt lat="39.1694096263237" lon="117.75994943663797">
        <ele>-7.8</ele>
        <time>2025-09-16T09:32:32Z</time>
      </trkpt>
      <trkpt lat="39.16944564132434" lon="117.76001150086546">
        <ele>-7.8</ele>
        <time>2025-09-16T09:32:34Z</time>
      </trkpt>
      <trkpt lat="39.169482657638284" lon="117.7600765684911">
        <ele>-7.8</ele>
        <time>2025-09-16T09:32:36Z</time>
      </trkpt>
      <trkpt lat="39.16952267233167" lon="117.76014163593541">
        <ele>-7.7</ele>
        <time>2025-09-16T09:32:38Z</time>
      </trkpt>
      <trkpt lat="39.16956368777306" lon="117.76020870569404">
        <ele>-7.7</ele>
        <time>2025-09-16T09:32:40Z</time>
      </trkpt>
      <trkpt lat="39.16960470456786" lon="117.76027777791323">
        <ele>-7.7</ele>
        <time>2025-09-16T09:32:42Z</time>
      </trkpt>
      <trkpt lat="39.1696477221473" lon="117.76034985348525">
        <ele>-7.7</ele>
        <time>2025-09-16T09:32:44Z</time>
      </trkpt>
      <trkpt lat="39.1696947387518" lon="117.7604239310553">
        <ele>-7.7</ele>
        <time>2025-09-16T09:32:46Z</time>
      </trkpt>
      <trkpt lat="39.16974675561792" lon="117.76050301392051">
        <ele>-7.6</ele>
        <time>2025-09-16T09:32:48Z</time>
      </trkpt>
      <trkpt lat="39.169801776397854" lon="117.7605911069459">
        <ele>-7.6</ele>
        <time>2025-09-16T09:32:50Z</time>
      </trkpt>
      <trkpt lat="39.16985979873509" lon="117.7606842056707">
        <ele>-7.6</ele>
        <time>2025-09-16T09:32:52Z</time>
      </trkpt>
      <trkpt lat="39.169917824452035" lon="117.76078231054242">
        <ele>-7.7</ele>
        <time>2025-09-16T09:32:54Z</time>
      </trkpt>
      <trkpt lat="39.169977849332255" lon="117.7608804156132">
        <ele>-7.7</ele>
        <time>2025-09-16T09:32:56Z</time>
      </trkpt>
      <trkpt lat="39.170036877631674" lon="117.76098252589287">
        <ele>-7.7</ele>
        <time>2025-09-16T09:32:58Z</time>
      </trkpt>
      <trkpt lat="39.17009590692875" lon="117.76108563782523">
        <ele>-7.6</ele>
        <time>2025-09-16T09:33:00Z</time>
      </trkpt>
      <trkpt lat="39.170151939006395" lon="117.76118975180626">
        <ele>-7.6</ele>
        <time>2025-09-16T09:33:02Z</time>
      </trkpt>
      <trkpt lat="39.17020697142967" lon="117.76129286525205">
        <ele>-7.9</ele>
        <time>2025-09-16T09:33:04Z</time>
      </trkpt>
      <trkpt lat="39.170262004232235" lon="117.76139597919706">
        <ele>-7.9</ele>
        <time>2025-09-16T09:33:06Z</time>
      </trkpt>
      <trkpt lat="39.17031303785841" lon="117.76149609060573">
        <ele>-7.9</ele>
        <time>2025-09-16T09:33:08Z</time>
      </trkpt>
      <trkpt lat="39.17036307114651" lon="117.76159420023959">
        <ele>-8.2</ele>
        <time>2025-09-16T09:33:10Z</time>
      </trkpt>
      <trkpt lat="39.17041010461036" lon="117.7616893071347">
        <ele>-8.2</ele>
        <time>2025-09-16T09:33:12Z</time>
      </trkpt>
      <trkpt lat="39.17045713969489" lon="117.76178641684312">
        <ele>-8.3</ele>
        <time>2025-09-16T09:33:14Z</time>
      </trkpt>
      <trkpt lat="39.17050617654564" lon="117.76188753153654">
        <ele>-8.3</ele>
        <time>2025-09-16T09:33:16Z</time>
      </trkpt>
      <trkpt lat="39.17055721849041" lon="117.761997657295">
        <ele>-8.3</ele>
        <time>2025-09-16T09:33:18Z</time>
      </trkpt>
      <trkpt lat="39.170605264619816" lon="117.7621107876318">
        <ele>-8.3</ele>
        <time>2025-09-16T09:33:20Z</time>
      </trkpt>
      <trkpt lat="39.17064831415499" lon="117.7622239192021">
        <ele>-8.3</ele>
        <time>2025-09-16T09:33:22Z</time>
      </trkpt>
      <trkpt lat="39.170689363985666" lon="117.76233504918235">
        <ele>-8.3</ele>
        <time>2025-09-16T09:33:24Z</time>
      </trkpt>
      <trkpt lat="39.17072941215173" lon="117.76244217496247">
        <ele>-8.3</ele>
        <time>2025-09-16T09:33:26Z</time>
      </trkpt>
      <trkpt lat="39.17076646317088" lon="117.76255030288907">
        <ele>-8.3</ele>
        <time>2025-09-16T09:33:28Z</time>
      </trkpt>
      <trkpt lat="39.17080351256123" lon="117.76265542765267">
        <ele>-8.4</ele>
        <time>2025-09-16T09:33:30Z</time>
      </trkpt>
      <trkpt lat="39.17083856352183" lon="117.7627605531843">
        <ele>-8.4</ele>
        <time>2025-09-16T09:33:32Z</time>
      </trkpt>
      <trkpt lat="39.170875608877566" lon="117.76285867025872">
        <ele>-8.3</ele>
        <time>2025-09-16T09:33:34Z</time>
      </trkpt>
      <trkpt lat="39.170911651017654" lon="117.76295078041082">
        <ele>-8.3</ele>
        <time>2025-09-16T09:33:36Z</time>
      </trkpt>
      <trkpt lat="39.170953680202224" lon="117.76302887264836">
        <ele>-8.3</ele>
        <time>2025-09-16T09:33:38Z</time>
      </trkpt>
      <trkpt lat="39.17100269085694" lon="117.7630859379021">
        <ele>-8.1</ele>
        <time>2025-09-16T09:33:40Z</time>
      </trkpt>
      <trkpt lat="39.17106067262106" lon="117.76310895941144">
        <ele>-8.1</ele>
        <time>2025-09-16T09:33:42Z</time>
      </trkpt>
      <trkpt lat="39.171115631800696" lon="117.76309693733813">
        <ele>-7.4</ele>
        <time>2025-09-16T09:33:44Z</time>
      </trkpt>
      <trkpt lat="39.171163580522986" lon="117.76306388980773">
        <ele>-7.4</ele>
        <time>2025-09-16T09:33:46Z</time>
      </trkpt>
      <trkpt lat="39.1712045313361" lon="117.7630278394598">
        <ele>-7.4</ele>
        <time>2025-09-16T09:33:48Z</time>
      </trkpt>
      <trkpt lat="39.17124448832397" lon="117.76299979930985">
        <ele>-6.9</ele>
        <time>2025-09-16T09:33:50Z</time>
      </trkpt>
      <trkpt lat="39.171292457914944" lon="117.76299678944821">
        <ele>-6.9</ele>
        <time>2025-09-16T09:33:52Z</time>
      </trkpt>
      <trkpt lat="39.171342450575494" lon="117.7630288231542">
        <ele>-6.8</ele>
        <time>2025-09-16T09:33:54Z</time>
      </trkpt>
      <trkpt lat="39.17139146610725" lon="117.76309289719791">
        <ele>-6.8</ele>
        <time>2025-09-16T09:33:56Z</time>
      </trkpt>
      <trkpt lat="39.17143649322079" lon="117.76316998830907">
        <ele>-6.8</ele>
        <time>2025-09-16T09:33:58Z</time>
      </trkpt>
      <trkpt lat="39.17147852021077" lon="117.76324407628833">
        <ele>-6.7</ele>
        <time>2025-09-16T09:34:00Z</time>
      </trkpt>
      <trkpt lat="39.171527536228645" lon="117.76330815097054">
        <ele>-6.7</ele>
        <time>2025-09-16T09:34:02Z</time>
      </trkpt>
      <trkpt lat="39.17158453215824" lon="117.76335019692301">
        <ele>-6.4</ele>
        <time>2025-09-16T09:34:04Z</time>
      </trkpt>
      <trkpt lat="39.17165150037547" lon="117.76336120234657">
        <ele>-6.4</ele>
        <time>2025-09-16T09:34:06Z</time>
      </trkpt>
      <trkpt lat="39.17172244438562" lon="117.76334116795712">
        <ele>-6.4</ele>
        <time>2025-09-16T09:34:08Z</time>
      </trkpt>
      <trkpt lat="39.17179237352929" lon="117.7632991058635">
        <ele>-6.7</ele>
        <time>2025-09-16T09:34:10Z</time>
      </trkpt>
      <trkpt lat="39.17186229782771" lon="117.7632500350085">
        <ele>-6.7</ele>
        <time>2025-09-16T09:34:12Z</time>
      </trkpt>
      <trkpt lat="39.171932220813616" lon="117.76319896174304">
        <ele>-6.5</ele>
        <time>2025-09-16T09:34:14Z</time>
      </trkpt>
      <trkpt lat="39.17199914496516" lon="117.76314688772139">
        <ele>-6.5</ele>
        <time>2025-09-16T09:34:16Z</time>
      </trkpt>
      <trkpt lat="39.172056069547814" lon="117.7630868050514">
        <ele>-6.5</ele>
        <time>2025-09-16T09:34:18Z</time>
      </trkpt>
      <trkpt lat="39.17209299635256" lon="117.76301270755879">
        <ele>-6.6</ele>
        <time>2025-09-16T09:34:20Z</time>
      </trkpt>
      <trkpt lat="39.17210193296634" lon="117.76292860139851">
        <ele>-6.6</ele>
        <time>2025-09-16T09:34:22Z</time>
      </trkpt>
      <trkpt lat="39.172089883590196" lon="117.76284650072697">
        <ele>-6.5</ele>
        <time>2025-09-16T09:34:24Z</time>
      </trkpt>
      <trkpt lat="39.172083843231746" lon="117.762782421943">
        <ele>-6.5</ele>
        <time>2025-09-16T09:34:26Z</time>
      </trkpt>
      <trkpt lat="39.17208782786776" lon="117.76276339785508">
        <ele>-6.5</ele>
        <time>2025-09-16T09:34:28Z</time>
      </trkpt>
      <trkpt lat="39.172097834288444" lon="117.76278141892018">
        <ele>-6.8</ele>
        <time>2025-09-16T09:34:38Z</time>
      </trkpt>
      <trkpt lat="39.17208589075986" lon="117.76285350994799">
        <ele>-7.2</ele>
        <time>2025-09-16T09:34:42Z</time>
      </trkpt>
    </trkseg>
  </trk>
</gpx>