<?xml version="1.0" encoding="UTF-8"?>
<gpx xmlns="http://www.topografix.com/GPX/1/1" xmlns:gpxtpx="http://www.garmin.com/xmlschemas/TrackPointExtension/v1" xmlns:xsi="http://www.w3.org/2001/XMLSchema-instance" xsi:schemaLocation="http://www.topografix.com/GPX/1/1 http://www.topografix.com/GPX/1/1/gpx.xsd" version="1.1" creator="gpx.py -- https://github.com/tkrajina/gpxpy">
  <trk>
    <name>gpx from codoon</name>
    <type>Run</type>
    <trkseg>
      <trkpt lat="39.17155858843339" lon="117.76340827383845">
        <ele>4.4</ele>
        <time>2025-09-18T09:12:36Z</time>
      </trkpt>
      <trkpt lat="39.17155456749051" lon="117.7633752324482">
        <ele>4.8</ele>
        <time>2025-09-18T09:12:37Z</time>
      </trkpt>
      <trkpt lat="39.171542537225335" lon="117.76332216678786">
        <ele>4.8</ele>
        <time>2025-09-18T09:12:38Z</time>
      </trkpt>
      <trkpt lat="39.171499500108766" lon="117.76323305972802">
        <ele>4.8</ele>
        <time>2025-09-18T09:12:40Z</time>
      </trkpt>
      <trkpt lat="39.171438466921124" lon="117.76313394274605">
        <ele>4.7</ele>
        <time>2025-09-18T09:12:43Z</time>
      </trkpt>
      <trkpt lat="39.17137044584307" lon="117.76304584089696">
        <ele>4.7</ele>
        <time>2025-09-18T09:12:45Z</time>
      </trkpt>
      <trkpt lat="39.17131844464598" lon="117.76299978989441">
        <ele>4.7</ele>
        <time>2025-09-18T09:12:47Z</time>
      </trkpt>
      <trkpt lat="39.17126546623825" lon="117.76298577912127">
        <ele>4.7</ele>
        <time>2025-09-18T09:12:49Z</time>
      </trkpt>
      <trkpt lat="39.17120750877908" lon="117.76299780151463">
        <ele>4.7</ele>
        <time>2025-09-18T09:12:51Z</time>
      </trkpt>
      <trkpt lat="39.171144568833796" lon="117.76303085085252">
        <ele>3.4</ele>
        <time>2025-09-18T09:12:53Z</time>
      </trkpt>
      <trkpt lat="39.17107362740056" lon="117.7630548899703">
        <ele>3.4</ele>
        <time>2025-09-18T09:12:55Z</time>
      </trkpt>
      <trkpt lat="39.17100366178309" lon="117.76304488633832">
        <ele>3.2</ele>
        <time>2025-09-18T09:12:57Z</time>
      </trkpt>
      <trkpt lat="39.17094265621932" lon="117.76298481896728">
        <ele>3.2</ele>
        <time>2025-09-18T09:12:59Z</time>
      </trkpt>
      <trkpt lat="39.17090061062635" lon="117.76288269697014">
        <ele>3.2</ele>
        <time>2025-09-18T09:13:01Z</time>
      </trkpt>
      <trkpt lat="39.17086555852889" lon="117.76277656960117">
        <ele>3</ele>
        <time>2025-09-18T09:13:03Z</time>
      </trkpt>
      <trkpt lat="39.170830508189546" lon="117.7626724452276">
        <ele>3</ele>
        <time>2025-09-18T09:13:05Z</time>
      </trkpt>
      <trkpt lat="39.170793461444866" lon="117.76257132530678">
        <ele>3.2</ele>
        <time>2025-09-18T09:13:07Z</time>
      </trkpt>
      <trkpt lat="39.170754419611" lon="117.76247521225093">
        <ele>3.2</ele>
        <time>2025-09-18T09:13:09Z</time>
      </trkpt>
      <trkpt lat="39.17071238121588" lon="117.76238110245207">
        <ele>3.2</ele>
        <time>2025-09-18T09:13:11Z</time>
      </trkpt>
      <trkpt lat="39.17067034246651" lon="117.76228599184735">
        <ele>3.5</ele>
        <time>2025-09-18T09:13:13Z</time>
      </trkpt>
      <trkpt lat="39.170625305144746" lon="117.76218988083212">
        <ele>3.5</ele>
        <time>2025-09-18T09:13:15Z</time>
      </trkpt>
      <trkpt lat="39.17058126623863" lon="117.76209176770192">
        <ele>3.3</ele>
        <time>2025-09-18T09:13:17Z</time>
      </trkpt>
      <trkpt lat="39.1705372303015" lon="117.76199765983996">
        <ele>3.3</ele>
        <time>2025-09-18T09:13:19Z</time>
      </trkpt>
      <trkpt lat="39.17049619356042" lon="117.76190455321036">
        <ele>3.3</ele>
        <time>2025-09-18T09:13:21Z</time>
      </trkpt>
      <trkpt lat="39.17045515647638" lon="117.76181044578983">
        <ele>3.2</ele>
        <time>2025-09-18T09:13:23Z</time>
      </trkpt>
      <trkpt lat="39.17041112277279" lon="117.76171834154871">
        <ele>3.2</ele>
        <time>2025-09-18T09:13:25Z</time>
      </trkpt>
      <trkpt lat="39.170360081920606" lon="117.76160821722908">
        <ele>2.8</ele>
        <time>2025-09-18T09:13:27Z</time>
      </trkpt>
      <trkpt lat="39.170309041499664" lon="117.76149809347751">
        <ele>2.8</ele>
        <time>2025-09-18T09:13:30Z</time>
      </trkpt>
      <trkpt lat="39.17025700146557" lon="117.76138696924552">
        <ele>2.9</ele>
        <time>2025-09-18T09:13:32Z</time>
      </trkpt>
      <trkpt lat="39.17021296788549" lon="117.7612928644885">
        <ele>2.9</ele>
        <time>2025-09-18T09:13:34Z</time>
      </trkpt>
      <trkpt lat="39.170165937021935" lon="117.76119976169643">
        <ele>2.9</ele>
        <time>2025-09-18T09:13:36Z</time>
      </trkpt>
      <trkpt lat="39.170118908344115" lon="117.76110966280093">
        <ele>2.6</ele>
        <time>2025-09-18T09:13:38Z</time>
      </trkpt>
      <trkpt lat="39.17006988238243" lon="117.76102156685957">
        <ele>2.6</ele>
        <time>2025-09-18T09:13:40Z</time>
      </trkpt>
      <trkpt lat="39.170022857993935" lon="117.76093747564869">
        <ele>2.7</ele>
        <time>2025-09-18T09:13:42Z</time>
      </trkpt>
      <trkpt lat="39.16997483568206" lon="117.76085538720024">
        <ele>2.7</ele>
        <time>2025-09-18T09:13:44Z</time>
      </trkpt>
      <trkpt lat="39.16992581481586" lon="117.76077430034381">
        <ele>2.7</ele>
        <time>2025-09-18T09:13:46Z</time>
      </trkpt>
      <trkpt lat="39.169874794145734" lon="117.76069121176477">
        <ele>2.9</ele>
        <time>2025-09-18T09:13:48Z</time>
      </trkpt>
      <trkpt lat="39.16982377554624" lon="117.76061112693007">
        <ele>2.9</ele>
        <time>2025-09-18T09:13:50Z</time>
      </trkpt>
      <trkpt lat="39.169771759582616" lon="117.76053404593314">
        <ele>3.2</ele>
        <time>2025-09-18T09:13:52Z</time>
      </trkpt>
      <trkpt lat="39.169720744446124" lon="117.76045896735432">
        <ele>3.2</ele>
        <time>2025-09-18T09:13:54Z</time>
      </trkpt>
      <trkpt lat="39.16967172653187" lon="117.76038088540062">
        <ele>3.2</ele>
        <time>2025-09-18T09:13:56Z</time>
      </trkpt>
      <trkpt lat="39.16962170942774" lon="117.76030280386229">
        <ele>3.2</ele>
        <time>2025-09-18T09:13:58Z</time>
      </trkpt>
      <trkpt lat="39.16957069313393" lon="117.76022472273951">
        <ele>3.2</ele>
        <time>2025-09-18T09:14:00Z</time>
      </trkpt>
      <trkpt lat="39.16951967765072" lon="117.76014764302288">
        <ele>3.2</ele>
        <time>2025-09-18T09:14:02Z</time>
      </trkpt>
      <trkpt lat="39.16946666532881" lon="117.7600735671845">
        <ele>3.3</ele>
        <time>2025-09-18T09:14:04Z</time>
      </trkpt>
      <trkpt lat="39.16941465319967" lon="117.76000049258947">
        <ele>3.3</ele>
        <time>2025-09-18T09:14:06Z</time>
      </trkpt>
      <trkpt lat="39.169364640664384" lon="117.75992841910023">
        <ele>3.2</ele>
        <time>2025-09-18T09:14:08Z</time>
      </trkpt>
      <trkpt lat="39.16931662713447" lon="117.75985634560269">
        <ele>3.2</ele>
        <time>2025-09-18T09:14:10Z</time>
      </trkpt>
      <trkpt lat="39.16926761438317" lon="117.75978427247877">
        <ele>3.2</ele>
        <time>2025-09-18T09:14:12Z</time>
      </trkpt>
      <trkpt lat="39.16921760183519" lon="117.75971119863152">
        <ele>3.2</ele>
        <time>2025-09-18T09:14:14Z</time>
      </trkpt>
      <trkpt lat="39.16916858774354" lon="117.75963612272342">
        <ele>3.2</ele>
        <time>2025-09-18T09:14:16Z</time>
      </trkpt>
      <trkpt lat="39.169116573919155" lon="117.75955804419533">
        <ele>3.1</ele>
        <time>2025-09-18T09:14:18Z</time>
      </trkpt>
      <trkpt lat="39.169063560906444" lon="117.75947996608417">
        <ele>3.1</ele>
        <time>2025-09-18T09:14:20Z</time>
      </trkpt>
      <trkpt lat="39.169011545830465" lon="117.75939888488878">
        <ele>3.1</ele>
        <time>2025-09-18T09:14:22Z</time>
      </trkpt>
      <trkpt lat="39.16896053040122" lon="117.7593178038788">
        <ele>3.3</ele>
        <time>2025-09-18T09:14:24Z</time>
      </trkpt>
      <trkpt lat="39.168910513502155" lon="117.75923472090555">
        <ele>3.3</ele>
        <time>2025-09-18T09:14:26Z</time>
      </trkpt>
      <trkpt lat="39.16885849970156" lon="117.75915464172697">
        <ele>2.9</ele>
        <time>2025-09-18T09:14:28Z</time>
      </trkpt>
      <trkpt lat="39.168806487791066" lon="117.75907756605429">
        <ele>2.9</ele>
        <time>2025-09-18T09:14:30Z</time>
      </trkpt>
      <trkpt lat="39.168752477278765" lon="117.75900049091932">
        <ele>2.9</ele>
        <time>2025-09-18T09:14:32Z</time>
      </trkpt>
      <trkpt lat="39.16869946529694" lon="117.7589214138214">
        <ele>2.9</ele>
        <time>2025-09-18T09:14:34Z</time>
      </trkpt>
      <trkpt lat="39.16864645245414" lon="117.75884033491059">
        <ele>2.9</ele>
        <time>2025-09-18T09:14:36Z</time>
      </trkpt>
      <trkpt lat="39.16859543812635" lon="117.75875825500732">
        <ele>3</ele>
        <time>2025-09-18T09:14:38Z</time>
      </trkpt>
      <trkpt lat="39.16854542506632" lon="117.75867917844185">
        <ele>3</ele>
        <time>2025-09-18T09:14:40Z</time>
      </trkpt>
      <trkpt lat="39.16849441282503" lon="117.75860010230241">
        <ele>3</ele>
        <time>2025-09-18T09:14:42Z</time>
      </trkpt>
      <trkpt lat="39.16844240087023" lon="117.7585200255489">
        <ele>3.1</ele>
        <time>2025-09-18T09:14:44Z</time>
      </trkpt>
      <trkpt lat="39.16838938815193" lon="117.75843694612033">
        <ele>3.1</ele>
        <time>2025-09-18T09:14:46Z</time>
      </trkpt>
      <trkpt lat="39.16833537680284" lon="117.75835486818163">
        <ele>2.8</ele>
        <time>2025-09-18T09:14:48Z</time>
      </trkpt>
      <trkpt lat="39.168281366746186" lon="117.75827479262227">
        <ele>2.8</ele>
        <time>2025-09-18T09:14:50Z</time>
      </trkpt>
      <trkpt lat="39.16822635803552" lon="117.75819571852202">
        <ele>2.8</ele>
        <time>2025-09-18T09:14:52Z</time>
      </trkpt>
      <trkpt lat="39.168172348443754" lon="117.7581156435732">
        <ele>2.8</ele>
        <time>2025-09-18T09:14:54Z</time>
      </trkpt>
      <trkpt lat="39.1681193374649" lon="117.75803356677054">
        <ele>2.8</ele>
        <time>2025-09-18T09:14:56Z</time>
      </trkpt>
      <trkpt lat="39.16806832452532" lon="117.75794948801051">
        <ele>2.7</ele>
        <time>2025-09-18T09:14:58Z</time>
      </trkpt>
      <trkpt lat="39.1680163124354" lon="117.75786540971698">
        <ele>2.7</ele>
        <time>2025-09-18T09:15:00Z</time>
      </trkpt>
      <trkpt lat="39.16796330271216" lon="117.75778433490474">
        <ele>2.7</ele>
        <time>2025-09-18T09:15:02Z</time>
      </trkpt>
      <trkpt lat="39.167909293820905" lon="117.75770326053554">
        <ele>2.6</ele>
        <time>2025-09-18T09:15:04Z</time>
      </trkpt>
      <trkpt lat="39.16785628457844" lon="117.75762218635487">
        <ele>2.6</ele>
        <time>2025-09-18T09:15:06Z</time>
      </trkpt>
      <trkpt lat="39.167802275174665" lon="117.75753911063109">
        <ele>2.6</ele>
        <time>2025-09-18T09:15:08Z</time>
      </trkpt>
      <trkpt lat="39.16774826552986" lon="117.75745503425011">
        <ele>2.6</ele>
        <time>2025-09-18T09:15:10Z</time>
      </trkpt>
      <trkpt lat="39.167695254571065" lon="117.75736895611197">
        <ele>2.6</ele>
        <time>2025-09-18T09:15:12Z</time>
      </trkpt>
      <trkpt lat="39.16764224485849" lon="117.75728488029226">
        <ele>2.6</ele>
        <time>2025-09-18T09:15:14Z</time>
      </trkpt>
      <trkpt lat="39.16759023529762" lon="117.75720180566258">
        <ele>2.6</ele>
        <time>2025-09-18T09:15:16Z</time>
      </trkpt>
      <trkpt lat="39.16753822502709" lon="117.75711672941975">
        <ele>2.6</ele>
        <time>2025-09-18T09:15:18Z</time>
      </trkpt>
      <trkpt lat="39.167486216456794" lon="117.75703465643214">
        <ele>2.6</ele>
        <time>2025-09-18T09:15:20Z</time>
      </trkpt>
      <trkpt lat="39.16743420860908" lon="117.75695358473433">
        <ele>2.6</ele>
        <time>2025-09-18T09:15:22Z</time>
      </trkpt>
      <trkpt lat="39.16738220147513" lon="117.75687351431468">
        <ele>2.7</ele>
        <time>2025-09-18T09:15:24Z</time>
      </trkpt>
      <trkpt lat="39.16732919422976" lon="117.75679144241752">
        <ele>2.7</ele>
        <time>2025-09-18T09:15:26Z</time>
      </trkpt>
      <trkpt lat="39.16727818604814" lon="117.75670937059107">
        <ele>2.9</ele>
        <time>2025-09-18T09:15:28Z</time>
      </trkpt>
      <trkpt lat="39.167228176595465" lon="117.7566252970645">
        <ele>2.9</ele>
        <time>2025-09-18T09:15:30Z</time>
      </trkpt>
      <trkpt lat="39.16718216595538" lon="117.75654322526043">
        <ele>2.9</ele>
        <time>2025-09-18T09:15:32Z</time>
      </trkpt>
      <trkpt lat="39.16713815437898" lon="117.75646115352744">
        <ele>3</ele>
        <time>2025-09-18T09:15:34Z</time>
      </trkpt>
      <trkpt lat="39.16709414259596" lon="117.75637808118317">
        <ele>3</ele>
        <time>2025-09-18T09:15:36Z</time>
      </trkpt>
      <trkpt lat="39.16704913120758" lon="117.75629400836712">
        <ele>3.1</ele>
        <time>2025-09-18T09:15:38Z</time>
      </trkpt>
      <trkpt lat="39.167007118751314" lon="117.75621093644033">
        <ele>3.1</ele>
        <time>2025-09-18T09:15:40Z</time>
      </trkpt>
      <trkpt lat="39.16696510788442" lon="117.75613086762289">
        <ele>3.1</ele>
        <time>2025-09-18T09:15:42Z</time>
      </trkpt>
      <trkpt lat="39.166924098430826" lon="117.75605480267409">
        <ele>3.1</ele>
        <time>2025-09-18T09:15:44Z</time>
      </trkpt>
      <trkpt lat="39.166884089917275" lon="117.75598174063185">
        <ele>3.1</ele>
        <time>2025-09-18T09:15:46Z</time>
      </trkpt>
      <trkpt lat="39.16684108774882" lon="117.75591868837618">
        <ele>3.1</ele>
        <time>2025-09-18T09:15:48Z</time>
      </trkpt>
      <trkpt lat="39.16678910281652" lon="117.75588266209436">
        <ele>3.1</ele>
        <time>2025-09-18T09:15:50Z</time>
      </trkpt>
      <trkpt lat="39.166728140681194" lon="117.75588667351303">
        <ele>3.1</ele>
        <time>2025-09-18T09:15:52Z</time>
      </trkpt>
      <trkpt lat="39.16666619268485" lon="117.75592171340028">
        <ele>3.2</ele>
        <time>2025-09-18T09:15:54Z</time>
      </trkpt>
      <trkpt lat="39.16660925011777" lon="117.75597577013578">
        <ele>3.2</ele>
        <time>2025-09-18T09:15:56Z</time>
      </trkpt>
      <trkpt lat="39.16655330927496" lon="117.75603483148713">
        <ele>3.2</ele>
        <time>2025-09-18T09:15:58Z</time>
      </trkpt>
      <trkpt lat="39.166495371965595" lon="117.75609889787917">
        <ele>3.2</ele>
        <time>2025-09-18T09:16:00Z</time>
      </trkpt>
      <trkpt lat="39.16643543599282" lon="117.75616296472452">
        <ele>3.2</ele>
        <time>2025-09-18T09:16:02Z</time>
      </trkpt>
      <trkpt lat="39.16637550062087" lon="117.75622803269826">
        <ele>2.9</ele>
        <time>2025-09-18T09:16:04Z</time>
      </trkpt>
      <trkpt lat="39.166314566449195" lon="117.75629410193712">
        <ele>2.9</ele>
        <time>2025-09-18T09:16:06Z</time>
      </trkpt>
      <trkpt lat="39.16625363289274" lon="117.7563611723233">
        <ele>2.9</ele>
        <time>2025-09-18T09:16:08Z</time>
      </trkpt>
      <trkpt lat="39.166192700415" lon="117.75643024480604">
        <ele>3.1</ele>
        <time>2025-09-18T09:16:10Z</time>
      </trkpt>
      <trkpt lat="39.16613076824732" lon="117.75649831670373">
        <ele>3.1</ele>
        <time>2025-09-18T09:16:12Z</time>
      </trkpt>
      <trkpt lat="39.16606683605247" lon="117.75656338624152">
        <ele>3</ele>
        <time>2025-09-18T09:16:14Z</time>
      </trkpt>
      <trkpt lat="39.16600190460679" lon="117.75662845611105">
        <ele>3</ele>
        <time>2025-09-18T09:16:16Z</time>
      </trkpt>
      <trkpt lat="39.165935973910294" lon="117.75669352631226">
        <ele>3</ele>
        <time>2025-09-18T09:16:18Z</time>
      </trkpt>
      <trkpt lat="39.16587104184169" lon="117.75675659467963">
        <ele>3.2</ele>
        <time>2025-09-18T09:16:20Z</time>
      </trkpt>
      <trkpt lat="39.16580610897951" lon="117.75681766132209">
        <ele>3.2</ele>
        <time>2025-09-18T09:16:22Z</time>
      </trkpt>
      <trkpt lat="39.16574217471773" lon="117.7568767260946">
        <ele>3.4</ele>
        <time>2025-09-18T09:16:24Z</time>
      </trkpt>
      <trkpt lat="39.16567824153462" lon="117.75693779296346">
        <ele>3.4</ele>
        <time>2025-09-18T09:16:26Z</time>
      </trkpt>
      <trkpt lat="39.165615306466016" lon="117.75699585698368">
        <ele>3.4</ele>
        <time>2025-09-18T09:16:28Z</time>
      </trkpt>
      <trkpt lat="39.16555037222848" lon="117.75705292045119">
        <ele>3.4</ele>
        <time>2025-09-18T09:16:30Z</time>
      </trkpt>
      <trkpt lat="39.16548543618762" lon="117.75710598018615">
        <ele>3.4</ele>
        <time>2025-09-18T09:16:32Z</time>
      </trkpt>
      <trkpt lat="39.16541750154649" lon="117.75715803946369">
        <ele>3.1</ele>
        <time>2025-09-18T09:16:34Z</time>
      </trkpt>
      <trkpt lat="39.16535056689819" lon="117.75721109972166">
        <ele>3.1</ele>
        <time>2025-09-18T09:16:36Z</time>
      </trkpt>
      <trkpt lat="39.16528363235446" lon="117.75726416011504">
        <ele>3.1</ele>
        <time>2025-09-18T09:16:38Z</time>
      </trkpt>
      <trkpt lat="39.16521769634529" lon="117.75731521855178">
        <ele>2.9</ele>
        <time>2025-09-18T09:16:40Z</time>
      </trkpt>
      <trkpt lat="39.16515275934976" lon="117.75736527600182">
        <ele>2.9</ele>
        <time>2025-09-18T09:16:42Z</time>
      </trkpt>
      <trkpt lat="39.16508782146295" lon="117.75741333159809">
        <ele>3</ele>
        <time>2025-09-18T09:16:44Z</time>
      </trkpt>
      <trkpt lat="39.165024882476324" lon="117.75746138705075">
        <ele>3</ele>
        <time>2025-09-18T09:16:46Z</time>
      </trkpt>
      <trkpt lat="39.16496294199138" lon="117.7575074405038">
        <ele>3</ele>
        <time>2025-09-18T09:16:48Z</time>
      </trkpt>
      <trkpt lat="39.16490299990222" lon="117.75755249281038">
        <ele>2.8</ele>
        <time>2025-09-18T09:16:50Z</time>
      </trkpt>
      <trkpt lat="39.16484405829331" lon="117.75759954707902">
        <ele>2.8</ele>
        <time>2025-09-18T09:16:52Z</time>
      </trkpt>
      <trkpt lat="39.164786115672854" lon="117.75764560032844">
        <ele>2.7</ele>
        <time>2025-09-18T09:16:54Z</time>
      </trkpt>
      <trkpt lat="39.164727172719424" lon="117.75768965180613">
        <ele>2.7</ele>
        <time>2025-09-18T09:16:56Z</time>
      </trkpt>
      <trkpt lat="39.16466622850537" lon="117.75772869861979">
        <ele>2.7</ele>
        <time>2025-09-18T09:16:58Z</time>
      </trkpt>
      <trkpt lat="39.16460228713753" lon="117.75776974789667">
        <ele>2.7</ele>
        <time>2025-09-18T09:17:00Z</time>
      </trkpt>
      <trkpt lat="39.16453634904552" lon="117.75781480153388">
        <ele>2.7</ele>
        <time>2025-09-18T09:17:02Z</time>
      </trkpt>
      <trkpt lat="39.16447141094446" lon="117.75786085614963">
        <ele>2.5</ele>
        <time>2025-09-18T09:17:04Z</time>
      </trkpt>
      <trkpt lat="39.164409470122735" lon="117.75790490846376">
        <ele>2.5</ele>
        <time>2025-09-18T09:17:06Z</time>
      </trkpt>
      <trkpt lat="39.16434752834986" lon="117.75794695884537">
        <ele>2.5</ele>
        <time>2025-09-18T09:17:08Z</time>
      </trkpt>
      <trkpt lat="39.164282588422225" lon="117.7579890096935">
        <ele>2.6</ele>
        <time>2025-09-18T09:17:10Z</time>
      </trkpt>
      <trkpt lat="39.164213650418624" lon="117.75803006011864">
        <ele>2.6</ele>
        <time>2025-09-18T09:17:12Z</time>
      </trkpt>
      <trkpt lat="39.16414371307133" lon="117.75807111075171">
        <ele>2.7</ele>
        <time>2025-09-18T09:17:14Z</time>
      </trkpt>
      <trkpt lat="39.16407577253068" lon="117.7581081571288">
        <ele>2.7</ele>
        <time>2025-09-18T09:17:16Z</time>
      </trkpt>
      <trkpt lat="39.164005833228224" lon="117.75814520382605">
        <ele>2.7</ele>
        <time>2025-09-18T09:17:18Z</time>
      </trkpt>
      <trkpt lat="39.163934894570836" lon="117.75818225071619">
        <ele>2.5</ele>
        <time>2025-09-18T09:17:20Z</time>
      </trkpt>
      <trkpt lat="39.16386095983145" lon="117.7582233021571">
        <ele>2.5</ele>
        <time>2025-09-18T09:17:22Z</time>
      </trkpt>
      <trkpt lat="39.16378902449184" lon="117.75826535445196">
        <ele>2.5</ele>
        <time>2025-09-18T09:17:24Z</time>
      </trkpt>
      <trkpt lat="39.16371709026787" lon="117.75830940889135">
        <ele>2.5</ele>
        <time>2025-09-18T09:17:26Z</time>
      </trkpt>
      <trkpt lat="39.163646153944065" lon="117.75835046019992">
        <ele>2.5</ele>
        <time>2025-09-18T09:17:28Z</time>
      </trkpt>
      <trkpt lat="39.163573219925766" lon="117.75839351391157">
        <ele>2.6</ele>
        <time>2025-09-18T09:17:30Z</time>
      </trkpt>
      <trkpt lat="39.16350228637812" lon="117.7584395705659">
        <ele>2.6</ele>
        <time>2025-09-18T09:17:32Z</time>
      </trkpt>
      <trkpt lat="39.163433354378526" lon="117.75849063226005">
        <ele>2.8</ele>
        <time>2025-09-18T09:17:34Z</time>
      </trkpt>
      <trkpt lat="39.16336542348145" lon="117.75854469707515">
        <ele>2.8</ele>
        <time>2025-09-18T09:17:36Z</time>
      </trkpt>
      <trkpt lat="39.163301489782654" lon="117.75859776047687">
        <ele>2.8</ele>
        <time>2025-09-18T09:17:38Z</time>
      </trkpt>
      <trkpt lat="39.16323755565029" lon="117.75864982296659">
        <ele>2.8</ele>
        <time>2025-09-18T09:17:40Z</time>
      </trkpt>
      <trkpt lat="39.163176618758975" lon="117.75869988310627">
        <ele>2.8</ele>
        <time>2025-09-18T09:17:42Z</time>
      </trkpt>
      <trkpt lat="39.16311668136617" lon="117.7587499432382">
        <ele>2.9</ele>
        <time>2025-09-18T09:17:44Z</time>
      </trkpt>
      <trkpt lat="39.16305774455692" lon="117.75880200546949">
        <ele>2.9</ele>
        <time>2025-09-18T09:17:46Z</time>
      </trkpt>
      <trkpt lat="39.16299980725338" lon="117.75885406770271">
        <ele>2.9</ele>
        <time>2025-09-18T09:17:48Z</time>
      </trkpt>
      <trkpt lat="39.162939872329325" lon="117.75890813243686">
        <ele>3</ele>
        <time>2025-09-18T09:17:50Z</time>
      </trkpt>
      <trkpt lat="39.1628799375123" lon="117.75896219731023">
        <ele>3</ele>
        <time>2025-09-18T09:17:52Z</time>
      </trkpt>
      <trkpt lat="39.162817006234725" lon="117.75901926589626">
        <ele>3</ele>
        <time>2025-09-18T09:17:54Z</time>
      </trkpt>
      <trkpt lat="39.16275507337756" lon="117.75907433237677">
        <ele>3</ele>
        <time>2025-09-18T09:17:56Z</time>
      </trkpt>
      <trkpt lat="39.16269313952254" lon="117.75912739686319">
        <ele>3</ele>
        <time>2025-09-18T09:17:58Z</time>
      </trkpt>
      <trkpt lat="39.162633204583" lon="117.75918046122906">
        <ele>3</ele>
        <time>2025-09-18T09:18:00Z</time>
      </trkpt>
      <trkpt lat="39.162573269188265" lon="117.75923252465465">
        <ele>3</ele>
        <time>2025-09-18T09:18:02Z</time>
      </trkpt>
      <trkpt lat="39.16251132388675" lon="117.75926456694073">
        <ele>3.2</ele>
        <time>2025-09-18T09:18:04Z</time>
      </trkpt>
      <trkpt lat="39.162452355010956" lon="117.75925756691964">
        <ele>3.2</ele>
        <time>2025-09-18T09:18:06Z</time>
      </trkpt>
      <trkpt lat="39.16239935913647" lon="117.75920852102962">
        <ele>3.2</ele>
        <time>2025-09-18T09:18:08Z</time>
      </trkpt>
      <trkpt lat="39.16235234535484" lon="117.7591334466698">
        <ele>3</ele>
        <time>2025-09-18T09:18:10Z</time>
      </trkpt>
      <trkpt lat="39.16230732562417" lon="117.75904936273339">
        <ele>3</ele>
        <time>2025-09-18T09:18:12Z</time>
      </trkpt>
      <trkpt lat="39.16226130674352" lon="117.7589652792612">
        <ele>3</ele>
        <time>2025-09-18T09:18:14Z</time>
      </trkpt>
      <trkpt lat="39.162213290398064" lon="117.7588831984955">
        <ele>3.2</ele>
        <time>2025-09-18T09:18:16Z</time>
      </trkpt>
      <trkpt lat="39.16216527429703" lon="117.75880111805127">
        <ele>3.2</ele>
        <time>2025-09-18T09:18:18Z</time>
      </trkpt>
      <trkpt lat="39.16211625903455" lon="117.75871903805587">
        <ele>2.8</ele>
        <time>2025-09-18T09:18:20Z</time>
      </trkpt>
      <trkpt lat="39.162066243001085" lon="117.75863395537259">
        <ele>2.8</ele>
        <time>2025-09-18T09:18:22Z</time>
      </trkpt>
      <trkpt lat="39.16201722770354" lon="117.75855087499106">
        <ele>2.8</ele>
        <time>2025-09-18T09:18:24Z</time>
      </trkpt>
      <trkpt lat="39.16196821371797" lon="117.75846979701485">
        <ele>2.8</ele>
        <time>2025-09-18T09:18:26Z</time>
      </trkpt>
      <trkpt lat="39.16192020043278" lon="117.75839072129357">
        <ele>2.8</ele>
        <time>2025-09-18T09:18:28Z</time>
      </trkpt>
      <trkpt lat="39.16186919073218" lon="117.75831464934389">
        <ele>2.7</ele>
        <time>2025-09-18T09:18:30Z</time>
      </trkpt>
      <trkpt lat="39.161817181836646" lon="117.75823857779855">
        <ele>2.7</ele>
        <time>2025-09-18T09:18:32Z</time>
      </trkpt>
      <trkpt lat="39.16176517315215" lon="117.7581625065304">
        <ele>2.7</ele>
        <time>2025-09-18T09:18:34Z</time>
      </trkpt>
      <trkpt lat="39.16171815964163" lon="117.75808243082635">
        <ele>2.8</ele>
        <time>2025-09-18T09:18:36Z</time>
      </trkpt>
      <trkpt lat="39.16167414355519" lon="117.75800035301742">
        <ele>2.8</ele>
        <time>2025-09-18T09:18:38Z</time>
      </trkpt>
      <trkpt lat="39.16163112763063" lon="117.75791927641563">
        <ele>2.9</ele>
        <time>2025-09-18T09:18:40Z</time>
      </trkpt>
      <trkpt lat="39.16158511525146" lon="117.7578412035335">
        <ele>2.9</ele>
        <time>2025-09-18T09:18:42Z</time>
      </trkpt>
      <trkpt lat="39.16153710579813" lon="117.75776613421019">
        <ele>2.9</ele>
        <time>2025-09-18T09:18:44Z</time>
      </trkpt>
      <trkpt lat="39.1614900959565" lon="117.75769106503027">
        <ele>2.7</ele>
        <time>2025-09-18T09:18:46Z</time>
      </trkpt>
      <trkpt lat="39.16144308632089" lon="117.75761599612113">
        <ele>2.7</ele>
        <time>2025-09-18T09:18:48Z</time>
      </trkpt>
      <trkpt lat="39.16139907610211" lon="117.75754292908745">
        <ele>2.8</ele>
        <time>2025-09-18T09:18:50Z</time>
      </trkpt>
      <trkpt lat="39.16135806577837" lon="117.75747286489805">
        <ele>2.8</ele>
        <time>2025-09-18T09:18:52Z</time>
      </trkpt>
      <trkpt lat="39.16132105473229" lon="117.75740580339537">
        <ele>2.8</ele>
        <time>2025-09-18T09:18:54Z</time>
      </trkpt>
      <trkpt lat="39.16129004175303" lon="117.75734174429593">
        <ele>2.8</ele>
        <time>2025-09-18T09:18:56Z</time>
      </trkpt>
      <trkpt lat="39.161274023907076" lon="117.75728569133015">
        <ele>2.8</ele>
        <time>2025-09-18T09:18:58Z</time>
      </trkpt>
      <trkpt lat="39.161275999362005" lon="117.75723764405144">
        <ele>3</ele>
        <time>2025-09-18T09:19:00Z</time>
      </trkpt>
      <trkpt lat="39.16129496818589" lon="117.75719660155494">
        <ele>3</ele>
        <time>2025-09-18T09:19:04Z</time>
      </trkpt>
      <trkpt lat="39.164645500607264" lon="117.76315283007403">
        <ele>1.4</ele>
        <time>2025-09-18T09:30:27Z</time>
      </trkpt>
      <trkpt lat="39.1647774537688" lon="117.76319786996174">
        <ele>1.4</ele>
        <time>2025-09-18T09:30:29Z</time>
      </trkpt>
      <trkpt lat="39.16485844706335" lon="117.76325693411187">
        <ele>1.6</ele>
        <time>2025-09-18T09:30:32Z</time>
      </trkpt>
      <trkpt lat="39.164890469534754" lon="117.763316004656">
        <ele>1.6</ele>
        <time>2025-09-18T09:30:34Z</time>
      </trkpt>
      <trkpt lat="39.164927468013296" lon="117.76334503668379">
        <ele>1.6</ele>
        <time>2025-09-18T09:30:36Z</time>
      </trkpt>
      <trkpt lat="39.16497343228912" lon="117.76333301562782">
        <ele>1.6</ele>
        <time>2025-09-18T09:30:38Z</time>
      </trkpt>
      <trkpt lat="39.16502837014108" lon="117.76329095546703">
        <ele>1.6</ele>
        <time>2025-09-18T09:30:40Z</time>
      </trkpt>
      <trkpt lat="39.1650823002379" lon="117.76323688036341">
        <ele>1.5</ele>
        <time>2025-09-18T09:30:42Z</time>
      </trkpt>
      <trkpt lat="39.16513622973948" lon="117.76318180413499">
        <ele>1.5</ele>
        <time>2025-09-18T09:30:44Z</time>
      </trkpt>
      <trkpt lat="39.165190160045356" lon="117.76312772930405">
        <ele>1.4</ele>
        <time>2025-09-18T09:30:46Z</time>
      </trkpt>
      <trkpt lat="39.165245092642344" lon="117.76307765950064">
        <ele>1.4</ele>
        <time>2025-09-18T09:30:48Z</time>
      </trkpt>
      <trkpt lat="39.16530202344962" lon="117.7630265883061">
        <ele>1.4</ele>
        <time>2025-09-18T09:30:50Z</time>
      </trkpt>
      <trkpt lat="39.165363950694584" lon="117.76297451534596">
        <ele>1.5</ele>
        <time>2025-09-18T09:30:52Z</time>
      </trkpt>
      <trkpt lat="39.16543087714198" lon="117.76292544561888">
        <ele>1.5</ele>
        <time>2025-09-18T09:30:54Z</time>
      </trkpt>
      <trkpt lat="39.16550080258582" lon="117.76287737686727">
        <ele>1.7</ele>
        <time>2025-09-18T09:30:56Z</time>
      </trkpt>
      <trkpt lat="39.16556872929804" lon="117.76282930847705">
        <ele>1.7</ele>
        <time>2025-09-18T09:30:58Z</time>
      </trkpt>
      <trkpt lat="39.165634653855385" lon="117.76277623424262">
        <ele>1.7</ele>
        <time>2025-09-18T09:31:00Z</time>
      </trkpt>
      <trkpt lat="39.16570057919618" lon="117.76272416137732">
        <ele>1.5</ele>
        <time>2025-09-18T09:31:02Z</time>
      </trkpt>
      <trkpt lat="39.16576450309597" lon="117.76266808394783">
        <ele>1.5</ele>
        <time>2025-09-18T09:31:04Z</time>
      </trkpt>
      <trkpt lat="39.16582743041585" lon="117.76261601172531">
        <ele>1.3</ele>
        <time>2025-09-18T09:31:06Z</time>
      </trkpt>
      <trkpt lat="39.16588836037196" lon="117.76256594234542">
        <ele>1.3</ele>
        <time>2025-09-18T09:31:08Z</time>
      </trkpt>
      <trkpt lat="39.1659542901572" lon="117.76251987736183">
        <ele>1.3</ele>
        <time>2025-09-18T09:31:10Z</time>
      </trkpt>
      <trkpt lat="39.166026212421606" lon="117.76246780435258">
        <ele>1.4</ele>
        <time>2025-09-18T09:31:12Z</time>
      </trkpt>
      <trkpt lat="39.16610412854213" lon="117.76241172580941">
        <ele>1.4</ele>
        <time>2025-09-18T09:31:14Z</time>
      </trkpt>
      <trkpt lat="39.16618304619289" lon="117.76235865094968">
        <ele>1.5</ele>
        <time>2025-09-18T09:31:16Z</time>
      </trkpt>
      <trkpt lat="39.16626096787803" lon="117.76231058244426">
        <ele>1.5</ele>
        <time>2025-09-18T09:31:18Z</time>
      </trkpt>
      <trkpt lat="39.166336890165375" lon="117.7622615130836">
        <ele>1.5</ele>
        <time>2025-09-18T09:31:20Z</time>
      </trkpt>
      <trkpt lat="39.16641480736818" lon="117.7622064362927">
        <ele>1.5</ele>
        <time>2025-09-18T09:31:22Z</time>
      </trkpt>
      <trkpt lat="39.16649672231155" lon="117.76215135913408">
        <ele>1.5</ele>
        <time>2025-09-18T09:31:24Z</time>
      </trkpt>
      <trkpt lat="39.16658263763842" lon="117.76210028644557">
        <ele>1.5</ele>
        <time>2025-09-18T09:31:26Z</time>
      </trkpt>
      <trkpt lat="39.16667055648916" lon="117.7620562220753">
        <ele>1.5</ele>
        <time>2025-09-18T09:31:28Z</time>
      </trkpt>
      <trkpt lat="39.166756479884285" lon="117.76201716407759">
        <ele>1.5</ele>
        <time>2025-09-18T09:31:30Z</time>
      </trkpt>
      <trkpt lat="39.16683341260418" lon="117.7619841145198">
        <ele>1.4</ele>
        <time>2025-09-18T09:31:32Z</time>
      </trkpt>
      <trkpt lat="39.1668943627059" lon="117.76196308148278">
        <ele>1.4</ele>
        <time>2025-09-18T09:31:34Z</time>
      </trkpt>
      <trkpt lat="39.16693832420012" lon="117.76194405303362">
        <ele>1.3</ele>
        <time>2025-09-18T09:31:38Z</time>
      </trkpt>
      <trkpt lat="39.16697429371721" lon="117.76193003162652">
        <ele>1.4</ele>
        <time>2025-09-18T09:31:48Z</time>
      </trkpt>
      <trkpt lat="39.16701425564145" lon="117.76190800011366">
        <ele>1.4</ele>
        <time>2025-09-18T09:31:50Z</time>
      </trkpt>
      <trkpt lat="39.1670642103572" lon="117.76188396495218">
        <ele>1.3</ele>
        <time>2025-09-18T09:31:52Z</time>
      </trkpt>
      <trkpt lat="39.167119160178096" lon="117.76185692558673">
        <ele>1.3</ele>
        <time>2025-09-18T09:31:54Z</time>
      </trkpt>
      <trkpt lat="39.16717411393344" lon="117.76183589343766">
        <ele>1.2</ele>
        <time>2025-09-18T09:31:56Z</time>
      </trkpt>
      <trkpt lat="39.16722307255862" lon="117.76181686446512">
        <ele>1.2</ele>
        <time>2025-09-18T09:31:58Z</time>
      </trkpt>
      <trkpt lat="39.16726103640895" lon="117.76179583451827">
        <ele>1.2</ele>
        <time>2025-09-18T09:32:00Z</time>
      </trkpt>
      <trkpt lat="39.16729799567528" lon="117.76176679516612">
        <ele>1.3</ele>
        <time>2025-09-18T09:32:04Z</time>
      </trkpt>
      <trkpt lat="39.16734194953311" lon="117.76173575257762">
        <ele>1.3</ele>
        <time>2025-09-18T09:32:08Z</time>
      </trkpt>
      <trkpt lat="39.16739589944728" lon="117.76170771233514">
        <ele>1.3</ele>
        <time>2025-09-18T09:32:10Z</time>
      </trkpt>
      <trkpt lat="39.16745684524754" lon="117.76167967123872">
        <ele>1.1</ele>
        <time>2025-09-18T09:32:12Z</time>
      </trkpt>
      <trkpt lat="39.16752378559203" lon="117.76164862585007">
        <ele>1.1</ele>
        <time>2025-09-18T09:32:14Z</time>
      </trkpt>
      <trkpt lat="39.16759472103131" lon="117.76161357524997">
        <ele>1.1</ele>
        <time>2025-09-18T09:32:16Z</time>
      </trkpt>
      <trkpt lat="39.16766865024641" lon="117.76157151603064">
        <ele>1.1</ele>
        <time>2025-09-18T09:32:18Z</time>
      </trkpt>
      <trkpt lat="39.16774557326901" lon="117.76152244823353">
        <ele>1.1</ele>
        <time>2025-09-18T09:32:20Z</time>
      </trkpt>
      <trkpt lat="39.16782548822153" lon="117.76146336836747">
        <ele>1.3</ele>
        <time>2025-09-18T09:32:22Z</time>
      </trkpt>
      <trkpt lat="39.16790640080108" lon="117.76140128500683">
        <ele>1.3</ele>
        <time>2025-09-18T09:32:24Z</time>
      </trkpt>
      <trkpt lat="39.16798931487202" lon="117.76134320626824">
        <ele>1.4</ele>
        <time>2025-09-18T09:32:26Z</time>
      </trkpt>
      <trkpt lat="39.168071230289044" lon="117.76128612898631">
        <ele>1.4</ele>
        <time>2025-09-18T09:32:28Z</time>
      </trkpt>
      <trkpt lat="39.16815414334395" lon="117.76122604822375">
        <ele>1.4</ele>
        <time>2025-09-18T09:32:30Z</time>
      </trkpt>
      <trkpt lat="39.16823405265834" lon="117.76115695752202">
        <ele>1.6</ele>
        <time>2025-09-18T09:32:32Z</time>
      </trkpt>
      <trkpt lat="39.16830996201253" lon="117.76108386290518">
        <ele>1.6</ele>
        <time>2025-09-18T09:32:34Z</time>
      </trkpt>
      <trkpt lat="39.1683798726204" lon="117.76100676466912">
        <ele>1.6</ele>
        <time>2025-09-18T09:32:36Z</time>
      </trkpt>
      <trkpt lat="39.16844478516108" lon="117.76092766503938">
        <ele>1.6</ele>
        <time>2025-09-18T09:32:38Z</time>
      </trkpt>
      <trkpt lat="39.16850969854272" lon="117.76084956685466">
        <ele>1.6</ele>
        <time>2025-09-18T09:32:40Z</time>
      </trkpt>
      <trkpt lat="39.168572615166916" lon="117.76077447265322">
        <ele>1.5</ele>
        <time>2025-09-18T09:32:42Z</time>
      </trkpt>
      <trkpt lat="39.16863153680319" lon="117.76070338380184">
        <ele>1.5</ele>
        <time>2025-09-18T09:32:44Z</time>
      </trkpt>
      <trkpt lat="39.16868646098665" lon="117.76063229569748">
        <ele>1.5</ele>
        <time>2025-09-18T09:32:46Z</time>
      </trkpt>
      <trkpt lat="39.16873938411102" lon="117.76055720353692">
        <ele>1.5</ele>
        <time>2025-09-18T09:32:48Z</time>
      </trkpt>
      <trkpt lat="39.16879330322875" lon="117.76047610471444">
        <ele>1.5</ele>
        <time>2025-09-18T09:32:50Z</time>
      </trkpt>
      <trkpt lat="39.16884422255687" lon="117.76039200319588">
        <ele>1.7</ele>
        <time>2025-09-18T09:32:52Z</time>
      </trkpt>
      <trkpt lat="39.168891147488885" lon="117.76031290814743">
        <ele>1.7</ele>
        <time>2025-09-18T09:32:54Z</time>
      </trkpt>
      <trkpt lat="39.16893308273505" lon="117.76024582749602">
        <ele>1.7</ele>
        <time>2025-09-18T09:32:56Z</time>
      </trkpt>
      <trkpt lat="39.168967031760445" lon="117.76019376486887">
        <ele>1.6</ele>
        <time>2025-09-18T09:32:58Z</time>
      </trkpt>
      <trkpt lat="39.16899898975068" lon="117.76015471715534">
        <ele>1.6</ele>
        <time>2025-09-18T09:33:00Z</time>
      </trkpt>
      <trkpt lat="39.16903295369588" lon="117.76012768265748">
        <ele>1.6</ele>
        <time>2025-09-18T09:33:04Z</time>
      </trkpt>
      <trkpt lat="39.169072920016845" lon="117.76011065858808">
        <ele>1.7</ele>
        <time>2025-09-18T09:33:08Z</time>
      </trkpt>
      <trkpt lat="39.16912088633424" lon="117.76010164243719">
        <ele>1.7</ele>
        <time>2025-09-18T09:33:10Z</time>
      </trkpt>
      <trkpt lat="39.16917185029299" lon="117.76009162479319">
        <ele>1.4</ele>
        <time>2025-09-18T09:33:12Z</time>
      </trkpt>
      <trkpt lat="39.169226807771594" lon="117.76007459884367">
        <ele>1.4</ele>
        <time>2025-09-18T09:33:14Z</time>
      </trkpt>
      <trkpt lat="39.16928076350166" lon="117.76005356858155">
        <ele>1.4</ele>
        <time>2025-09-18T09:33:16Z</time>
      </trkpt>
      <trkpt lat="39.16933672100209" lon="117.76003754364783">
        <ele>1.4</ele>
        <time>2025-09-18T09:33:18Z</time>
      </trkpt>
      <trkpt lat="39.169394688482775" lon="117.76004053960392">
        <ele>1.4</ele>
        <time>2025-09-18T09:33:20Z</time>
      </trkpt>
      <trkpt lat="39.16944667773757" lon="117.76007457084418">
        <ele>1.4</ele>
        <time>2025-09-18T09:33:22Z</time>
      </trkpt>
      <trkpt lat="39.1694896853366" lon="117.76013062784607">
        <ele>1.4</ele>
        <time>2025-09-18T09:33:24Z</time>
      </trkpt>
      <trkpt lat="39.16952570133449" lon="117.76019369372597">
        <ele>1.4</ele>
        <time>2025-09-18T09:33:26Z</time>
      </trkpt>
      <trkpt lat="39.1695667133306" lon="117.76025475691198">
        <ele>1.5</ele>
        <time>2025-09-18T09:33:28Z</time>
      </trkpt>
      <trkpt lat="39.16961072368812" lon="117.76031581989254">
        <ele>1.5</ele>
        <time>2025-09-18T09:33:30Z</time>
      </trkpt>
      <trkpt lat="39.16965473657762" lon="117.76038088756417">
        <ele>1.3</ele>
        <time>2025-09-18T09:33:32Z</time>
      </trkpt>
      <trkpt lat="39.16970074843761" lon="117.76044595518137">
        <ele>1.3</ele>
        <time>2025-09-18T09:33:34Z</time>
      </trkpt>
      <trkpt lat="39.16974676044994" lon="117.76051102299856">
        <ele>1.3</ele>
        <time>2025-09-18T09:33:36Z</time>
      </trkpt>
      <trkpt lat="39.16979377323669" lon="117.76057809316453">
        <ele>1.4</ele>
        <time>2025-09-18T09:33:38Z</time>
      </trkpt>
      <trkpt lat="39.16983978860297" lon="117.76064816709415">
        <ele>1.4</ele>
        <time>2025-09-18T09:33:40Z</time>
      </trkpt>
      <trkpt lat="39.1698838065504" lon="117.76072024379944">
        <ele>1.4</ele>
        <time>2025-09-18T09:33:42Z</time>
      </trkpt>
      <trkpt lat="39.16992882593607" lon="117.76079532406732">
        <ele>1.4</ele>
        <time>2025-09-18T09:33:44Z</time>
      </trkpt>
      <trkpt lat="39.16997384552373" lon="117.76087040460081">
        <ele>1.4</ele>
        <time>2025-09-18T09:33:46Z</time>
      </trkpt>
      <trkpt lat="39.17001886593297" lon="117.76094648655527">
        <ele>1.3</ele>
        <time>2025-09-18T09:33:48Z</time>
      </trkpt>
      <trkpt lat="39.17006088894409" lon="117.76102357032306">
        <ele>1.3</ele>
        <time>2025-09-18T09:33:50Z</time>
      </trkpt>
      <trkpt lat="39.17010291341811" lon="117.761102656696">
        <ele>1.4</ele>
        <time>2025-09-18T09:33:52Z</time>
      </trkpt>
      <trkpt lat="39.17014593815294" lon="117.76118274440235">
        <ele>1.4</ele>
        <time>2025-09-18T09:33:54Z</time>
      </trkpt>
      <trkpt lat="39.170188965640996" lon="117.76126683709197">
        <ele>1.4</ele>
        <time>2025-09-18T09:33:56Z</time>
      </trkpt>
      <trkpt lat="39.17023299469312" lon="117.76135393351022">
        <ele>1.5</ele>
        <time>2025-09-18T09:33:58Z</time>
      </trkpt>
      <trkpt lat="39.170276025243645" lon="117.76144203159052">
        <ele>1.5</ele>
        <time>2025-09-18T09:34:00Z</time>
      </trkpt>
      <trkpt lat="39.17031705469021" lon="117.76152612555795">
        <ele>1.5</ele>
        <time>2025-09-18T09:34:02Z</time>
      </trkpt>
      <trkpt lat="39.17035808374515" lon="117.7616092186702">
        <ele>1.5</ele>
        <time>2025-09-18T09:34:04Z</time>
      </trkpt>
      <trkpt lat="39.17040211256643" lon="117.7616943141053">
        <ele>1.5</ele>
        <time>2025-09-18T09:34:06Z</time>
      </trkpt>
      <trkpt lat="39.17044514288514" lon="117.7617804112013">
        <ele>1.5</ele>
        <time>2025-09-18T09:34:08Z</time>
      </trkpt>
      <trkpt lat="39.17048617334362" lon="117.7618645065013">
        <ele>1.5</ele>
        <time>2025-09-18T09:34:10Z</time>
      </trkpt>
      <trkpt lat="39.17052820411794" lon="117.76194960320726">
        <ele>1.2</ele>
        <time>2025-09-18T09:34:12Z</time>
      </trkpt>
      <trkpt lat="39.170571237851014" lon="117.76203970615772">
        <ele>1.2</ele>
        <time>2025-09-18T09:34:14Z</time>
      </trkpt>
      <trkpt lat="39.17061227570022" lon="117.76213381458616">
        <ele>1.2</ele>
        <time>2025-09-18T09:34:16Z</time>
      </trkpt>
      <trkpt lat="39.17064631666623" lon="117.76222592188749">
        <ele>1.4</ele>
        <time>2025-09-18T09:34:18Z</time>
      </trkpt>
      <trkpt lat="39.170682354077904" lon="117.76231402445106">
        <ele>1.4</ele>
        <time>2025-09-18T09:34:20Z</time>
      </trkpt>
      <trkpt lat="39.17071839310676" lon="117.7624041298238">
        <ele>1.4</ele>
        <time>2025-09-18T09:34:22Z</time>
      </trkpt>
      <trkpt lat="39.170753432338266" lon="117.76249323447387">
        <ele>1.4</ele>
        <time>2025-09-18T09:34:24Z</time>
      </trkpt>
      <trkpt lat="39.17078547158832" lon="117.76257933617894">
        <ele>1.4</ele>
        <time>2025-09-18T09:34:26Z</time>
      </trkpt>
      <trkpt lat="39.170818508467555" lon="117.76266243439379">
        <ele>1.6</ele>
        <time>2025-09-18T09:34:28Z</time>
      </trkpt>
      <trkpt lat="39.17085254226615" lon="117.76274152784384">
        <ele>1.6</ele>
        <time>2025-09-18T09:34:30Z</time>
      </trkpt>
      <trkpt lat="39.17088657765748" lon="117.7628226240709">
        <ele>0.9</ele>
        <time>2025-09-18T09:34:32Z</time>
      </trkpt>
      <trkpt lat="39.17091661495295" lon="117.7629027198651">
        <ele>0.9</ele>
        <time>2025-09-18T09:34:34Z</time>
      </trkpt>
      <trkpt lat="39.170941658193556" lon="117.76298682159624">
        <ele>0.9</ele>
        <time>2025-09-18T09:34:36Z</time>
      </trkpt>
      <trkpt lat="39.17097068959577" lon="117.76305690558354">
        <ele>1.5</ele>
        <time>2025-09-18T09:34:38Z</time>
      </trkpt>
      <trkpt lat="39.171012693301144" lon="117.76309795169914">
        <ele>1.5</ele>
        <time>2025-09-18T09:34:40Z</time>
      </trkpt>
      <trkpt lat="39.17106267283295" lon="117.76311096167022">
        <ele>1.9</ele>
        <time>2025-09-18T09:34:42Z</time>
      </trkpt>
      <trkpt lat="39.17110864358912" lon="117.76310795204772">
        <ele>1.9</ele>
        <time>2025-09-18T09:34:44Z</time>
      </trkpt>
      <trkpt lat="39.17114460842076" lon="117.76308792234613">
        <ele>1.9</ele>
        <time>2025-09-18T09:34:46Z</time>
      </trkpt>
      <trkpt lat="39.17117657076536" lon="117.76306088439044">
        <ele>2.1</ele>
        <time>2025-09-18T09:34:50Z</time>
      </trkpt>
      <trkpt lat="39.17121152928454" lon="117.7630308423278">
        <ele>2.3</ele>
        <time>2025-09-18T09:34:54Z</time>
      </trkpt>
      <trkpt lat="39.17125248983508" lon="117.76300880955746">
        <ele>2.3</ele>
        <time>2025-09-18T09:34:56Z</time>
      </trkpt>
      <trkpt lat="39.17131144877758" lon="117.76299979078506">
        <ele>2.3</ele>
        <time>2025-09-18T09:34:58Z</time>
      </trkpt>
      <trkpt lat="39.17137742645142" lon="117.76302381243723">
        <ele>2.3</ele>
        <time>2025-09-18T09:35:00Z</time>
      </trkpt>
      <trkpt lat="39.171442430443435" lon="117.76308488066374">
        <ele>2.3</ele>
        <time>2025-09-18T09:35:02Z</time>
      </trkpt>
      <trkpt lat="39.17149645431941" lon="117.7631649743786">
        <ele>2.4</ele>
        <time>2025-09-18T09:35:04Z</time>
      </trkpt>
      <trkpt lat="39.17155047772041" lon="117.76324406712757">
        <ele>2.4</ele>
        <time>2025-09-18T09:35:06Z</time>
      </trkpt>
      <trkpt lat="39.17161448277867" lon="117.76330513610414">
        <ele>2.4</ele>
        <time>2025-09-18T09:35:08Z</time>
      </trkpt>
      <trkpt lat="39.1716834596519" lon="117.76333015898128">
        <ele>2.4</ele>
        <time>2025-09-18T09:35:10Z</time>
      </trkpt>
      <trkpt lat="39.171753406384894" lon="117.76331312854563">
        <ele>2.4</ele>
        <time>2025-09-18T09:35:12Z</time>
      </trkpt>
      <trkpt lat="39.17181834273307" lon="117.76327707472801">
        <ele>2.6</ele>
        <time>2025-09-18T09:35:14Z</time>
      </trkpt>
      <trkpt lat="39.171887274666105" lon="117.7632380166735">
        <ele>2.6</ele>
        <time>2025-09-18T09:35:16Z</time>
      </trkpt>
      <trkpt lat="39.1719582033766" lon="117.76319595465284">
        <ele>2.9</ele>
        <time>2025-09-18T09:35:18Z</time>
      </trkpt>
      <trkpt lat="39.17203212410241" lon="117.76314488100596">
        <ele>2.9</ele>
        <time>2025-09-18T09:35:20Z</time>
      </trkpt>
      <trkpt lat="39.1721000498528" lon="117.76309581075488">
        <ele>2.9</ele>
        <time>2025-09-18T09:35:22Z</time>
      </trkpt>
      <trkpt lat="39.17215999082347" lon="117.7630617604439">
        <ele>2.7</ele>
        <time>2025-09-18T09:35:24Z</time>
      </trkpt>
      <trkpt lat="39.17220995994154" lon="117.76305975157321">
        <ele>2.7</ele>
        <time>2025-09-18T09:35:26Z</time>
      </trkpt>
      <trkpt lat="39.17224795490182" lon="117.76308477811048">
        <ele>2.5</ele>
        <time>2025-09-18T09:35:28Z</time>
      </trkpt>
      <trkpt lat="39.172283951064315" lon="117.76310980493128">
        <ele>2.5</ele>
        <time>2025-09-18T09:35:30Z</time>
      </trkpt>
      <trkpt lat="39.172305998797995" lon="117.763196911635">
        <ele>2.3</ele>
        <time>2025-09-18T09:36:08Z</time>
      </trkpt>
      <trkpt lat="39.17231201905696" lon="117.76323095376125">
        <ele>2.3</ele>
        <time>2025-09-18T09:36:10Z</time>
      </trkpt>
      <trkpt lat="39.172310025141144" lon="117.7632379628526">
        <ele>2.2</ele>
        <time>2025-09-18T09:36:14Z</time>
      </trkpt>
      <trkpt lat="39.172303014561194" lon="117.76321693723945">
        <ele>2.2</ele>
        <time>2025-09-18T09:36:24Z</time>
      </trkpt>
      <trkpt lat="39.17228499580704" lon="117.76317488658343">
        <ele>2.3</ele>
        <time>2025-09-18T09:36:28Z</time>
      </trkpt>
      <trkpt lat="39.172266978509235" lon="117.76313483852475">
        <ele>2.3</ele>
        <time>2025-09-18T09:36:30Z</time>
      </trkpt>
      <trkpt lat="39.17224296898192" lon="117.76310079884023">
        <ele>2.2</ele>
        <time>2025-09-18T09:36:34Z</time>
      </trkpt>
      <trkpt lat="39.17221296720379" lon="117.7630727675015">
        <ele>2.2</ele>
        <time>2025-09-18T09:36:38Z</time>
      </trkpt>
    </trkseg>
  </trk>
</gpx>