<?xml version="1.0" encoding="UTF-8"?>
<gpx xmlns="http://www.topografix.com/GPX/1/1" xmlns:gpxtpx="http://www.garmin.com/xmlschemas/TrackPointExtension/v1" xmlns:xsi="http://www.w3.org/2001/XMLSchema-instance" xsi:schemaLocation="http://www.topografix.com/GPX/1/1 http://www.topografix.com/GPX/1/1/gpx.xsd" version="1.1" creator="gpx.py -- https://github.com/tkrajina/gpxpy">
  <trk>
    <name>gpx from codoon</name>
    <type>Run</type>
    <trkseg>
      <trkpt lat="39.16982379257665" lon="117.76063915885948">
        <ele>3</ele>
        <time>2025-09-23T23:29:10Z</time>
      </trkpt>
      <trkpt lat="39.169792798118046" lon="117.76061813885417">
        <ele>3</ele>
        <time>2025-09-23T23:29:11Z</time>
      </trkpt>
      <trkpt lat="39.16975778359632" lon="117.76056007726771">
        <ele>3</ele>
        <time>2025-09-23T23:29:12Z</time>
      </trkpt>
      <trkpt lat="39.169724770429376" lon="117.76050602012428">
        <ele>3.1</ele>
        <time>2025-09-23T23:29:15Z</time>
      </trkpt>
      <trkpt lat="39.169685742868054" lon="117.76042192993914">
        <ele>3.1</ele>
        <time>2025-09-23T23:29:17Z</time>
      </trkpt>
      <trkpt lat="39.169649729945085" lon="117.76036487014589">
        <ele>3.1</ele>
        <time>2025-09-23T23:29:19Z</time>
      </trkpt>
      <trkpt lat="39.16961471595139" lon="117.76030680925395">
        <ele>2.9</ele>
        <time>2025-09-23T23:29:21Z</time>
      </trkpt>
      <trkpt lat="39.16957670504138" lon="117.76025075114836">
        <ele>2.9</ele>
        <time>2025-09-23T23:29:23Z</time>
      </trkpt>
      <trkpt lat="39.16953969365355" lon="117.76019469306415">
        <ele>2.9</ele>
        <time>2025-09-23T23:29:25Z</time>
      </trkpt>
      <trkpt lat="39.16950568178759" lon="117.76014063698157">
        <ele>2.9</ele>
        <time>2025-09-23T23:29:27Z</time>
      </trkpt>
      <trkpt lat="39.16947767001506" lon="117.76009258696367">
        <ele>2.9</ele>
        <time>2025-09-23T23:29:29Z</time>
      </trkpt>
      <trkpt lat="39.16945665888908" lon="117.76005254506862">
        <ele>2.9</ele>
        <time>2025-09-23T23:29:31Z</time>
      </trkpt>
      <trkpt lat="39.16943565133908" lon="117.76001850991842">
        <ele>2.9</ele>
        <time>2025-09-23T23:29:33Z</time>
      </trkpt>
      <trkpt lat="39.16941064560969" lon="117.75998347422222">
        <ele>2.9</ele>
        <time>2025-09-23T23:29:35Z</time>
      </trkpt>
      <trkpt lat="39.16938163820188" lon="117.75994143133626">
        <ele>2.9</ele>
        <time>2025-09-23T23:29:37Z</time>
      </trkpt>
      <trkpt lat="39.1693526285293" lon="117.75989538411056">
        <ele>2.9</ele>
        <time>2025-09-23T23:29:39Z</time>
      </trkpt>
      <trkpt lat="39.169320617804836" lon="117.75984433184976">
        <ele>3</ele>
        <time>2025-09-23T23:29:41Z</time>
      </trkpt>
      <trkpt lat="39.16928361012984" lon="117.75979328034896">
        <ele>3</ele>
        <time>2025-09-23T23:29:43Z</time>
      </trkpt>
      <trkpt lat="39.16924060206065" lon="117.75973522204698">
        <ele>3.1</ele>
        <time>2025-09-23T23:29:45Z</time>
      </trkpt>
      <trkpt lat="39.16919759239091" lon="117.75967416061891">
        <ele>3.1</ele>
        <time>2025-09-23T23:29:47Z</time>
      </trkpt>
      <trkpt lat="39.169153579444675" lon="117.75960609184966">
        <ele>3.1</ele>
        <time>2025-09-23T23:29:49Z</time>
      </trkpt>
      <trkpt lat="39.16910856896487" lon="117.75954102669441">
        <ele>3.3</ele>
        <time>2025-09-23T23:29:51Z</time>
      </trkpt>
      <trkpt lat="39.1690645580471" lon="117.75947596161309">
        <ele>3.3</ele>
        <time>2025-09-23T23:29:53Z</time>
      </trkpt>
      <trkpt lat="39.16902254722949" lon="117.75941289864407">
        <ele>3.3</ele>
        <time>2025-09-23T23:29:55Z</time>
      </trkpt>
      <trkpt lat="39.16898053486877" lon="117.75934683262487">
        <ele>3.4</ele>
        <time>2025-09-23T23:29:57Z</time>
      </trkpt>
      <trkpt lat="39.16893952207485" lon="117.75928076668605">
        <ele>3.4</ele>
        <time>2025-09-23T23:29:59Z</time>
      </trkpt>
      <trkpt lat="39.168898508323956" lon="117.75921269880824">
        <ele>3.4</ele>
        <time>2025-09-23T23:30:01Z</time>
      </trkpt>
      <trkpt lat="39.16885849359461" lon="117.75914362995374">
        <ele>3.4</ele>
        <time>2025-09-23T23:30:03Z</time>
      </trkpt>
      <trkpt lat="39.16881747962934" lon="117.75907456145376">
        <ele>3.4</ele>
        <time>2025-09-23T23:30:05Z</time>
      </trkpt>
      <trkpt lat="39.168773468160886" lon="117.75900649462646">
        <ele>3.2</ele>
        <time>2025-09-23T23:30:07Z</time>
      </trkpt>
      <trkpt lat="39.16872845854707" lon="117.75894043026794">
        <ele>3.2</ele>
        <time>2025-09-23T23:30:09Z</time>
      </trkpt>
      <trkpt lat="39.16868444795522" lon="117.75887336493318">
        <ele>3.2</ele>
        <time>2025-09-23T23:30:11Z</time>
      </trkpt>
      <trkpt lat="39.168638438709465" lon="117.75880630006762">
        <ele>3.2</ele>
        <time>2025-09-23T23:30:13Z</time>
      </trkpt>
      <trkpt lat="39.16859242854658" lon="117.75873723331541">
        <ele>3.2</ele>
        <time>2025-09-23T23:30:15Z</time>
      </trkpt>
      <trkpt lat="39.16854741796576" lon="117.75866816666378">
        <ele>3.1</ele>
        <time>2025-09-23T23:30:17Z</time>
      </trkpt>
      <trkpt lat="39.16850240648794" lon="117.75859709815212">
        <ele>3.1</ele>
        <time>2025-09-23T23:30:19Z</time>
      </trkpt>
      <trkpt lat="39.16845939454362" lon="117.75852703066786">
        <ele>3.3</ele>
        <time>2025-09-23T23:30:21Z</time>
      </trkpt>
      <trkpt lat="39.168417381126275" lon="117.75845496121674">
        <ele>3.3</ele>
        <time>2025-09-23T23:30:23Z</time>
      </trkpt>
      <trkpt lat="39.16837536789788" lon="117.75838289201413">
        <ele>3.3</ele>
        <time>2025-09-23T23:30:25Z</time>
      </trkpt>
      <trkpt lat="39.168331356566334" lon="117.75831182434489">
        <ele>3</ele>
        <time>2025-09-23T23:30:27Z</time>
      </trkpt>
      <trkpt lat="39.168285349213605" lon="117.75824576230698">
        <ele>3</ele>
        <time>2025-09-23T23:30:29Z</time>
      </trkpt>
      <trkpt lat="39.16823834313172" lon="117.75818070162941">
        <ele>2.7</ele>
        <time>2025-09-23T23:30:31Z</time>
      </trkpt>
      <trkpt lat="39.1681933355036" lon="117.75811463987925">
        <ele>2.7</ele>
        <time>2025-09-23T23:30:33Z</time>
      </trkpt>
      <trkpt lat="39.168151324714415" lon="117.75804557490372">
        <ele>2.7</ele>
        <time>2025-09-23T23:30:35Z</time>
      </trkpt>
      <trkpt lat="39.1681083152035" lon="117.75797751129844">
        <ele>2.5</ele>
        <time>2025-09-23T23:30:37Z</time>
      </trkpt>
      <trkpt lat="39.16806430645331" lon="117.75790944804271">
        <ele>2.5</ele>
        <time>2025-09-23T23:30:39Z</time>
      </trkpt>
      <trkpt lat="39.16802029787235" lon="117.75784138500931">
        <ele>2.6</ele>
        <time>2025-09-23T23:30:41Z</time>
      </trkpt>
      <trkpt lat="39.16797329073032" lon="117.75777232157586">
        <ele>2.6</ele>
        <time>2025-09-23T23:30:43Z</time>
      </trkpt>
      <trkpt lat="39.16792828257947" lon="117.75770325811692">
        <ele>2.6</ele>
        <time>2025-09-23T23:30:45Z</time>
      </trkpt>
      <trkpt lat="39.16788327510329" lon="117.75763519588493">
        <ele>2.6</ele>
        <time>2025-09-23T23:30:47Z</time>
      </trkpt>
      <trkpt lat="39.16784026711106" lon="117.75756813461557">
        <ele>2.6</ele>
        <time>2025-09-23T23:30:49Z</time>
      </trkpt>
      <trkpt lat="39.167795262944054" lon="117.75750607877428">
        <ele>3</ele>
        <time>2025-09-23T23:30:51Z</time>
      </trkpt>
      <trkpt lat="39.167749259016695" lon="117.75744302225701">
        <ele>3</ele>
        <time>2025-09-23T23:30:53Z</time>
      </trkpt>
      <trkpt lat="39.167705253560754" lon="117.757378964691">
        <ele>3</ele>
        <time>2025-09-23T23:30:55Z</time>
      </trkpt>
      <trkpt lat="39.167664245991446" lon="117.75731390595833">
        <ele>3</ele>
        <time>2025-09-23T23:30:57Z</time>
      </trkpt>
      <trkpt lat="39.167623238577235" lon="117.75724884742947">
        <ele>3</ele>
        <time>2025-09-23T23:30:59Z</time>
      </trkpt>
      <trkpt lat="39.16758323121019" lon="117.75718478995329">
        <ele>3.1</ele>
        <time>2025-09-23T23:31:01Z</time>
      </trkpt>
      <trkpt lat="39.167542224585404" lon="117.75712073280214">
        <ele>3.1</ele>
        <time>2025-09-23T23:31:03Z</time>
      </trkpt>
      <trkpt lat="39.16750221847767" lon="117.7570586776614">
        <ele>3.1</ele>
        <time>2025-09-23T23:31:05Z</time>
      </trkpt>
      <trkpt lat="39.167464210850696" lon="117.75699562148478">
        <ele>3</ele>
        <time>2025-09-23T23:31:07Z</time>
      </trkpt>
      <trkpt lat="39.16742420407876" lon="117.75693156479068">
        <ele>3</ele>
        <time>2025-09-23T23:31:09Z</time>
      </trkpt>
      <trkpt lat="39.1673831975772" lon="117.75686650746114">
        <ele>2.7</ele>
        <time>2025-09-23T23:31:11Z</time>
      </trkpt>
      <trkpt lat="39.167342191231114" lon="117.75680145033593">
        <ele>2.7</ele>
        <time>2025-09-23T23:31:13Z</time>
      </trkpt>
      <trkpt lat="39.16730218351393" lon="117.75673439137901">
        <ele>2.7</ele>
        <time>2025-09-23T23:31:15Z</time>
      </trkpt>
      <trkpt lat="39.16726117701879" lon="117.75666833371776">
        <ele>2.7</ele>
        <time>2025-09-23T23:31:17Z</time>
      </trkpt>
      <trkpt lat="39.167221170092155" lon="117.75660227614007">
        <ele>2.7</ele>
        <time>2025-09-23T23:31:19Z</time>
      </trkpt>
      <trkpt lat="39.167181164246195" lon="117.75653822066289">
        <ele>2.9</ele>
        <time>2025-09-23T23:31:21Z</time>
      </trkpt>
      <trkpt lat="39.16714215658603" lon="117.75647116243181">
        <ele>2.9</ele>
        <time>2025-09-23T23:31:23Z</time>
      </trkpt>
      <trkpt lat="39.167103147725804" lon="117.7564011016034">
        <ele>2.9</ele>
        <time>2025-09-23T23:31:25Z</time>
      </trkpt>
      <trkpt lat="39.16706513845415" lon="117.75633104088519">
        <ele>3</ele>
        <time>2025-09-23T23:31:27Z</time>
      </trkpt>
      <trkpt lat="39.167028129671095" lon="117.75626298214021">
        <ele>3</ele>
        <time>2025-09-23T23:31:29Z</time>
      </trkpt>
      <trkpt lat="39.16699412107287" lon="117.75619892695087">
        <ele>3.2</ele>
        <time>2025-09-23T23:31:31Z</time>
      </trkpt>
      <trkpt lat="39.16696311307668" lon="117.7561398762055">
        <ele>3.2</ele>
        <time>2025-09-23T23:31:33Z</time>
      </trkpt>
      <trkpt lat="39.16694010490773" lon="117.75609083383989">
        <ele>3.2</ele>
        <time>2025-09-23T23:31:35Z</time>
      </trkpt>
      <trkpt lat="39.166921098437754" lon="117.75605079937071">
        <ele>2.9</ele>
        <time>2025-09-23T23:31:37Z</time>
      </trkpt>
      <trkpt lat="39.16690409260602" lon="117.75601476840214">
        <ele>2.9</ele>
        <time>2025-09-23T23:31:39Z</time>
      </trkpt>
      <trkpt lat="39.16688408684024" lon="117.75597473420788">
        <ele>2.8</ele>
        <time>2025-09-23T23:31:41Z</time>
      </trkpt>
      <trkpt lat="39.16686507878984" lon="117.75593069630204">
        <ele>2.8</ele>
        <time>2025-09-23T23:31:43Z</time>
      </trkpt>
      <trkpt lat="39.1668460690663" lon="117.75588265483759">
        <ele>2.8</ele>
        <time>2025-09-23T23:31:45Z</time>
      </trkpt>
      <trkpt lat="39.166828061442075" lon="117.75584061882309">
        <ele>2.8</ele>
        <time>2025-09-23T23:31:47Z</time>
      </trkpt>
      <trkpt lat="39.16680506507652" lon="117.75581760081043">
        <ele>2.8</ele>
        <time>2025-09-23T23:31:49Z</time>
      </trkpt>
      <trkpt lat="39.166778081063754" lon="117.75581760424787">
        <ele>2.6</ele>
        <time>2025-09-23T23:31:55Z</time>
      </trkpt>
      <trkpt lat="39.16674810620535" lon="117.75583462354275">
        <ele>2.6</ele>
        <time>2025-09-23T23:32:01Z</time>
      </trkpt>
      <trkpt lat="39.16671813919246" lon="117.75586965926766">
        <ele>2.6</ele>
        <time>2025-09-23T23:32:03Z</time>
      </trkpt>
      <trkpt lat="39.16669217204122" lon="117.75590969911414">
        <ele>2.6</ele>
        <time>2025-09-23T23:32:06Z</time>
      </trkpt>
      <trkpt lat="39.16666620801977" lon="117.75595674545376">
        <ele>2.6</ele>
        <time>2025-09-23T23:32:08Z</time>
      </trkpt>
      <trkpt lat="39.16663524439839" lon="117.75599778702437">
        <ele>2.6</ele>
        <time>2025-09-23T23:32:10Z</time>
      </trkpt>
      <trkpt lat="39.166593287795294" lon="117.75603983099765">
        <ele>2.4</ele>
        <time>2025-09-23T23:32:12Z</time>
      </trkpt>
      <trkpt lat="39.16654733362671" lon="117.75608187556573">
        <ele>2.4</ele>
        <time>2025-09-23T23:32:14Z</time>
      </trkpt>
      <trkpt lat="39.16650437774717" lon="117.75612391983748">
        <ele>2.4</ele>
        <time>2025-09-23T23:32:16Z</time>
      </trkpt>
      <trkpt lat="39.166461423719454" lon="117.75616996790237">
        <ele>2.5</ele>
        <time>2025-09-23T23:32:18Z</time>
      </trkpt>
      <trkpt lat="39.166414473484515" lon="117.756219019367">
        <ele>2.5</ele>
        <time>2025-09-23T23:32:20Z</time>
      </trkpt>
      <trkpt lat="39.166366527534" lon="117.75627607853092">
        <ele>2.8</ele>
        <time>2025-09-23T23:32:22Z</time>
      </trkpt>
      <trkpt lat="39.166318580798695" lon="117.75633113598256">
        <ele>2.8</ele>
        <time>2025-09-23T23:32:24Z</time>
      </trkpt>
      <trkpt lat="39.16626863354221" lon="117.7563821900859">
        <ele>2.8</ele>
        <time>2025-09-23T23:32:26Z</time>
      </trkpt>
      <trkpt lat="39.16621568724686" lon="117.75643124281773">
        <ele>3</ele>
        <time>2025-09-23T23:32:28Z</time>
      </trkpt>
      <trkpt lat="39.16616374136454" lon="117.75648229742265">
        <ele>3</ele>
        <time>2025-09-23T23:32:30Z</time>
      </trkpt>
      <trkpt lat="39.16611379623415" lon="117.75653735567765">
        <ele>3.1</ele>
        <time>2025-09-23T23:32:32Z</time>
      </trkpt>
      <trkpt lat="39.166062852270365" lon="117.75659341515383">
        <ele>3.1</ele>
        <time>2025-09-23T23:32:34Z</time>
      </trkpt>
      <trkpt lat="39.16600991007183" lon="117.75665047598656">
        <ele>3.1</ele>
        <time>2025-09-23T23:32:36Z</time>
      </trkpt>
      <trkpt lat="39.16595396977101" lon="117.75670753735835">
        <ele>2.9</ele>
        <time>2025-09-23T23:32:38Z</time>
      </trkpt>
      <trkpt lat="39.16589603030718" lon="117.75676359818608">
        <ele>2.9</ele>
        <time>2025-09-23T23:32:40Z</time>
      </trkpt>
      <trkpt lat="39.16583809190065" lon="117.75682166108236">
        <ele>2.7</ele>
        <time>2025-09-23T23:32:42Z</time>
      </trkpt>
      <trkpt lat="39.16578015456415" lon="117.75688172606397">
        <ele>2.7</ele>
        <time>2025-09-23T23:32:44Z</time>
      </trkpt>
      <trkpt lat="39.1657232158186" lon="117.75693978916362">
        <ele>2.7</ele>
        <time>2025-09-23T23:32:46Z</time>
      </trkpt>
      <trkpt lat="39.1656652768363" lon="117.75699585061909">
        <ele>2.8</ele>
        <time>2025-09-23T23:32:48Z</time>
      </trkpt>
      <trkpt lat="39.16560733605473" lon="117.75704790834781">
        <ele>2.8</ele>
        <time>2025-09-23T23:32:50Z</time>
      </trkpt>
      <trkpt lat="39.16554839452421" lon="117.75709696341865">
        <ele>2.7</ele>
        <time>2025-09-23T23:32:52Z</time>
      </trkpt>
      <trkpt lat="39.16549045056109" lon="117.75714201458175">
        <ele>2.7</ele>
        <time>2025-09-23T23:32:54Z</time>
      </trkpt>
      <trkpt lat="39.16543250667342" lon="117.7571870658425">
        <ele>2.7</ele>
        <time>2025-09-23T23:32:56Z</time>
      </trkpt>
      <trkpt lat="39.16537356393944" lon="117.75723311830653">
        <ele>3.1</ele>
        <time>2025-09-23T23:32:58Z</time>
      </trkpt>
      <trkpt lat="39.16531262344428" lon="117.75728117308843">
        <ele>3.1</ele>
        <time>2025-09-23T23:33:00Z</time>
      </trkpt>
      <trkpt lat="39.16525068313856" lon="117.75732822712567">
        <ele>2.8</ele>
        <time>2025-09-23T23:33:02Z</time>
      </trkpt>
      <trkpt lat="39.16518874242441" lon="117.75737428028417">
        <ele>2.8</ele>
        <time>2025-09-23T23:33:04Z</time>
      </trkpt>
      <trkpt lat="39.16513079892555" lon="117.75741933204807">
        <ele>2.8</ele>
        <time>2025-09-23T23:33:06Z</time>
      </trkpt>
      <trkpt lat="39.16507385392127" lon="117.7574623818033">
        <ele>2.7</ele>
        <time>2025-09-23T23:33:08Z</time>
      </trkpt>
      <trkpt lat="39.165021906021586" lon="117.75750543101114">
        <ele>2.7</ele>
        <time>2025-09-23T23:33:10Z</time>
      </trkpt>
      <trkpt lat="39.16496995669948" lon="117.75754547732754">
        <ele>2.4</ele>
        <time>2025-09-23T23:33:12Z</time>
      </trkpt>
      <trkpt lat="39.164923000984366" lon="117.75757851611839">
        <ele>2.4</ele>
        <time>2025-09-23T23:33:14Z</time>
      </trkpt>
      <trkpt lat="39.16485306694146" lon="117.75762757384057">
        <ele>2.6</ele>
        <time>2025-09-23T23:33:52Z</time>
      </trkpt>
      <trkpt lat="39.16482609495976" lon="117.75765160122748">
        <ele>2.6</ele>
        <time>2025-09-23T23:33:54Z</time>
      </trkpt>
      <trkpt lat="39.164791128746366" lon="117.75767763165975">
        <ele>2.6</ele>
        <time>2025-09-23T23:33:56Z</time>
      </trkpt>
      <trkpt lat="39.16475116803701" lon="117.75770866776656">
        <ele>2.7</ele>
        <time>2025-09-23T23:33:58Z</time>
      </trkpt>
      <trkpt lat="39.16470621133637" lon="117.75774170656156">
        <ele>2.7</ele>
        <time>2025-09-23T23:34:00Z</time>
      </trkpt>
      <trkpt lat="39.16465525823424" lon="117.75777474617256">
        <ele>2.6</ele>
        <time>2025-09-23T23:34:02Z</time>
      </trkpt>
      <trkpt lat="39.164597309324" lon="117.7578077867268">
        <ele>2.6</ele>
        <time>2025-09-23T23:34:04Z</time>
      </trkpt>
      <trkpt lat="39.16453736367208" lon="117.7578448316187">
        <ele>2.6</ele>
        <time>2025-09-23T23:34:06Z</time>
      </trkpt>
      <trkpt lat="39.16447841747844" lon="117.75788187644908">
        <ele>2.5</ele>
        <time>2025-09-23T23:34:08Z</time>
      </trkpt>
      <trkpt lat="39.16441847243976" lon="117.75791992248382">
        <ele>2.5</ele>
        <time>2025-09-23T23:34:10Z</time>
      </trkpt>
      <trkpt lat="39.164355529234506" lon="117.75795796896972">
        <ele>2.5</ele>
        <time>2025-09-23T23:34:12Z</time>
      </trkpt>
      <trkpt lat="39.164290587783114" lon="117.75799701679453">
        <ele>2.6</ele>
        <time>2025-09-23T23:34:14Z</time>
      </trkpt>
      <trkpt lat="39.16422564741853" lon="117.75803806672636">
        <ele>2.6</ele>
        <time>2025-09-23T23:34:16Z</time>
      </trkpt>
      <trkpt lat="39.16416370378826" lon="117.75807611330015">
        <ele>2.6</ele>
        <time>2025-09-23T23:34:18Z</time>
      </trkpt>
      <trkpt lat="39.16410175865927" lon="117.75811115688128">
        <ele>2.6</ele>
        <time>2025-09-23T23:34:20Z</time>
      </trkpt>
      <trkpt lat="39.16403781372532" lon="117.7581441987313">
        <ele>2.6</ele>
        <time>2025-09-23T23:34:22Z</time>
      </trkpt>
      <trkpt lat="39.16397087113244" lon="117.75817824203907">
        <ele>2.3</ele>
        <time>2025-09-23T23:34:24Z</time>
      </trkpt>
      <trkpt lat="39.16390293074056" lon="117.75821528860595">
        <ele>2.3</ele>
        <time>2025-09-23T23:34:26Z</time>
      </trkpt>
      <trkpt lat="39.16383599137521" lon="117.75825533819336">
        <ele>2.1</ele>
        <time>2025-09-23T23:34:28Z</time>
      </trkpt>
      <trkpt lat="39.16377204924135" lon="117.75829338541696">
        <ele>2.1</ele>
        <time>2025-09-23T23:34:30Z</time>
      </trkpt>
      <trkpt lat="39.16371010702605" lon="117.75833343451752">
        <ele>2.1</ele>
        <time>2025-09-23T23:34:32Z</time>
      </trkpt>
      <trkpt lat="39.16365016315656" lon="117.75837248240708">
        <ele>2.2</ele>
        <time>2025-09-23T23:34:34Z</time>
      </trkpt>
      <trkpt lat="39.163589220465695" lon="117.75841253153172">
        <ele>2.2</ele>
        <time>2025-09-23T23:34:36Z</time>
      </trkpt>
      <trkpt lat="39.16352727948785" lon="117.75845458293414">
        <ele>2.3</ele>
        <time>2025-09-23T23:34:38Z</time>
      </trkpt>
      <trkpt lat="39.163467337388646" lon="117.75849663416648">
        <ele>2.3</ele>
        <time>2025-09-23T23:34:40Z</time>
      </trkpt>
      <trkpt lat="39.16340739482189" lon="117.7585376844422">
        <ele>2.3</ele>
        <time>2025-09-23T23:34:42Z</time>
      </trkpt>
      <trkpt lat="39.163354448162906" lon="117.75857873390754">
        <ele>2.2</ele>
        <time>2025-09-23T23:34:44Z</time>
      </trkpt>
      <trkpt lat="39.163306496990465" lon="117.7586167796825">
        <ele>2.2</ele>
        <time>2025-09-23T23:34:46Z</time>
      </trkpt>
      <trkpt lat="39.16326554117914" lon="117.75865382358917">
        <ele>2.2</ele>
        <time>2025-09-23T23:34:48Z</time>
      </trkpt>
      <trkpt lat="39.16322158612179" lon="117.75868886584654">
        <ele>2.2</ele>
        <time>2025-09-23T23:34:50Z</time>
      </trkpt>
      <trkpt lat="39.163175633916325" lon="117.75872691156687">
        <ele>2.2</ele>
        <time>2025-09-23T23:34:52Z</time>
      </trkpt>
      <trkpt lat="39.163128683981625" lon="117.7587679606392">
        <ele>2.4</ele>
        <time>2025-09-23T23:34:54Z</time>
      </trkpt>
      <trkpt lat="39.16308273514384" lon="117.75881201282668">
        <ele>2.4</ele>
        <time>2025-09-23T23:34:56Z</time>
      </trkpt>
      <trkpt lat="39.16303278766261" lon="117.75885406350338">
        <ele>2.3</ele>
        <time>2025-09-23T23:34:58Z</time>
      </trkpt>
      <trkpt lat="39.162982839154324" lon="117.7588941121482">
        <ele>2.3</ele>
        <time>2025-09-23T23:35:00Z</time>
      </trkpt>
      <trkpt lat="39.1629348878756" lon="117.75893115743537">
        <ele>2.3</ele>
        <time>2025-09-23T23:35:02Z</time>
      </trkpt>
      <trkpt lat="39.16289193532483" lon="117.7589712053365">
        <ele>2.1</ele>
        <time>2025-09-23T23:35:04Z</time>
      </trkpt>
      <trkpt lat="39.16284898393313" lon="117.75901325544126">
        <ele>2.1</ele>
        <time>2025-09-23T23:35:06Z</time>
      </trkpt>
      <trkpt lat="39.16280503485521" lon="117.75905830895476">
        <ele>2</ele>
        <time>2025-09-23T23:35:08Z</time>
      </trkpt>
      <trkpt lat="39.1627600869986" lon="117.75910436376016">
        <ele>2</ele>
        <time>2025-09-23T23:35:10Z</time>
      </trkpt>
      <trkpt lat="39.16271513921934" lon="117.75915041866645">
        <ele>2</ele>
        <time>2025-09-23T23:35:12Z</time>
      </trkpt>
      <trkpt lat="39.16267119092358" lon="117.75919647354641">
        <ele>2.2</ele>
        <time>2025-09-23T23:35:14Z</time>
      </trkpt>
      <trkpt lat="39.16262724270508" lon="117.75924252852721">
        <ele>2.2</ele>
        <time>2025-09-23T23:35:16Z</time>
      </trkpt>
      <trkpt lat="39.16258428892975" lon="117.75927957379226">
        <ele>2.3</ele>
        <time>2025-09-23T23:35:18Z</time>
      </trkpt>
      <trkpt lat="39.16254032514219" lon="117.7592975987736">
        <ele>2.3</ele>
        <time>2025-09-23T23:35:20Z</time>
      </trkpt>
      <trkpt lat="39.16249234916453" lon="117.7592895962649">
        <ele>2.3</ele>
        <time>2025-09-23T23:35:22Z</time>
      </trkpt>
      <trkpt lat="39.16244635633829" lon="117.75925356338216">
        <ele>2.4</ele>
        <time>2025-09-23T23:35:24Z</time>
      </trkpt>
      <trkpt lat="39.16240434948197" lon="117.75919650752091">
        <ele>2.4</ele>
        <time>2025-09-23T23:35:26Z</time>
      </trkpt>
      <trkpt lat="39.162365336524736" lon="117.75913144287686">
        <ele>2</ele>
        <time>2025-09-23T23:35:28Z</time>
      </trkpt>
      <trkpt lat="39.16232732312694" lon="117.75906637830725">
        <ele>2</ele>
        <time>2025-09-23T23:35:30Z</time>
      </trkpt>
      <trkpt lat="39.16229131199417" lon="117.75900732006443">
        <ele>2</ele>
        <time>2025-09-23T23:35:32Z</time>
      </trkpt>
      <trkpt lat="39.16226030130607" lon="117.758954267716">
        <ele>2.1</ele>
        <time>2025-09-23T23:35:34Z</time>
      </trkpt>
      <trkpt lat="39.16222929290509" lon="117.75890521973554">
        <ele>2.1</ele>
        <time>2025-09-23T23:35:36Z</time>
      </trkpt>
      <trkpt lat="39.16219628196834" lon="117.75884916473223">
        <ele>1.8</ele>
        <time>2025-09-23T23:35:38Z</time>
      </trkpt>
      <trkpt lat="39.16215926918455" lon="117.75878510196401">
        <ele>1.8</ele>
        <time>2025-09-23T23:35:40Z</time>
      </trkpt>
      <trkpt lat="39.16212225493086" lon="117.75871803624277">
        <ele>1.8</ele>
        <time>2025-09-23T23:35:42Z</time>
      </trkpt>
      <trkpt lat="39.162084243583294" lon="117.75865497504947">
        <ele>1.7</ele>
        <time>2025-09-23T23:35:44Z</time>
      </trkpt>
      <trkpt lat="39.16204723339133" lon="117.7585949170498">
        <ele>1.7</ele>
        <time>2025-09-23T23:35:46Z</time>
      </trkpt>
      <trkpt lat="39.16200922392457" lon="117.75853485934978">
        <ele>1.9</ele>
        <time>2025-09-23T23:35:48Z</time>
      </trkpt>
      <trkpt lat="39.161968215309834" lon="117.75847280012819">
        <ele>1.9</ele>
        <time>2025-09-23T23:35:50Z</time>
      </trkpt>
      <trkpt lat="39.16192420756083" lon="117.75840873940291">
        <ele>1.9</ele>
        <time>2025-09-23T23:35:52Z</time>
      </trkpt>
      <trkpt lat="39.16188119936723" lon="117.75834467874677">
        <ele>1.8</ele>
        <time>2025-09-23T23:35:54Z</time>
      </trkpt>
      <trkpt lat="39.161839190729054" lon="117.7582806181598">
        <ele>1.8</ele>
        <time>2025-09-23T23:35:56Z</time>
      </trkpt>
      <trkpt lat="39.161800182022304" lon="117.75821956046454">
        <ele>1.7</ele>
        <time>2025-09-23T23:35:58Z</time>
      </trkpt>
      <trkpt lat="39.16176317174387" lon="117.7581575016706">
        <ele>1.7</ele>
        <time>2025-09-23T23:36:00Z</time>
      </trkpt>
      <trkpt lat="39.161729157238874" lon="117.75809043758122">
        <ele>1.7</ele>
        <time>2025-09-23T23:36:02Z</time>
      </trkpt>
      <trkpt lat="39.16169414194896" lon="117.75802037078597">
        <ele>1.9</ele>
        <time>2025-09-23T23:36:04Z</time>
      </trkpt>
      <trkpt lat="39.16165513023817" lon="117.75795230676088">
        <ele>1.9</ele>
        <time>2025-09-23T23:36:06Z</time>
      </trkpt>
      <trkpt lat="39.16161212209189" lon="117.75788624548645">
        <ele>2.1</ele>
        <time>2025-09-23T23:36:08Z</time>
      </trkpt>
      <trkpt lat="39.16157111342352" lon="117.75782118517354">
        <ele>2.1</ele>
        <time>2025-09-23T23:36:10Z</time>
      </trkpt>
      <trkpt lat="39.161530104405195" lon="117.75775512406042">
        <ele>2.1</ele>
        <time>2025-09-23T23:36:12Z</time>
      </trkpt>
      <trkpt lat="39.16149109536224" lon="117.75769106490301">
        <ele>2.2</ele>
        <time>2025-09-23T23:36:14Z</time>
      </trkpt>
      <trkpt lat="39.16145408778076" lon="117.75763201067515">
        <ele>2.2</ele>
        <time>2025-09-23T23:36:16Z</time>
      </trkpt>
      <trkpt lat="39.16141907913823" lon="117.75757295636042">
        <ele>2.2</ele>
        <time>2025-09-23T23:36:18Z</time>
      </trkpt>
      <trkpt lat="39.1613870688403" lon="117.75751390183156">
        <ele>2</ele>
        <time>2025-09-23T23:36:20Z</time>
      </trkpt>
      <trkpt lat="39.16135505817622" lon="117.7574538464815">
        <ele>2</ele>
        <time>2025-09-23T23:36:22Z</time>
      </trkpt>
      <trkpt lat="39.161325048912886" lon="117.7573987959812">
        <ele>2</ele>
        <time>2025-09-23T23:36:24Z</time>
      </trkpt>
      <trkpt lat="39.16130303794386" lon="117.75734975051128">
        <ele>2</ele>
        <time>2025-09-23T23:36:26Z</time>
      </trkpt>
      <trkpt lat="39.16128602604338" lon="117.75730470844742">
        <ele>2</ele>
        <time>2025-09-23T23:36:28Z</time>
      </trkpt>
      <trkpt lat="39.16126702416897" lon="117.75727768437591">
        <ele>2.3</ele>
        <time>2025-09-23T23:36:34Z</time>
      </trkpt>
      <trkpt lat="39.16125402021392" lon="117.75725366251363">
        <ele>1.8</ele>
        <time>2025-09-23T23:36:48Z</time>
      </trkpt>
      <trkpt lat="39.161219016263075" lon="117.75720261708715">
        <ele>1.6</ele>
        <time>2025-09-23T23:37:28Z</time>
      </trkpt>
      <trkpt lat="39.161183012519665" lon="117.75715057093915">
        <ele>1.6</ele>
        <time>2025-09-23T23:37:32Z</time>
      </trkpt>
      <trkpt lat="39.16114900960969" lon="117.75710252855475">
        <ele>1.5</ele>
        <time>2025-09-23T23:37:36Z</time>
      </trkpt>
      <trkpt lat="39.161121005134355" lon="117.75705848939712">
        <ele>1.6</ele>
        <time>2025-09-23T23:37:40Z</time>
      </trkpt>
      <trkpt lat="39.161095002885126" lon="117.7570214568539">
        <ele>1.5</ele>
        <time>2025-09-23T23:37:44Z</time>
      </trkpt>
      <trkpt lat="39.16107099902097" lon="117.75698342315602">
        <ele>1.5</ele>
        <time>2025-09-23T23:37:48Z</time>
      </trkpt>
      <trkpt lat="39.161045996754495" lon="117.7569473915841">
        <ele>1.4</ele>
        <time>2025-09-23T23:37:52Z</time>
      </trkpt>
      <trkpt lat="39.16103599889928" lon="117.75693938514225">
        <ele>1.4</ele>
        <time>2025-09-23T23:37:58Z</time>
      </trkpt>
      <trkpt lat="39.161048002220625" lon="117.7569614048374">
        <ele>1.4</ele>
        <time>2025-09-23T23:38:04Z</time>
      </trkpt>
      <trkpt lat="39.16107700499012" lon="117.75700344172704">
        <ele>1.4</ele>
        <time>2025-09-23T23:38:08Z</time>
      </trkpt>
      <trkpt lat="39.16110700483711" lon="117.75704047372902">
        <ele>1.4</ele>
        <time>2025-09-23T23:38:10Z</time>
      </trkpt>
      <trkpt lat="39.16113100494288" lon="117.7570704997664">
        <ele>1.4</ele>
        <time>2025-09-23T23:38:12Z</time>
      </trkpt>
      <trkpt lat="39.16115400519553" lon="117.75709952500266">
        <ele>1.4</ele>
        <time>2025-09-23T23:38:14Z</time>
      </trkpt>
      <trkpt lat="39.161173006893335" lon="117.75712654884218">
        <ele>1.4</ele>
        <time>2025-09-23T23:38:16Z</time>
      </trkpt>
      <trkpt lat="39.161199007836665" lon="117.75716057864844">
        <ele>1.4</ele>
        <time>2025-09-23T23:38:18Z</time>
      </trkpt>
      <trkpt lat="39.16123100719318" lon="117.75719861165307">
        <ele>1.4</ele>
        <time>2025-09-23T23:38:22Z</time>
      </trkpt>
      <trkpt lat="39.16126899915253" lon="117.75722863613764">
        <ele>1.5</ele>
        <time>2025-09-23T23:38:26Z</time>
      </trkpt>
      <trkpt lat="39.161300982560796" lon="117.75723363695616">
        <ele>1.7</ele>
        <time>2025-09-23T23:38:30Z</time>
      </trkpt>
      <trkpt lat="39.16132395821743" lon="117.75721161251771">
        <ele>1.7</ele>
        <time>2025-09-23T23:38:32Z</time>
      </trkpt>
      <trkpt lat="39.161323950465906" lon="117.75719559688774">
        <ele>1.9</ele>
        <time>2025-09-23T23:38:36Z</time>
      </trkpt>
      <trkpt lat="39.16130596310095" lon="117.75719960308484">
        <ele>1.8</ele>
        <time>2025-09-23T23:38:42Z</time>
      </trkpt>
      <trkpt lat="39.16128899114979" lon="117.75723664141852">
        <ele>1.9</ele>
        <time>2025-09-23T23:38:46Z</time>
      </trkpt>
      <trkpt lat="39.16129101282829" lon="117.7572836872051">
        <ele>1.8</ele>
        <time>2025-09-23T23:39:02Z</time>
      </trkpt>
      <trkpt lat="39.16131102633543" lon="117.7573357357231">
        <ele>1.8</ele>
        <time>2025-09-23T23:39:04Z</time>
      </trkpt>
      <trkpt lat="39.16133703686679" lon="117.75738878459369">
        <ele>2</ele>
        <time>2025-09-23T23:39:06Z</time>
      </trkpt>
      <trkpt lat="39.16136404887968" lon="117.75744583742625">
        <ele>2</ele>
        <time>2025-09-23T23:39:08Z</time>
      </trkpt>
      <trkpt lat="39.161390063587696" lon="117.75750689450823">
        <ele>2.1</ele>
        <time>2025-09-23T23:39:10Z</time>
      </trkpt>
      <trkpt lat="39.16141907515579" lon="117.75756494840465">
        <ele>2.1</ele>
        <time>2025-09-23T23:39:12Z</time>
      </trkpt>
      <trkpt lat="39.16145108406467" lon="117.75762100008731">
        <ele>2.1</ele>
        <time>2025-09-23T23:39:14Z</time>
      </trkpt>
      <trkpt lat="39.16148709121306" lon="117.75767805241165">
        <ele>1.9</ele>
        <time>2025-09-23T23:39:16Z</time>
      </trkpt>
      <trkpt lat="39.16152509426946" lon="117.75772909862397">
        <ele>1.9</ele>
        <time>2025-09-23T23:39:18Z</time>
      </trkpt>
      <trkpt lat="39.16156209801549" lon="117.75778014508876">
        <ele>1.8</ele>
        <time>2025-09-23T23:39:20Z</time>
      </trkpt>
      <trkpt lat="39.16160110117581" lon="117.75783219243128">
        <ele>1.8</ele>
        <time>2025-09-23T23:39:22Z</time>
      </trkpt>
      <trkpt lat="39.16163810969917" lon="117.75789224823694">
        <ele>1.8</ele>
        <time>2025-09-23T23:39:24Z</time>
      </trkpt>
      <trkpt lat="39.1616731195426" lon="117.75795230447025">
        <ele>1.7</ele>
        <time>2025-09-23T23:39:26Z</time>
      </trkpt>
      <trkpt lat="39.1617011321352" lon="117.75800935872026">
        <ele>1.7</ele>
        <time>2025-09-23T23:39:28Z</time>
      </trkpt>
      <trkpt lat="39.16172414626966" lon="117.75806341070776">
        <ele>1.7</ele>
        <time>2025-09-23T23:39:30Z</time>
      </trkpt>
      <trkpt lat="39.161745159627976" lon="117.75811345900695">
        <ele>1.7</ele>
        <time>2025-09-23T23:39:32Z</time>
      </trkpt>
      <trkpt lat="39.16177216795431" lon="117.75816050359376">
        <ele>1.7</ele>
        <time>2025-09-23T23:39:34Z</time>
      </trkpt>
      <trkpt lat="39.16180617272334" lon="117.75820854842101">
        <ele>1.8</ele>
        <time>2025-09-23T23:39:36Z</time>
      </trkpt>
      <trkpt lat="39.16184517774357" lon="117.75826259888841">
        <ele>1.8</ele>
        <time>2025-09-23T23:39:38Z</time>
      </trkpt>
      <trkpt lat="39.161888181019" lon="117.75831765001712">
        <ele>1.7</ele>
        <time>2025-09-23T23:39:40Z</time>
      </trkpt>
      <trkpt lat="39.16193318532537" lon="117.75837670516906">
        <ele>1.7</ele>
        <time>2025-09-23T23:39:42Z</time>
      </trkpt>
      <trkpt lat="39.161974189489065" lon="117.75843075581714">
        <ele>1.7</ele>
        <time>2025-09-23T23:39:44Z</time>
      </trkpt>
      <trkpt lat="39.16200819898004" lon="117.75848680957273">
        <ele>1.4</ele>
        <time>2025-09-23T23:39:46Z</time>
      </trkpt>
      <trkpt lat="39.16203621161641" lon="117.75854186320093">
        <ele>1.4</ele>
        <time>2025-09-23T23:39:48Z</time>
      </trkpt>
      <trkpt lat="39.162062228227285" lon="117.75860192244808">
        <ele>1.6</ele>
        <time>2025-09-23T23:39:50Z</time>
      </trkpt>
      <trkpt lat="39.162091245337336" lon="117.75866598567387">
        <ele>1.6</ele>
        <time>2025-09-23T23:39:52Z</time>
      </trkpt>
      <trkpt lat="39.16212625957217" lon="117.75873104938239">
        <ele>1.6</ele>
        <time>2025-09-23T23:39:54Z</time>
      </trkpt>
      <trkpt lat="39.16216527158463" lon="117.75879611278408">
        <ele>1.7</ele>
        <time>2025-09-23T23:39:56Z</time>
      </trkpt>
      <trkpt lat="39.162205283156794" lon="117.75886117626061">
        <ele>1.7</ele>
        <time>2025-09-23T23:39:58Z</time>
      </trkpt>
      <trkpt lat="39.16224429328848" lon="117.75892223582868">
        <ele>1.7</ele>
        <time>2025-09-23T23:40:00Z</time>
      </trkpt>
      <trkpt lat="39.16228630232281" lon="117.75898429625511">
        <ele>1.7</ele>
        <time>2025-09-23T23:40:02Z</time>
      </trkpt>
      <trkpt lat="39.16232931200597" lon="117.7590483588686">
        <ele>1.7</ele>
        <time>2025-09-23T23:40:04Z</time>
      </trkpt>
      <trkpt lat="39.162371325201555" lon="117.75911742714759">
        <ele>1.8</ele>
        <time>2025-09-23T23:40:06Z</time>
      </trkpt>
      <trkpt lat="39.16241433686317" lon="117.75918449338285">
        <ele>1.8</ele>
        <time>2025-09-23T23:40:08Z</time>
      </trkpt>
      <trkpt lat="39.1624583419487" lon="117.75924054788244">
        <ele>1.8</ele>
        <time>2025-09-23T23:40:10Z</time>
      </trkpt>
      <trkpt lat="39.162503337031545" lon="117.75927958409903">
        <ele>1.8</ele>
        <time>2025-09-23T23:40:12Z</time>
      </trkpt>
      <trkpt lat="39.162548315908445" lon="117.75928958913924">
        <ele>1.8</ele>
        <time>2025-09-23T23:40:14Z</time>
      </trkpt>
      <trkpt lat="39.16259128029518" lon="117.759271564292">
        <ele>1.8</ele>
        <time>2025-09-23T23:40:16Z</time>
      </trkpt>
      <trkpt lat="39.16263423129059" lon="117.75922951367049">
        <ele>1.8</ele>
        <time>2025-09-23T23:40:18Z</time>
      </trkpt>
      <trkpt lat="39.16267917559931" lon="117.75917745216096">
        <ele>2.2</ele>
        <time>2025-09-23T23:40:20Z</time>
      </trkpt>
      <trkpt lat="39.16272411889807" lon="117.75912338864238">
        <ele>2.2</ele>
        <time>2025-09-23T23:40:22Z</time>
      </trkpt>
      <trkpt lat="39.1627720605218" lon="117.75906932488111">
        <ele>2.2</ele>
        <time>2025-09-23T23:40:24Z</time>
      </trkpt>
      <trkpt lat="39.16282200216518" lon="117.75901726313215">
        <ele>2.4</ele>
        <time>2025-09-23T23:40:26Z</time>
      </trkpt>
      <trkpt lat="39.162877940345105" lon="117.75896520074872">
        <ele>2.4</ele>
        <time>2025-09-23T23:40:28Z</time>
      </trkpt>
      <trkpt lat="39.16293488021726" lon="117.75891714260315">
        <ele>2.4</ele>
        <time>2025-09-23T23:40:30Z</time>
      </trkpt>
      <trkpt lat="39.1629958188896" lon="117.75887108617232">
        <ele>2.4</ele>
        <time>2025-09-23T23:40:32Z</time>
      </trkpt>
      <trkpt lat="39.16305575986421" lon="117.75882803313411">
        <ele>2.4</ele>
        <time>2025-09-23T23:40:34Z</time>
      </trkpt>
      <trkpt lat="39.16311470258491" lon="117.75878698241718">
        <ele>2.1</ele>
        <time>2025-09-23T23:40:36Z</time>
      </trkpt>
      <trkpt lat="39.163169647742315" lon="117.75874593228956">
        <ele>2.1</ele>
        <time>2025-09-23T23:40:38Z</time>
      </trkpt>
      <trkpt lat="39.16321859328944" lon="117.75869887671281">
        <ele>2.1</ele>
        <time>2025-09-23T23:40:40Z</time>
      </trkpt>
      <trkpt lat="39.16326553688238" lon="117.7586458152184">
        <ele>2</ele>
        <time>2025-09-23T23:40:42Z</time>
      </trkpt>
      <trkpt lat="39.1633154798676" lon="117.7585947555639">
        <ele>2</ele>
        <time>2025-09-23T23:40:44Z</time>
      </trkpt>
      <trkpt lat="39.16336942430775" lon="117.75855070281489">
        <ele>2</ele>
        <time>2025-09-23T23:40:46Z</time>
      </trkpt>
      <trkpt lat="39.16342836744774" lon="117.75850965264094">
        <ele>2</ele>
        <time>2025-09-23T23:40:48Z</time>
      </trkpt>
      <trkpt lat="39.16348830899571" lon="117.75846660034487">
        <ele>2</ele>
        <time>2025-09-23T23:40:50Z</time>
      </trkpt>
      <trkpt lat="39.16355124671663" lon="117.75841954361383">
        <ele>2.1</ele>
        <time>2025-09-23T23:40:52Z</time>
      </trkpt>
      <trkpt lat="39.163618182672764" lon="117.7583734875126">
        <ele>2.1</ele>
        <time>2025-09-23T23:40:54Z</time>
      </trkpt>
      <trkpt lat="39.16368811745284" lon="117.75832843216186">
        <ele>2.2</ele>
        <time>2025-09-23T23:40:56Z</time>
      </trkpt>
      <trkpt lat="39.16375805440399" lon="117.75828738102375">
        <ele>2.2</ele>
        <time>2025-09-23T23:40:58Z</time>
      </trkpt>
      <trkpt lat="39.16383099277366" lon="117.75825233574747">
        <ele>2.2</ele>
        <time>2025-09-23T23:41:00Z</time>
      </trkpt>
      <trkpt lat="39.16390393223289" lon="117.75821929258127">
        <ele>2.4</ele>
        <time>2025-09-23T23:41:02Z</time>
      </trkpt>
      <trkpt lat="39.16397587180689" lon="117.75818524857037">
        <ele>2.4</ele>
        <time>2025-09-23T23:41:04Z</time>
      </trkpt>
      <trkpt lat="39.16404281127786" lon="117.75814519911712">
        <ele>2.5</ele>
        <time>2025-09-23T23:41:06Z</time>
      </trkpt>
      <trkpt lat="39.1641087524368" lon="117.75810715190853">
        <ele>2.5</ele>
        <time>2025-09-23T23:41:08Z</time>
      </trkpt>
      <trkpt lat="39.164171696461764" lon="117.75807110718816">
        <ele>2.5</ele>
        <time>2025-09-23T23:41:10Z</time>
      </trkpt>
      <trkpt lat="39.16423464156513" lon="117.7580370645639">
        <ele>2.4</ele>
        <time>2025-09-23T23:41:12Z</time>
      </trkpt>
      <trkpt lat="39.164295584817395" lon="117.75799701615817">
        <ele>2.4</ele>
        <time>2025-09-23T23:41:14Z</time>
      </trkpt>
      <trkpt lat="39.16435752548881" lon="117.75795296364967">
        <ele>2.5</ele>
        <time>2025-09-23T23:41:16Z</time>
      </trkpt>
      <trkpt lat="39.16441946470186" lon="117.75790590820172">
        <ele>2.5</ele>
        <time>2025-09-23T23:41:18Z</time>
      </trkpt>
      <trkpt lat="39.164479406199895" lon="117.75786085513144">
        <ele>2.5</ele>
        <time>2025-09-23T23:41:20Z</time>
      </trkpt>
      <trkpt lat="39.164538350900735" lon="117.75782080731828">
        <ele>2.3</ele>
        <time>2025-09-23T23:41:22Z</time>
      </trkpt>
      <trkpt lat="39.16459830518624" lon="117.75780077955862">
        <ele>2.3</ele>
        <time>2025-09-23T23:41:24Z</time>
      </trkpt>
      <trkpt lat="39.1646532801688" lon="117.75781578764902">
        <ele>2</ele>
        <time>2025-09-23T23:41:26Z</time>
      </trkpt>
      <trkpt lat="39.16469727895472" lon="117.75786483142016">
        <ele>2</ele>
        <time>2025-09-23T23:41:28Z</time>
      </trkpt>
      <trkpt lat="39.16473229133631" lon="117.7579298926362">
        <ele>2</ele>
        <time>2025-09-23T23:41:30Z</time>
      </trkpt>
      <trkpt lat="39.1647692975549" lon="117.75798494365317">
        <ele>1.9</ele>
        <time>2025-09-23T23:41:32Z</time>
      </trkpt>
      <trkpt lat="39.164805288530594" lon="117.75800896343371">
        <ele>1.9</ele>
        <time>2025-09-23T23:41:34Z</time>
      </trkpt>
      <trkpt lat="39.16483926631593" lon="117.75800495504406">
        <ele>1.6</ele>
        <time>2025-09-23T23:41:48Z</time>
      </trkpt>
      <trkpt lat="39.16487123502445" lon="117.75798092661346">
        <ele>1.6</ele>
        <time>2025-09-23T23:41:50Z</time>
      </trkpt>
      <trkpt lat="39.164908199766074" lon="117.75795489554785">
        <ele>1.8</ele>
        <time>2025-09-23T23:41:52Z</time>
      </trkpt>
      <trkpt lat="39.16495415664279" lon="117.75792385831065">
        <ele>1.8</ele>
        <time>2025-09-23T23:41:54Z</time>
      </trkpt>
      <trkpt lat="39.165009107200525" lon="117.75789081795396">
        <ele>2.4</ele>
        <time>2025-09-23T23:41:56Z</time>
      </trkpt>
      <trkpt lat="39.165070050684704" lon="117.75785076982814">
        <ele>2.4</ele>
        <time>2025-09-23T23:41:58Z</time>
      </trkpt>
      <trkpt lat="39.16513398991762" lon="117.75780571636709">
        <ele>2.4</ele>
        <time>2025-09-23T23:42:00Z</time>
      </trkpt>
      <trkpt lat="39.1651989276237" lon="117.75775866086865">
        <ele>2.9</ele>
        <time>2025-09-23T23:42:02Z</time>
      </trkpt>
      <trkpt lat="39.16526586523265" lon="117.75771360722472">
        <ele>2.9</ele>
        <time>2025-09-23T23:42:04Z</time>
      </trkpt>
      <trkpt lat="39.16533280392025" lon="117.75767055567688">
        <ele>2.6</ele>
        <time>2025-09-23T23:42:06Z</time>
      </trkpt>
      <trkpt lat="39.16539874027076" lon="117.75762149836193">
        <ele>2.6</ele>
        <time>2025-09-23T23:42:08Z</time>
      </trkpt>
      <trkpt lat="39.165461676497166" lon="117.75756843756585">
        <ele>2.6</ele>
        <time>2025-09-23T23:42:10Z</time>
      </trkpt>
      <trkpt lat="39.16552461084455" lon="117.75751137293746">
        <ele>2.7</ele>
        <time>2025-09-23T23:42:12Z</time>
      </trkpt>
      <trkpt lat="39.16558854373235" lon="117.75745230636022">
        <ele>2.7</ele>
        <time>2025-09-23T23:42:14Z</time>
      </trkpt>
      <trkpt lat="39.16565447654667" lon="117.75739524166832">
        <ele>2.9</ele>
        <time>2025-09-23T23:42:16Z</time>
      </trkpt>
      <trkpt lat="39.165718412134964" lon="117.75734118033806">
        <ele>2.9</ele>
        <time>2025-09-23T23:42:18Z</time>
      </trkpt>
      <trkpt lat="39.165782349294275" lon="117.75729012209145">
        <ele>2.9</ele>
        <time>2025-09-23T23:42:20Z</time>
      </trkpt>
      <trkpt lat="39.16584428433579" lon="117.75723205737526">
        <ele>2.9</ele>
        <time>2025-09-23T23:42:22Z</time>
      </trkpt>
      <trkpt lat="39.16590821493397" lon="117.75716698573919">
        <ele>2.9</ele>
        <time>2025-09-23T23:42:24Z</time>
      </trkpt>
      <trkpt lat="39.16597014639255" lon="117.75710091358945">
        <ele>2.9</ele>
        <time>2025-09-23T23:42:26Z</time>
      </trkpt>
      <trkpt lat="39.16603208040415" lon="117.75703984649462">
        <ele>2.9</ele>
        <time>2025-09-23T23:42:28Z</time>
      </trkpt>
      <trkpt lat="39.16609301752775" lon="117.7569837845379">
        <ele>2.9</ele>
        <time>2025-09-23T23:42:30Z</time>
      </trkpt>
      <trkpt lat="39.166150956544854" lon="117.75692772311444">
        <ele>3.1</ele>
        <time>2025-09-23T23:42:32Z</time>
      </trkpt>
      <trkpt lat="39.16620689686292" lon="117.75687166209705">
        <ele>3.1</ele>
        <time>2025-09-23T23:42:34Z</time>
      </trkpt>
      <trkpt lat="39.16626183741922" lon="117.75681460040026">
        <ele>3.1</ele>
        <time>2025-09-23T23:42:36Z</time>
      </trkpt>
      <trkpt lat="39.16632177607069" lon="117.75675954013495">
        <ele>2.9</ele>
        <time>2025-09-23T23:42:38Z</time>
      </trkpt>
      <trkpt lat="39.16638071402829" lon="117.75670147728476">
        <ele>2.9</ele>
        <time>2025-09-23T23:42:40Z</time>
      </trkpt>
      <trkpt lat="39.166439649791194" lon="117.75663840984825">
        <ele>3.1</ele>
        <time>2025-09-23T23:42:42Z</time>
      </trkpt>
      <trkpt lat="39.16649558470952" lon="117.75656933730673">
        <ele>3.1</ele>
        <time>2025-09-23T23:42:44Z</time>
      </trkpt>
      <trkpt lat="39.16655351953698" lon="117.7565022666271">
        <ele>3.1</ele>
        <time>2025-09-23T23:42:46Z</time>
      </trkpt>
      <trkpt lat="39.166605458996564" lon="117.75643719880838">
        <ele>3.1</ele>
        <time>2025-09-23T23:42:48Z</time>
      </trkpt>
      <trkpt lat="39.16665540252169" lon="117.75637813707058">
        <ele>3.1</ele>
        <time>2025-09-23T23:42:50Z</time>
      </trkpt>
      <trkpt lat="39.16670234885645" lon="117.75632107775188">
        <ele>2.9</ele>
        <time>2025-09-23T23:42:52Z</time>
      </trkpt>
      <trkpt lat="39.16674929666188" lon="117.7562670213855">
        <ele>2.9</ele>
        <time>2025-09-23T23:42:54Z</time>
      </trkpt>
      <trkpt lat="39.16679724398329" lon="117.75621296503314">
        <ele>2.9</ele>
        <time>2025-09-23T23:42:56Z</time>
      </trkpt>
      <trkpt lat="39.16684519364438" lon="117.75616391345515">
        <ele>2.7</ele>
        <time>2025-09-23T23:42:58Z</time>
      </trkpt>
      <trkpt lat="39.166896147846444" lon="117.7561288745571">
        <ele>2.7</ele>
        <time>2025-09-23T23:43:00Z</time>
      </trkpt>
      <trkpt lat="39.16694612091445" lon="117.75613487374261">
        <ele>2.1</ele>
        <time>2025-09-23T23:43:02Z</time>
      </trkpt>
      <trkpt lat="39.166993115848086" lon="117.7561859150129">
        <ele>2.1</ele>
        <time>2025-09-23T23:43:04Z</time>
      </trkpt>
      <trkpt lat="39.167035125526944" lon="117.75626298124905">
        <ele>2.1</ele>
        <time>2025-09-23T23:43:06Z</time>
      </trkpt>
      <trkpt lat="39.16707713497157" lon="117.75633904683758">
        <ele>2.1</ele>
        <time>2025-09-23T23:43:08Z</time>
      </trkpt>
      <trkpt lat="39.167118143854395" lon="117.75641211001702">
        <ele>2.1</ele>
        <time>2025-09-23T23:43:10Z</time>
      </trkpt>
      <trkpt lat="39.16716015371639" lon="117.75648817615452">
        <ele>2.1</ele>
        <time>2025-09-23T23:43:12Z</time>
      </trkpt>
      <trkpt lat="39.16720416306835" lon="117.75656524326338">
        <ele>2.1</ele>
        <time>2025-09-23T23:43:14Z</time>
      </trkpt>
      <trkpt lat="39.16725017238278" lon="117.75664431230466">
        <ele>2.1</ele>
        <time>2025-09-23T23:43:16Z</time>
      </trkpt>
      <trkpt lat="39.16729818074319" lon="117.75672338139347">
        <ele>2.2</ele>
        <time>2025-09-23T23:43:18Z</time>
      </trkpt>
      <trkpt lat="39.16734818955919" lon="117.7568054534028">
        <ele>2.2</ele>
        <time>2025-09-23T23:43:20Z</time>
      </trkpt>
      <trkpt lat="39.16740019554747" lon="117.75688352163621">
        <ele>2.2</ele>
        <time>2025-09-23T23:43:22Z</time>
      </trkpt>
      <trkpt lat="39.16745519903298" lon="117.75695958785141">
        <ele>2.2</ele>
        <time>2025-09-23T23:43:24Z</time>
      </trkpt>
      <trkpt lat="39.16751020177461" lon="117.7570336524081">
        <ele>2.2</ele>
        <time>2025-09-23T23:43:26Z</time>
      </trkpt>
      <trkpt lat="39.16756320638254" lon="117.75710871845637">
        <ele>2.2</ele>
        <time>2025-09-23T23:43:28Z</time>
      </trkpt>
      <trkpt lat="39.167614212864784" lon="117.75718478600697">
        <ele>2.2</ele>
        <time>2025-09-23T23:43:30Z</time>
      </trkpt>
      <trkpt lat="39.16766422063772" lon="117.75726185494352">
        <ele>2</ele>
        <time>2025-09-23T23:43:32Z</time>
      </trkpt>
      <trkpt lat="39.16771422862843" lon="117.75733892416616">
        <ele>2</ele>
        <time>2025-09-23T23:43:34Z</time>
      </trkpt>
      <trkpt lat="39.167766236145674" lon="117.75741699440748">
        <ele>2</ele>
        <time>2025-09-23T23:43:36Z</time>
      </trkpt>
      <trkpt lat="39.16781424674819" lon="117.75749606644239">
        <ele>1.7</ele>
        <time>2025-09-23T23:43:38Z</time>
      </trkpt>
      <trkpt lat="39.16786425639618" lon="117.75757513852349">
        <ele>1.7</ele>
        <time>2025-09-23T23:43:40Z</time>
      </trkpt>
      <trkpt lat="39.16791226645447" lon="117.75765220916256">
        <ele>1.7</ele>
        <time>2025-09-23T23:43:42Z</time>
      </trkpt>
      <trkpt lat="39.16796227403587" lon="117.75772627682582">
        <ele>1.7</ele>
        <time>2025-09-23T23:43:44Z</time>
      </trkpt>
      <trkpt lat="39.168009282580385" lon="117.75779834312323">
        <ele>1.7</ele>
        <time>2025-09-23T23:43:46Z</time>
      </trkpt>
      <trkpt lat="39.16805529343296" lon="117.75787341282484">
        <ele>1.8</ele>
        <time>2025-09-23T23:43:48Z</time>
      </trkpt>
      <trkpt lat="39.168102304923124" lon="117.75795048469546">
        <ele>1.8</ele>
        <time>2025-09-23T23:43:50Z</time>
      </trkpt>
      <trkpt lat="39.16815131699076" lon="117.75803055964663">
        <ele>1.8</ele>
        <time>2025-09-23T23:43:52Z</time>
      </trkpt>
      <trkpt lat="39.16820132766578" lon="117.75810863273689">
        <ele>1.8</ele>
        <time>2025-09-23T23:43:54Z</time>
      </trkpt>
      <trkpt lat="39.16825133804289" lon="117.75818570509514">
        <ele>1.8</ele>
        <time>2025-09-23T23:43:56Z</time>
      </trkpt>
      <trkpt lat="39.1683003487051" lon="117.75826177683741">
        <ele>1.9</ele>
        <time>2025-09-23T23:43:58Z</time>
      </trkpt>
      <trkpt lat="39.16834935905248" lon="117.75833684782538">
        <ele>1.9</ele>
        <time>2025-09-23T23:44:00Z</time>
      </trkpt>
      <trkpt lat="39.168396369731234" lon="117.75840991726771">
        <ele>1.8</ele>
        <time>2025-09-23T23:44:02Z</time>
      </trkpt>
      <trkpt lat="39.16844538048378" lon="117.75848498878801">
        <ele>1.8</ele>
        <time>2025-09-23T23:44:04Z</time>
      </trkpt>
      <trkpt lat="39.1684953919179" lon="117.75856206253499">
        <ele>1.8</ele>
        <time>2025-09-23T23:44:06Z</time>
      </trkpt>
      <trkpt lat="39.168546405124" lon="117.75864314062287">
        <ele>1.9</ele>
        <time>2025-09-23T23:44:08Z</time>
      </trkpt>
      <trkpt lat="39.16859841743796" lon="117.75872321784759">
        <ele>1.9</ele>
        <time>2025-09-23T23:44:10Z</time>
      </trkpt>
      <trkpt lat="39.16865042944239" lon="117.75880229432485">
        <ele>1.9</ele>
        <time>2025-09-23T23:44:12Z</time>
      </trkpt>
      <trkpt lat="39.16869944235712" lon="117.75887936936758">
        <ele>1.9</ele>
        <time>2025-09-23T23:44:14Z</time>
      </trkpt>
      <trkpt lat="39.1687474544344" lon="117.75895344163797">
        <ele>1.9</ele>
        <time>2025-09-23T23:44:16Z</time>
      </trkpt>
      <trkpt lat="39.168797464426795" lon="117.75902551178662">
        <ele>2</ele>
        <time>2025-09-23T23:44:18Z</time>
      </trkpt>
      <trkpt lat="39.16884847346322" lon="117.7590965809878">
        <ele>2</ele>
        <time>2025-09-23T23:44:20Z</time>
      </trkpt>
      <trkpt lat="39.16889748442141" lon="117.75916865175546">
        <ele>2.2</ele>
        <time>2025-09-23T23:44:22Z</time>
      </trkpt>
      <trkpt lat="39.168942499608505" lon="117.75924372650387">
        <ele>2.2</ele>
        <time>2025-09-23T23:44:24Z</time>
      </trkpt>
      <trkpt lat="39.16898751499969" lon="117.75931880152062">
        <ele>2.2</ele>
        <time>2025-09-23T23:44:26Z</time>
      </trkpt>
      <trkpt lat="39.16903352943968" lon="117.75939287559636">
        <ele>2</ele>
        <time>2025-09-23T23:44:28Z</time>
      </trkpt>
      <trkpt lat="39.169080543487055" lon="117.75946694980583">
        <ele>2</ele>
        <time>2025-09-23T23:44:30Z</time>
      </trkpt>
      <trkpt lat="39.16912855657248" lon="117.75954002305994">
        <ele>2.2</ele>
        <time>2025-09-23T23:44:32Z</time>
      </trkpt>
      <trkpt lat="39.169174568174206" lon="117.75960809136105">
        <ele>2.2</ele>
        <time>2025-09-23T23:44:34Z</time>
      </trkpt>
      <trkpt lat="39.169220577647074" lon="117.7596721555011">
        <ele>2.2</ele>
        <time>2025-09-23T23:44:36Z</time>
      </trkpt>
      <trkpt lat="39.16926358673662" lon="117.75973221582531">
        <ele>1.8</ele>
        <time>2025-09-23T23:44:38Z</time>
      </trkpt>
      <trkpt lat="39.16930459945247" lon="117.75979628097923">
        <ele>1.8</ele>
        <time>2025-09-23T23:44:40Z</time>
      </trkpt>
      <trkpt lat="39.16934261408967" lon="117.75986034670971">
        <ele>1.8</ele>
        <time>2025-09-23T23:44:42Z</time>
      </trkpt>
      <trkpt lat="39.16938362826804" lon="117.75992641446744">
        <ele>1.7</ele>
        <time>2025-09-23T23:44:44Z</time>
      </trkpt>
      <trkpt lat="39.16942564142724" lon="117.7599914811944">
        <ele>1.7</ele>
        <time>2025-09-23T23:44:46Z</time>
      </trkpt>
      <trkpt lat="39.16947065590578" lon="117.76006155330795">
        <ele>1.7</ele>
        <time>2025-09-23T23:44:48Z</time>
      </trkpt>
      <trkpt lat="39.16951367410575" lon="117.7601356303769">
        <ele>1.7</ele>
        <time>2025-09-23T23:44:50Z</time>
      </trkpt>
      <trkpt lat="39.16955969488461" lon="117.76021671516978">
        <ele>1.7</ele>
        <time>2025-09-23T23:44:52Z</time>
      </trkpt>
      <trkpt lat="39.1696097147292" lon="117.76029980201444">
        <ele>1.6</ele>
        <time>2025-09-23T23:44:54Z</time>
      </trkpt>
      <trkpt lat="39.16966173184164" lon="117.76037988554452">
        <ele>1.6</ele>
        <time>2025-09-23T23:44:56Z</time>
      </trkpt>
      <trkpt lat="39.16971474678705" lon="117.76045696585305">
        <ele>1.6</ele>
        <time>2025-09-23T23:44:58Z</time>
      </trkpt>
      <trkpt lat="39.16976775892174" lon="117.76052904076265">
        <ele>1.6</ele>
        <time>2025-09-23T23:45:00Z</time>
      </trkpt>
      <trkpt lat="39.16982176883053" lon="117.76059811237285">
        <ele>1.6</ele>
        <time>2025-09-23T23:45:02Z</time>
      </trkpt>
      <trkpt lat="39.169873780092686" lon="117.7606671844627">
        <ele>1.7</ele>
        <time>2025-09-23T23:45:04Z</time>
      </trkpt>
      <trkpt lat="39.1699227963603" lon="117.7607412628879">
        <ele>1.7</ele>
        <time>2025-09-23T23:45:06Z</time>
      </trkpt>
      <trkpt lat="39.16996981769719" lon="117.76082134872304">
        <ele>1.7</ele>
        <time>2025-09-23T23:45:08Z</time>
      </trkpt>
      <trkpt lat="39.17001583985461" lon="117.76090143498763">
        <ele>1.7</ele>
        <time>2025-09-23T23:45:10Z</time>
      </trkpt>
      <trkpt lat="39.170061862241596" lon="117.76098152155419">
        <ele>1.7</ele>
        <time>2025-09-23T23:45:12Z</time>
      </trkpt>
      <trkpt lat="39.170105885415715" lon="117.76106060751621">
        <ele>1.6</ele>
        <time>2025-09-23T23:45:14Z</time>
      </trkpt>
      <trkpt lat="39.17014791187479" lon="117.7611426975209">
        <ele>1.6</ele>
        <time>2025-09-23T23:45:16Z</time>
      </trkpt>
      <trkpt lat="39.170188939165165" lon="117.7612247879696">
        <ele>1.8</ele>
        <time>2025-09-23T23:45:18Z</time>
      </trkpt>
      <trkpt lat="39.17022996922644" lon="117.76131088342501">
        <ele>1.8</ele>
        <time>2025-09-23T23:45:20Z</time>
      </trkpt>
      <trkpt lat="39.17027199578291" lon="117.76139197321834">
        <ele>1.8</ele>
        <time>2025-09-23T23:45:22Z</time>
      </trkpt>
      <trkpt lat="39.17031302571852" lon="117.76147706816883">
        <ele>1.8</ele>
        <time>2025-09-23T23:45:24Z</time>
      </trkpt>
      <trkpt lat="39.17035405462875" lon="117.76156016109007">
        <ele>1.8</ele>
        <time>2025-09-23T23:45:26Z</time>
      </trkpt>
      <trkpt lat="39.1703950844292" lon="117.76164425552311">
        <ele>1.7</ele>
        <time>2025-09-23T23:45:28Z</time>
      </trkpt>
      <trkpt lat="39.17043811394747" lon="117.7617293512251">
        <ele>1.7</ele>
        <time>2025-09-23T23:45:30Z</time>
      </trkpt>
      <trkpt lat="39.17047814614548" lon="117.76181544884403">
        <ele>1.7</ele>
        <time>2025-09-23T23:45:32Z</time>
      </trkpt>
      <trkpt lat="39.17051618174899" lon="117.76190455066538">
        <ele>1.7</ele>
        <time>2025-09-23T23:45:34Z</time>
      </trkpt>
      <trkpt lat="39.17055321625398" lon="117.76199064937133">
        <ele>1.7</ele>
        <time>2025-09-23T23:45:36Z</time>
      </trkpt>
      <trkpt lat="39.17058925029259" lon="117.76207474613382">
        <ele>1.7</ele>
        <time>2025-09-23T23:45:38Z</time>
      </trkpt>
      <trkpt lat="39.17062228701607" lon="117.76215984482054">
        <ele>1.7</ele>
        <time>2025-09-23T23:45:40Z</time>
      </trkpt>
      <trkpt lat="39.17065632340529" lon="117.76224494371786">
        <ele>1.7</ele>
        <time>2025-09-23T23:45:42Z</time>
      </trkpt>
      <trkpt lat="39.170690362726184" lon="117.76233404783454">
        <ele>1.7</ele>
        <time>2025-09-23T23:45:44Z</time>
      </trkpt>
      <trkpt lat="39.17072340157395" lon="117.76242114999904">
        <ele>1.7</ele>
        <time>2025-09-23T23:45:46Z</time>
      </trkpt>
      <trkpt lat="39.17075344043582" lon="117.76250524921271">
        <ele>1.8</ele>
        <time>2025-09-23T23:45:48Z</time>
      </trkpt>
      <trkpt lat="39.170786476419956" lon="117.76258734590894">
        <ele>1.8</ele>
        <time>2025-09-23T23:45:50Z</time>
      </trkpt>
      <trkpt lat="39.17082350959928" lon="117.76266844117343">
        <ele>1.8</ele>
        <time>2025-09-23T23:45:52Z</time>
      </trkpt>
    </trkseg>
  </trk>
</gpx>