<?xml version="1.0" encoding="UTF-8"?>
<gpx xmlns="http://www.topografix.com/GPX/1/1" xmlns:gpxtpx="http://www.garmin.com/xmlschemas/TrackPointExtension/v1" xmlns:xsi="http://www.w3.org/2001/XMLSchema-instance" xsi:schemaLocation="http://www.topografix.com/GPX/1/1 http://www.topografix.com/GPX/1/1/gpx.xsd" version="1.1" creator="gpx.py -- https://github.com/tkrajina/gpxpy">
  <trk>
    <name>gpx from codoon</name>
    <type>Run</type>
    <trkseg>
      <trkpt lat="39.17128952213601" lon="117.76308690264165">
        <ele>1.7</ele>
        <time>2025-09-24T23:36:20Z</time>
      </trkpt>
      <trkpt lat="39.17125453375646" lon="117.76307389077658">
        <ele>1.7</ele>
        <time>2025-09-24T23:36:21Z</time>
      </trkpt>
      <trkpt lat="39.17121654368182" lon="117.76305587302994">
        <ele>1.5</ele>
        <time>2025-09-24T23:36:23Z</time>
      </trkpt>
      <trkpt lat="39.17119353644243" lon="117.76302583835385">
        <ele>1.5</ele>
        <time>2025-09-24T23:36:25Z</time>
      </trkpt>
      <trkpt lat="39.17115256272445" lon="117.76302884732883">
        <ele>0.9</ele>
        <time>2025-09-24T23:36:27Z</time>
      </trkpt>
      <trkpt lat="39.17110060174429" lon="117.76304086898264">
        <ele>0.9</ele>
        <time>2025-09-24T23:36:29Z</time>
      </trkpt>
      <trkpt lat="39.1710386466738" lon="117.76305289191544">
        <ele>0.9</ele>
        <time>2025-09-24T23:36:31Z</time>
      </trkpt>
      <trkpt lat="39.17098165812531" lon="117.76302085906448">
        <ele>0.6</ele>
        <time>2025-09-24T23:36:33Z</time>
      </trkpt>
      <trkpt lat="39.17094064011387" lon="117.762959787966">
        <ele>0.6</ele>
        <time>2025-09-24T23:36:35Z</time>
      </trkpt>
      <trkpt lat="39.17090660157866" lon="117.76287468623966">
        <ele>0.6</ele>
        <time>2025-09-24T23:36:37Z</time>
      </trkpt>
      <trkpt lat="39.1708715618338" lon="117.76278658125149">
        <ele>0.6</ele>
        <time>2025-09-24T23:36:39Z</time>
      </trkpt>
      <trkpt lat="39.17083252676962" lon="117.76270148084538">
        <ele>0.6</ele>
        <time>2025-09-24T23:36:41Z</time>
      </trkpt>
      <trkpt lat="39.170790492374365" lon="117.76261437869013">
        <ele>0.3</ele>
        <time>2025-09-24T23:36:43Z</time>
      </trkpt>
      <trkpt lat="39.17075045706594" lon="117.7625272766331">
        <ele>0.3</ele>
        <time>2025-09-24T23:36:45Z</time>
      </trkpt>
      <trkpt lat="39.17071241815385" lon="117.76243616977294">
        <ele>0.3</ele>
        <time>2025-09-24T23:36:47Z</time>
      </trkpt>
      <trkpt lat="39.17067537693651" lon="117.76234205950898">
        <ele>0.5</ele>
        <time>2025-09-24T23:36:49Z</time>
      </trkpt>
      <trkpt lat="39.17063733395923" lon="117.76224394491915">
        <ele>0.5</ele>
        <time>2025-09-24T23:36:51Z</time>
      </trkpt>
      <trkpt lat="39.17060029338134" lon="117.76214983549819">
        <ele>0.4</ele>
        <time>2025-09-24T23:36:53Z</time>
      </trkpt>
      <trkpt lat="39.17056425582241" lon="117.76206073240148">
        <ele>0.4</ele>
        <time>2025-09-24T23:36:55Z</time>
      </trkpt>
      <trkpt lat="39.17052722307277" lon="117.7619776370252">
        <ele>0.4</ele>
        <time>2025-09-24T23:36:57Z</time>
      </trkpt>
      <trkpt lat="39.17049218807999" lon="117.761892539317">
        <ele>0.4</ele>
        <time>2025-09-24T23:36:59Z</time>
      </trkpt>
      <trkpt lat="39.170456154584976" lon="117.76180844327054">
        <ele>0.4</ele>
        <time>2025-09-24T23:37:01Z</time>
      </trkpt>
      <trkpt lat="39.17042112204521" lon="117.76172634981175">
        <ele>0.4</ele>
        <time>2025-09-24T23:37:03Z</time>
      </trkpt>
      <trkpt lat="39.170382093396434" lon="117.76164625955406">
        <ele>0.4</ele>
        <time>2025-09-24T23:37:05Z</time>
      </trkpt>
      <trkpt lat="39.17034106679881" lon="117.7615671710359">
        <ele>0.4</ele>
        <time>2025-09-24T23:37:07Z</time>
      </trkpt>
      <trkpt lat="39.170300037868145" lon="117.76148407808739">
        <ele>0.3</ele>
        <time>2025-09-24T23:37:09Z</time>
      </trkpt>
      <trkpt lat="39.170257010364665" lon="117.7614009857171">
        <ele>0.3</ele>
        <time>2025-09-24T23:37:11Z</time>
      </trkpt>
      <trkpt lat="39.1702139824743" lon="117.7613168924978">
        <ele>0.4</ele>
        <time>2025-09-24T23:37:13Z</time>
      </trkpt>
      <trkpt lat="39.17016995479692" lon="117.76123179856879">
        <ele>0.4</ele>
        <time>2025-09-24T23:37:15Z</time>
      </trkpt>
      <trkpt lat="39.17012692678716" lon="117.76114670485264">
        <ele>0.4</ele>
        <time>2025-09-24T23:37:17Z</time>
      </trkpt>
      <trkpt lat="39.17007790382811" lon="117.76106361456229">
        <ele>0.3</ele>
        <time>2025-09-24T23:37:19Z</time>
      </trkpt>
      <trkpt lat="39.170031878101845" lon="117.76097852190078">
        <ele>0.3</ele>
        <time>2025-09-24T23:37:21Z</time>
      </trkpt>
      <trkpt lat="39.16998485322528" lon="117.76089342970728">
        <ele>0</ele>
        <time>2025-09-24T23:37:23Z</time>
      </trkpt>
      <trkpt lat="39.16993982865583" lon="117.76081033989824">
        <ele>0</ele>
        <time>2025-09-24T23:37:25Z</time>
      </trkpt>
      <trkpt lat="39.16989280979922" lon="117.76073425868626">
        <ele>0</ele>
        <time>2025-09-24T23:37:27Z</time>
      </trkpt>
      <trkpt lat="39.16984379537938" lon="117.76066318371174">
        <ele>0</ele>
        <time>2025-09-24T23:37:29Z</time>
      </trkpt>
      <trkpt lat="39.1697967793522" lon="117.76059110758221">
        <ele>0</ele>
        <time>2025-09-24T23:37:31Z</time>
      </trkpt>
      <trkpt lat="39.169747762880235" lon="117.7605160285466">
        <ele>0.2</ele>
        <time>2025-09-24T23:37:33Z</time>
      </trkpt>
      <trkpt lat="39.16970074422577" lon="117.76043894725944">
        <ele>0.2</ele>
        <time>2025-09-24T23:37:35Z</time>
      </trkpt>
      <trkpt lat="39.16965372698247" lon="117.76036386850882">
        <ele>0.2</ele>
        <time>2025-09-24T23:37:37Z</time>
      </trkpt>
      <trkpt lat="39.1696057123215" lon="117.76029179352538">
        <ele>0.5</ele>
        <time>2025-09-24T23:37:39Z</time>
      </trkpt>
      <trkpt lat="39.16955770022264" lon="117.76022372327263">
        <ele>0.5</ele>
        <time>2025-09-24T23:37:41Z</time>
      </trkpt>
      <trkpt lat="39.169513688884294" lon="117.76016065832127">
        <ele>0.6</ele>
        <time>2025-09-24T23:37:43Z</time>
      </trkpt>
      <trkpt lat="39.169475681217776" lon="117.76010960618248">
        <ele>0.6</ele>
        <time>2025-09-24T23:37:45Z</time>
      </trkpt>
      <trkpt lat="39.16944467538924" lon="117.76006856441386">
        <ele>0.6</ele>
        <time>2025-09-24T23:37:47Z</time>
      </trkpt>
      <trkpt lat="39.1694186690139" lon="117.76003152653726">
        <ele>0.3</ele>
        <time>2025-09-24T23:37:49Z</time>
      </trkpt>
      <trkpt lat="39.169393656242555" lon="117.75998447749583">
        <ele>0.2</ele>
        <time>2025-09-24T23:38:01Z</time>
      </trkpt>
      <trkpt lat="39.169369644127066" lon="117.75993943064769">
        <ele>0.2</ele>
        <time>2025-09-24T23:38:06Z</time>
      </trkpt>
      <trkpt lat="39.1693456332488" lon="117.75989638610729">
        <ele>0.4</ele>
        <time>2025-09-24T23:38:08Z</time>
      </trkpt>
      <trkpt lat="39.16932262416873" lon="117.759857345943">
        <ele>0.4</ele>
        <time>2025-09-24T23:38:10Z</time>
      </trkpt>
      <trkpt lat="39.169293613477905" lon="117.7598092966974">
        <ele>0.4</ele>
        <time>2025-09-24T23:38:12Z</time>
      </trkpt>
      <trkpt lat="39.16925760354525" lon="117.75975524185654">
        <ele>0.2</ele>
        <time>2025-09-24T23:38:14Z</time>
      </trkpt>
      <trkpt lat="39.1692185937664" lon="117.75969818424667">
        <ele>0.2</ele>
        <time>2025-09-24T23:38:16Z</time>
      </trkpt>
      <trkpt lat="39.16917858412347" lon="117.75964012582496">
        <ele>0.3</ele>
        <time>2025-09-24T23:38:18Z</time>
      </trkpt>
      <trkpt lat="39.169137575764395" lon="117.75958306878152">
        <ele>0.3</ele>
        <time>2025-09-24T23:38:20Z</time>
      </trkpt>
      <trkpt lat="39.16909656638569" lon="117.75952400971637">
        <ele>0.3</ele>
        <time>2025-09-24T23:38:22Z</time>
      </trkpt>
      <trkpt lat="39.16905455659135" lon="117.75946294877369">
        <ele>-0.2</ele>
        <time>2025-09-24T23:38:24Z</time>
      </trkpt>
      <trkpt lat="39.169010544729254" lon="117.75939588176969">
        <ele>-0.2</ele>
        <time>2025-09-24T23:38:26Z</time>
      </trkpt>
      <trkpt lat="39.16896553249798" lon="117.75932681294931">
        <ele>-0.4</ele>
        <time>2025-09-24T23:38:28Z</time>
      </trkpt>
      <trkpt lat="39.16892151873011" lon="117.75925574207783">
        <ele>-0.4</ele>
        <time>2025-09-24T23:38:30Z</time>
      </trkpt>
      <trkpt lat="39.16887650573643" lon="117.75918467157406">
        <ele>-0.4</ele>
        <time>2025-09-24T23:38:32Z</time>
      </trkpt>
      <trkpt lat="39.16883049407099" lon="117.75911460250677">
        <ele>-0.4</ele>
        <time>2025-09-24T23:38:34Z</time>
      </trkpt>
      <trkpt lat="39.16878348262353" lon="117.75904353273545">
        <ele>-0.4</ele>
        <time>2025-09-24T23:38:36Z</time>
      </trkpt>
      <trkpt lat="39.16873647081059" lon="117.75897146214305">
        <ele>-0.3</ele>
        <time>2025-09-24T23:38:38Z</time>
      </trkpt>
      <trkpt lat="39.16868945809397" lon="117.75889738968172">
        <ele>-0.3</ele>
        <time>2025-09-24T23:38:40Z</time>
      </trkpt>
      <trkpt lat="39.168642446119975" lon="117.75882431853695">
        <ele>-0.3</ele>
        <time>2025-09-24T23:38:42Z</time>
      </trkpt>
      <trkpt lat="39.16859543433995" lon="117.75875124764707">
        <ele>-0.4</ele>
        <time>2025-09-24T23:38:44Z</time>
      </trkpt>
      <trkpt lat="39.168548422215856" lon="117.75867717596438">
        <ele>-0.4</ele>
        <time>2025-09-24T23:38:46Z</time>
      </trkpt>
      <trkpt lat="39.16850141082667" lon="117.75860410558808">
        <ele>-0.4</ele>
        <time>2025-09-24T23:38:48Z</time>
      </trkpt>
      <trkpt lat="39.16845340182175" lon="117.75853403871679">
        <ele>-0.1</ele>
        <time>2025-09-24T23:38:50Z</time>
      </trkpt>
      <trkpt lat="39.16840439358706" lon="117.75846397220755">
        <ele>-0.1</ele>
        <time>2025-09-24T23:38:52Z</time>
      </trkpt>
      <trkpt lat="39.168353385130864" lon="117.75839090308538">
        <ele>-0.1</ele>
        <time>2025-09-24T23:38:54Z</time>
      </trkpt>
      <trkpt lat="39.16830237686931" lon="117.75831783421876">
        <ele>-0.1</ele>
        <time>2025-09-24T23:38:56Z</time>
      </trkpt>
      <trkpt lat="39.16825136775772" lon="117.75824276355377">
        <ele>-0.1</ele>
        <time>2025-09-24T23:38:58Z</time>
      </trkpt>
      <trkpt lat="39.16820335707708" lon="117.75816769277687">
        <ele>-0.1</ele>
        <time>2025-09-24T23:39:00Z</time>
      </trkpt>
      <trkpt lat="39.168155344534696" lon="117.75808861819141">
        <ele>-0.1</ele>
        <time>2025-09-24T23:39:02Z</time>
      </trkpt>
      <trkpt lat="39.16810733273425" lon="117.75801054492155">
        <ele>-0.1</ele>
        <time>2025-09-24T23:39:04Z</time>
      </trkpt>
      <trkpt lat="39.16805932217845" lon="117.75793447396826">
        <ele>-0.1</ele>
        <time>2025-09-24T23:39:06Z</time>
      </trkpt>
      <trkpt lat="39.168011313359244" lon="117.75786140631844">
        <ele>-0.1</ele>
        <time>2025-09-24T23:39:08Z</time>
      </trkpt>
      <trkpt lat="39.16796530405773" lon="117.75778933967551">
        <ele>0</ele>
        <time>2025-09-24T23:39:10Z</time>
      </trkpt>
      <trkpt lat="39.16792129426599" lon="117.7577182740292">
        <ele>0</ele>
        <time>2025-09-24T23:39:12Z</time>
      </trkpt>
      <trkpt lat="39.167877284658864" lon="117.75764720862551">
        <ele>0</ele>
        <time>2025-09-24T23:39:14Z</time>
      </trkpt>
      <trkpt lat="39.16783127641982" lon="117.75757614371918">
        <ele>0</ele>
        <time>2025-09-24T23:39:16Z</time>
      </trkpt>
      <trkpt lat="39.16778326905356" lon="117.75750407831882">
        <ele>0</ele>
        <time>2025-09-24T23:39:18Z</time>
      </trkpt>
      <trkpt lat="39.16773426197641" lon="117.75743101230759">
        <ele>0</ele>
        <time>2025-09-24T23:39:20Z</time>
      </trkpt>
      <trkpt lat="39.16768725293122" lon="117.75735594432994">
        <ele>0</ele>
        <time>2025-09-24T23:39:22Z</time>
      </trkpt>
      <trkpt lat="39.167641244475405" lon="117.75728287845783">
        <ele>-0.1</ele>
        <time>2025-09-24T23:39:24Z</time>
      </trkpt>
      <trkpt lat="39.167594237291794" lon="117.75721081394747">
        <ele>-0.1</ele>
        <time>2025-09-24T23:39:26Z</time>
      </trkpt>
      <trkpt lat="39.16754723078079" lon="117.75713975066122">
        <ele>-0.1</ele>
        <time>2025-09-24T23:39:28Z</time>
      </trkpt>
      <trkpt lat="39.16750022349606" lon="117.75706668567754">
        <ele>-0.2</ele>
        <time>2025-09-24T23:39:30Z</time>
      </trkpt>
      <trkpt lat="39.16745321640728" lon="117.75699362095128">
        <ele>-0.2</ele>
        <time>2025-09-24T23:39:32Z</time>
      </trkpt>
      <trkpt lat="39.16740720797442" lon="117.7569185544287">
        <ele>-0.3</ele>
        <time>2025-09-24T23:39:34Z</time>
      </trkpt>
      <trkpt lat="39.16736020081169" lon="117.75684448926498">
        <ele>-0.3</ele>
        <time>2025-09-24T23:39:36Z</time>
      </trkpt>
      <trkpt lat="39.167314192789966" lon="117.75676942328273">
        <ele>-0.3</ele>
        <time>2025-09-24T23:39:38Z</time>
      </trkpt>
      <trkpt lat="39.167268185441195" lon="117.75669535852508">
        <ele>-0.3</ele>
        <time>2025-09-24T23:39:40Z</time>
      </trkpt>
      <trkpt lat="39.16722317677585" lon="117.75661929200754">
        <ele>-0.3</ele>
        <time>2025-09-24T23:39:42Z</time>
      </trkpt>
      <trkpt lat="39.16717816924394" lon="117.75654522765993">
        <ele>-0.2</ele>
        <time>2025-09-24T23:39:44Z</time>
      </trkpt>
      <trkpt lat="39.16713416040656" lon="117.75646916156715">
        <ele>-0.2</ele>
        <time>2025-09-24T23:39:46Z</time>
      </trkpt>
      <trkpt lat="39.167089152828865" lon="117.75639409681942">
        <ele>-0.2</ele>
        <time>2025-09-24T23:39:48Z</time>
      </trkpt>
      <trkpt lat="39.167046143822475" lon="117.75631803115553">
        <ele>0</ele>
        <time>2025-09-24T23:39:50Z</time>
      </trkpt>
      <trkpt lat="39.16700413668383" lon="117.75624697029752">
        <ele>0</ele>
        <time>2025-09-24T23:39:52Z</time>
      </trkpt>
      <trkpt lat="39.16696713034685" lon="117.75618391646746">
        <ele>0</ele>
        <time>2025-09-24T23:39:54Z</time>
      </trkpt>
      <trkpt lat="39.16693512386561" lon="117.7561268677421">
        <ele>0</ele>
        <time>2025-09-24T23:39:56Z</time>
      </trkpt>
      <trkpt lat="39.16690511853531" lon="117.7560748235312">
        <ele>0</ele>
        <time>2025-09-24T23:39:58Z</time>
      </trkpt>
      <trkpt lat="39.16687811064624" lon="117.75602077722998">
        <ele>-0.1</ele>
        <time>2025-09-24T23:40:00Z</time>
      </trkpt>
      <trkpt lat="39.16685110286477" lon="117.75596673107039">
        <ele>-0.1</ele>
        <time>2025-09-24T23:40:02Z</time>
      </trkpt>
      <trkpt lat="39.16682609400671" lon="117.7559126847978">
        <ele>-0.4</ele>
        <time>2025-09-24T23:40:04Z</time>
      </trkpt>
      <trkpt lat="39.16680608490741" lon="117.75586464350268">
        <ele>-0.4</ele>
        <time>2025-09-24T23:40:06Z</time>
      </trkpt>
      <trkpt lat="39.166785083428024" lon="117.75583261701082">
        <ele>-0.4</ele>
        <time>2025-09-24T23:40:08Z</time>
      </trkpt>
      <trkpt lat="39.16676209357438" lon="117.75582461265543">
        <ele>-0.5</ele>
        <time>2025-09-24T23:40:24Z</time>
      </trkpt>
      <trkpt lat="39.166735117378686" lon="117.75584263248527">
        <ele>-0.4</ele>
        <time>2025-09-24T23:40:32Z</time>
      </trkpt>
      <trkpt lat="39.1667091467002" lon="117.75587466497626">
        <ele>-0.5</ele>
        <time>2025-09-24T23:40:34Z</time>
      </trkpt>
      <trkpt lat="39.166680181770175" lon="117.75591570612903">
        <ele>-0.5</ele>
        <time>2025-09-24T23:40:36Z</time>
      </trkpt>
      <trkpt lat="39.16664422324203" lon="117.7559617528385">
        <ele>-0.5</ele>
        <time>2025-09-24T23:40:38Z</time>
      </trkpt>
      <trkpt lat="39.16660027085204" lon="117.7560108034268">
        <ele>-0.7</ele>
        <time>2025-09-24T23:40:40Z</time>
      </trkpt>
      <trkpt lat="39.16655432062084" lon="117.75606185622966">
        <ele>-0.7</ele>
        <time>2025-09-24T23:40:42Z</time>
      </trkpt>
      <trkpt lat="39.1665093707831" lon="117.75611491087997">
        <ele>-0.7</ele>
        <time>2025-09-24T23:40:44Z</time>
      </trkpt>
      <trkpt lat="39.16646741882623" lon="117.75616696435773">
        <ele>-0.7</ele>
        <time>2025-09-24T23:40:46Z</time>
      </trkpt>
      <trkpt lat="39.16642446756178" lon="117.75621901809393">
        <ele>-0.7</ele>
        <time>2025-09-24T23:40:48Z</time>
      </trkpt>
      <trkpt lat="39.16638051608919" lon="117.75626907022483">
        <ele>-0.9</ele>
        <time>2025-09-24T23:40:50Z</time>
      </trkpt>
      <trkpt lat="39.16633456589389" lon="117.75631912273151">
        <ele>-0.9</ele>
        <time>2025-09-24T23:40:52Z</time>
      </trkpt>
      <trkpt lat="39.16628661742993" lon="117.7563701765506">
        <ele>-0.9</ele>
        <time>2025-09-24T23:40:54Z</time>
      </trkpt>
      <trkpt lat="39.166239668925975" lon="117.75642223130758">
        <ele>-0.6</ele>
        <time>2025-09-24T23:40:56Z</time>
      </trkpt>
      <trkpt lat="39.166190723080504" lon="117.75647728927551">
        <ele>-0.6</ele>
        <time>2025-09-24T23:40:58Z</time>
      </trkpt>
      <trkpt lat="39.166140776559864" lon="117.75652934468381">
        <ele>-0.6</ele>
        <time>2025-09-24T23:41:00Z</time>
      </trkpt>
      <trkpt lat="39.16608983027021" lon="117.75658039940339">
        <ele>-0.6</ele>
        <time>2025-09-24T23:41:02Z</time>
      </trkpt>
      <trkpt lat="39.166040882892204" lon="117.75663145399422">
        <ele>-0.6</ele>
        <time>2025-09-24T23:41:04Z</time>
      </trkpt>
      <trkpt lat="39.1659919356106" lon="117.75668250871085">
        <ele>-0.7</ele>
        <time>2025-09-24T23:41:06Z</time>
      </trkpt>
      <trkpt lat="39.165944988642465" lon="117.75673656616172">
        <ele>-0.7</ele>
        <time>2025-09-24T23:41:08Z</time>
      </trkpt>
      <trkpt lat="39.16589604249777" lon="117.75678962305118">
        <ele>-0.9</ele>
        <time>2025-09-24T23:41:10Z</time>
      </trkpt>
      <trkpt lat="39.16584609610702" lon="117.75684067828472">
        <ele>-0.9</ele>
        <time>2025-09-24T23:41:12Z</time>
      </trkpt>
      <trkpt lat="39.1657921502907" lon="117.75688773030586">
        <ele>-0.9</ele>
        <time>2025-09-24T23:41:14Z</time>
      </trkpt>
      <trkpt lat="39.1657372046744" lon="117.75693378159703">
        <ele>-0.8</ele>
        <time>2025-09-24T23:41:16Z</time>
      </trkpt>
      <trkpt lat="39.165684260810195" lon="117.75698583853364">
        <ele>-0.8</ele>
        <time>2025-09-24T23:41:18Z</time>
      </trkpt>
      <trkpt lat="39.16563331633939" lon="117.7570388963152">
        <ele>-1</ele>
        <time>2025-09-24T23:41:20Z</time>
      </trkpt>
      <trkpt lat="39.1655813720847" lon="117.75709095338809">
        <ele>-1</ele>
        <time>2025-09-24T23:41:22Z</time>
      </trkpt>
      <trkpt lat="39.165526427779206" lon="117.75713900707761">
        <ele>-1</ele>
        <time>2025-09-24T23:41:24Z</time>
      </trkpt>
      <trkpt lat="39.16546948377687" lon="117.75718505918063">
        <ele>-1.2</ele>
        <time>2025-09-24T23:41:26Z</time>
      </trkpt>
      <trkpt lat="39.165412540338764" lon="117.75723211236398">
        <ele>-1.2</ele>
        <time>2025-09-24T23:41:28Z</time>
      </trkpt>
      <trkpt lat="39.16535659590282" lon="117.75727816454598">
        <ele>-1</ele>
        <time>2025-09-24T23:41:30Z</time>
      </trkpt>
      <trkpt lat="39.1653016514417" lon="117.75732521768548">
        <ele>-1</ele>
        <time>2025-09-24T23:41:32Z</time>
      </trkpt>
      <trkpt lat="39.165243707369044" lon="117.75736926835826">
        <ele>-1</ele>
        <time>2025-09-24T23:41:34Z</time>
      </trkpt>
      <trkpt lat="39.165186760807444" lon="117.7574093150492">
        <ele>-0.9</ele>
        <time>2025-09-24T23:41:36Z</time>
      </trkpt>
      <trkpt lat="39.16512981479909" lon="117.757450362806">
        <ele>-0.9</ele>
        <time>2025-09-24T23:41:38Z</time>
      </trkpt>
      <trkpt lat="39.1650748666779" lon="117.75748940840764">
        <ele>-1</ele>
        <time>2025-09-24T23:41:40Z</time>
      </trkpt>
      <trkpt lat="39.16501991960623" lon="117.75753045606777">
        <ele>-1</ele>
        <time>2025-09-24T23:41:42Z</time>
      </trkpt>
      <trkpt lat="39.1649649711036" lon="117.75756850082504">
        <ele>-1</ele>
        <time>2025-09-24T23:41:44Z</time>
      </trkpt>
      <trkpt lat="39.16491002465194" lon="117.75761054963755">
        <ele>-1</ele>
        <time>2025-09-24T23:41:46Z</time>
      </trkpt>
      <trkpt lat="39.16485507876677" lon="117.75765359953351">
        <ele>-1</ele>
        <time>2025-09-24T23:41:48Z</time>
      </trkpt>
      <trkpt lat="39.164801132859836" lon="117.7576976503918">
        <ele>-1</ele>
        <time>2025-09-24T23:41:50Z</time>
      </trkpt>
      <trkpt lat="39.164745185690506" lon="117.75773669658416">
        <ele>-1</ele>
        <time>2025-09-24T23:41:52Z</time>
      </trkpt>
      <trkpt lat="39.164687238247986" lon="117.75777274009096">
        <ele>-1</ele>
        <time>2025-09-24T23:41:54Z</time>
      </trkpt>
      <trkpt lat="39.164627289507784" lon="117.75780377888488">
        <ele>-0.8</ele>
        <time>2025-09-24T23:41:56Z</time>
      </trkpt>
      <trkpt lat="39.16456834173371" lon="117.75783782061983">
        <ele>-0.8</ele>
        <time>2025-09-24T23:41:58Z</time>
      </trkpt>
      <trkpt lat="39.16451039391899" lon="117.75787286329212">
        <ele>-0.6</ele>
        <time>2025-09-24T23:42:00Z</time>
      </trkpt>
      <trkpt lat="39.164451448273994" lon="117.7579109091832">
        <ele>-0.6</ele>
        <time>2025-09-24T23:42:02Z</time>
      </trkpt>
      <trkpt lat="39.1643925037064" lon="117.75795095716927">
        <ele>-0.6</ele>
        <time>2025-09-24T23:42:04Z</time>
      </trkpt>
      <trkpt lat="39.16433455809219" lon="117.7579900040901">
        <ele>-0.8</ele>
        <time>2025-09-24T23:42:06Z</time>
      </trkpt>
      <trkpt lat="39.164275613127884" lon="117.75802905121121">
        <ele>-0.8</ele>
        <time>2025-09-24T23:42:08Z</time>
      </trkpt>
      <trkpt lat="39.16421466734303" lon="117.7580640945862">
        <ele>-0.5</ele>
        <time>2025-09-24T23:42:10Z</time>
      </trkpt>
      <trkpt lat="39.164150723383884" lon="117.75809913840176">
        <ele>-0.5</ele>
        <time>2025-09-24T23:42:12Z</time>
      </trkpt>
      <trkpt lat="39.16408378073228" lon="117.75813318163621">
        <ele>-0.5</ele>
        <time>2025-09-24T23:42:14Z</time>
      </trkpt>
      <trkpt lat="39.16401483983067" lon="117.75816822620388">
        <ele>-0.6</ele>
        <time>2025-09-24T23:42:16Z</time>
      </trkpt>
      <trkpt lat="39.16394689838226" lon="117.758203270703">
        <ele>-0.6</ele>
        <time>2025-09-24T23:42:18Z</time>
      </trkpt>
      <trkpt lat="39.163879957953625" lon="117.75824131821372">
        <ele>-0.9</ele>
        <time>2025-09-24T23:42:20Z</time>
      </trkpt>
      <trkpt lat="39.1638130186267" lon="117.75828136785098">
        <ele>-0.9</ele>
        <time>2025-09-24T23:42:22Z</time>
      </trkpt>
      <trkpt lat="39.16374707981684" lon="117.75832341949902">
        <ele>-0.9</ele>
        <time>2025-09-24T23:42:24Z</time>
      </trkpt>
      <trkpt lat="39.16367914331326" lon="117.75836747355164">
        <ele>-0.9</ele>
        <time>2025-09-24T23:42:26Z</time>
      </trkpt>
      <trkpt lat="39.16361220576002" lon="117.75841052653479">
        <ele>-0.9</ele>
        <time>2025-09-24T23:42:28Z</time>
      </trkpt>
      <trkpt lat="39.16354626821229" lon="117.75845458051617">
        <ele>-1.1</ele>
        <time>2025-09-24T23:42:30Z</time>
      </trkpt>
      <trkpt lat="39.16348332895621" lon="117.75849863420844">
        <ele>-1.1</ele>
        <time>2025-09-24T23:42:32Z</time>
      </trkpt>
      <trkpt lat="39.163422389651515" lon="117.75854468982138">
        <ele>-1.1</ele>
        <time>2025-09-24T23:42:34Z</time>
      </trkpt>
      <trkpt lat="39.16336644531797" lon="117.75858674072556">
        <ele>-1.1</ele>
        <time>2025-09-24T23:42:36Z</time>
      </trkpt>
      <trkpt lat="39.16331749582232" lon="117.75862678873273">
        <ele>-1.1</ele>
        <time>2025-09-24T23:42:38Z</time>
      </trkpt>
      <trkpt lat="39.163278537224485" lon="117.75866082926176">
        <ele>-1</ele>
        <time>2025-09-24T23:42:40Z</time>
      </trkpt>
      <trkpt lat="39.1632465739755" lon="117.75869386790679">
        <ele>-1</ele>
        <time>2025-09-24T23:42:42Z</time>
      </trkpt>
      <trkpt lat="39.16321660741998" lon="117.75872290214964">
        <ele>-1</ele>
        <time>2025-09-24T23:42:44Z</time>
      </trkpt>
      <trkpt lat="39.163184643705044" lon="117.75875493984111">
        <ele>-1</ele>
        <time>2025-09-24T23:42:46Z</time>
      </trkpt>
      <trkpt lat="39.16314868511282" lon="117.75879198335562">
        <ele>-1</ele>
        <time>2025-09-24T23:42:48Z</time>
      </trkpt>
      <trkpt lat="39.163106730132455" lon="117.75882902769908">
        <ele>-1</ele>
        <time>2025-09-24T23:42:50Z</time>
      </trkpt>
      <trkpt lat="39.16305877930919" lon="117.75886707392813">
        <ele>-1</ele>
        <time>2025-09-24T23:42:52Z</time>
      </trkpt>
      <trkpt lat="39.163005831507455" lon="117.75890512086241">
        <ele>-1</ele>
        <time>2025-09-24T23:42:54Z</time>
      </trkpt>
      <trkpt lat="39.16295188709184" lon="117.75894817329524">
        <ele>-1</ele>
        <time>2025-09-24T23:42:56Z</time>
      </trkpt>
      <trkpt lat="39.162898942700096" lon="117.75899222675173">
        <ele>-1</ele>
        <time>2025-09-24T23:42:58Z</time>
      </trkpt>
      <trkpt lat="39.16284699833691" lon="117.75903728123816">
        <ele>-1</ele>
        <time>2025-09-24T23:43:00Z</time>
      </trkpt>
      <trkpt lat="39.16279605345432" lon="117.75908233569396">
        <ele>-0.8</ele>
        <time>2025-09-24T23:43:02Z</time>
      </trkpt>
      <trkpt lat="39.16274411145756" lon="117.7591313946505">
        <ele>-0.8</ele>
        <time>2025-09-24T23:43:04Z</time>
      </trkpt>
      <trkpt lat="39.162692170105004" lon="117.75918145479321">
        <ele>-0.7</ele>
        <time>2025-09-24T23:43:06Z</time>
      </trkpt>
      <trkpt lat="39.16264122936642" lon="117.75923351707614">
        <ele>-0.7</ele>
        <time>2025-09-24T23:43:08Z</time>
      </trkpt>
      <trkpt lat="39.162591284213086" lon="117.75927857182518">
        <ele>-0.7</ele>
        <time>2025-09-24T23:43:10Z</time>
      </trkpt>
      <trkpt lat="39.16254033131002" lon="117.7593086106261">
        <ele>-0.7</ele>
        <time>2025-09-24T23:43:12Z</time>
      </trkpt>
      <trkpt lat="39.16248736166293" lon="117.75930661521458">
        <ele>-0.7</ele>
        <time>2025-09-24T23:43:14Z</time>
      </trkpt>
      <trkpt lat="39.162439369442936" lon="117.75926958148122">
        <ele>-0.9</ele>
        <time>2025-09-24T23:43:16Z</time>
      </trkpt>
      <trkpt lat="39.162398360287696" lon="117.75920952222988">
        <ele>-0.9</ele>
        <time>2025-09-24T23:43:18Z</time>
      </trkpt>
      <trkpt lat="39.16236334270468" lon="117.75914045275717">
        <ele>-0.9</ele>
        <time>2025-09-24T23:43:20Z</time>
      </trkpt>
      <trkpt lat="39.16232832584664" lon="117.75907238457816">
        <ele>-1</ele>
        <time>2025-09-24T23:43:22Z</time>
      </trkpt>
      <trkpt lat="39.162290313138165" lon="117.7590083212551">
        <ele>-1</ele>
        <time>2025-09-24T23:43:24Z</time>
      </trkpt>
      <trkpt lat="39.16225030286197" lon="117.75894626050307">
        <ele>-0.9</ele>
        <time>2025-09-24T23:43:26Z</time>
      </trkpt>
      <trkpt lat="39.162209293319556" lon="117.75888420006198">
        <ele>-0.9</ele>
        <time>2025-09-24T23:43:28Z</time>
      </trkpt>
      <trkpt lat="39.16216728342441" lon="117.75882013782291">
        <ele>-0.9</ele>
        <time>2025-09-24T23:43:30Z</time>
      </trkpt>
      <trkpt lat="39.162126270920865" lon="117.75875207144726">
        <ele>-1.3</ele>
        <time>2025-09-24T23:43:32Z</time>
      </trkpt>
      <trkpt lat="39.16208525804727" lon="117.7586830042449">
        <ele>-1.3</ele>
        <time>2025-09-24T23:43:34Z</time>
      </trkpt>
      <trkpt lat="39.16204424588277" lon="117.75861493831505">
        <ele>-1.4</ele>
        <time>2025-09-24T23:43:36Z</time>
      </trkpt>
      <trkpt lat="39.16200323388666" lon="117.75854687260662">
        <ele>-1.4</ele>
        <time>2025-09-24T23:43:38Z</time>
      </trkpt>
      <trkpt lat="39.16196222205901" lon="117.75847880711967">
        <ele>-1.4</ele>
        <time>2025-09-24T23:43:40Z</time>
      </trkpt>
      <trkpt lat="39.16192121092833" lon="117.75841174288925">
        <ele>-1.5</ele>
        <time>2025-09-24T23:43:42Z</time>
      </trkpt>
      <trkpt lat="39.16188120094547" lon="117.75834768184212">
        <ele>-1.5</ele>
        <time>2025-09-24T23:43:44Z</time>
      </trkpt>
      <trkpt lat="39.16183919334801" lon="117.75828562330364">
        <ele>-1.6</ele>
        <time>2025-09-24T23:43:46Z</time>
      </trkpt>
      <trkpt lat="39.161796188050154" lon="117.75822656815478">
        <ele>-1.6</ele>
        <time>2025-09-24T23:43:48Z</time>
      </trkpt>
      <trkpt lat="39.16175118406791" lon="117.7581675134275">
        <ele>-1.6</ele>
        <time>2025-09-24T23:43:50Z</time>
      </trkpt>
      <trkpt lat="39.16171417442481" lon="117.75810645580862">
        <ele>-1.6</ele>
        <time>2025-09-24T23:43:52Z</time>
      </trkpt>
      <trkpt lat="39.161684159212996" lon="117.75804239442577">
        <ele>-1.6</ele>
        <time>2025-09-24T23:43:54Z</time>
      </trkpt>
      <trkpt lat="39.16165614244952" lon="117.75797733197106">
        <ele>-1.6</ele>
        <time>2025-09-24T23:43:56Z</time>
      </trkpt>
      <trkpt lat="39.16162312983196" lon="117.75791427237773">
        <ele>-1.6</ele>
        <time>2025-09-24T23:43:58Z</time>
      </trkpt>
      <trkpt lat="39.16158512033052" lon="117.75785121361152">
        <ele>-1.6</ele>
        <time>2025-09-24T23:44:00Z</time>
      </trkpt>
      <trkpt lat="39.16154611207433" lon="117.75778915616849">
        <ele>-1.4</ele>
        <time>2025-09-24T23:44:02Z</time>
      </trkpt>
      <trkpt lat="39.16150810386819" lon="117.75772809978524">
        <ele>-1.4</ele>
        <time>2025-09-24T23:44:04Z</time>
      </trkpt>
      <trkpt lat="39.16147409592855" lon="117.75767204806859">
        <ele>-1.4</ele>
        <time>2025-09-24T23:44:06Z</time>
      </trkpt>
      <trkpt lat="39.161445088130094" lon="117.75762200184788">
        <ele>-1.4</ele>
        <time>2025-09-24T23:44:08Z</time>
      </trkpt>
      <trkpt lat="39.161417080326814" lon="117.75757295661494">
        <ele>-1.4</ele>
        <time>2025-09-24T23:44:10Z</time>
      </trkpt>
      <trkpt lat="39.161388074198186" lon="117.7575259136096">
        <ele>-1.3</ele>
        <time>2025-09-24T23:44:12Z</time>
      </trkpt>
      <trkpt lat="39.16135706736137" lon="117.75747486700509">
        <ele>-1.3</ele>
        <time>2025-09-24T23:44:14Z</time>
      </trkpt>
      <trkpt lat="39.16133105666331" lon="117.75742181791476">
        <ele>-1.2</ele>
        <time>2025-09-24T23:44:16Z</time>
      </trkpt>
      <trkpt lat="39.161315038163025" lon="117.75736476374827">
        <ele>-1.2</ele>
        <time>2025-09-24T23:44:18Z</time>
      </trkpt>
      <trkpt lat="39.16130801540911" lon="117.75730971055695">
        <ele>-1.2</ele>
        <time>2025-09-24T23:44:20Z</time>
      </trkpt>
      <trkpt lat="39.161411942865314" lon="117.75728767572943">
        <ele>-1.8</ele>
        <time>2025-09-24T23:47:09Z</time>
      </trkpt>
      <trkpt lat="39.16135998011042" lon="117.7573006951033">
        <ele>-1.4</ele>
        <time>2025-09-24T23:47:14Z</time>
      </trkpt>
      <trkpt lat="39.16133201140841" lon="117.75733072813496">
        <ele>-1.4</ele>
        <time>2025-09-24T23:47:18Z</time>
      </trkpt>
      <trkpt lat="39.16133403521204" lon="117.7573817780761">
        <ele>-1.5</ele>
        <time>2025-09-24T23:47:20Z</time>
      </trkpt>
      <trkpt lat="39.1613500532548" lon="117.75743783130112">
        <ele>-1.5</ele>
        <time>2025-09-24T23:47:22Z</time>
      </trkpt>
      <trkpt lat="39.16138006853976" lon="117.75750489379797">
        <ele>-1.4</ele>
        <time>2025-09-24T23:47:24Z</time>
      </trkpt>
      <trkpt lat="39.16141808172462" lon="117.7575769604667">
        <ele>-1.4</ele>
        <time>2025-09-24T23:47:26Z</time>
      </trkpt>
      <trkpt lat="39.16146109112646" lon="117.7576470247523">
        <ele>-1.4</ele>
        <time>2025-09-24T23:47:28Z</time>
      </trkpt>
      <trkpt lat="39.16150609901607" lon="117.75771608801773">
        <ele>-1.3</ele>
        <time>2025-09-24T23:47:30Z</time>
      </trkpt>
      <trkpt lat="39.16154910928002" lon="117.75778715377669">
        <ele>-1.3</ele>
        <time>2025-09-24T23:47:32Z</time>
      </trkpt>
      <trkpt lat="39.16158912151113" lon="117.75785822015995">
        <ele>-1.3</ele>
        <time>2025-09-24T23:47:34Z</time>
      </trkpt>
      <trkpt lat="39.16162813349895" lon="117.75792728488943">
        <ele>-1.3</ele>
        <time>2025-09-24T23:47:36Z</time>
      </trkpt>
      <trkpt lat="39.16166814455324" lon="117.75799534870555">
        <ele>-1.3</ele>
        <time>2025-09-24T23:47:38Z</time>
      </trkpt>
      <trkpt lat="39.161707155854884" lon="117.75806241185292">
        <ele>-1.5</ele>
        <time>2025-09-24T23:47:40Z</time>
      </trkpt>
      <trkpt lat="39.161749163983544" lon="117.75812647177018">
        <ele>-1.5</ele>
        <time>2025-09-24T23:47:42Z</time>
      </trkpt>
      <trkpt lat="39.16179417047946" lon="117.75819053150238">
        <ele>-1.4</ele>
        <time>2025-09-24T23:47:44Z</time>
      </trkpt>
      <trkpt lat="39.16184017862232" lon="117.75825859541392">
        <ele>-1.4</ele>
        <time>2025-09-24T23:47:46Z</time>
      </trkpt>
      <trkpt lat="39.16188518962999" lon="117.75833066379842">
        <ele>-1.4</ele>
        <time>2025-09-24T23:47:48Z</time>
      </trkpt>
      <trkpt lat="39.16193020241138" lon="117.75840573553526">
        <ele>-1.3</ele>
        <time>2025-09-24T23:47:50Z</time>
      </trkpt>
      <trkpt lat="39.16197521327429" lon="117.75847680338921">
        <ele>-1.3</ele>
        <time>2025-09-24T23:47:52Z</time>
      </trkpt>
      <trkpt lat="39.16201922598193" lon="117.758549873695">
        <ele>-1.2</ele>
        <time>2025-09-24T23:47:54Z</time>
      </trkpt>
      <trkpt lat="39.16206323834761" lon="117.75862194321104">
        <ele>-1.2</ele>
        <time>2025-09-24T23:47:56Z</time>
      </trkpt>
      <trkpt lat="39.16210825030807" lon="117.75869401284804">
        <ele>-1.2</ele>
        <time>2025-09-24T23:47:58Z</time>
      </trkpt>
      <trkpt lat="39.16215226359261" lon="117.75876708391232">
        <ele>-1.2</ele>
        <time>2025-09-24T23:48:00Z</time>
      </trkpt>
      <trkpt lat="39.162197276477045" lon="117.75884015510428">
        <ele>-1.2</ele>
        <time>2025-09-24T23:48:02Z</time>
      </trkpt>
      <trkpt lat="39.162241290695924" lon="117.75891422773724">
        <ele>-1.3</ele>
        <time>2025-09-24T23:48:04Z</time>
      </trkpt>
      <trkpt lat="39.162288304430746" lon="117.75899030237528">
        <ele>-1.3</ele>
        <time>2025-09-24T23:48:06Z</time>
      </trkpt>
      <trkpt lat="39.162337318292" lon="117.75906837916732">
        <ele>-1.3</ele>
        <time>2025-09-24T23:48:08Z</time>
      </trkpt>
      <trkpt lat="39.16238733233545" lon="117.7591474571927">
        <ele>-1.5</ele>
        <time>2025-09-24T23:48:10Z</time>
      </trkpt>
      <trkpt lat="39.16243434727137" lon="117.75922453375009">
        <ele>-1.5</ele>
        <time>2025-09-24T23:48:12Z</time>
      </trkpt>
      <trkpt lat="39.16247735583202" lon="117.75928559386652">
        <ele>-1.7</ele>
        <time>2025-09-24T23:48:14Z</time>
      </trkpt>
      <trkpt lat="39.16252034655323" lon="117.75931461963843">
        <ele>-1.7</ele>
        <time>2025-09-24T23:48:16Z</time>
      </trkpt>
      <trkpt lat="39.16256730910836" lon="117.75929759533801">
        <ele>-1.7</ele>
        <time>2025-09-24T23:48:18Z</time>
      </trkpt>
      <trkpt lat="39.16261825196001" lon="117.75924953719591">
        <ele>-1.5</ele>
        <time>2025-09-24T23:48:20Z</time>
      </trkpt>
      <trkpt lat="39.162672186432616" lon="117.75918946591335">
        <ele>-1.5</ele>
        <time>2025-09-24T23:48:22Z</time>
      </trkpt>
      <trkpt lat="39.16272811874015" lon="117.75912739240954">
        <ele>-1.7</ele>
        <time>2025-09-24T23:48:24Z</time>
      </trkpt>
      <trkpt lat="39.16278505004208" lon="117.75906431789565">
        <ele>-1.7</ele>
        <time>2025-09-24T23:48:26Z</time>
      </trkpt>
      <trkpt lat="39.162844980257525" lon="117.75900224425251">
        <ele>-1.7</ele>
        <time>2025-09-24T23:48:28Z</time>
      </trkpt>
      <trkpt lat="39.16290591275828" lon="117.75894517596721">
        <ele>-2.1</ele>
        <time>2025-09-24T23:48:30Z</time>
      </trkpt>
      <trkpt lat="39.162964852570646" lon="117.75889911972939">
        <ele>-2.1</ele>
        <time>2025-09-24T23:48:32Z</time>
      </trkpt>
      <trkpt lat="39.16301080671465" lon="117.75886507792292">
        <ele>-2.3</ele>
        <time>2025-09-24T23:48:34Z</time>
      </trkpt>
      <trkpt lat="39.163045772325844" lon="117.75884004706838">
        <ele>-2.3</ele>
        <time>2025-09-24T23:48:36Z</time>
      </trkpt>
      <trkpt lat="39.16307674250731" lon="117.75881902097002">
        <ele>-2.3</ele>
        <time>2025-09-24T23:48:38Z</time>
      </trkpt>
      <trkpt lat="39.163118704005754" lon="117.75879398927961">
        <ele>-2.4</ele>
        <time>2025-09-24T23:48:40Z</time>
      </trkpt>
      <trkpt lat="39.163172652992074" lon="117.75875894557402">
        <ele>-2.4</ele>
        <time>2025-09-24T23:48:42Z</time>
      </trkpt>
      <trkpt lat="39.16323059047867" lon="117.75870688357678">
        <ele>-2.4</ele>
        <time>2025-09-24T23:48:44Z</time>
      </trkpt>
      <trkpt lat="39.16328752436114" lon="117.75864681346492">
        <ele>-2.4</ele>
        <time>2025-09-24T23:48:46Z</time>
      </trkpt>
      <trkpt lat="39.16334345950384" lon="117.75858774469586">
        <ele>-2.4</ele>
        <time>2025-09-24T23:48:48Z</time>
      </trkpt>
      <trkpt lat="39.1634033961299" lon="117.75853568286936">
        <ele>-2.2</ele>
        <time>2025-09-24T23:48:50Z</time>
      </trkpt>
      <trkpt lat="39.16346733260622" lon="117.7584876248172">
        <ele>-2.2</ele>
        <time>2025-09-24T23:48:52Z</time>
      </trkpt>
      <trkpt lat="39.16353526732351" lon="117.75844056740259">
        <ele>-2.2</ele>
        <time>2025-09-24T23:48:54Z</time>
      </trkpt>
      <trkpt lat="39.163604202057286" lon="117.75839451100057">
        <ele>-2.2</ele>
        <time>2025-09-24T23:48:56Z</time>
      </trkpt>
      <trkpt lat="39.163675136209235" lon="117.7583494554773">
        <ele>-2.2</ele>
        <time>2025-09-24T23:48:58Z</time>
      </trkpt>
      <trkpt lat="39.163747068794365" lon="117.75830239786417">
        <ele>-2.3</ele>
        <time>2025-09-24T23:49:00Z</time>
      </trkpt>
      <trkpt lat="39.16382100184372" lon="117.75825834318498">
        <ele>-2.3</ele>
        <time>2025-09-24T23:49:02Z</time>
      </trkpt>
      <trkpt lat="39.16389593489369" lon="117.75821528949682">
        <ele>-2.3</ele>
        <time>2025-09-24T23:49:04Z</time>
      </trkpt>
      <trkpt lat="39.163969869646046" lon="117.75817423807159">
        <ele>-2.2</ele>
        <time>2025-09-24T23:49:06Z</time>
      </trkpt>
      <trkpt lat="39.16404280453668" lon="117.75813218583261">
        <ele>-2.2</ele>
        <time>2025-09-24T23:49:08Z</time>
      </trkpt>
      <trkpt lat="39.16411573897686" lon="117.75808913265867">
        <ele>-2.3</ele>
        <time>2025-09-24T23:49:10Z</time>
      </trkpt>
      <trkpt lat="39.16418867400169" lon="117.75804708059087">
        <ele>-2.3</ele>
        <time>2025-09-24T23:49:12Z</time>
      </trkpt>
      <trkpt lat="39.16426160806557" lon="117.75800302657683">
        <ele>-2.3</ele>
        <time>2025-09-24T23:49:14Z</time>
      </trkpt>
      <trkpt lat="39.164332542364384" lon="117.75795697088378">
        <ele>-2.4</ele>
        <time>2025-09-24T23:49:16Z</time>
      </trkpt>
      <trkpt lat="39.16440347623204" lon="117.75790991428137">
        <ele>-2.4</ele>
        <time>2025-09-24T23:49:18Z</time>
      </trkpt>
      <trkpt lat="39.16447341026678" lon="117.75786185690366">
        <ele>-2.5</ele>
        <time>2025-09-24T23:49:20Z</time>
      </trkpt>
      <trkpt lat="39.164544349877886" lon="117.75782581158842">
        <ele>-2.5</ele>
        <time>2025-09-24T23:49:22Z</time>
      </trkpt>
      <trkpt lat="39.16461030668177" lon="117.75781779513476">
        <ele>-2.5</ele>
        <time>2025-09-24T23:49:24Z</time>
      </trkpt>
      <trkpt lat="39.16466528776566" lon="117.75784481532749">
        <ele>-2.5</ele>
        <time>2025-09-24T23:49:26Z</time>
      </trkpt>
      <trkpt lat="39.164705290504585" lon="117.75789686270674">
        <ele>-2.5</ele>
        <time>2025-09-24T23:49:28Z</time>
      </trkpt>
      <trkpt lat="39.164741296226175" lon="117.75794991173795">
        <ele>-2.6</ele>
        <time>2025-09-24T23:49:30Z</time>
      </trkpt>
      <trkpt lat="39.16478129249167" lon="117.75798894618437">
        <ele>-2.6</ele>
        <time>2025-09-24T23:49:32Z</time>
      </trkpt>
      <trkpt lat="39.16482527358957" lon="117.75800295479503">
        <ele>-2.6</ele>
        <time>2025-09-24T23:49:34Z</time>
      </trkpt>
      <trkpt lat="39.164869243393326" lon="117.75799494107338">
        <ele>-2.5</ele>
        <time>2025-09-24T23:49:40Z</time>
      </trkpt>
      <trkpt lat="39.16491720262468" lon="117.75797091061787">
        <ele>-2.5</ele>
        <time>2025-09-24T23:49:42Z</time>
      </trkpt>
      <trkpt lat="39.164968156519144" lon="117.75793987272046">
        <ele>-2.5</ele>
        <time>2025-09-24T23:49:44Z</time>
      </trkpt>
      <trkpt lat="39.16502510587227" lon="117.75790683208385">
        <ele>-2.5</ele>
        <time>2025-09-24T23:49:46Z</time>
      </trkpt>
      <trkpt lat="39.165085051961306" lon="117.75787078809034">
        <ele>-2.5</ele>
        <time>2025-09-24T23:49:48Z</time>
      </trkpt>
      <trkpt lat="39.16514499556199" lon="117.75782973912305">
        <ele>-2.5</ele>
        <time>2025-09-24T23:49:50Z</time>
      </trkpt>
      <trkpt lat="39.16520193948641" lon="117.75778568760327">
        <ele>-2.5</ele>
        <time>2025-09-24T23:49:52Z</time>
      </trkpt>
      <trkpt lat="39.16525888197055" lon="117.75773863316819">
        <ele>-2.5</ele>
        <time>2025-09-24T23:49:54Z</time>
      </trkpt>
      <trkpt lat="39.16531782184442" lon="117.75768857558366">
        <ele>-2.6</ele>
        <time>2025-09-24T23:49:56Z</time>
      </trkpt>
      <trkpt lat="39.165379758031655" lon="117.75763451374631">
        <ele>-2.6</ele>
        <time>2025-09-24T23:49:58Z</time>
      </trkpt>
      <trkpt lat="39.16544369264327" lon="117.75757945079961">
        <ele>-2.6</ele>
        <time>2025-09-24T23:50:00Z</time>
      </trkpt>
      <trkpt lat="39.165507628359435" lon="117.75752638998337">
        <ele>-2.6</ele>
        <time>2025-09-24T23:50:02Z</time>
      </trkpt>
      <trkpt lat="39.16557156319122" lon="117.75747132732253">
        <ele>-2.6</ele>
        <time>2025-09-24T23:50:04Z</time>
      </trkpt>
      <trkpt lat="39.16563649705032" lon="117.75741526369289">
        <ele>-2.7</ele>
        <time>2025-09-24T23:50:06Z</time>
      </trkpt>
      <trkpt lat="39.1657034288603" lon="117.7573571979909">
        <ele>-2.7</ele>
        <time>2025-09-24T23:50:08Z</time>
      </trkpt>
      <trkpt lat="39.16577136117853" lon="117.75730113428693">
        <ele>-2.6</ele>
        <time>2025-09-24T23:50:10Z</time>
      </trkpt>
      <trkpt lat="39.16583829323386" lon="117.75724306890355">
        <ele>-2.6</ele>
        <time>2025-09-24T23:50:12Z</time>
      </trkpt>
      <trkpt lat="39.16590422407159" lon="117.75718099990578">
        <ele>-2.6</ele>
        <time>2025-09-24T23:50:14Z</time>
      </trkpt>
      <trkpt lat="39.16597015408898" lon="117.75711692914776">
        <ele>-2.6</ele>
        <time>2025-09-24T23:50:16Z</time>
      </trkpt>
      <trkpt lat="39.166035085808495" lon="117.75705486065412">
        <ele>-2.6</ele>
        <time>2025-09-24T23:50:18Z</time>
      </trkpt>
      <trkpt lat="39.16609901873965" lon="117.75699379344013">
        <ele>-2.5</ele>
        <time>2025-09-24T23:50:20Z</time>
      </trkpt>
      <trkpt lat="39.16616095299348" lon="117.75693272666037">
        <ele>-2.5</ele>
        <time>2025-09-24T23:50:22Z</time>
      </trkpt>
      <trkpt lat="39.166221887977535" lon="117.75687166018761">
        <ele>-2.5</ele>
        <time>2025-09-24T23:50:24Z</time>
      </trkpt>
      <trkpt lat="39.166285821792584" lon="117.75681159447076">
        <ele>-2.4</ele>
        <time>2025-09-24T23:50:26Z</time>
      </trkpt>
      <trkpt lat="39.166346757050235" lon="117.75675052835466">
        <ele>-2.4</ele>
        <time>2025-09-24T23:50:28Z</time>
      </trkpt>
      <trkpt lat="39.166406692106825" lon="117.75668746064154">
        <ele>-2.4</ele>
        <time>2025-09-24T23:50:30Z</time>
      </trkpt>
      <trkpt lat="39.16646462803168" lon="117.75662339242598">
        <ele>-2.4</ele>
        <time>2025-09-24T23:50:32Z</time>
      </trkpt>
      <trkpt lat="39.16652256318645" lon="117.75655732251698">
        <ele>-2.4</ele>
        <time>2025-09-24T23:50:34Z</time>
      </trkpt>
      <trkpt lat="39.16658250006918" lon="117.75649725822042">
        <ele>-2.5</ele>
        <time>2025-09-24T23:50:36Z</time>
      </trkpt>
      <trkpt lat="39.16664544856095" lon="117.7564662209951">
        <ele>-2.5</ele>
        <time>2025-09-24T23:50:38Z</time>
      </trkpt>
      <trkpt lat="39.166706419305264" lon="117.75648122735531">
        <ele>-2.6</ele>
        <time>2025-09-24T23:50:40Z</time>
      </trkpt>
      <trkpt lat="39.16676241323384" lon="117.75654027589337">
        <ele>-2.6</ele>
        <time>2025-09-24T23:50:42Z</time>
      </trkpt>
      <trkpt lat="39.16681142115423" lon="117.75662034540558">
        <ele>-2.6</ele>
        <time>2025-09-24T23:50:44Z</time>
      </trkpt>
      <trkpt lat="39.1668594313009" lon="117.75670341821323">
        <ele>-2.4</ele>
        <time>2025-09-24T23:50:46Z</time>
      </trkpt>
      <trkpt lat="39.166906442293175" lon="117.75678649148162">
        <ele>-2.4</ele>
        <time>2025-09-24T23:50:48Z</time>
      </trkpt>
      <trkpt lat="39.16695345401116" lon="117.75687056604416">
        <ele>-2.4</ele>
        <time>2025-09-24T23:50:50Z</time>
      </trkpt>
      <trkpt lat="39.1670014653965" lon="117.7569546408206">
        <ele>-2.6</ele>
        <time>2025-09-24T23:50:52Z</time>
      </trkpt>
      <trkpt lat="39.16705047644917" lon="117.75703871581078">
        <ele>-2.6</ele>
        <time>2025-09-24T23:50:54Z</time>
      </trkpt>
      <trkpt lat="39.16709848883464" lon="117.75712379224227">
        <ele>-2.8</ele>
        <time>2025-09-24T23:50:56Z</time>
      </trkpt>
      <trkpt lat="39.16714949970947" lon="117.75720886864077">
        <ele>-2.8</ele>
        <time>2025-09-24T23:50:58Z</time>
      </trkpt>
      <trkpt lat="39.16720250771479" lon="117.75728994120848">
        <ele>-2.8</ele>
        <time>2025-09-24T23:51:00Z</time>
      </trkpt>
      <trkpt lat="39.16725651438803" lon="117.75736901199544">
        <ele>-3</ele>
        <time>2025-09-24T23:51:02Z</time>
      </trkpt>
      <trkpt lat="39.167309521882395" lon="117.75744808321069">
        <ele>-3</ele>
        <time>2025-09-24T23:51:04Z</time>
      </trkpt>
      <trkpt lat="39.16736153119041" lon="117.75752915683934">
        <ele>-2.9</ele>
        <time>2025-09-24T23:51:06Z</time>
      </trkpt>
      <trkpt lat="39.167413540739034" lon="117.75761023078415">
        <ele>-2.9</ele>
        <time>2025-09-24T23:51:08Z</time>
      </trkpt>
      <trkpt lat="39.16746554851932" lon="117.75768730104349">
        <ele>-2.9</ele>
        <time>2025-09-24T23:51:10Z</time>
      </trkpt>
      <trkpt lat="39.16751655710877" lon="117.75776437171557">
        <ele>-2.9</ele>
        <time>2025-09-24T23:51:12Z</time>
      </trkpt>
      <trkpt lat="39.167568565323634" lon="117.75784144254567">
        <ele>-2.9</ele>
        <time>2025-09-24T23:51:14Z</time>
      </trkpt>
      <trkpt lat="39.167621573674474" lon="117.75791951454512">
        <ele>-3.1</ele>
        <time>2025-09-24T23:51:16Z</time>
      </trkpt>
      <trkpt lat="39.167674581734644" lon="117.75799658582194">
        <ele>-3.1</ele>
        <time>2025-09-24T23:51:18Z</time>
      </trkpt>
      <trkpt lat="39.16772659060357" lon="117.758073657511">
        <ele>-3.1</ele>
        <time>2025-09-24T23:51:20Z</time>
      </trkpt>
      <trkpt lat="39.167778598651424" lon="117.75814872743992">
        <ele>-3.1</ele>
        <time>2025-09-24T23:51:22Z</time>
      </trkpt>
      <trkpt lat="39.16782860548056" lon="117.75821879276393">
        <ele>-3.1</ele>
        <time>2025-09-24T23:51:24Z</time>
      </trkpt>
      <trkpt lat="39.1678776026074" lon="117.75826883787683">
        <ele>-3</ele>
        <time>2025-09-24T23:51:26Z</time>
      </trkpt>
      <trkpt lat="39.167920588687146" lon="117.75829085503548">
        <ele>-3</ele>
        <time>2025-09-24T23:51:28Z</time>
      </trkpt>
      <trkpt lat="39.167958562012984" lon="117.75828284196604">
        <ele>-3</ele>
        <time>2025-09-24T23:51:30Z</time>
      </trkpt>
      <trkpt lat="39.167994526062024" lon="117.75825480859403">
        <ele>-2.9</ele>
        <time>2025-09-24T23:51:32Z</time>
      </trkpt>
      <trkpt lat="39.16803148537552" lon="117.75821876692434">
        <ele>-2.9</ele>
        <time>2025-09-24T23:51:34Z</time>
      </trkpt>
      <trkpt lat="39.16806944102477" lon="117.75817671904593">
        <ele>-2.9</ele>
        <time>2025-09-24T23:51:36Z</time>
      </trkpt>
      <trkpt lat="39.168112397410745" lon="117.75814167776926">
        <ele>-2.9</ele>
        <time>2025-09-24T23:51:38Z</time>
      </trkpt>
      <trkpt lat="39.1681593649406" lon="117.75813266258956">
        <ele>-2.9</ele>
        <time>2025-09-24T23:51:40Z</time>
      </trkpt>
      <trkpt lat="39.16820735003582" lon="117.75815868305943">
        <ele>-3</ele>
        <time>2025-09-24T23:51:42Z</time>
      </trkpt>
      <trkpt lat="39.16825135366755" lon="117.75821573584341">
        <ele>-3</ele>
        <time>2025-09-24T23:51:44Z</time>
      </trkpt>
      <trkpt lat="39.16829436324593" lon="117.758282799197">
        <ele>-3.2</ele>
        <time>2025-09-24T23:51:46Z</time>
      </trkpt>
      <trkpt lat="39.16833837450199" lon="117.75835386676744">
        <ele>-3.2</ele>
        <time>2025-09-24T23:51:48Z</time>
      </trkpt>
      <trkpt lat="39.168383386408536" lon="117.75842693652383">
        <ele>-3.2</ele>
        <time>2025-09-24T23:51:50Z</time>
      </trkpt>
      <trkpt lat="39.16842939738632" lon="117.75849900536917">
        <ele>-3.2</ele>
        <time>2025-09-24T23:51:52Z</time>
      </trkpt>
      <trkpt lat="39.16847740737031" lon="117.75857107420836">
        <ele>-3.2</ele>
        <time>2025-09-24T23:51:54Z</time>
      </trkpt>
      <trkpt lat="39.168526416415105" lon="117.75864214212248">
        <ele>-3.2</ele>
        <time>2025-09-24T23:51:56Z</time>
      </trkpt>
      <trkpt lat="39.168574427853486" lon="117.75871621355391">
        <ele>-3.2</ele>
        <time>2025-09-24T23:51:58Z</time>
      </trkpt>
      <trkpt lat="39.16862243949133" lon="117.75879028524741">
        <ele>-3.2</ele>
        <time>2025-09-24T23:52:00Z</time>
      </trkpt>
      <trkpt lat="39.16867045187346" lon="117.7588653582596">
        <ele>-3.2</ele>
        <time>2025-09-24T23:52:02Z</time>
      </trkpt>
      <trkpt lat="39.16871846446026" lon="117.75894043154078">
        <ele>-3.2</ele>
        <time>2025-09-24T23:52:04Z</time>
      </trkpt>
      <trkpt lat="39.16876647835243" lon="117.75901750721872">
        <ele>-3.2</ele>
        <time>2025-09-24T23:52:06Z</time>
      </trkpt>
      <trkpt lat="39.16881449246008" lon="117.7590945831799">
        <ele>-3.2</ele>
        <time>2025-09-24T23:52:08Z</time>
      </trkpt>
      <trkpt lat="39.168861507930394" lon="117.75917266062285">
        <ele>-3.2</ele>
        <time>2025-09-24T23:52:10Z</time>
      </trkpt>
      <trkpt lat="39.168910520203966" lon="117.75924673380146">
        <ele>-3.3</ele>
        <time>2025-09-24T23:52:12Z</time>
      </trkpt>
      <trkpt lat="39.168959530992446" lon="117.75931780400609">
        <ele>-3.3</ele>
        <time>2025-09-24T23:52:14Z</time>
      </trkpt>
      <trkpt lat="39.169009541372766" lon="117.7593888743238">
        <ele>-3.3</ele>
        <time>2025-09-24T23:52:16Z</time>
      </trkpt>
      <trkpt lat="39.16906055191134" lon="117.75946094583965">
        <ele>-3.3</ele>
        <time>2025-09-24T23:52:18Z</time>
      </trkpt>
      <trkpt lat="39.16910956495848" lon="117.75953502003426">
        <ele>-3.3</ele>
        <time>2025-09-24T23:52:20Z</time>
      </trkpt>
      <trkpt lat="39.169158575917336" lon="117.75960509012125">
        <ele>-3.4</ele>
        <time>2025-09-24T23:52:22Z</time>
      </trkpt>
      <trkpt lat="39.16920358712202" lon="117.75967115656962">
        <ele>-3.4</ele>
        <time>2025-09-24T23:52:24Z</time>
      </trkpt>
      <trkpt lat="39.169242598573504" lon="117.75973121740006">
        <ele>-3.5</ele>
        <time>2025-09-24T23:52:26Z</time>
      </trkpt>
      <trkpt lat="39.16927661021957" lon="117.75978627353443">
        <ele>-3.5</ele>
        <time>2025-09-24T23:52:28Z</time>
      </trkpt>
      <trkpt lat="39.16930962372643" lon="117.75984333214643">
        <ele>-3.5</ele>
        <time>2025-09-24T23:52:30Z</time>
      </trkpt>
      <trkpt lat="39.16934363617738" lon="117.75989938967956">
        <ele>-3.6</ele>
        <time>2025-09-24T23:52:32Z</time>
      </trkpt>
      <trkpt lat="39.16937964697536" lon="117.75995444599852">
        <ele>-3.6</ele>
        <time>2025-09-24T23:52:34Z</time>
      </trkpt>
      <trkpt lat="39.16941665787781" lon="117.76001050344506">
        <ele>-3.6</ele>
        <time>2025-09-24T23:52:36Z</time>
      </trkpt>
      <trkpt lat="39.169455671241494" lon="117.76007256747026">
        <ele>-3.6</ele>
        <time>2025-09-24T23:52:38Z</time>
      </trkpt>
      <trkpt lat="39.169495686515866" lon="117.76013863601952">
        <ele>-3.6</ele>
        <time>2025-09-24T23:52:40Z</time>
      </trkpt>
      <trkpt lat="39.169539700769874" lon="117.76020670650732">
        <ele>-3.6</ele>
        <time>2025-09-24T23:52:42Z</time>
      </trkpt>
      <trkpt lat="39.169587712826875" lon="117.76027477670526">
        <ele>-3.6</ele>
        <time>2025-09-24T23:52:44Z</time>
      </trkpt>
      <trkpt lat="39.16963472623987" lon="117.76034384837665">
        <ele>-3.6</ele>
        <time>2025-09-24T23:52:46Z</time>
      </trkpt>
      <trkpt lat="39.169677743389585" lon="117.76041492304331">
        <ele>-3.6</ele>
        <time>2025-09-24T23:52:48Z</time>
      </trkpt>
      <trkpt lat="39.16971676489434" lon="117.76048900185921">
        <ele>-3.6</ele>
        <time>2025-09-24T23:52:50Z</time>
      </trkpt>
      <trkpt lat="39.169759781808665" lon="117.76055907587595">
        <ele>-3.7</ele>
        <time>2025-09-24T23:52:52Z</time>
      </trkpt>
      <trkpt lat="39.169808796570884" lon="117.76063115164199">
        <ele>-3.7</ele>
        <time>2025-09-24T23:52:54Z</time>
      </trkpt>
      <trkpt lat="39.16986180915633" lon="117.76070322714405">
        <ele>-3.7</ele>
        <time>2025-09-24T23:52:56Z</time>
      </trkpt>
      <trkpt lat="39.16991382620149" lon="117.76078130990375">
        <ele>-3.8</ele>
        <time>2025-09-24T23:52:58Z</time>
      </trkpt>
      <trkpt lat="39.16996284647102" lon="117.76086139563543">
        <ele>-3.8</ele>
        <time>2025-09-24T23:53:00Z</time>
      </trkpt>
      <trkpt lat="39.17000986877143" lon="117.76094248307902">
        <ele>-3.9</ele>
        <time>2025-09-24T23:53:02Z</time>
      </trkpt>
      <trkpt lat="39.17005589189789" lon="117.76102357095937">
        <ele>-3.9</ele>
        <time>2025-09-24T23:53:04Z</time>
      </trkpt>
      <trkpt lat="39.170103913452664" lon="117.76110365773161">
        <ele>-3.9</ele>
        <time>2025-09-24T23:53:06Z</time>
      </trkpt>
      <trkpt lat="39.170153934683505" lon="117.7611847457176">
        <ele>-4</ele>
        <time>2025-09-24T23:53:08Z</time>
      </trkpt>
      <trkpt lat="39.17020295737116" lon="117.76126683531037">
        <ele>-4</ele>
        <time>2025-09-24T23:53:10Z</time>
      </trkpt>
      <trkpt lat="39.17024798519866" lon="117.76135293042674">
        <ele>-4</ele>
        <time>2025-09-24T23:53:12Z</time>
      </trkpt>
      <trkpt lat="39.17029101574632" lon="117.7614410285029">
        <ele>-4</ele>
        <time>2025-09-24T23:53:14Z</time>
      </trkpt>
      <trkpt lat="39.17033604602958" lon="117.76153012787148">
        <ele>-4</ele>
        <time>2025-09-24T23:53:16Z</time>
      </trkpt>
      <trkpt lat="39.17038007782973" lon="117.76162022892655">
        <ele>-4</ele>
        <time>2025-09-24T23:53:18Z</time>
      </trkpt>
      <trkpt lat="39.170423112450074" lon="117.76171333406349">
        <ele>-4</ele>
        <time>2025-09-24T23:53:20Z</time>
      </trkpt>
      <trkpt lat="39.170464151161056" lon="117.76181044464458">
        <ele>-3.9</ele>
        <time>2025-09-24T23:53:22Z</time>
      </trkpt>
      <trkpt lat="39.17050419014344" lon="117.76190655459341">
        <ele>-3.9</ele>
        <time>2025-09-24T23:53:24Z</time>
      </trkpt>
      <trkpt lat="39.17054422748181" lon="117.76199966135897">
        <ele>-3.9</ele>
        <time>2025-09-24T23:53:26Z</time>
      </trkpt>
      <trkpt lat="39.1705862646068" lon="117.76209376948424">
        <ele>-3.9</ele>
        <time>2025-09-24T23:53:28Z</time>
      </trkpt>
      <trkpt lat="39.17062830403707" lon="117.76219088166422">
        <ele>-3.9</ele>
        <time>2025-09-24T23:53:30Z</time>
      </trkpt>
      <trkpt lat="39.170669345726374" lon="117.76228999684817">
        <ele>-4.1</ele>
        <time>2025-09-24T23:53:32Z</time>
      </trkpt>
      <trkpt lat="39.170710387092115" lon="117.76238811126683">
        <ele>-4.1</ele>
        <time>2025-09-24T23:53:34Z</time>
      </trkpt>
      <trkpt lat="39.170749432002076" lon="117.76248923007137">
        <ele>-4.1</ele>
        <time>2025-09-24T23:53:36Z</time>
      </trkpt>
      <trkpt lat="39.17078647980991" lon="117.76259235207122">
        <ele>-4.1</ele>
        <time>2025-09-24T23:53:38Z</time>
      </trkpt>
      <trkpt lat="39.17082452876569" lon="117.76269747691305">
        <ele>-4.1</ele>
        <time>2025-09-24T23:53:40Z</time>
      </trkpt>
      <trkpt lat="39.17086257742532" lon="117.76280160102594">
        <ele>-4</ele>
        <time>2025-09-24T23:53:42Z</time>
      </trkpt>
      <trkpt lat="39.17089962774608" lon="117.76290672701646">
        <ele>-4</ele>
        <time>2025-09-24T23:53:44Z</time>
      </trkpt>
      <trkpt lat="39.170933676762886" lon="117.76300684764146">
        <ele>-4</ele>
        <time>2025-09-24T23:53:46Z</time>
      </trkpt>
      <trkpt lat="39.17097371284656" lon="117.7630929503815">
        <ele>-4.2</ele>
        <time>2025-09-24T23:53:48Z</time>
      </trkpt>
      <trkpt lat="39.171027713703" lon="117.76314000258606">
        <ele>-4.2</ele>
        <time>2025-09-24T23:53:50Z</time>
      </trkpt>
      <trkpt lat="39.171092671844804" lon="117.76313498802651">
        <ele>-3.4</ele>
        <time>2025-09-24T23:53:52Z</time>
      </trkpt>
      <trkpt lat="39.17115460530008" lon="117.76309192609655">
        <ele>-3.4</ele>
        <time>2025-09-24T23:53:54Z</time>
      </trkpt>
      <trkpt lat="39.171213531571965" lon="117.76303584833867">
        <ele>-3.4</ele>
        <time>2025-09-24T23:53:56Z</time>
      </trkpt>
      <trkpt lat="39.17127147377204" lon="117.7630017983776">
        <ele>-2.8</ele>
        <time>2025-09-24T23:53:58Z</time>
      </trkpt>
      <trkpt lat="39.17133444420677" lon="117.76301280413225">
        <ele>-2.8</ele>
        <time>2025-09-24T23:54:00Z</time>
      </trkpt>
      <trkpt lat="39.17139045348576" lon="117.76307387347268">
        <ele>-2.7</ele>
        <time>2025-09-24T23:54:02Z</time>
      </trkpt>
      <trkpt lat="39.17143949075189" lon="117.76316898666799">
        <ele>-2.7</ele>
        <time>2025-09-24T23:54:04Z</time>
      </trkpt>
      <trkpt lat="39.171484532100074" lon="117.76326610331859">
        <ele>-2.7</ele>
        <time>2025-09-24T23:54:06Z</time>
      </trkpt>
      <trkpt lat="39.17153855578084" lon="117.76334519643747">
        <ele>-2.6</ele>
        <time>2025-09-24T23:54:08Z</time>
      </trkpt>
      <trkpt lat="39.1716045450423" lon="117.76338523877804">
        <ele>-2.6</ele>
        <time>2025-09-24T23:54:10Z</time>
      </trkpt>
      <trkpt lat="39.171683490662126" lon="117.76337421476647">
        <ele>-2.5</ele>
        <time>2025-09-24T23:54:12Z</time>
      </trkpt>
      <trkpt lat="39.171769403980136" lon="117.76332313917261">
        <ele>-2.5</ele>
        <time>2025-09-24T23:54:14Z</time>
      </trkpt>
      <trkpt lat="39.17185231074142" lon="117.76326004891439">
        <ele>-2.5</ele>
        <time>2025-09-24T23:54:16Z</time>
      </trkpt>
      <trkpt lat="39.17192722726092" lon="117.7632039686836">
        <ele>-2.2</ele>
        <time>2025-09-24T23:54:18Z</time>
      </trkpt>
      <trkpt lat="39.171999148453516" lon="117.76315189401372">
        <ele>-2.2</ele>
        <time>2025-09-24T23:54:20Z</time>
      </trkpt>
      <trkpt lat="39.172071070439266" lon="117.7631008207253">
        <ele>-2.4</ele>
        <time>2025-09-24T23:54:22Z</time>
      </trkpt>
      <trkpt lat="39.1721410075889" lon="117.76306977289818">
        <ele>-2.4</ele>
        <time>2025-09-24T23:54:24Z</time>
      </trkpt>
      <trkpt lat="39.17220097845247" lon="117.76307877655871">
        <ele>-2.4</ele>
        <time>2025-09-24T23:54:26Z</time>
      </trkpt>
      <trkpt lat="39.172246973584016" lon="117.76311081089578">
        <ele>-2.6</ele>
        <time>2025-09-24T23:54:28Z</time>
      </trkpt>
    </trkseg>
  </trk>
</gpx>