<?xml version="1.0" encoding="UTF-8"?>
<gpx xmlns="http://www.topografix.com/GPX/1/1" xmlns:gpxtpx="http://www.garmin.com/xmlschemas/TrackPointExtension/v1" xmlns:xsi="http://www.w3.org/2001/XMLSchema-instance" xsi:schemaLocation="http://www.topografix.com/GPX/1/1 http://www.topografix.com/GPX/1/1/gpx.xsd" version="1.1" creator="gpx.py -- https://github.com/tkrajina/gpxpy">
  <trk>
    <name>gpx from codoon</name>
    <type>Run</type>
    <trkseg>
      <trkpt lat="39.17155866354487" lon="117.76351440876472">
        <ele>-0.9</ele>
        <time>2025-09-25T09:18:07Z</time>
      </trkpt>
      <trkpt lat="39.17154966672481" lon="117.76351140608396">
        <ele>-0.9</ele>
        <time>2025-09-25T09:18:08Z</time>
      </trkpt>
      <trkpt lat="39.17156360953224" lon="117.76344231642392">
        <ele>-1</ele>
        <time>2025-09-25T09:18:09Z</time>
      </trkpt>
      <trkpt lat="39.17155554645318" lon="117.76334619554208">
        <ele>-1</ele>
        <time>2025-09-25T09:18:12Z</time>
      </trkpt>
      <trkpt lat="39.17153945410178" lon="117.76320101426792">
        <ele>-1.1</ele>
        <time>2025-09-25T09:18:14Z</time>
      </trkpt>
      <trkpt lat="39.171479416954654" lon="117.76309689102493">
        <ele>-1.1</ele>
        <time>2025-09-25T09:18:16Z</time>
      </trkpt>
      <trkpt lat="39.171416400661094" lon="117.76301980246488">
        <ele>-1.1</ele>
        <time>2025-09-25T09:18:18Z</time>
      </trkpt>
      <trkpt lat="39.17135141686225" lon="117.7629877706808">
        <ele>-1.3</ele>
        <time>2025-09-25T09:18:20Z</time>
      </trkpt>
      <trkpt lat="39.171289456916696" lon="117.76299278482479">
        <ele>-1.3</ele>
        <time>2025-09-25T09:18:22Z</time>
      </trkpt>
      <trkpt lat="39.17122751498654" lon="117.76302383152252">
        <ele>-2.1</ele>
        <time>2025-09-25T09:18:24Z</time>
      </trkpt>
      <trkpt lat="39.17115757850855" lon="117.76305588053675">
        <ele>-2.1</ele>
        <time>2025-09-25T09:18:26Z</time>
      </trkpt>
      <trkpt lat="39.17108061424466" lon="117.76304187278075">
        <ele>-2.1</ele>
        <time>2025-09-25T09:18:28Z</time>
      </trkpt>
      <trkpt lat="39.17101060500823" lon="117.7629687903083">
        <ele>-2.4</ele>
        <time>2025-09-25T09:18:30Z</time>
      </trkpt>
      <trkpt lat="39.17094956106386" lon="117.76285265337438">
        <ele>-2.4</ele>
        <time>2025-09-25T09:18:32Z</time>
      </trkpt>
      <trkpt lat="39.17090050641168" lon="117.76273050810462">
        <ele>-2.5</ele>
        <time>2025-09-25T09:18:34Z</time>
      </trkpt>
      <trkpt lat="39.17085445322868" lon="117.7626123680797">
        <ele>-2.5</ele>
        <time>2025-09-25T09:18:36Z</time>
      </trkpt>
      <trkpt lat="39.17081039800774" lon="117.76249222599319">
        <ele>-2.5</ele>
        <time>2025-09-25T09:18:38Z</time>
      </trkpt>
      <trkpt lat="39.17076634530719" lon="117.7623750882454">
        <ele>-2.4</ele>
        <time>2025-09-25T09:18:40Z</time>
      </trkpt>
      <trkpt lat="39.17071729870909" lon="117.7622619566412">
        <ele>-2.4</ele>
        <time>2025-09-25T09:18:42Z</time>
      </trkpt>
      <trkpt lat="39.170671250792196" lon="117.76214882525183">
        <ele>-2.3</ele>
        <time>2025-09-25T09:18:44Z</time>
      </trkpt>
      <trkpt lat="39.17062620207936" lon="117.76203469312571">
        <ele>-2.3</ele>
        <time>2025-09-25T09:18:46Z</time>
      </trkpt>
      <trkpt lat="39.17058115382791" lon="117.7619205616078">
        <ele>-2.3</ele>
        <time>2025-09-25T09:18:48Z</time>
      </trkpt>
      <trkpt lat="39.17053210905079" lon="117.76180743240354">
        <ele>-2.4</ele>
        <time>2025-09-25T09:18:50Z</time>
      </trkpt>
      <trkpt lat="39.17048106784823" lon="117.7616973076245">
        <ele>-2.4</ele>
        <time>2025-09-25T09:18:52Z</time>
      </trkpt>
      <trkpt lat="39.17042802890037" lon="117.76158818485331">
        <ele>-2.4</ele>
        <time>2025-09-25T09:18:54Z</time>
      </trkpt>
      <trkpt lat="39.17037399032809" lon="117.76147806158674">
        <ele>-2.2</ele>
        <time>2025-09-25T09:18:56Z</time>
      </trkpt>
      <trkpt lat="39.17031795400364" lon="117.76136894031866">
        <ele>-2.2</ele>
        <time>2025-09-25T09:18:58Z</time>
      </trkpt>
      <trkpt lat="39.17026291625127" lon="117.76125781714171">
        <ele>-2.3</ele>
        <time>2025-09-25T09:19:00Z</time>
      </trkpt>
      <trkpt lat="39.170209877757905" lon="117.76114669429015">
        <ele>-2.3</ele>
        <time>2025-09-25T09:19:02Z</time>
      </trkpt>
      <trkpt lat="39.17015584091883" lon="117.76103657330593">
        <ele>-2.3</ele>
        <time>2025-09-25T09:19:04Z</time>
      </trkpt>
      <trkpt lat="39.170095809295425" lon="117.76092845596487">
        <ele>-2.3</ele>
        <time>2025-09-25T09:19:06Z</time>
      </trkpt>
      <trkpt lat="39.17003278109304" lon="117.7608223418551">
        <ele>-2.3</ele>
        <time>2025-09-25T09:19:08Z</time>
      </trkpt>
      <trkpt lat="39.16996775447562" lon="117.76071622853034">
        <ele>-2.3</ele>
        <time>2025-09-25T09:19:10Z</time>
      </trkpt>
      <trkpt lat="39.16990273008522" lon="117.76061311915555">
        <ele>-2.3</ele>
        <time>2025-09-25T09:19:12Z</time>
      </trkpt>
      <trkpt lat="39.169836707271415" lon="117.76051101154458">
        <ele>-2.3</ele>
        <time>2025-09-25T09:19:14Z</time>
      </trkpt>
      <trkpt lat="39.169769688426" lon="117.76041391020432">
        <ele>-2.4</ele>
        <time>2025-09-25T09:19:16Z</time>
      </trkpt>
      <trkpt lat="39.16970366992611" lon="117.76031781030807">
        <ele>-2.4</ele>
        <time>2025-09-25T09:19:18Z</time>
      </trkpt>
      <trkpt lat="39.169634655313004" lon="117.76022471459424">
        <ele>-2.5</ele>
        <time>2025-09-25T09:19:20Z</time>
      </trkpt>
      <trkpt lat="39.16956763805897" lon="117.76012861568516">
        <ele>-2.5</ele>
        <time>2025-09-25T09:19:22Z</time>
      </trkpt>
      <trkpt lat="39.1695006217249" lon="117.76003351832557">
        <ele>-2.5</ele>
        <time>2025-09-25T09:19:24Z</time>
      </trkpt>
      <trkpt lat="39.16943660336046" lon="117.75993741990474">
        <ele>-2.6</ele>
        <time>2025-09-25T09:19:26Z</time>
      </trkpt>
      <trkpt lat="39.16937258532923" lon="117.75984132192163">
        <ele>-2.6</ele>
        <time>2025-09-25T09:19:28Z</time>
      </trkpt>
      <trkpt lat="39.16930956646369" lon="117.7597442231506">
        <ele>-2.7</ele>
        <time>2025-09-25T09:19:30Z</time>
      </trkpt>
      <trkpt lat="39.169245547956656" lon="117.75964612386034">
        <ele>-2.7</ele>
        <time>2025-09-25T09:19:32Z</time>
      </trkpt>
      <trkpt lat="39.169180531527786" lon="117.759550027333">
        <ele>-2.7</ele>
        <time>2025-09-25T09:19:34Z</time>
      </trkpt>
      <trkpt lat="39.16911751311842" lon="117.75945192882041">
        <ele>-2.6</ele>
        <time>2025-09-25T09:19:36Z</time>
      </trkpt>
      <trkpt lat="39.169055494466086" lon="117.7593538306381">
        <ele>-2.6</ele>
        <time>2025-09-25T09:19:38Z</time>
      </trkpt>
      <trkpt lat="39.16899247619431" lon="117.75925473196557">
        <ele>-2.6</ele>
        <time>2025-09-25T09:19:40Z</time>
      </trkpt>
      <trkpt lat="39.16892745890537" lon="117.75915463294457">
        <ele>-2.6</ele>
        <time>2025-09-25T09:19:42Z</time>
      </trkpt>
      <trkpt lat="39.168860443162245" lon="117.75905453465543">
        <ele>-2.6</ele>
        <time>2025-09-25T09:19:44Z</time>
      </trkpt>
      <trkpt lat="39.16879342504247" lon="117.75894943153949">
        <ele>-2.6</ele>
        <time>2025-09-25T09:19:46Z</time>
      </trkpt>
      <trkpt lat="39.16872740727651" lon="117.75884532987894">
        <ele>-2.6</ele>
        <time>2025-09-25T09:19:48Z</time>
      </trkpt>
      <trkpt lat="39.16866039103594" lon="117.75874222991376">
        <ele>-2.6</ele>
        <time>2025-09-25T09:19:50Z</time>
      </trkpt>
      <trkpt lat="39.168594377274474" lon="117.75864413555927">
        <ele>-2.6</ele>
        <time>2025-09-25T09:19:52Z</time>
      </trkpt>
      <trkpt lat="39.168526365579304" lon="117.7585470429607">
        <ele>-2.6</ele>
        <time>2025-09-25T09:19:54Z</time>
      </trkpt>
      <trkpt lat="39.16846235027232" lon="117.7584469471933">
        <ele>-2.3</ele>
        <time>2025-09-25T09:19:56Z</time>
      </trkpt>
      <trkpt lat="39.1683973359216" lon="117.75834685203257">
        <ele>-2.3</ele>
        <time>2025-09-25T09:19:58Z</time>
      </trkpt>
      <trkpt lat="39.16833232193594" lon="117.75824675735147">
        <ele>-2.3</ele>
        <time>2025-09-25T09:20:00Z</time>
      </trkpt>
      <trkpt lat="39.16826331171939" lon="117.75814866570427">
        <ele>-2.3</ele>
        <time>2025-09-25T09:20:02Z</time>
      </trkpt>
      <trkpt lat="39.16819430133883" lon="117.75804957350053">
        <ele>-2.3</ele>
        <time>2025-09-25T09:20:04Z</time>
      </trkpt>
      <trkpt lat="39.168126291237115" lon="117.75795148265338">
        <ele>-2.4</ele>
        <time>2025-09-25T09:20:06Z</time>
      </trkpt>
      <trkpt lat="39.168060281828595" lon="117.75785639503837">
        <ele>-2.4</ele>
        <time>2025-09-25T09:20:08Z</time>
      </trkpt>
      <trkpt lat="39.167993272332744" lon="117.75775930597717">
        <ele>-2.4</ele>
        <time>2025-09-25T09:20:10Z</time>
      </trkpt>
      <trkpt lat="39.167925264274665" lon="117.7576632184952">
        <ele>-2.4</ele>
        <time>2025-09-25T09:20:12Z</time>
      </trkpt>
      <trkpt lat="39.167859254375855" lon="117.75756512921348">
        <ele>-2.4</ele>
        <time>2025-09-25T09:20:14Z</time>
      </trkpt>
      <trkpt lat="39.16779324631185" lon="117.75747004336375">
        <ele>-2.2</ele>
        <time>2025-09-25T09:20:16Z</time>
      </trkpt>
      <trkpt lat="39.167728237006045" lon="117.75737295585135">
        <ele>-2.2</ele>
        <time>2025-09-25T09:20:18Z</time>
      </trkpt>
      <trkpt lat="39.167663228045754" lon="117.75727586879273">
        <ele>-2.4</ele>
        <time>2025-09-25T09:20:20Z</time>
      </trkpt>
      <trkpt lat="39.167599218839364" lon="117.75717878206085">
        <ele>-2.4</ele>
        <time>2025-09-25T09:20:22Z</time>
      </trkpt>
      <trkpt lat="39.167534211050665" lon="117.75708269688165">
        <ele>-2.4</ele>
        <time>2025-09-25T09:20:24Z</time>
      </trkpt>
      <trkpt lat="39.16747020253258" lon="117.75698561105384">
        <ele>-2.4</ele>
        <time>2025-09-25T09:20:26Z</time>
      </trkpt>
      <trkpt lat="39.16740619483365" lon="117.75688952664254">
        <ele>-2.4</ele>
        <time>2025-09-25T09:20:28Z</time>
      </trkpt>
      <trkpt lat="39.16734418582077" lon="117.75679244146508">
        <ele>-2.4</ele>
        <time>2025-09-25T09:20:30Z</time>
      </trkpt>
      <trkpt lat="39.167283177028295" lon="117.75669635756799">
        <ele>-2.4</ele>
        <time>2025-09-25T09:20:32Z</time>
      </trkpt>
      <trkpt lat="39.167223167058616" lon="117.75659827209405">
        <ele>-2.4</ele>
        <time>2025-09-25T09:20:34Z</time>
      </trkpt>
      <trkpt lat="39.16716615520814" lon="117.75649918576029">
        <ele>-2.6</ele>
        <time>2025-09-25T09:20:36Z</time>
      </trkpt>
      <trkpt lat="39.16711014267173" lon="117.75639909883591">
        <ele>-2.6</ele>
        <time>2025-09-25T09:20:38Z</time>
      </trkpt>
      <trkpt lat="39.167057128727826" lon="117.75629901201438">
        <ele>-2.6</ele>
        <time>2025-09-25T09:20:40Z</time>
      </trkpt>
      <trkpt lat="39.167004116495754" lon="117.75620192846324">
        <ele>-2.6</ele>
        <time>2025-09-25T09:20:42Z</time>
      </trkpt>
      <trkpt lat="39.166953103870874" lon="117.75610584603791">
        <ele>-2.6</ele>
        <time>2025-09-25T09:20:44Z</time>
      </trkpt>
      <trkpt lat="39.16690809067866" lon="117.75601576881239">
        <ele>-2.6</ele>
        <time>2025-09-25T09:20:46Z</time>
      </trkpt>
      <trkpt lat="39.166866079511394" lon="117.75593369892117">
        <ele>-2.6</ele>
        <time>2025-09-25T09:20:48Z</time>
      </trkpt>
      <trkpt lat="39.166824077733786" lon="117.75587264851018">
        <ele>-2.7</ele>
        <time>2025-09-25T09:20:50Z</time>
      </trkpt>
      <trkpt lat="39.1667750958667" lon="117.75584763194904">
        <ele>-2.7</ele>
        <time>2025-09-25T09:20:52Z</time>
      </trkpt>
      <trkpt lat="39.16671913729374" lon="117.75586665640327">
        <ele>-2.7</ele>
        <time>2025-09-25T09:20:54Z</time>
      </trkpt>
      <trkpt lat="39.166661192584144" lon="117.75591470763327">
        <ele>-2.6</ele>
        <time>2025-09-25T09:20:56Z</time>
      </trkpt>
      <trkpt lat="39.16660225514219" lon="117.75597777286222">
        <ele>-2.6</ele>
        <time>2025-09-25T09:20:58Z</time>
      </trkpt>
      <trkpt lat="39.16654332049967" lon="117.7560468438091">
        <ele>-2.6</ele>
        <time>2025-09-25T09:21:00Z</time>
      </trkpt>
      <trkpt lat="39.16648338884965" lon="117.75612091973683">
        <ele>-2.7</ele>
        <time>2025-09-25T09:21:02Z</time>
      </trkpt>
      <trkpt lat="39.166422458442334" lon="117.75619599698571">
        <ele>-2.7</ele>
        <time>2025-09-25T09:21:04Z</time>
      </trkpt>
      <trkpt lat="39.16636052928601" lon="117.75627207556656">
        <ele>-2.6</ele>
        <time>2025-09-25T09:21:06Z</time>
      </trkpt>
      <trkpt lat="39.166295600761195" lon="117.7563451520026">
        <ele>-2.6</ele>
        <time>2025-09-25T09:21:08Z</time>
      </trkpt>
      <trkpt lat="39.166229673482" lon="117.75641922976317">
        <ele>-2.6</ele>
        <time>2025-09-25T09:21:10Z</time>
      </trkpt>
      <trkpt lat="39.16616074680753" lon="117.75649030534309">
        <ele>-2.4</ele>
        <time>2025-09-25T09:21:12Z</time>
      </trkpt>
      <trkpt lat="39.166089821965905" lon="117.7565623823676">
        <ele>-2.4</ele>
        <time>2025-09-25T09:21:14Z</time>
      </trkpt>
      <trkpt lat="39.16601889778026" lon="117.75663546059249">
        <ele>-2.5</ele>
        <time>2025-09-25T09:21:16Z</time>
      </trkpt>
      <trkpt lat="39.16594797332581" lon="117.75670753812213">
        <ele>-2.5</ele>
        <time>2025-09-25T09:21:18Z</time>
      </trkpt>
      <trkpt lat="39.165876049187055" lon="117.75677861507326">
        <ele>-2.5</ele>
        <time>2025-09-25T09:21:20Z</time>
      </trkpt>
      <trkpt lat="39.165804124292194" lon="117.75684769034838">
        <ele>-2.4</ele>
        <time>2025-09-25T09:21:22Z</time>
      </trkpt>
      <trkpt lat="39.16573020075903" lon="117.75691676610812">
        <ele>-2.4</ele>
        <time>2025-09-25T09:21:24Z</time>
      </trkpt>
      <trkpt lat="39.1656572768099" lon="117.75698584197053">
        <ele>-2.5</ele>
        <time>2025-09-25T09:21:26Z</time>
      </trkpt>
      <trkpt lat="39.16558135194148" lon="117.75704891262684">
        <ele>-2.5</ele>
        <time>2025-09-25T09:21:28Z</time>
      </trkpt>
      <trkpt lat="39.165504427332245" lon="117.75711098262947">
        <ele>-2.5</ele>
        <time>2025-09-25T09:21:30Z</time>
      </trkpt>
      <trkpt lat="39.165426503458754" lon="117.75717305294482">
        <ele>-2.6</ele>
        <time>2025-09-25T09:21:32Z</time>
      </trkpt>
      <trkpt lat="39.165351578921566" lon="117.75723712502072">
        <ele>-2.6</ele>
        <time>2025-09-25T09:21:34Z</time>
      </trkpt>
      <trkpt lat="39.16527465328215" lon="117.75729619264104">
        <ele>-2.5</ele>
        <time>2025-09-25T09:21:36Z</time>
      </trkpt>
      <trkpt lat="39.16519772679242" lon="117.75735325846067">
        <ele>-2.5</ele>
        <time>2025-09-25T09:21:38Z</time>
      </trkpt>
      <trkpt lat="39.165119802000774" lon="117.75741232653799">
        <ele>-2.5</ele>
        <time>2025-09-25T09:21:40Z</time>
      </trkpt>
      <trkpt lat="39.16504387862486" lon="117.75747639947824">
        <ele>-2.5</ele>
        <time>2025-09-25T09:21:42Z</time>
      </trkpt>
      <trkpt lat="39.16496895431123" lon="117.75753947149525">
        <ele>-2.5</ele>
        <time>2025-09-25T09:21:44Z</time>
      </trkpt>
      <trkpt lat="39.16489102942873" lon="117.75759753910496">
        <ele>-2.5</ele>
        <time>2025-09-25T09:21:46Z</time>
      </trkpt>
      <trkpt lat="39.16481210426251" lon="117.7576536050065">
        <ele>-2.5</ele>
        <time>2025-09-25T09:21:48Z</time>
      </trkpt>
      <trkpt lat="39.164731178890506" lon="117.75770666830971">
        <ele>-2.5</ele>
        <time>2025-09-25T09:21:50Z</time>
      </trkpt>
      <trkpt lat="39.16465125353539" lon="117.7577607326244">
        <ele>-2.3</ele>
        <time>2025-09-25T09:21:52Z</time>
      </trkpt>
      <trkpt lat="39.164570327868745" lon="117.75781279519391">
        <ele>-2.3</ele>
        <time>2025-09-25T09:21:54Z</time>
      </trkpt>
      <trkpt lat="39.16449140060862" lon="117.75786385663004">
        <ele>-2.3</ele>
        <time>2025-09-25T09:21:56Z</time>
      </trkpt>
      <trkpt lat="39.1644104756529" lon="117.75791692046805">
        <ele>-2.3</ele>
        <time>2025-09-25T09:21:58Z</time>
      </trkpt>
      <trkpt lat="39.16432655309398" lon="117.75797098583654">
        <ele>-2.3</ele>
        <time>2025-09-25T09:22:00Z</time>
      </trkpt>
      <trkpt lat="39.16424063183044" lon="117.75802505159955">
        <ele>-2.5</ele>
        <time>2025-09-25T09:22:02Z</time>
      </trkpt>
      <trkpt lat="39.16415470964334" lon="117.75807711546449">
        <ele>-2.5</ele>
        <time>2025-09-25T09:22:04Z</time>
      </trkpt>
      <trkpt lat="39.164071783705396" lon="117.75812517499199">
        <ele>-2.8</ele>
        <time>2025-09-25T09:22:06Z</time>
      </trkpt>
      <trkpt lat="39.163987858447335" lon="117.75817323475721">
        <ele>-2.8</ele>
        <time>2025-09-25T09:22:08Z</time>
      </trkpt>
      <trkpt lat="39.16390393379749" lon="117.75822229565874">
        <ele>-2.8</ele>
        <time>2025-09-25T09:22:10Z</time>
      </trkpt>
      <trkpt lat="39.16381901087796" lon="117.75827335885917">
        <ele>-2.8</ele>
        <time>2025-09-25T09:22:12Z</time>
      </trkpt>
      <trkpt lat="39.16373309022532" lon="117.75832742540403">
        <ele>-2.8</ele>
        <time>2025-09-25T09:22:14Z</time>
      </trkpt>
      <trkpt lat="39.163649168494814" lon="117.75838149183403">
        <ele>-2.9</ele>
        <time>2025-09-25T09:22:16Z</time>
      </trkpt>
      <trkpt lat="39.163568244034174" lon="117.75843355594975">
        <ele>-2.9</ele>
        <time>2025-09-25T09:22:18Z</time>
      </trkpt>
      <trkpt lat="39.163487319674374" lon="117.75848562019492">
        <ele>-2.9</ele>
        <time>2025-09-25T09:22:20Z</time>
      </trkpt>
      <trkpt lat="39.16340639648153" lon="117.75853968665152">
        <ele>-2.8</ele>
        <time>2025-09-25T09:22:22Z</time>
      </trkpt>
      <trkpt lat="39.1633254750025" lon="117.75859675637884">
        <ele>-2.8</ele>
        <time>2025-09-25T09:22:24Z</time>
      </trkpt>
      <trkpt lat="39.16324455579324" lon="117.75865783044807">
        <ele>-2.8</ele>
        <time>2025-09-25T09:22:26Z</time>
      </trkpt>
      <trkpt lat="39.16316563769304" lon="117.75872290863968">
        <ele>-2.8</ele>
        <time>2025-09-25T09:22:28Z</time>
      </trkpt>
      <trkpt lat="39.16308772023915" lon="117.75878998901194">
        <ele>-2.8</ele>
        <time>2025-09-25T09:22:30Z</time>
      </trkpt>
      <trkpt lat="39.16301180176304" lon="117.7588570693442">
        <ele>-2.8</ele>
        <time>2025-09-25T09:22:32Z</time>
      </trkpt>
      <trkpt lat="39.162938881123765" lon="117.75892314844967">
        <ele>-2.8</ele>
        <time>2025-09-25T09:22:34Z</time>
      </trkpt>
      <trkpt lat="39.16286796055574" lon="117.7589912296338">
        <ele>-3</ele>
        <time>2025-09-25T09:22:36Z</time>
      </trkpt>
      <trkpt lat="39.162797041260966" lon="117.7590613131705">
        <ele>-3</ele>
        <time>2025-09-25T09:22:38Z</time>
      </trkpt>
      <trkpt lat="39.16272612103652" lon="117.7591293948024">
        <ele>-3</ele>
        <time>2025-09-25T09:22:40Z</time>
      </trkpt>
      <trkpt lat="39.16265420213201" lon="117.75919847785453">
        <ele>-3.1</ele>
        <time>2025-09-25T09:22:42Z</time>
      </trkpt>
      <trkpt lat="39.16258027843779" lon="117.75925654955707">
        <ele>-3.1</ele>
        <time>2025-09-25T09:22:44Z</time>
      </trkpt>
      <trkpt lat="39.16250433587784" lon="117.75927858289543">
        <ele>-3.1</ele>
        <time>2025-09-25T09:22:46Z</time>
      </trkpt>
      <trkpt lat="39.16243535951819" lon="117.75924755833186">
        <ele>-3.1</ele>
        <time>2025-09-25T09:22:48Z</time>
      </trkpt>
      <trkpt lat="39.16237635275713" lon="117.7591724853594">
        <ele>-3.1</ele>
        <time>2025-09-25T09:22:50Z</time>
      </trkpt>
      <trkpt lat="39.16232533204865" lon="117.75908039349345">
        <ele>-3.1</ele>
        <time>2025-09-25T09:22:52Z</time>
      </trkpt>
      <trkpt lat="39.16227531050406" lon="117.75898730084195">
        <ele>-3.1</ele>
        <time>2025-09-25T09:22:54Z</time>
      </trkpt>
      <trkpt lat="39.1622242904134" lon="117.7588952097889">
        <ele>-3.2</ele>
        <time>2025-09-25T09:22:56Z</time>
      </trkpt>
      <trkpt lat="39.162170271327035" lon="117.75880111741502">
        <ele>-3.2</ele>
        <time>2025-09-25T09:22:58Z</time>
      </trkpt>
      <trkpt lat="39.16211325488322" lon="117.75870802689457">
        <ele>-3.2</ele>
        <time>2025-09-25T09:23:00Z</time>
      </trkpt>
      <trkpt lat="39.16205323946477" lon="117.75861293508058">
        <ele>-3.4</ele>
        <time>2025-09-25T09:23:02Z</time>
      </trkpt>
      <trkpt lat="39.16199522478408" lon="117.7585208465645">
        <ele>-3.4</ele>
        <time>2025-09-25T09:23:04Z</time>
      </trkpt>
      <trkpt lat="39.16194020862963" lon="117.75842875807216">
        <ele>-3.4</ele>
        <time>2025-09-25T09:23:06Z</time>
      </trkpt>
      <trkpt lat="39.161887192647065" lon="117.75833867179381">
        <ele>-3.4</ele>
        <time>2025-09-25T09:23:08Z</time>
      </trkpt>
      <trkpt lat="39.16183417800506" lon="117.75825058795826">
        <ele>-3.4</ele>
        <time>2025-09-25T09:23:10Z</time>
      </trkpt>
      <trkpt lat="39.16178216409041" lon="117.75816450641314">
        <ele>-3.5</ele>
        <time>2025-09-25T09:23:12Z</time>
      </trkpt>
      <trkpt lat="39.16173814517613" lon="117.75807742318611">
        <ele>-3.5</ele>
        <time>2025-09-25T09:23:14Z</time>
      </trkpt>
      <trkpt lat="39.16169512902343" lon="117.7579963462846">
        <ele>-3.5</ele>
        <time>2025-09-25T09:23:16Z</time>
      </trkpt>
      <trkpt lat="39.161649116934896" lon="117.75791927412499">
        <ele>-3.5</ele>
        <time>2025-09-25T09:23:18Z</time>
      </trkpt>
      <trkpt lat="39.16159711065981" lon="117.7578462070448">
        <ele>-3.5</ele>
        <time>2025-09-25T09:23:20Z</time>
      </trkpt>
      <trkpt lat="39.161547101875925" lon="117.7577701369538">
        <ele>-3.4</ele>
        <time>2025-09-25T09:23:22Z</time>
      </trkpt>
      <trkpt lat="39.16149909211505" lon="117.75769406688617">
        <ele>-3.4</ele>
        <time>2025-09-25T09:23:24Z</time>
      </trkpt>
      <trkpt lat="39.1614540812825" lon="117.75761899771169">
        <ele>-3.4</ele>
        <time>2025-09-25T09:23:26Z</time>
      </trkpt>
      <trkpt lat="39.16140807125027" lon="117.75754392893535">
        <ele>-3.5</ele>
        <time>2025-09-25T09:23:28Z</time>
      </trkpt>
      <trkpt lat="39.16136405974143" lon="117.75746785918585">
        <ele>-3.5</ele>
        <time>2025-09-25T09:23:30Z</time>
      </trkpt>
      <trkpt lat="39.16132704772422" lon="117.75739879572669">
        <ele>-3.6</ele>
        <time>2025-09-25T09:23:32Z</time>
      </trkpt>
      <trkpt lat="39.161308032523586" lon="117.75734474495599">
        <ele>-3.6</ele>
        <time>2025-09-25T09:23:34Z</time>
      </trkpt>
      <trkpt lat="39.16131900643014" lon="117.75730470424772">
        <ele>-3.6</ele>
        <time>2025-09-25T09:23:36Z</time>
      </trkpt>
      <trkpt lat="39.162471141529785" lon="117.75889117412672">
        <ele>-3.3</ele>
        <time>2025-09-25T09:28:29Z</time>
      </trkpt>
      <trkpt lat="39.16243421716876" lon="117.75898928273462">
        <ele>-3.3</ele>
        <time>2025-09-25T09:28:31Z</time>
      </trkpt>
      <trkpt lat="39.16239529434367" lon="117.7590873920556">
        <ele>-3.5</ele>
        <time>2025-09-25T09:28:34Z</time>
      </trkpt>
      <trkpt lat="39.162390343886365" lon="117.7591714825067">
        <ele>-3.5</ele>
        <time>2025-09-25T09:28:36Z</time>
      </trkpt>
      <trkpt lat="39.16238239043637" lon="117.75924656400096">
        <ele>-3.5</ele>
        <time>2025-09-25T09:28:38Z</time>
      </trkpt>
      <trkpt lat="39.16241440109166" lon="117.75929961696085">
        <ele>-3.7</ele>
        <time>2025-09-25T09:28:40Z</time>
      </trkpt>
      <trkpt lat="39.16244740788056" lon="117.75934666344915">
        <ele>-3.7</ele>
        <time>2025-09-25T09:28:42Z</time>
      </trkpt>
      <trkpt lat="39.162475419411145" lon="117.7593967139246">
        <ele>-3.7</ele>
        <time>2025-09-25T09:28:44Z</time>
      </trkpt>
      <trkpt lat="39.16249943680376" lon="117.75945277153507">
        <ele>-3.7</ele>
        <time>2025-09-25T09:28:46Z</time>
      </trkpt>
      <trkpt lat="39.162519456685196" lon="117.75950882980386">
        <ele>-3.7</ele>
        <time>2025-09-25T09:28:48Z</time>
      </trkpt>
      <trkpt lat="39.16254347316428" lon="117.75956288553321">
        <ele>-3.8</ele>
        <time>2025-09-25T09:28:50Z</time>
      </trkpt>
      <trkpt lat="39.162571481083276" lon="117.75960592887854">
        <ele>-3.8</ele>
        <time>2025-09-25T09:28:52Z</time>
      </trkpt>
      <trkpt lat="39.162605487225996" lon="117.7596519748305">
        <ele>-3.5</ele>
        <time>2025-09-25T09:28:54Z</time>
      </trkpt>
      <trkpt lat="39.16264049687709" lon="117.75970502843107">
        <ele>-3.5</ele>
        <time>2025-09-25T09:28:56Z</time>
      </trkpt>
      <trkpt lat="39.16267851119879" lon="117.7597690938769">
        <ele>-3.5</ele>
        <time>2025-09-25T09:28:58Z</time>
      </trkpt>
      <trkpt lat="39.16272052619291" lon="117.75983816452265">
        <ele>-3.5</ele>
        <time>2025-09-25T09:29:00Z</time>
      </trkpt>
      <trkpt lat="39.16276754188575" lon="117.7599132413966">
        <ele>-3.5</ele>
        <time>2025-09-25T09:29:02Z</time>
      </trkpt>
      <trkpt lat="39.16281655952169" lon="117.75999332383417">
        <ele>-3.3</ele>
        <time>2025-09-25T09:29:04Z</time>
      </trkpt>
      <trkpt lat="39.16286757973251" lon="117.76007941300655">
        <ele>-3.3</ele>
        <time>2025-09-25T09:29:06Z</time>
      </trkpt>
      <trkpt lat="39.162922599018906" lon="117.7601675042579">
        <ele>-3.3</ele>
        <time>2025-09-25T09:29:08Z</time>
      </trkpt>
      <trkpt lat="39.16297861680107" lon="117.76025359350388">
        <ele>-3.3</ele>
        <time>2025-09-25T09:29:10Z</time>
      </trkpt>
      <trkpt lat="39.163031633043644" lon="117.76033367672271">
        <ele>-3.3</ele>
        <time>2025-09-25T09:29:12Z</time>
      </trkpt>
      <trkpt lat="39.1630796524851" lon="117.76041376088082">
        <ele>-3.3</ele>
        <time>2025-09-25T09:29:14Z</time>
      </trkpt>
      <trkpt lat="39.16312867156332" lon="117.7604938452147">
        <ele>-3.3</ele>
        <time>2025-09-25T09:29:16Z</time>
      </trkpt>
      <trkpt lat="39.16318668310428" lon="117.7605699241556">
        <ele>-3.3</ele>
        <time>2025-09-25T09:29:18Z</time>
      </trkpt>
      <trkpt lat="39.16324669305737" lon="117.76064500197405">
        <ele>-3.4</ele>
        <time>2025-09-25T09:29:20Z</time>
      </trkpt>
      <trkpt lat="39.163302706199055" lon="117.76072108171202">
        <ele>-3.4</ele>
        <time>2025-09-25T09:29:22Z</time>
      </trkpt>
      <trkpt lat="39.163353723745054" lon="117.76079916465574">
        <ele>-3.4</ele>
        <time>2025-09-25T09:29:24Z</time>
      </trkpt>
      <trkpt lat="39.16340574215064" lon="117.7608792500638">
        <ele>-3.4</ele>
        <time>2025-09-25T09:29:26Z</time>
      </trkpt>
      <trkpt lat="39.16346076210672" lon="117.76096434117258">
        <ele>-3.4</ele>
        <time>2025-09-25T09:29:28Z</time>
      </trkpt>
      <trkpt lat="39.16351278659618" lon="117.76105343764496">
        <ele>-3.4</ele>
        <time>2025-09-25T09:29:30Z</time>
      </trkpt>
      <trkpt lat="39.16356181440319" lon="117.76114453720164">
        <ele>-3.4</ele>
        <time>2025-09-25T09:29:32Z</time>
      </trkpt>
      <trkpt lat="39.16360784176714" lon="117.76123163285456">
        <ele>-3.4</ele>
        <time>2025-09-25T09:29:34Z</time>
      </trkpt>
      <trkpt lat="39.16365886453604" lon="117.76131572470928">
        <ele>-3.4</ele>
        <time>2025-09-25T09:29:36Z</time>
      </trkpt>
      <trkpt lat="39.16370888560768" lon="117.76139581231685">
        <ele>-3.4</ele>
        <time>2025-09-25T09:29:38Z</time>
      </trkpt>
      <trkpt lat="39.16375990567633" lon="117.76147489891791">
        <ele>-3.5</ele>
        <time>2025-09-25T09:29:40Z</time>
      </trkpt>
      <trkpt lat="39.163808932286436" lon="117.7615619955395">
        <ele>-3.5</ele>
        <time>2025-09-25T09:29:42Z</time>
      </trkpt>
      <trkpt lat="39.16385796174571" lon="117.7616530972704">
        <ele>-3.5</ele>
        <time>2025-09-25T09:29:44Z</time>
      </trkpt>
      <trkpt lat="39.16390898901759" lon="117.76174219674995">
        <ele>-3.6</ele>
        <time>2025-09-25T09:29:46Z</time>
      </trkpt>
      <trkpt lat="39.16396001266552" lon="117.7618252894204">
        <ele>-3.6</ele>
        <time>2025-09-25T09:29:48Z</time>
      </trkpt>
      <trkpt lat="39.16401403347151" lon="117.76190637963121">
        <ele>-3.5</ele>
        <time>2025-09-25T09:29:50Z</time>
      </trkpt>
      <trkpt lat="39.16406805648162" lon="117.76199047376224">
        <ele>-3.5</ele>
        <time>2025-09-25T09:29:52Z</time>
      </trkpt>
      <trkpt lat="39.16412108231572" lon="117.76207757197588">
        <ele>-3.5</ele>
        <time>2025-09-25T09:29:54Z</time>
      </trkpt>
      <trkpt lat="39.16417211093146" lon="117.76216667322315">
        <ele>-3.4</ele>
        <time>2025-09-25T09:29:56Z</time>
      </trkpt>
      <trkpt lat="39.16422114234744" lon="117.76225777752876">
        <ele>-3.4</ele>
        <time>2025-09-25T09:29:58Z</time>
      </trkpt>
      <trkpt lat="39.164268174574204" lon="117.76234788125464">
        <ele>-3.5</ele>
        <time>2025-09-25T09:30:00Z</time>
      </trkpt>
      <trkpt lat="39.16431520776084" lon="117.76243898658396">
        <ele>-3.5</ele>
        <time>2025-09-25T09:30:02Z</time>
      </trkpt>
      <trkpt lat="39.1643672382753" lon="117.76253009166362">
        <ele>-3.5</ele>
        <time>2025-09-25T09:30:04Z</time>
      </trkpt>
      <trkpt lat="39.16442126518096" lon="117.76261719194028">
        <ele>-3.4</ele>
        <time>2025-09-25T09:30:06Z</time>
      </trkpt>
      <trkpt lat="39.164478289893616" lon="117.76270329095038">
        <ele>-3.4</ele>
        <time>2025-09-25T09:30:08Z</time>
      </trkpt>
      <trkpt lat="39.164528316279984" lon="117.76278538622933">
        <ele>-3.5</ele>
        <time>2025-09-25T09:30:10Z</time>
      </trkpt>
      <trkpt lat="39.16457534399564" lon="117.76286648095756">
        <ele>-3.5</ele>
        <time>2025-09-25T09:30:12Z</time>
      </trkpt>
      <trkpt lat="39.16462236987166" lon="117.7629445722443">
        <ele>-3.5</ele>
        <time>2025-09-25T09:30:14Z</time>
      </trkpt>
      <trkpt lat="39.16467139339032" lon="117.76302066105467">
        <ele>-3.6</ele>
        <time>2025-09-25T09:30:16Z</time>
      </trkpt>
      <trkpt lat="39.16471841551612" lon="117.76309274536464">
        <ele>-3.6</ele>
        <time>2025-09-25T09:30:18Z</time>
      </trkpt>
      <trkpt lat="39.16476243611338" lon="117.76315982400239">
        <ele>-3.8</ele>
        <time>2025-09-25T09:30:20Z</time>
      </trkpt>
      <trkpt lat="39.16480545676169" lon="117.76322590171375">
        <ele>-3.8</ele>
        <time>2025-09-25T09:30:22Z</time>
      </trkpt>
      <trkpt lat="39.164850472162584" lon="117.76328597178414">
        <ele>-3.8</ele>
        <time>2025-09-25T09:30:24Z</time>
      </trkpt>
      <trkpt lat="39.16490146864181" lon="117.76332401338648">
        <ele>-3.7</ele>
        <time>2025-09-25T09:30:26Z</time>
      </trkpt>
      <trkpt lat="39.1649644270677" lon="117.76331799777569">
        <ele>-3.7</ele>
        <time>2025-09-25T09:30:28Z</time>
      </trkpt>
      <trkpt lat="39.1650263636002" lon="117.76327994181075">
        <ele>-4</ele>
        <time>2025-09-25T09:30:30Z</time>
      </trkpt>
      <trkpt lat="39.165086292262" lon="117.7632288697572">
        <ele>-4</ele>
        <time>2025-09-25T09:30:32Z</time>
      </trkpt>
      <trkpt lat="39.165141227474244" lon="117.76318280475883">
        <ele>-4</ele>
        <time>2025-09-25T09:30:34Z</time>
      </trkpt>
      <trkpt lat="39.16520015969373" lon="117.76313573809199">
        <ele>-4</ele>
        <time>2025-09-25T09:30:36Z</time>
      </trkpt>
      <trkpt lat="39.16526008931311" lon="117.763085667634">
        <ele>-4</ele>
        <time>2025-09-25T09:30:38Z</time>
      </trkpt>
      <trkpt lat="39.16531801812648" lon="117.76303259378743">
        <ele>-4.2</ele>
        <time>2025-09-25T09:30:40Z</time>
      </trkpt>
      <trkpt lat="39.16537894526188" lon="117.76297951968952">
        <ele>-4.2</ele>
        <time>2025-09-25T09:30:42Z</time>
      </trkpt>
      <trkpt lat="39.16544186993268" lon="117.7629244429717">
        <ele>-4.2</ele>
        <time>2025-09-25T09:30:44Z</time>
      </trkpt>
      <trkpt lat="39.16550579205563" lon="117.76286636253133">
        <ele>-4.2</ele>
        <time>2025-09-25T09:30:46Z</time>
      </trkpt>
      <trkpt lat="39.16556971292745" lon="117.76280627976229">
        <ele>-4.2</ele>
        <time>2025-09-25T09:30:48Z</time>
      </trkpt>
      <trkpt lat="39.16563563410957" lon="117.76274819938543">
        <ele>-4</ele>
        <time>2025-09-25T09:30:50Z</time>
      </trkpt>
      <trkpt lat="39.16570655381225" lon="117.76269212100303">
        <ele>-4</ele>
        <time>2025-09-25T09:30:52Z</time>
      </trkpt>
      <trkpt lat="39.16577647693879" lon="117.76264004783201">
        <ele>-4</ele>
        <time>2025-09-25T09:30:54Z</time>
      </trkpt>
      <trkpt lat="39.16584640151861" lon="117.76258997725138">
        <ele>-4.1</ele>
        <time>2025-09-25T09:30:56Z</time>
      </trkpt>
      <trkpt lat="39.1659153315155" lon="117.7625469155256">
        <ele>-4.1</ele>
        <time>2025-09-25T09:30:58Z</time>
      </trkpt>
      <trkpt lat="39.16598725980223" lon="117.76250385350424">
        <ele>-4.2</ele>
        <time>2025-09-25T09:31:00Z</time>
      </trkpt>
      <trkpt lat="39.16606418384747" lon="117.76245878848027">
        <ele>-4.2</ele>
        <time>2025-09-25T09:31:02Z</time>
      </trkpt>
      <trkpt lat="39.16614210334433" lon="117.76240771607931">
        <ele>-4.2</ele>
        <time>2025-09-25T09:31:04Z</time>
      </trkpt>
      <trkpt lat="39.16621902419774" lon="117.76235764514827">
        <ele>-4.2</ele>
        <time>2025-09-25T09:31:06Z</time>
      </trkpt>
      <trkpt lat="39.16628995070016" lon="117.76231057875489">
        <ele>-4.2</ele>
        <time>2025-09-25T09:31:08Z</time>
      </trkpt>
      <trkpt lat="39.16636187869002" lon="117.76226651598897">
        <ele>-4.2</ele>
        <time>2025-09-25T09:31:10Z</time>
      </trkpt>
      <trkpt lat="39.166434805493225" lon="117.7622214519709">
        <ele>-4.2</ele>
        <time>2025-09-25T09:31:12Z</time>
      </trkpt>
      <trkpt lat="39.16650873376835" lon="117.76217939155956">
        <ele>-4.2</ele>
        <time>2025-09-25T09:31:14Z</time>
      </trkpt>
      <trkpt lat="39.16658166203842" lon="117.76213633014652">
        <ele>-4.1</ele>
        <time>2025-09-25T09:31:16Z</time>
      </trkpt>
      <trkpt lat="39.16665259222098" lon="117.76209427028347">
        <ele>-4.1</ele>
        <time>2025-09-25T09:31:18Z</time>
      </trkpt>
      <trkpt lat="39.166722523060265" lon="117.76205221063002">
        <ele>-4.1</ele>
        <time>2025-09-25T09:31:20Z</time>
      </trkpt>
      <trkpt lat="39.16678945574046" lon="117.76201015144063">
        <ele>-4.1</ele>
        <time>2025-09-25T09:31:22Z</time>
      </trkpt>
      <trkpt lat="39.166853391573426" lon="117.76197009512221">
        <ele>-4.1</ele>
        <time>2025-09-25T09:31:24Z</time>
      </trkpt>
      <trkpt lat="39.166915331267916" lon="117.76193404393976">
        <ele>-4.2</ele>
        <time>2025-09-25T09:31:26Z</time>
      </trkpt>
      <trkpt lat="39.166976276177586" lon="117.76190500134693">
        <ele>-4.2</ele>
        <time>2025-09-25T09:31:28Z</time>
      </trkpt>
      <trkpt lat="39.16703522230267" lon="117.76187595904784">
        <ele>-4.2</ele>
        <time>2025-09-25T09:31:30Z</time>
      </trkpt>
      <trkpt lat="39.16709017082706" lon="117.76184691729702">
        <ele>-4.2</ele>
        <time>2025-09-25T09:31:32Z</time>
      </trkpt>
      <trkpt lat="39.16714511873187" lon="117.76181687438921">
        <ele>-4.2</ele>
        <time>2025-09-25T09:31:34Z</time>
      </trkpt>
      <trkpt lat="39.16720306879218" lon="117.76179283831203">
        <ele>-4.2</ele>
        <time>2025-09-25T09:31:36Z</time>
      </trkpt>
      <trkpt lat="39.16726401709854" lon="117.76176880188007">
        <ele>-4.2</ele>
        <time>2025-09-25T09:31:38Z</time>
      </trkpt>
      <trkpt lat="39.1673289637074" lon="117.76174576615907">
        <ele>-4.2</ele>
        <time>2025-09-25T09:31:40Z</time>
      </trkpt>
      <trkpt lat="39.167397906027496" lon="117.76171972637839">
        <ele>-4.2</ele>
        <time>2025-09-25T09:31:42Z</time>
      </trkpt>
      <trkpt lat="39.167469844013176" lon="117.76168968148582">
        <ele>-4.2</ele>
        <time>2025-09-25T09:31:44Z</time>
      </trkpt>
      <trkpt lat="39.16754177558398" lon="117.76164962474827">
        <ele>-4</ele>
        <time>2025-09-25T09:31:46Z</time>
      </trkpt>
      <trkpt lat="39.16761270523267" lon="117.76160556346689">
        <ele>-4</ele>
        <time>2025-09-25T09:31:48Z</time>
      </trkpt>
      <trkpt lat="39.167685631844144" lon="117.76155849846894">
        <ele>-4</ele>
        <time>2025-09-25T09:31:50Z</time>
      </trkpt>
      <trkpt lat="39.16776055863266" lon="117.76151343568418">
        <ele>-4.2</ele>
        <time>2025-09-25T09:31:52Z</time>
      </trkpt>
      <trkpt lat="39.167835484219054" lon="117.76146637063452">
        <ele>-4.2</ele>
        <time>2025-09-25T09:31:54Z</time>
      </trkpt>
      <trkpt lat="39.16790641225306" lon="117.76141930619747">
        <ele>-4.2</ele>
        <time>2025-09-25T09:31:56Z</time>
      </trkpt>
      <trkpt lat="39.167976339055" lon="117.76136923846515">
        <ele>-4.2</ele>
        <time>2025-09-25T09:31:58Z</time>
      </trkpt>
      <trkpt lat="39.16804426649827" lon="117.76131816993176">
        <ele>-4.2</ele>
        <time>2025-09-25T09:32:00Z</time>
      </trkpt>
      <trkpt lat="39.168112192142914" lon="117.76126409800916">
        <ele>-4.3</ele>
        <time>2025-09-25T09:32:02Z</time>
      </trkpt>
      <trkpt lat="39.168177117780935" lon="117.76120702310202">
        <ele>-4.3</ele>
        <time>2025-09-25T09:32:04Z</time>
      </trkpt>
      <trkpt lat="39.168244039845995" lon="117.7611459434334">
        <ele>-4.3</ele>
        <time>2025-09-25T09:32:06Z</time>
      </trkpt>
      <trkpt lat="39.16830896197944" lon="117.76108286187052">
        <ele>-4.3</ele>
        <time>2025-09-25T09:32:08Z</time>
      </trkpt>
      <trkpt lat="39.16837288360321" lon="117.761017778304">
        <ele>-4.3</ele>
        <time>2025-09-25T09:32:10Z</time>
      </trkpt>
      <trkpt lat="39.16843380591409" lon="117.7609506930068">
        <ele>-4.2</ele>
        <time>2025-09-25T09:32:12Z</time>
      </trkpt>
      <trkpt lat="39.16849172892629" lon="117.76088160599801">
        <ele>-4.2</ele>
        <time>2025-09-25T09:32:14Z</time>
      </trkpt>
      <trkpt lat="39.168547652677944" lon="117.76081151831906">
        <ele>-4.3</ele>
        <time>2025-09-25T09:32:16Z</time>
      </trkpt>
      <trkpt lat="39.168599578359235" lon="117.7607404302345">
        <ele>-4.3</ele>
        <time>2025-09-25T09:32:18Z</time>
      </trkpt>
      <trkpt lat="39.16865050542318" lon="117.76067034365757">
        <ele>-4.3</ele>
        <time>2025-09-25T09:32:20Z</time>
      </trkpt>
      <trkpt lat="39.1687044308896" lon="117.76060025693022">
        <ele>-4.2</ele>
        <time>2025-09-25T09:32:22Z</time>
      </trkpt>
      <trkpt lat="39.16875935473181" lon="117.76052816803555">
        <ele>-4.2</ele>
        <time>2025-09-25T09:32:24Z</time>
      </trkpt>
      <trkpt lat="39.16881627517004" lon="117.76045207460244">
        <ele>-4.3</ele>
        <time>2025-09-25T09:32:26Z</time>
      </trkpt>
      <trkpt lat="39.16886719936423" lon="117.76037598220606">
        <ele>-4.3</ele>
        <time>2025-09-25T09:32:28Z</time>
      </trkpt>
      <trkpt lat="39.168913129109484" lon="117.7603038952195">
        <ele>-4.3</ele>
        <time>2025-09-25T09:32:30Z</time>
      </trkpt>
      <trkpt lat="39.16895406437461" lon="117.76023581360192">
        <ele>-4.5</ele>
        <time>2025-09-25T09:32:32Z</time>
      </trkpt>
      <trkpt lat="39.168997003359905" lon="117.76017574089992">
        <ele>-4.5</ele>
        <time>2025-09-25T09:32:34Z</time>
      </trkpt>
      <trkpt lat="39.169042950145894" lon="117.76013168585236">
        <ele>-4.6</ele>
        <time>2025-09-25T09:32:36Z</time>
      </trkpt>
      <trkpt lat="39.16909290524491" lon="117.76010565046334">
        <ele>-4.6</ele>
        <time>2025-09-25T09:32:38Z</time>
      </trkpt>
      <trkpt lat="39.16914686683894" lon="117.7600946313204">
        <ele>-4.6</ele>
        <time>2025-09-25T09:32:40Z</time>
      </trkpt>
      <trkpt lat="39.16920282902295" lon="117.76008661527298">
        <ele>-4.5</ele>
        <time>2025-09-25T09:32:42Z</time>
      </trkpt>
      <trkpt lat="39.16925979061948" lon="117.76007859910129">
        <ele>-4.5</ele>
        <time>2025-09-25T09:32:44Z</time>
      </trkpt>
      <trkpt lat="39.1693117545867" lon="117.76006958245489">
        <ele>-4.8</ele>
        <time>2025-09-25T09:32:46Z</time>
      </trkpt>
      <trkpt lat="39.16936271914902" lon="117.76006056593955">
        <ele>-4.8</ele>
        <time>2025-09-25T09:32:48Z</time>
      </trkpt>
      <trkpt lat="39.169409694310446" lon="117.76006556552655">
        <ele>-4.8</ele>
        <time>2025-09-25T09:32:50Z</time>
      </trkpt>
      <trkpt lat="39.16945468360828" lon="117.76009258989089">
        <ele>-4.7</ele>
        <time>2025-09-25T09:32:52Z</time>
      </trkpt>
      <trkpt lat="39.16949669065242" lon="117.76014664483237">
        <ele>-4.7</ele>
        <time>2025-09-25T09:32:54Z</time>
      </trkpt>
      <trkpt lat="39.16953970254976" lon="117.76020970986917">
        <ele>-4.7</ele>
        <time>2025-09-25T09:32:56Z</time>
      </trkpt>
      <trkpt lat="39.1695857128175" lon="117.76027277471236">
        <ele>-4.7</ele>
        <time>2025-09-25T09:32:58Z</time>
      </trkpt>
      <trkpt lat="39.16962972441044" lon="117.76033583999818">
        <ele>-4.7</ele>
        <time>2025-09-25T09:33:00Z</time>
      </trkpt>
      <trkpt lat="39.169672736737496" lon="117.76039890559927">
        <ele>-4.7</ele>
        <time>2025-09-25T09:33:02Z</time>
      </trkpt>
      <trkpt lat="39.16971574920765" lon="117.76046197138834">
        <ele>-4.7</ele>
        <time>2025-09-25T09:33:04Z</time>
      </trkpt>
      <trkpt lat="39.16976076063906" lon="117.7605250371107">
        <ele>-4.7</ele>
        <time>2025-09-25T09:33:06Z</time>
      </trkpt>
      <trkpt lat="39.169806771622646" lon="117.76058810289359">
        <ele>-4.7</ele>
        <time>2025-09-25T09:33:08Z</time>
      </trkpt>
      <trkpt lat="39.16985278457689" lon="117.7606541722891">
        <ele>-4.7</ele>
        <time>2025-09-25T09:33:10Z</time>
      </trkpt>
      <trkpt lat="39.1698967988696" lon="117.76072024214501">
        <ele>-4.7</ele>
        <time>2025-09-25T09:33:12Z</time>
      </trkpt>
      <trkpt lat="39.16993781754764" lon="117.7607903171807">
        <ele>-4.7</ele>
        <time>2025-09-25T09:33:14Z</time>
      </trkpt>
      <trkpt lat="39.16997883701827" lon="117.76086139359924">
        <ele>-4.8</ele>
        <time>2025-09-25T09:33:16Z</time>
      </trkpt>
      <trkpt lat="39.17002085669823" lon="117.76093347128331">
        <ele>-4.8</ele>
        <time>2025-09-25T09:33:18Z</time>
      </trkpt>
      <trkpt lat="39.17006287656412" lon="117.76100554921196">
        <ele>-4.8</ele>
        <time>2025-09-25T09:33:20Z</time>
      </trkpt>
      <trkpt lat="39.17010389658222" lon="117.76107662635066">
        <ele>-4.8</ele>
        <time>2025-09-25T09:33:22Z</time>
      </trkpt>
      <trkpt lat="39.17014291796238" lon="117.76114770398144">
        <ele>-4.8</ele>
        <time>2025-09-25T09:33:24Z</time>
      </trkpt>
      <trkpt lat="39.17018193889359" lon="117.7612177806814">
        <ele>-4.8</ele>
        <time>2025-09-25T09:33:26Z</time>
      </trkpt>
      <trkpt lat="39.17021696425868" lon="117.76129086163598">
        <ele>-4.8</ele>
        <time>2025-09-25T09:33:28Z</time>
      </trkpt>
      <trkpt lat="39.17025199108341" lon="117.76136594519168">
        <ele>-4.8</ele>
        <time>2025-09-25T09:33:30Z</time>
      </trkpt>
      <trkpt lat="39.17028701810897" lon="117.76144102901192">
        <ele>-4.8</ele>
        <time>2025-09-25T09:33:32Z</time>
      </trkpt>
      <trkpt lat="39.17032404287405" lon="117.7615141104776">
        <ele>-4.8</ele>
        <time>2025-09-25T09:33:34Z</time>
      </trkpt>
      <trkpt lat="39.17036006713496" lon="117.76158518994978">
        <ele>-4.8</ele>
        <time>2025-09-25T09:33:36Z</time>
      </trkpt>
      <trkpt lat="39.17039609157565" lon="117.76165626965867">
        <ele>-4.8</ele>
        <time>2025-09-25T09:33:38Z</time>
      </trkpt>
      <trkpt lat="39.17042711526474" lon="117.76172134308817">
        <ele>-4.8</ele>
        <time>2025-09-25T09:33:40Z</time>
      </trkpt>
      <trkpt lat="39.17047715194213" lon="117.76182345854322">
        <ele>-5</ele>
        <time>2025-09-25T09:34:08Z</time>
      </trkpt>
      <trkpt lat="39.17050317505195" lon="117.76188252592048">
        <ele>-5</ele>
        <time>2025-09-25T09:34:10Z</time>
      </trkpt>
      <trkpt lat="39.17052920156143" lon="117.76194659947245">
        <ele>-5</ele>
        <time>2025-09-25T09:34:12Z</time>
      </trkpt>
      <trkpt lat="39.1705562302563" lon="117.76201467791114">
        <ele>-5</ele>
        <time>2025-09-25T09:34:14Z</time>
      </trkpt>
      <trkpt lat="39.170586257343736" lon="117.76208275618451">
        <ele>-5</ele>
        <time>2025-09-25T09:34:16Z</time>
      </trkpt>
      <trkpt lat="39.17061528518589" lon="117.76215083480147">
        <ele>-4.9</ele>
        <time>2025-09-25T09:34:18Z</time>
      </trkpt>
      <trkpt lat="39.17064331511248" lon="117.76222091619233">
        <ele>-4.9</ele>
        <time>2025-09-25T09:34:20Z</time>
      </trkpt>
      <trkpt lat="39.17066734890977" lon="117.76229300075832">
        <ele>-4.9</ele>
        <time>2025-09-25T09:34:22Z</time>
      </trkpt>
      <trkpt lat="39.170691382220596" lon="117.76236408434445">
        <ele>-4.9</ele>
        <time>2025-09-25T09:34:24Z</time>
      </trkpt>
      <trkpt lat="39.170718411920944" lon="117.76243216410867">
        <ele>-4.9</ele>
        <time>2025-09-25T09:34:26Z</time>
      </trkpt>
      <trkpt lat="39.17074844203821" lon="117.76250324739198">
        <ele>-4.8</ele>
        <time>2025-09-25T09:34:28Z</time>
      </trkpt>
      <trkpt lat="39.17077847639914" lon="117.76258033830162">
        <ele>-4.8</ele>
        <time>2025-09-25T09:34:30Z</time>
      </trkpt>
      <trkpt lat="39.17080851369144" lon="117.76266143443037">
        <ele>-4.9</ele>
        <time>2025-09-25T09:34:32Z</time>
      </trkpt>
      <trkpt lat="39.17083755112258" lon="117.7627415297524">
        <ele>-4.9</ele>
        <time>2025-09-25T09:34:34Z</time>
      </trkpt>
      <trkpt lat="39.170867585444874" lon="117.76281762027257">
        <ele>-4.9</ele>
        <time>2025-09-25T09:34:36Z</time>
      </trkpt>
      <trkpt lat="39.170897617216525" lon="117.76288970607547">
        <ele>-5</ele>
        <time>2025-09-25T09:34:38Z</time>
      </trkpt>
      <trkpt lat="39.17092564896974" lon="117.76295978987451">
        <ele>-5</ele>
        <time>2025-09-25T09:34:40Z</time>
      </trkpt>
      <trkpt lat="39.17095567763466" lon="117.7630268698883">
        <ele>-5</ele>
        <time>2025-09-25T09:34:42Z</time>
      </trkpt>
      <trkpt lat="39.170990693769305" lon="117.76307993189673">
        <ele>-5</ele>
        <time>2025-09-25T09:34:44Z</time>
      </trkpt>
      <trkpt lat="39.17103568737963" lon="117.76310896259226">
        <ele>-5</ele>
        <time>2025-09-25T09:34:46Z</time>
      </trkpt>
      <trkpt lat="39.171082661026304" lon="117.76311095912557">
        <ele>-4.7</ele>
        <time>2025-09-25T09:34:48Z</time>
      </trkpt>
      <trkpt lat="39.17112462440057" lon="117.7630939324252">
        <ele>-4.7</ele>
        <time>2025-09-25T09:34:50Z</time>
      </trkpt>
      <trkpt lat="39.17116958045501" lon="117.76306889531732">
        <ele>-4.4</ele>
        <time>2025-09-25T09:34:54Z</time>
      </trkpt>
      <trkpt lat="39.171217531292086" lon="117.7630388515895">
        <ele>-3.7</ele>
        <time>2025-09-25T09:34:58Z</time>
      </trkpt>
      <trkpt lat="39.171265480083754" lon="117.76300580414781">
        <ele>-3.7</ele>
        <time>2025-09-25T09:35:00Z</time>
      </trkpt>
      <trkpt lat="39.171306432354875" lon="117.76297175639706">
        <ele>-3.2</ele>
        <time>2025-09-25T09:35:02Z</time>
      </trkpt>
      <trkpt lat="39.17135439572957" lon="117.7629597352905">
        <ele>-3.2</ele>
        <time>2025-09-25T09:35:04Z</time>
      </trkpt>
      <trkpt lat="39.17140438073845" lon="117.76298075518172">
        <ele>-3.2</ele>
        <time>2025-09-25T09:35:06Z</time>
      </trkpt>
      <trkpt lat="39.171448395644795" lon="117.7630398234515">
        <ele>-3</ele>
        <time>2025-09-25T09:35:08Z</time>
      </trkpt>
      <trkpt lat="39.17148242562552" lon="117.76311190948876">
        <ele>-3</ele>
        <time>2025-09-25T09:35:10Z</time>
      </trkpt>
      <trkpt lat="39.17151046002866" lon="117.7631849977901">
        <ele>-3.4</ele>
        <time>2025-09-25T09:35:12Z</time>
      </trkpt>
      <trkpt lat="39.17154049133472" lon="117.76325508229394">
        <ele>-3.4</ele>
        <time>2025-09-25T09:35:14Z</time>
      </trkpt>
      <trkpt lat="39.17157751375636" lon="117.7633181572693">
        <ele>-3.4</ele>
        <time>2025-09-25T09:35:16Z</time>
      </trkpt>
      <trkpt lat="39.17162451560285" lon="117.76336020451359">
        <ele>-3.3</ele>
        <time>2025-09-25T09:35:18Z</time>
      </trkpt>
      <trkpt lat="39.17168148690429" lon="117.76336720614002">
        <ele>-3.3</ele>
        <time>2025-09-25T09:35:20Z</time>
      </trkpt>
      <trkpt lat="39.17173943646808" lon="117.76334416959638">
        <ele>-3.3</ele>
        <time>2025-09-25T09:35:22Z</time>
      </trkpt>
      <trkpt lat="39.171793376454296" lon="117.7633041120638">
        <ele>-3.3</ele>
        <time>2025-09-25T09:35:24Z</time>
      </trkpt>
      <trkpt lat="39.17184631357989" lon="117.76325904841424">
        <ele>-3.3</ele>
        <time>2025-09-25T09:35:26Z</time>
      </trkpt>
      <trkpt lat="39.17190025018778" lon="117.7632139847312">
        <ele>-3.4</ele>
        <time>2025-09-25T09:35:28Z</time>
      </trkpt>
      <trkpt lat="39.17195819079483" lon="117.76317793196918">
        <ele>-3.4</ele>
        <time>2025-09-25T09:35:30Z</time>
      </trkpt>
      <trkpt lat="39.17201813445405" lon="117.76314788656225">
        <ele>-3.4</ele>
        <time>2025-09-25T09:35:32Z</time>
      </trkpt>
      <trkpt lat="39.17207507782662" lon="117.7631148378079">
        <ele>-3.4</ele>
        <time>2025-09-25T09:35:34Z</time>
      </trkpt>
      <trkpt lat="39.172123043245044" lon="117.76310582039056">
        <ele>-3.4</ele>
        <time>2025-09-25T09:35:36Z</time>
      </trkpt>
      <trkpt lat="39.17216303497369" lon="117.76312784295413">
        <ele>-3.3</ele>
        <time>2025-09-25T09:35:38Z</time>
      </trkpt>
      <trkpt lat="39.17220603611797" lon="117.76316588530024">
        <ele>-3.3</ele>
        <time>2025-09-25T09:35:40Z</time>
      </trkpt>
      <trkpt lat="39.172254011995925" lon="117.76317188674906">
        <ele>-3.4</ele>
        <time>2025-09-25T09:35:42Z</time>
      </trkpt>
      <trkpt lat="39.172297967198354" lon="117.76314484716063">
        <ele>-3.4</ele>
        <time>2025-09-25T09:35:44Z</time>
      </trkpt>
      <trkpt lat="39.17230791186552" lon="117.76307375666866">
        <ele>-3.9</ele>
        <time>2025-09-25T09:36:52Z</time>
      </trkpt>
    </trkseg>
  </trk>
</gpx>