<?xml version="1.0" encoding="UTF-8"?>
<gpx xmlns="http://www.topografix.com/GPX/1/1" xmlns:gpxtpx="http://www.garmin.com/xmlschemas/TrackPointExtension/v1" xmlns:xsi="http://www.w3.org/2001/XMLSchema-instance" xsi:schemaLocation="http://www.topografix.com/GPX/1/1 http://www.topografix.com/GPX/1/1/gpx.xsd" version="1.1" creator="gpx.py -- https://github.com/tkrajina/gpxpy">
  <trk>
    <name>gpx from codoon</name>
    <type>Run</type>
    <trkseg>
      <trkpt lat="39.17196221851034" lon="117.7632209856739">
        <ele>0.8</ele>
        <time>2025-09-26T09:12:19Z</time>
      </trkpt>
      <trkpt lat="39.171921271435664" lon="117.76326204266248">
        <ele>1</ele>
        <time>2025-09-26T09:12:20Z</time>
      </trkpt>
      <trkpt lat="39.17181036290891" lon="117.7632991035733">
        <ele>1</ele>
        <time>2025-09-26T09:12:21Z</time>
      </trkpt>
      <trkpt lat="39.17172142737684" lon="117.7633161364154">
        <ele>1</ele>
        <time>2025-09-26T09:12:24Z</time>
      </trkpt>
      <trkpt lat="39.17158051480063" lon="117.76332216195306">
        <ele>0.6</ele>
        <time>2025-09-26T09:12:26Z</time>
      </trkpt>
      <trkpt lat="39.171506536671714" lon="117.76329113213042">
        <ele>0.6</ele>
        <time>2025-09-26T09:12:28Z</time>
      </trkpt>
      <trkpt lat="39.17146850789854" lon="117.76321804474254">
        <ele>0.9</ele>
        <time>2025-09-26T09:12:30Z</time>
      </trkpt>
      <trkpt lat="39.17142247148499" lon="117.76312693597879">
        <ele>0.9</ele>
        <time>2025-09-26T09:12:32Z</time>
      </trkpt>
      <trkpt lat="39.17137644299589" lon="117.76304684138722">
        <ele>0.9</ele>
        <time>2025-09-26T09:12:34Z</time>
      </trkpt>
      <trkpt lat="39.17132344377225" lon="117.76300279301299">
        <ele>0.8</ele>
        <time>2025-09-26T09:12:36Z</time>
      </trkpt>
      <trkpt lat="39.17126147967453" lon="117.76300179964996">
        <ele>0.8</ele>
        <time>2025-09-26T09:12:38Z</time>
      </trkpt>
      <trkpt lat="39.17118954643232" lon="117.76303685264551">
        <ele>-0.1</ele>
        <time>2025-09-26T09:12:40Z</time>
      </trkpt>
      <trkpt lat="39.17111161608235" lon="117.7630709052064">
        <ele>-0.1</ele>
        <time>2025-09-26T09:12:42Z</time>
      </trkpt>
      <trkpt lat="39.171035660947574" lon="117.76307091487612">
        <ele>-0.1</ele>
        <time>2025-09-26T09:12:44Z</time>
      </trkpt>
      <trkpt lat="39.17097166194973" lon="117.76301785657957">
        <ele>-0.8</ele>
        <time>2025-09-26T09:12:46Z</time>
      </trkpt>
      <trkpt lat="39.17092362874615" lon="117.76292875141216">
        <ele>-0.8</ele>
        <time>2025-09-26T09:12:48Z</time>
      </trkpt>
      <trkpt lat="39.17088458295605" lon="117.7628286317859">
        <ele>-0.7</ele>
        <time>2025-09-26T09:12:50Z</time>
      </trkpt>
      <trkpt lat="39.17084653351442" lon="117.7627235063036">
        <ele>-0.7</ele>
        <time>2025-09-26T09:12:52Z</time>
      </trkpt>
      <trkpt lat="39.170809480477025" lon="117.762613375039">
        <ele>-0.7</ele>
        <time>2025-09-26T09:12:54Z</time>
      </trkpt>
      <trkpt lat="39.17077342795156" lon="117.7625042454394">
        <ele>-0.6</ele>
        <time>2025-09-26T09:12:56Z</time>
      </trkpt>
      <trkpt lat="39.170735377698236" lon="117.76239611787175">
        <ele>-0.6</ele>
        <time>2025-09-26T09:12:58Z</time>
      </trkpt>
      <trkpt lat="39.170694330296534" lon="117.7622889924486">
        <ele>-0.6</ele>
        <time>2025-09-26T09:13:00Z</time>
      </trkpt>
      <trkpt lat="39.17065028175449" lon="117.76217686187539">
        <ele>-0.6</ele>
        <time>2025-09-26T09:13:02Z</time>
      </trkpt>
      <trkpt lat="39.17060723042927" lon="117.76206072692986">
        <ele>-0.6</ele>
        <time>2025-09-26T09:13:04Z</time>
      </trkpt>
      <trkpt lat="39.17056218207311" lon="117.76194659527324">
        <ele>-0.1</ele>
        <time>2025-09-26T09:13:06Z</time>
      </trkpt>
      <trkpt lat="39.170516136071726" lon="117.76183446674679">
        <ele>-0.1</ele>
        <time>2025-09-26T09:13:08Z</time>
      </trkpt>
      <trkpt lat="39.170468093639684" lon="117.76172534263883">
        <ele>0</ele>
        <time>2025-09-26T09:13:10Z</time>
      </trkpt>
      <trkpt lat="39.17041905222121" lon="117.76161621921541">
        <ele>0</ele>
        <time>2025-09-26T09:13:12Z</time>
      </trkpt>
      <trkpt lat="39.170368013686776" lon="117.76150909896809">
        <ele>0</ele>
        <time>2025-09-26T09:13:14Z</time>
      </trkpt>
      <trkpt lat="39.17031697683267" lon="117.7614039816126">
        <ele>0</ele>
        <time>2025-09-26T09:13:16Z</time>
      </trkpt>
      <trkpt lat="39.17026494349221" lon="117.76130286959142">
        <ele>0</ele>
        <time>2025-09-26T09:13:18Z</time>
      </trkpt>
      <trkpt lat="39.17021091232655" lon="117.76120275947227">
        <ele>0</ele>
        <time>2025-09-26T09:13:20Z</time>
      </trkpt>
      <trkpt lat="39.17015388454146" lon="117.76110465253156">
        <ele>0</ele>
        <time>2025-09-26T09:13:22Z</time>
      </trkpt>
      <trkpt lat="39.17009585706931" lon="117.76100554501235">
        <ele>0</ele>
        <time>2025-09-26T09:13:24Z</time>
      </trkpt>
      <trkpt lat="39.170037829330276" lon="117.7609054368017">
        <ele>-0.3</ele>
        <time>2025-09-26T09:13:26Z</time>
      </trkpt>
      <trkpt lat="39.16997980194996" lon="117.76080532906295">
        <ele>-0.3</ele>
        <time>2025-09-26T09:13:28Z</time>
      </trkpt>
      <trkpt lat="39.16992177615087" lon="117.76070722408467">
        <ele>-0.1</ele>
        <time>2025-09-26T09:13:30Z</time>
      </trkpt>
      <trkpt lat="39.169862753110806" lon="117.76061212310643">
        <ele>-0.1</ele>
        <time>2025-09-26T09:13:32Z</time>
      </trkpt>
      <trkpt lat="39.169802732194995" lon="117.76051902495273">
        <ele>-0.1</ele>
        <time>2025-09-26T09:13:34Z</time>
      </trkpt>
      <trkpt lat="39.16974371220195" lon="117.7604279293429">
        <ele>0</ele>
        <time>2025-09-26T09:13:36Z</time>
      </trkpt>
      <trkpt lat="39.16968369309815" lon="117.76033683425237">
        <ele>0</ele>
        <time>2025-09-26T09:13:38Z</time>
      </trkpt>
      <trkpt lat="39.16962167666417" lon="117.76024774205356">
        <ele>-0.2</ele>
        <time>2025-09-26T09:13:40Z</time>
      </trkpt>
      <trkpt lat="39.1695616611089" lon="117.76016165333068">
        <ele>-0.2</ele>
        <time>2025-09-26T09:13:42Z</time>
      </trkpt>
      <trkpt lat="39.169507647573084" lon="117.76008457422591">
        <ele>-0.2</ele>
        <time>2025-09-26T09:13:44Z</time>
      </trkpt>
      <trkpt lat="39.169466632431124" lon="117.7600175048614">
        <ele>-0.3</ele>
        <time>2025-09-26T09:13:46Z</time>
      </trkpt>
      <trkpt lat="39.16943961794161" lon="117.75996545055955">
        <ele>-0.3</ele>
        <time>2025-09-26T09:13:48Z</time>
      </trkpt>
      <trkpt lat="39.1694116023927" lon="117.75991039319365">
        <ele>-0.5</ele>
        <time>2025-09-26T09:13:50Z</time>
      </trkpt>
      <trkpt lat="39.16937958989777" lon="117.75985633758445">
        <ele>-0.4</ele>
        <time>2025-09-26T09:13:56Z</time>
      </trkpt>
      <trkpt lat="39.169334579985005" lon="117.75979327385797">
        <ele>-0.4</ele>
        <time>2025-09-26T09:13:58Z</time>
      </trkpt>
      <trkpt lat="39.1692885719594" lon="117.75973221264343">
        <ele>-0.5</ele>
        <time>2025-09-26T09:14:00Z</time>
      </trkpt>
      <trkpt lat="39.1692375630071" lon="117.75966414457741">
        <ele>-0.5</ele>
        <time>2025-09-26T09:14:02Z</time>
      </trkpt>
      <trkpt lat="39.169183553710994" lon="117.75959207274732">
        <ele>-0.5</ele>
        <time>2025-09-26T09:14:04Z</time>
      </trkpt>
      <trkpt lat="39.16913154057837" lon="117.75951499547028">
        <ele>-0.3</ele>
        <time>2025-09-26T09:14:06Z</time>
      </trkpt>
      <trkpt lat="39.169081523085445" lon="117.7594319117176">
        <ele>-0.3</ele>
        <time>2025-09-26T09:14:08Z</time>
      </trkpt>
      <trkpt lat="39.169031503592926" lon="117.7593448239743">
        <ele>-0.3</ele>
        <time>2025-09-26T09:14:10Z</time>
      </trkpt>
      <trkpt lat="39.168978485030266" lon="117.75925573482286">
        <ele>-0.2</ele>
        <time>2025-09-26T09:14:12Z</time>
      </trkpt>
      <trkpt lat="39.168923468493254" lon="117.75916764737497">
        <ele>-0.2</ele>
        <time>2025-09-26T09:14:14Z</time>
      </trkpt>
      <trkpt lat="39.16886745338139" lon="117.75908056149095">
        <ele>-0.1</ele>
        <time>2025-09-26T09:14:16Z</time>
      </trkpt>
      <trkpt lat="39.16880944082632" lon="117.75899547834878">
        <ele>-0.1</ele>
        <time>2025-09-26T09:14:18Z</time>
      </trkpt>
      <trkpt lat="39.16875042912544" lon="117.75891039567911">
        <ele>-0.1</ele>
        <time>2025-09-26T09:14:20Z</time>
      </trkpt>
      <trkpt lat="39.16869241709627" lon="117.75882531322755">
        <ele>0.1</ele>
        <time>2025-09-26T09:14:22Z</time>
      </trkpt>
      <trkpt lat="39.168636403607145" lon="117.75873922981623">
        <ele>0.1</ele>
        <time>2025-09-26T09:14:24Z</time>
      </trkpt>
      <trkpt lat="39.16858139033327" lon="117.75865414767817">
        <ele>0.1</ele>
        <time>2025-09-26T09:14:26Z</time>
      </trkpt>
      <trkpt lat="39.16852537684577" lon="117.75856706392824">
        <ele>0.1</ele>
        <time>2025-09-26T09:14:28Z</time>
      </trkpt>
      <trkpt lat="39.1684693636342" lon="117.75847998054088">
        <ele>0.1</ele>
        <time>2025-09-26T09:14:30Z</time>
      </trkpt>
      <trkpt lat="39.16841235129015" lon="117.75839289764356">
        <ele>0.1</ele>
        <time>2025-09-26T09:14:32Z</time>
      </trkpt>
      <trkpt lat="39.168357337514806" lon="117.75830481382465">
        <ele>0.1</ele>
        <time>2025-09-26T09:14:34Z</time>
      </trkpt>
      <trkpt lat="39.16830232506502" lon="117.75821873242879">
        <ele>0.2</ele>
        <time>2025-09-26T09:14:36Z</time>
      </trkpt>
      <trkpt lat="39.16824631399528" lon="117.75813365253693">
        <ele>0.2</ele>
        <time>2025-09-26T09:14:38Z</time>
      </trkpt>
      <trkpt lat="39.168190303189675" lon="117.75804857299202">
        <ele>0.2</ele>
        <time>2025-09-26T09:14:40Z</time>
      </trkpt>
      <trkpt lat="39.16813529154459" lon="117.75796249265345">
        <ele>-0.4</ele>
        <time>2025-09-26T09:14:42Z</time>
      </trkpt>
      <trkpt lat="39.16808027915207" lon="117.75787441065174">
        <ele>-0.4</ele>
        <time>2025-09-26T09:14:44Z</time>
      </trkpt>
      <trkpt lat="39.16802426915197" lon="117.75778933216513">
        <ele>-0.2</ele>
        <time>2025-09-26T09:14:46Z</time>
      </trkpt>
      <trkpt lat="39.16796925932767" lon="117.7577052549">
        <ele>-0.2</ele>
        <time>2025-09-26T09:14:48Z</time>
      </trkpt>
      <trkpt lat="39.16791524817088" lon="117.75761917585314">
        <ele>-0.2</ele>
        <time>2025-09-26T09:14:50Z</time>
      </trkpt>
      <trkpt lat="39.167861237781686" lon="117.75753409815539">
        <ele>-0.1</ele>
        <time>2025-09-26T09:14:52Z</time>
      </trkpt>
      <trkpt lat="39.16780622824912" lon="117.75744902093307">
        <ele>-0.1</ele>
        <time>2025-09-26T09:14:54Z</time>
      </trkpt>
      <trkpt lat="39.167747222819784" lon="117.75736694752261">
        <ele>-0.1</ele>
        <time>2025-09-26T09:14:56Z</time>
      </trkpt>
      <trkpt lat="39.167690214017206" lon="117.75727986927795">
        <ele>-0.1</ele>
        <time>2025-09-26T09:14:58Z</time>
      </trkpt>
      <trkpt lat="39.16763320452453" lon="117.75719078944564">
        <ele>-0.1</ele>
        <time>2025-09-26T09:15:00Z</time>
      </trkpt>
      <trkpt lat="39.16757819365853" lon="117.75710070876909">
        <ele>0</ele>
        <time>2025-09-26T09:15:02Z</time>
      </trkpt>
      <trkpt lat="39.167521185706285" lon="117.75701363164161">
        <ele>0</ele>
        <time>2025-09-26T09:15:04Z</time>
      </trkpt>
      <trkpt lat="39.16746317720138" lon="117.75692355211653">
        <ele>0</ele>
        <time>2025-09-26T09:15:06Z</time>
      </trkpt>
      <trkpt lat="39.16740616840265" lon="117.75683347285573">
        <ele>0</ele>
        <time>2025-09-26T09:15:08Z</time>
      </trkpt>
      <trkpt lat="39.16735015931018" lon="117.7567433938594">
        <ele>0</ele>
        <time>2025-09-26T09:15:10Z</time>
      </trkpt>
      <trkpt lat="39.16729515085283" lon="117.75665531702865">
        <ele>0.1</ele>
        <time>2025-09-26T09:15:12Z</time>
      </trkpt>
      <trkpt lat="39.16724114208881" lon="117.75656724044548">
        <ele>0.1</ele>
        <time>2025-09-26T09:15:14Z</time>
      </trkpt>
      <trkpt lat="39.167189132426245" lon="117.75647916398276">
        <ele>0.2</ele>
        <time>2025-09-26T09:15:16Z</time>
      </trkpt>
      <trkpt lat="39.1671391214104" lon="117.75639008670296">
        <ele>0.2</ele>
        <time>2025-09-26T09:15:18Z</time>
      </trkpt>
      <trkpt lat="39.16708811172995" lon="117.75630201086783">
        <ele>0.2</ele>
        <time>2025-09-26T09:15:20Z</time>
      </trkpt>
      <trkpt lat="39.16703810308798" lon="117.75621693806859">
        <ele>-0.1</ele>
        <time>2025-09-26T09:15:22Z</time>
      </trkpt>
      <trkpt lat="39.16698210405587" lon="117.75614487841497">
        <ele>-0.1</ele>
        <time>2025-09-26T09:15:24Z</time>
      </trkpt>
      <trkpt lat="39.16692212311333" lon="117.75610785183241">
        <ele>-0.1</ele>
        <time>2025-09-26T09:15:26Z</time>
      </trkpt>
      <trkpt lat="39.16685616663583" lon="117.75611786947724">
        <ele>-0.1</ele>
        <time>2025-09-26T09:15:28Z</time>
      </trkpt>
      <trkpt lat="39.166796223104086" lon="117.75616492062">
        <ele>-0.1</ele>
        <time>2025-09-26T09:15:30Z</time>
      </trkpt>
      <trkpt lat="39.166736280999714" lon="117.7562149746572">
        <ele>-0.3</ele>
        <time>2025-09-26T09:15:32Z</time>
      </trkpt>
      <trkpt lat="39.16667832117538" lon="117.75622799412453">
        <ele>-0.3</ele>
        <time>2025-09-26T09:15:34Z</time>
      </trkpt>
      <trkpt lat="39.166621339693215" lon="117.7561939697953">
        <ele>-0.5</ele>
        <time>2025-09-26T09:15:36Z</time>
      </trkpt>
      <trkpt lat="39.16656334903843" lon="117.75613792527787">
        <ele>-0.5</ele>
        <time>2025-09-26T09:15:38Z</time>
      </trkpt>
      <trkpt lat="39.16650437418891" lon="117.75611591244086">
        <ele>-0.5</ele>
        <time>2025-09-26T09:15:40Z</time>
      </trkpt>
      <trkpt lat="39.166444424416945" lon="117.75614895061027">
        <ele>-0.3</ele>
        <time>2025-09-26T09:15:42Z</time>
      </trkpt>
      <trkpt lat="39.16638249468012" lon="117.75622402808825">
        <ele>-0.3</ele>
        <time>2025-09-26T09:15:44Z</time>
      </trkpt>
      <trkpt lat="39.166319568904406" lon="117.75630611250024">
        <ele>-0.3</ele>
        <time>2025-09-26T09:15:46Z</time>
      </trkpt>
      <trkpt lat="39.166252642110884" lon="117.7563801902483">
        <ele>-0.3</ele>
        <time>2025-09-26T09:15:48Z</time>
      </trkpt>
      <trkpt lat="39.166183714420264" lon="117.75644926381297">
        <ele>-0.3</ele>
        <time>2025-09-26T09:15:50Z</time>
      </trkpt>
      <trkpt lat="39.166116784802895" lon="117.75651633546593">
        <ele>-0.2</ele>
        <time>2025-09-26T09:15:52Z</time>
      </trkpt>
      <trkpt lat="39.16604885640636" lon="117.7565844084105">
        <ele>-0.2</ele>
        <time>2025-09-26T09:15:54Z</time>
      </trkpt>
      <trkpt lat="39.16598092725283" lon="117.7566504796782">
        <ele>-0.1</ele>
        <time>2025-09-26T09:15:56Z</time>
      </trkpt>
      <trkpt lat="39.165912000253634" lon="117.75671955414444">
        <ele>-0.1</ele>
        <time>2025-09-26T09:15:58Z</time>
      </trkpt>
      <trkpt lat="39.165843072961664" lon="117.75678762788398">
        <ele>-0.1</ele>
        <time>2025-09-26T09:16:00Z</time>
      </trkpt>
      <trkpt lat="39.16577414489768" lon="117.75685369992676">
        <ele>-0.1</ele>
        <time>2025-09-26T09:16:02Z</time>
      </trkpt>
      <trkpt lat="39.165703215810304" lon="117.75691476761891">
        <ele>-0.1</ele>
        <time>2025-09-26T09:16:04Z</time>
      </trkpt>
      <trkpt lat="39.16563128697775" lon="117.7569748346521">
        <ele>0</ele>
        <time>2025-09-26T09:16:06Z</time>
      </trkpt>
      <trkpt lat="39.16555835887176" lon="117.75703490198636">
        <ele>0</ele>
        <time>2025-09-26T09:16:08Z</time>
      </trkpt>
      <trkpt lat="39.16548543138027" lon="117.75709597046612">
        <ele>0</ele>
        <time>2025-09-26T09:16:10Z</time>
      </trkpt>
      <trkpt lat="39.16541250209628" lon="117.75715303522698">
        <ele>0.1</ele>
        <time>2025-09-26T09:16:12Z</time>
      </trkpt>
      <trkpt lat="39.165342572124686" lon="117.75721210171729">
        <ele>0.1</ele>
        <time>2025-09-26T09:16:14Z</time>
      </trkpt>
      <trkpt lat="39.16527264179546" lon="117.75727016739525">
        <ele>0.1</ele>
        <time>2025-09-26T09:16:16Z</time>
      </trkpt>
      <trkpt lat="39.165202711102204" lon="117.75732723225244">
        <ele>0.4</ele>
        <time>2025-09-26T09:16:18Z</time>
      </trkpt>
      <trkpt lat="39.16513078122423" lon="117.75738329653511">
        <ele>0.4</ele>
        <time>2025-09-26T09:16:20Z</time>
      </trkpt>
      <trkpt lat="39.165059849884" lon="117.75743735886506">
        <ele>0.3</ele>
        <time>2025-09-26T09:16:22Z</time>
      </trkpt>
      <trkpt lat="39.164990917961624" lon="117.75749242207168">
        <ele>0.3</ele>
        <time>2025-09-26T09:16:24Z</time>
      </trkpt>
      <trkpt lat="39.164930975847135" lon="117.75753747434577">
        <ele>0.3</ele>
        <time>2025-09-26T09:16:26Z</time>
      </trkpt>
      <trkpt lat="39.16488601993315" lon="117.75757251485865">
        <ele>0.1</ele>
        <time>2025-09-26T09:16:28Z</time>
      </trkpt>
      <trkpt lat="39.164853051959255" lon="117.7575975439416">
        <ele>0.1</ele>
        <time>2025-09-26T09:16:30Z</time>
      </trkpt>
      <trkpt lat="39.164823082229816" lon="117.75762257267279">
        <ele>0.1</ele>
        <time>2025-09-26T09:16:32Z</time>
      </trkpt>
      <trkpt lat="39.16478312195866" lon="117.7576546096962">
        <ele>0.1</ele>
        <time>2025-09-26T09:16:34Z</time>
      </trkpt>
      <trkpt lat="39.164730173452064" lon="117.75769465642658">
        <ele>0.1</ele>
        <time>2025-09-26T09:16:36Z</time>
      </trkpt>
      <trkpt lat="39.16466623203173" lon="117.75773570563648">
        <ele>0.1</ele>
        <time>2025-09-26T09:16:38Z</time>
      </trkpt>
      <trkpt lat="39.164595293814784" lon="117.75777475380913">
        <ele>0.1</ele>
        <time>2025-09-26T09:16:40Z</time>
      </trkpt>
      <trkpt lat="39.16452335675515" lon="117.75781480318845">
        <ele>0.1</ele>
        <time>2025-09-26T09:16:42Z</time>
      </trkpt>
      <trkpt lat="39.164450422890624" lon="117.75785985781386">
        <ele>0.1</ele>
        <time>2025-09-26T09:16:44Z</time>
      </trkpt>
      <trkpt lat="39.164377489612114" lon="117.7579059135472">
        <ele>0.1</ele>
        <time>2025-09-26T09:16:46Z</time>
      </trkpt>
      <trkpt lat="39.164304555901104" lon="117.75795096836923">
        <ele>0</ele>
        <time>2025-09-26T09:16:48Z</time>
      </trkpt>
      <trkpt lat="39.16423262064617" lon="117.7579940211312">
        <ele>0</ele>
        <time>2025-09-26T09:16:50Z</time>
      </trkpt>
      <trkpt lat="39.16415868613221" lon="117.75803607321944">
        <ele>-0.1</ele>
        <time>2025-09-26T09:16:52Z</time>
      </trkpt>
      <trkpt lat="39.164083751761574" lon="117.75807712450062">
        <ele>-0.1</ele>
        <time>2025-09-26T09:16:54Z</time>
      </trkpt>
      <trkpt lat="39.16400581871638" lon="117.75811717522332">
        <ele>-0.1</ele>
        <time>2025-09-26T09:16:56Z</time>
      </trkpt>
      <trkpt lat="39.163925888476285" lon="117.7581602293458">
        <ele>0</ele>
        <time>2025-09-26T09:16:58Z</time>
      </trkpt>
      <trkpt lat="39.16384595934791" lon="117.75820528560696">
        <ele>0</ele>
        <time>2025-09-26T09:17:00Z</time>
      </trkpt>
      <trkpt lat="39.16376603238647" lon="117.75825434607448">
        <ele>0</ele>
        <time>2025-09-26T09:17:02Z</time>
      </trkpt>
      <trkpt lat="39.1636891053085" lon="117.75830640936478">
        <ele>0</ele>
        <time>2025-09-26T09:17:04Z</time>
      </trkpt>
      <trkpt lat="39.16361117892461" lon="117.75835847291188">
        <ele>0</ele>
        <time>2025-09-26T09:17:06Z</time>
      </trkpt>
      <trkpt lat="39.16353425257641" lon="117.75841153749614">
        <ele>0</ele>
        <time>2025-09-26T09:17:08Z</time>
      </trkpt>
      <trkpt lat="39.163458325739136" lon="117.75846460208763">
        <ele>0</ele>
        <time>2025-09-26T09:17:10Z</time>
      </trkpt>
      <trkpt lat="39.16338439994867" lon="117.75852167071953">
        <ele>0.1</ele>
        <time>2025-09-26T09:17:12Z</time>
      </trkpt>
      <trkpt lat="39.163312474160364" lon="117.75858074133839">
        <ele>0.1</ele>
        <time>2025-09-26T09:17:14Z</time>
      </trkpt>
      <trkpt lat="39.16323855076112" lon="117.7586418144701">
        <ele>0.1</ele>
        <time>2025-09-26T09:17:16Z</time>
      </trkpt>
      <trkpt lat="39.16316462857715" lon="117.75870488987762">
        <ele>0.1</ele>
        <time>2025-09-26T09:17:18Z</time>
      </trkpt>
      <trkpt lat="39.16309170594564" lon="117.75876796534762">
        <ele>0.1</ele>
        <time>2025-09-26T09:17:20Z</time>
      </trkpt>
      <trkpt lat="39.16301878346011" lon="117.75883104100727">
        <ele>0.2</ele>
        <time>2025-09-26T09:17:22Z</time>
      </trkpt>
      <trkpt lat="39.162949858745755" lon="117.7588941163475">
        <ele>0.2</ele>
        <time>2025-09-26T09:17:24Z</time>
      </trkpt>
      <trkpt lat="39.16288393294414" lon="117.75895819255659">
        <ele>0.2</ele>
        <time>2025-09-26T09:17:26Z</time>
      </trkpt>
      <trkpt lat="39.162819006698804" lon="117.75902226883392">
        <ele>0.2</ele>
        <time>2025-09-26T09:17:28Z</time>
      </trkpt>
      <trkpt lat="39.16275707882207" lon="117.75908634492497">
        <ele>0.2</ele>
        <time>2025-09-26T09:17:30Z</time>
      </trkpt>
      <trkpt lat="39.162692152321206" lon="117.75914942052293">
        <ele>0.1</ele>
        <time>2025-09-26T09:17:32Z</time>
      </trkpt>
      <trkpt lat="39.16262622265815" lon="117.75920548892621">
        <ele>0.1</ele>
        <time>2025-09-26T09:17:34Z</time>
      </trkpt>
      <trkpt lat="39.16255428102943" lon="117.75923352814647">
        <ele>0.1</ele>
        <time>2025-09-26T09:17:36Z</time>
      </trkpt>
      <trkpt lat="39.16248331370924" lon="117.75921651892655">
        <ele>-0.1</ele>
        <time>2025-09-26T09:17:38Z</time>
      </trkpt>
      <trkpt lat="39.16241731896018" lon="117.75915546193754">
        <ele>-0.1</ele>
        <time>2025-09-26T09:17:40Z</time>
      </trkpt>
      <trkpt lat="39.16236030518394" lon="117.75906937730699">
        <ele>0</ele>
        <time>2025-09-26T09:17:42Z</time>
      </trkpt>
      <trkpt lat="39.162310284224596" lon="117.75897728576625">
        <ele>0</ele>
        <time>2025-09-26T09:17:44Z</time>
      </trkpt>
      <trkpt lat="39.162261263524236" lon="117.75888619556024">
        <ele>0</ele>
        <time>2025-09-26T09:17:46Z</time>
      </trkpt>
      <trkpt lat="39.162209245991434" lon="117.75879710823847">
        <ele>-0.2</ele>
        <time>2025-09-26T09:17:48Z</time>
      </trkpt>
      <trkpt lat="39.162154230528714" lon="117.75870802167732">
        <ele>-0.2</ele>
        <time>2025-09-26T09:17:50Z</time>
      </trkpt>
      <trkpt lat="39.162100215296306" lon="117.75861993641288">
        <ele>-0.2</ele>
        <time>2025-09-26T09:17:52Z</time>
      </trkpt>
      <trkpt lat="39.16204720028474" lon="117.75853285243267">
        <ele>-0.2</ele>
        <time>2025-09-26T09:17:54Z</time>
      </trkpt>
      <trkpt lat="39.161994186608425" lon="117.7584477708883">
        <ele>-0.2</ele>
        <time>2025-09-26T09:17:56Z</time>
      </trkpt>
      <trkpt lat="39.161941172668904" lon="117.75836168865767">
        <ele>-0.3</ele>
        <time>2025-09-26T09:17:58Z</time>
      </trkpt>
      <trkpt lat="39.161888160569895" lon="117.75827860986715">
        <ele>-0.3</ele>
        <time>2025-09-26T09:18:00Z</time>
      </trkpt>
      <trkpt lat="39.16183215206677" lon="117.75819853486286">
        <ele>-0.5</ele>
        <time>2025-09-26T09:18:02Z</time>
      </trkpt>
      <trkpt lat="39.161773147133665" lon="117.75812146361037">
        <ele>-0.5</ele>
        <time>2025-09-26T09:18:04Z</time>
      </trkpt>
      <trkpt lat="39.16171613865416" lon="117.75803938730212">
        <ele>-0.5</ele>
        <time>2025-09-26T09:18:06Z</time>
      </trkpt>
      <trkpt lat="39.161666122166835" lon="117.75794930232257">
        <ele>-0.3</ele>
        <time>2025-09-26T09:18:08Z</time>
      </trkpt>
      <trkpt lat="39.16162010156539" lon="117.75785521319003">
        <ele>-0.3</ele>
        <time>2025-09-26T09:18:10Z</time>
      </trkpt>
      <trkpt lat="39.16157108407912" lon="117.75776312687172">
        <ele>-0.3</ele>
        <time>2025-09-26T09:18:12Z</time>
      </trkpt>
      <trkpt lat="39.16152107050642" lon="117.75767704708511">
        <ele>-0.3</ele>
        <time>2025-09-26T09:18:14Z</time>
      </trkpt>
      <trkpt lat="39.16147005879603" lon="117.75759296977297">
        <ele>-0.3</ele>
        <time>2025-09-26T09:18:16Z</time>
      </trkpt>
      <trkpt lat="39.16142204704826" lon="117.75751189539386">
        <ele>-0.4</ele>
        <time>2025-09-26T09:18:18Z</time>
      </trkpt>
      <trkpt lat="39.161375034946616" lon="117.75743082120363">
        <ele>-0.4</ele>
        <time>2025-09-26T09:18:20Z</time>
      </trkpt>
      <trkpt lat="39.161336022250474" lon="117.75735775418445">
        <ele>-0.4</ele>
        <time>2025-09-26T09:18:22Z</time>
      </trkpt>
      <trkpt lat="39.16132100280112" lon="117.75729969908507">
        <ele>-0.5</ele>
        <time>2025-09-26T09:18:24Z</time>
      </trkpt>
    </trkseg>
  </trk>
</gpx>