<?xml version="1.0" encoding="UTF-8"?>
<gpx xmlns="http://www.topografix.com/GPX/1/1" xmlns:gpxtpx="http://www.garmin.com/xmlschemas/TrackPointExtension/v1" xmlns:xsi="http://www.w3.org/2001/XMLSchema-instance" xsi:schemaLocation="http://www.topografix.com/GPX/1/1 http://www.topografix.com/GPX/1/1/gpx.xsd" version="1.1" creator="gpx.py -- https://github.com/tkrajina/gpxpy">
  <trk>
    <name>gpx from codoon</name>
    <type>Run</type>
    <trkseg>
      <trkpt lat="39.17146953113126" lon="117.76325208753762">
        <ele>-4.3</ele>
        <time>2025-09-28T09:17:26Z</time>
      </trkpt>
      <trkpt lat="39.171526458276595" lon="117.76319600961831">
        <ele>-4.3</ele>
        <time>2025-09-28T09:17:27Z</time>
      </trkpt>
      <trkpt lat="39.1715014311352" lon="117.76313593724585">
        <ele>-4.3</ele>
        <time>2025-09-28T09:17:28Z</time>
      </trkpt>
      <trkpt lat="39.171453416304225" lon="117.76307386545687">
        <ele>-4.3</ele>
        <time>2025-09-28T09:17:31Z</time>
      </trkpt>
      <trkpt lat="39.17136343124843" lon="117.76301880795596">
        <ele>-4.4</ele>
        <time>2025-09-28T09:17:33Z</time>
      </trkpt>
      <trkpt lat="39.17132443141425" lon="117.76298577161434">
        <ele>-4.4</ele>
        <time>2025-09-28T09:17:35Z</time>
      </trkpt>
      <trkpt lat="39.17128445018098" lon="117.76297876794888">
        <ele>-4.4</ele>
        <time>2025-09-28T09:17:37Z</time>
      </trkpt>
      <trkpt lat="39.171232488484705" lon="117.76298978832386">
        <ele>-4.8</ele>
        <time>2025-09-28T09:17:39Z</time>
      </trkpt>
      <trkpt lat="39.171159546809044" lon="117.76301182514631">
        <ele>-4.8</ele>
        <time>2025-09-28T09:17:41Z</time>
      </trkpt>
      <trkpt lat="39.17107260509648" lon="117.7630218487387">
        <ele>-4.8</ele>
        <time>2025-09-28T09:17:43Z</time>
      </trkpt>
      <trkpt lat="39.170995630465605" lon="117.76299282223187">
        <ele>-5.3</ele>
        <time>2025-09-28T09:17:45Z</time>
      </trkpt>
      <trkpt lat="39.170940612501646" lon="117.76291973801717">
        <ele>-5.3</ele>
        <time>2025-09-28T09:17:47Z</time>
      </trkpt>
      <trkpt lat="39.17090357311117" lon="117.76283063185562">
        <ele>-5.4</ele>
        <time>2025-09-28T09:17:49Z</time>
      </trkpt>
      <trkpt lat="39.17087053163855" lon="117.76274152555357">
        <ele>-5.4</ele>
        <time>2025-09-28T09:17:51Z</time>
      </trkpt>
      <trkpt lat="39.17083649239645" lon="117.76265442221832">
        <ele>-5.4</ele>
        <time>2025-09-28T09:17:53Z</time>
      </trkpt>
      <trkpt lat="39.17080245071326" lon="117.76256331431037">
        <ele>-5.8</ele>
        <time>2025-09-28T09:17:55Z</time>
      </trkpt>
      <trkpt lat="39.17076840864899" lon="117.76247120556145">
        <ele>-5.8</ele>
        <time>2025-09-28T09:17:57Z</time>
      </trkpt>
      <trkpt lat="39.17073236806508" lon="117.76237909746186">
        <ele>-5.6</ele>
        <time>2025-09-28T09:17:59Z</time>
      </trkpt>
      <trkpt lat="39.17069432962918" lon="117.7622879912302">
        <ele>-5.6</ele>
        <time>2025-09-28T09:18:01Z</time>
      </trkpt>
      <trkpt lat="39.17065329325828" lon="117.76219688576708">
        <ele>-5.6</ele>
        <time>2025-09-28T09:18:03Z</time>
      </trkpt>
      <trkpt lat="39.170611259093576" lon="117.76210778323819">
        <ele>-5.8</ele>
        <time>2025-09-28T09:18:05Z</time>
      </trkpt>
      <trkpt lat="39.170567227049084" lon="117.76201968254013">
        <ele>-5.8</ele>
        <time>2025-09-28T09:18:07Z</time>
      </trkpt>
      <trkpt lat="39.17052419534403" lon="117.76193258327909">
        <ele>-5.7</ele>
        <time>2025-09-28T09:18:09Z</time>
      </trkpt>
      <trkpt lat="39.170481163908185" lon="117.76184548437254">
        <ele>-5.7</ele>
        <time>2025-09-28T09:18:11Z</time>
      </trkpt>
      <trkpt lat="39.170438132741715" lon="117.76175838582076">
        <ele>-5.7</ele>
        <time>2025-09-28T09:18:13Z</time>
      </trkpt>
      <trkpt lat="39.170394104372086" lon="117.76167429132006">
        <ele>-5.8</ele>
        <time>2025-09-28T09:18:15Z</time>
      </trkpt>
      <trkpt lat="39.170350074968816" lon="117.76158819477907">
        <ele>-5.8</ele>
        <time>2025-09-28T09:18:17Z</time>
      </trkpt>
      <trkpt lat="39.17030604518984" lon="117.7615010974038">
        <ele>-5.8</ele>
        <time>2025-09-28T09:18:19Z</time>
      </trkpt>
      <trkpt lat="39.1702650126363" lon="117.7614119976475">
        <ele>-5.8</ele>
        <time>2025-09-28T09:18:21Z</time>
      </trkpt>
      <trkpt lat="39.17022098340385" lon="117.7613249009919">
        <ele>-5.8</ele>
        <time>2025-09-28T09:18:23Z</time>
      </trkpt>
      <trkpt lat="39.17017795574157" lon="117.76124080807293">
        <ele>-6</ele>
        <time>2025-09-28T09:18:25Z</time>
      </trkpt>
      <trkpt lat="39.17013393017679" lon="117.76115871794424">
        <ele>-6</ele>
        <time>2025-09-28T09:18:27Z</time>
      </trkpt>
      <trkpt lat="39.17009090301327" lon="117.76107462568187">
        <ele>-5.9</ele>
        <time>2025-09-28T09:18:29Z</time>
      </trkpt>
      <trkpt lat="39.170044879738626" lon="117.76099353760674">
        <ele>-5.9</ele>
        <time>2025-09-28T09:18:31Z</time>
      </trkpt>
      <trkpt lat="39.169989854596906" lon="117.76090043714308">
        <ele>-5.9</ele>
        <time>2025-09-28T09:18:33Z</time>
      </trkpt>
      <trkpt lat="39.16993283156188" lon="117.76080833849103">
        <ele>-6.2</ele>
        <time>2025-09-28T09:18:36Z</time>
      </trkpt>
      <trkpt lat="39.16987580760796" lon="117.76071423794946">
        <ele>-6.2</ele>
        <time>2025-09-28T09:18:38Z</time>
      </trkpt>
      <trkpt lat="39.169826787760876" lon="117.76063415277329">
        <ele>-6.1</ele>
        <time>2025-09-28T09:18:40Z</time>
      </trkpt>
      <trkpt lat="39.16977577053711" lon="117.76055607042825">
        <ele>-6.1</ele>
        <time>2025-09-28T09:18:42Z</time>
      </trkpt>
      <trkpt lat="39.169724754738354" lon="117.76047999063788">
        <ele>-5.8</ele>
        <time>2025-09-28T09:18:44Z</time>
      </trkpt>
      <trkpt lat="39.16967174032953" lon="117.76040391137536">
        <ele>-5.8</ele>
        <time>2025-09-28T09:18:46Z</time>
      </trkpt>
      <trkpt lat="39.169620723752004" lon="117.76032582987935">
        <ele>-5.8</ele>
        <time>2025-09-28T09:18:48Z</time>
      </trkpt>
      <trkpt lat="39.16957170680662" lon="117.76024874953954">
        <ele>-5.8</ele>
        <time>2025-09-28T09:18:50Z</time>
      </trkpt>
      <trkpt lat="39.16952368889212" lon="117.76017066823461">
        <ele>-5.8</ele>
        <time>2025-09-28T09:18:52Z</time>
      </trkpt>
      <trkpt lat="39.16947567237544" lon="117.76009458944857">
        <ele>-5.7</ele>
        <time>2025-09-28T09:18:54Z</time>
      </trkpt>
      <trkpt lat="39.16942565783582" lon="117.7600195123028">
        <ele>-5.7</ele>
        <time>2025-09-28T09:18:56Z</time>
      </trkpt>
      <trkpt lat="39.16937664349227" lon="117.75994543640492">
        <ele>-5.7</ele>
        <time>2025-09-28T09:18:58Z</time>
      </trkpt>
      <trkpt lat="39.16932862817442" lon="117.7598703595352">
        <ele>-5.9</ele>
        <time>2025-09-28T09:19:00Z</time>
      </trkpt>
      <trkpt lat="39.169281612468865" lon="117.75979528280548">
        <ele>-5.9</ele>
        <time>2025-09-28T09:19:02Z</time>
      </trkpt>
      <trkpt lat="39.169233597557856" lon="117.75972020647045">
        <ele>-5.9</ele>
        <time>2025-09-28T09:19:04Z</time>
      </trkpt>
      <trkpt lat="39.16918458516091" lon="117.75964813381216">
        <ele>-5.9</ele>
        <time>2025-09-28T09:19:06Z</time>
      </trkpt>
      <trkpt lat="39.169133572993005" lon="117.75957405947396">
        <ele>-5.9</ele>
        <time>2025-09-28T09:19:08Z</time>
      </trkpt>
      <trkpt lat="39.16908255988801" lon="117.75949798322254">
        <ele>-5.8</ele>
        <time>2025-09-28T09:19:10Z</time>
      </trkpt>
      <trkpt lat="39.16903154529757" lon="117.75941890399659">
        <ele>-5.8</ele>
        <time>2025-09-28T09:19:12Z</time>
      </trkpt>
      <trkpt lat="39.16898053149554" lon="117.75934082614745">
        <ele>-5.8</ele>
        <time>2025-09-28T09:19:14Z</time>
      </trkpt>
      <trkpt lat="39.16892851962416" lon="117.75926475086716">
        <ele>-5.8</ele>
        <time>2025-09-28T09:19:16Z</time>
      </trkpt>
      <trkpt lat="39.16887750681472" lon="117.75918767466295">
        <ele>-5.8</ele>
        <time>2025-09-28T09:19:18Z</time>
      </trkpt>
      <trkpt lat="39.16882949133934" lon="117.75910859622303">
        <ele>-6.2</ele>
        <time>2025-09-28T09:19:20Z</time>
      </trkpt>
      <trkpt lat="39.16878047613106" lon="117.7590285171438">
        <ele>-6.2</ele>
        <time>2025-09-28T09:19:22Z</time>
      </trkpt>
      <trkpt lat="39.168729463433905" lon="117.7589504407464">
        <ele>-6.3</ele>
        <time>2025-09-28T09:19:24Z</time>
      </trkpt>
      <trkpt lat="39.16867645159557" lon="117.75887136383727">
        <ele>-6.3</ele>
        <time>2025-09-28T09:19:26Z</time>
      </trkpt>
      <trkpt lat="39.16862244057581" lon="117.75879228735383">
        <ele>-6.3</ele>
        <time>2025-09-28T09:19:28Z</time>
      </trkpt>
      <trkpt lat="39.16857042914005" lon="117.75871421196389">
        <ele>-6.5</ele>
        <time>2025-09-28T09:19:30Z</time>
      </trkpt>
      <trkpt lat="39.16851941840787" lon="117.75863813882954">
        <ele>-6.5</ele>
        <time>2025-09-28T09:19:32Z</time>
      </trkpt>
      <trkpt lat="39.16847140664593" lon="117.75856306663216">
        <ele>-6.5</ele>
        <time>2025-09-28T09:19:34Z</time>
      </trkpt>
      <trkpt lat="39.16842339455782" lon="117.75848699366556">
        <ele>-6.5</ele>
        <time>2025-09-28T09:19:36Z</time>
      </trkpt>
      <trkpt lat="39.16837238498321" lon="117.75841192239267">
        <ele>-6.5</ele>
        <time>2025-09-28T09:19:38Z</time>
      </trkpt>
      <trkpt lat="39.16832037620545" lon="117.75833685151676">
        <ele>-6.4</ele>
        <time>2025-09-28T09:19:40Z</time>
      </trkpt>
      <trkpt lat="39.168269365472725" lon="117.75825877770002">
        <ele>-6.4</ele>
        <time>2025-09-28T09:19:42Z</time>
      </trkpt>
      <trkpt lat="39.16822035429929" lon="117.75818170494465">
        <ele>-6.4</ele>
        <time>2025-09-28T09:19:44Z</time>
      </trkpt>
      <trkpt lat="39.168169341939375" lon="117.75809962762744">
        <ele>-6.4</ele>
        <time>2025-09-28T09:19:46Z</time>
      </trkpt>
      <trkpt lat="39.16811933026202" lon="117.75801955253833">
        <ele>-6.4</ele>
        <time>2025-09-28T09:19:48Z</time>
      </trkpt>
      <trkpt lat="39.1680723170439" lon="117.75793947737489">
        <ele>-6.2</ele>
        <time>2025-09-28T09:19:50Z</time>
      </trkpt>
      <trkpt lat="39.16802530558516" lon="117.75786240554501">
        <ele>-6.2</ele>
        <time>2025-09-28T09:19:52Z</time>
      </trkpt>
      <trkpt lat="39.1679772964523" lon="117.75778833714281">
        <ele>-6.2</ele>
        <time>2025-09-28T09:19:54Z</time>
      </trkpt>
      <trkpt lat="39.1679272897096" lon="117.75771627126197">
        <ele>-6.1</ele>
        <time>2025-09-28T09:19:56Z</time>
      </trkpt>
      <trkpt lat="39.167877282656434" lon="117.75764320463247">
        <ele>-6.1</ele>
        <time>2025-09-28T09:19:58Z</time>
      </trkpt>
      <trkpt lat="39.16782827371356" lon="117.75756713514859">
        <ele>-6.1</ele>
        <time>2025-09-28T09:20:00Z</time>
      </trkpt>
      <trkpt lat="39.16777926349767" lon="117.75748806297067">
        <ele>-6.1</ele>
        <time>2025-09-28T09:20:02Z</time>
      </trkpt>
      <trkpt lat="39.16773025400267" lon="117.75740999208047">
        <ele>-6.1</ele>
        <time>2025-09-28T09:20:04Z</time>
      </trkpt>
      <trkpt lat="39.16768124570933" lon="117.75733392345005">
        <ele>-6.3</ele>
        <time>2025-09-28T09:20:06Z</time>
      </trkpt>
      <trkpt lat="39.16763323800931" lon="117.75725985693029">
        <ele>-6.3</ele>
        <time>2025-09-28T09:20:08Z</time>
      </trkpt>
      <trkpt lat="39.16758323121019" lon="117.75718478995329">
        <ele>-6.4</ele>
        <time>2025-09-28T09:20:10Z</time>
      </trkpt>
      <trkpt lat="39.16753322461782" lon="117.75710972324784">
        <ele>-6.4</ele>
        <time>2025-09-28T09:20:12Z</time>
      </trkpt>
      <trkpt lat="39.167485217526966" lon="117.7570356575283">
        <ele>-6.4</ele>
        <time>2025-09-28T09:20:14Z</time>
      </trkpt>
      <trkpt lat="39.16743721016187" lon="117.75696059110808">
        <ele>-6.4</ele>
        <time>2025-09-28T09:20:16Z</time>
      </trkpt>
      <trkpt lat="39.16739020241183" lon="117.75688552483244">
        <ele>-6.4</ele>
        <time>2025-09-28T09:20:18Z</time>
      </trkpt>
      <trkpt lat="39.16734319392861" lon="117.75680845691284">
        <ele>-6.3</ele>
        <time>2025-09-28T09:20:20Z</time>
      </trkpt>
      <trkpt lat="39.16729718507166" lon="117.75673138915275">
        <ele>-6.3</ele>
        <time>2025-09-28T09:20:22Z</time>
      </trkpt>
      <trkpt lat="39.16725117689737" lon="117.75665532263007">
        <ele>-6.3</ele>
        <time>2025-09-28T09:20:24Z</time>
      </trkpt>
      <trkpt lat="39.1672051689358" lon="117.75657925638698">
        <ele>-6.4</ele>
        <time>2025-09-28T09:20:26Z</time>
      </trkpt>
      <trkpt lat="39.167158162237875" lon="117.75650419149413">
        <ele>-6.4</ele>
        <time>2025-09-28T09:20:28Z</time>
      </trkpt>
      <trkpt lat="39.167109155563054" lon="117.75642612430993">
        <ele>-6.6</ele>
        <time>2025-09-28T09:20:30Z</time>
      </trkpt>
      <trkpt lat="39.167063146430365" lon="117.7563460551675">
        <ele>-6.6</ele>
        <time>2025-09-28T09:20:32Z</time>
      </trkpt>
      <trkpt lat="39.16702013440728" lon="117.75626298315868">
        <ele>-6.6</ele>
        <time>2025-09-28T09:20:34Z</time>
      </trkpt>
      <trkpt lat="39.1669831195329" lon="117.75618091164769">
        <ele>-6.4</ele>
        <time>2025-09-28T09:20:36Z</time>
      </trkpt>
      <trkpt lat="39.166944108755125" lon="117.75610484625982">
        <ele>-6.4</ele>
        <time>2025-09-28T09:20:38Z</time>
      </trkpt>
      <trkpt lat="39.16689810896058" lon="117.75604379585141">
        <ele>-6.5</ele>
        <time>2025-09-28T09:20:40Z</time>
      </trkpt>
      <trkpt lat="39.16683712963101" lon="117.75600877141592">
        <ele>-6.5</ele>
        <time>2025-09-28T09:20:42Z</time>
      </trkpt>
      <trkpt lat="39.166766169908726" lon="117.75600477677857">
        <ele>-6.5</ele>
        <time>2025-09-28T09:20:44Z</time>
      </trkpt>
      <trkpt lat="39.16669122225556" lon="117.75602280287659">
        <ele>-6.6</ele>
        <time>2025-09-28T09:20:46Z</time>
      </trkpt>
      <trkpt lat="39.16661628213383" lon="117.75605784464989">
        <ele>-6.6</ele>
        <time>2025-09-28T09:20:48Z</time>
      </trkpt>
      <trkpt lat="39.16654434205828" lon="117.7560968897941">
        <ele>-6.5</ele>
        <time>2025-09-28T09:20:50Z</time>
      </trkpt>
      <trkpt lat="39.16647940056795" lon="117.75614193967385">
        <ele>-6.5</ele>
        <time>2025-09-28T09:20:52Z</time>
      </trkpt>
      <trkpt lat="39.166423455612644" lon="117.75619099221771">
        <ele>-6.5</ele>
        <time>2025-09-28T09:20:54Z</time>
      </trkpt>
      <trkpt lat="39.16637351078787" lon="117.75624805155884">
        <ele>-6.8</ele>
        <time>2025-09-28T09:20:56Z</time>
      </trkpt>
      <trkpt lat="39.16632256848249" lon="117.75630911491933">
        <ele>-6.8</ele>
        <time>2025-09-28T09:20:58Z</time>
      </trkpt>
      <trkpt lat="39.16626862899993" lon="117.75637218071556">
        <ele>-6.6</ele>
        <time>2025-09-28T09:21:00Z</time>
      </trkpt>
      <trkpt lat="39.16620969399539" lon="117.75643825016029">
        <ele>-6.6</ele>
        <time>2025-09-28T09:21:02Z</time>
      </trkpt>
      <trkpt lat="39.16614776230624" lon="117.75650732302766">
        <ele>-6.6</ele>
        <time>2025-09-28T09:21:04Z</time>
      </trkpt>
      <trkpt lat="39.16608283257065" lon="117.7565763965074">
        <ele>-6.5</ele>
        <time>2025-09-28T09:21:06Z</time>
      </trkpt>
      <trkpt lat="39.16601690360395" lon="117.75664547034481">
        <ele>-6.5</ele>
        <time>2025-09-28T09:21:08Z</time>
      </trkpt>
      <trkpt lat="39.165949974939565" lon="117.75671354358647">
        <ele>-6.4</ele>
        <time>2025-09-28T09:21:10Z</time>
      </trkpt>
      <trkpt lat="39.165883045039585" lon="117.75677861418218">
        <ele>-6.4</ele>
        <time>2025-09-28T09:21:12Z</time>
      </trkpt>
      <trkpt lat="39.16581811316869" lon="117.75684168280843">
        <ele>-6.4</ele>
        <time>2025-09-28T09:21:14Z</time>
      </trkpt>
      <trkpt lat="39.165752181563974" lon="117.75690375079124">
        <ele>-6.4</ele>
        <time>2025-09-28T09:21:16Z</time>
      </trkpt>
      <trkpt lat="39.16568724998509" lon="117.75696681979792">
        <ele>-6.4</ele>
        <time>2025-09-28T09:21:18Z</time>
      </trkpt>
      <trkpt lat="39.16561931937488" lon="117.75702788744108">
        <ele>-6.3</ele>
        <time>2025-09-28T09:21:20Z</time>
      </trkpt>
      <trkpt lat="39.16554938768702" lon="117.75708395066192">
        <ele>-6.3</ele>
        <time>2025-09-28T09:21:22Z</time>
      </trkpt>
      <trkpt lat="39.165479455633786" lon="117.7571390130602">
        <ele>-6.3</ele>
        <time>2025-09-28T09:21:24Z</time>
      </trkpt>
      <trkpt lat="39.1654105245531" lon="117.75719707840678">
        <ele>-6.4</ele>
        <time>2025-09-28T09:21:26Z</time>
      </trkpt>
      <trkpt lat="39.16533959672861" lon="117.75725914808827">
        <ele>-6.4</ele>
        <time>2025-09-28T09:21:28Z</time>
      </trkpt>
      <trkpt lat="39.16526666974343" lon="117.75732021722703">
        <ele>-6.6</ele>
        <time>2025-09-28T09:21:30Z</time>
      </trkpt>
      <trkpt lat="39.16519474034006" lon="117.75737728247617">
        <ele>-6.6</ele>
        <time>2025-09-28T09:21:32Z</time>
      </trkpt>
      <trkpt lat="39.165123808493355" lon="117.75743034380268">
        <ele>-6.6</ele>
        <time>2025-09-28T09:21:34Z</time>
      </trkpt>
      <trkpt lat="39.16505687339066" lon="117.75748140277459">
        <ele>-6.7</ele>
        <time>2025-09-28T09:21:36Z</time>
      </trkpt>
      <trkpt lat="39.16499093828841" lon="117.75753346273721">
        <ele>-6.7</ele>
        <time>2025-09-28T09:21:38Z</time>
      </trkpt>
      <trkpt lat="39.16492300447242" lon="117.75758552308454">
        <ele>-6.6</ele>
        <time>2025-09-28T09:21:40Z</time>
      </trkpt>
      <trkpt lat="39.16485307144253" lon="117.75763658281872">
        <ele>-6.6</ele>
        <time>2025-09-28T09:21:42Z</time>
      </trkpt>
      <trkpt lat="39.16478113969541" lon="117.75768764293254">
        <ele>-6.6</ele>
        <time>2025-09-28T09:21:44Z</time>
      </trkpt>
      <trkpt lat="39.164707208727236" lon="117.75773770242331">
        <ele>-6.8</ele>
        <time>2025-09-28T09:21:46Z</time>
      </trkpt>
      <trkpt lat="39.16463027861997" lon="117.75778576040607">
        <ele>-6.8</ele>
        <time>2025-09-28T09:21:48Z</time>
      </trkpt>
      <trkpt lat="39.16455234919213" lon="117.75783381862678">
        <ele>-6.8</ele>
        <time>2025-09-28T09:21:50Z</time>
      </trkpt>
      <trkpt lat="39.16447441934152" lon="117.75788087594862">
        <ele>-6.8</ele>
        <time>2025-09-28T09:21:52Z</time>
      </trkpt>
      <trkpt lat="39.16440048720147" lon="117.75792793286745">
        <ele>-6.8</ele>
        <time>2025-09-28T09:21:54Z</time>
      </trkpt>
      <trkpt lat="39.16432555368711" lon="117.75797098596381">
        <ele>-7</ele>
        <time>2025-09-28T09:21:56Z</time>
      </trkpt>
      <trkpt lat="39.16425261700024" lon="117.75801003483112">
        <ele>-7</ele>
        <time>2025-09-28T09:21:58Z</time>
      </trkpt>
      <trkpt lat="39.16418067926244" lon="117.75804808262654">
        <ele>-7</ele>
        <time>2025-09-28T09:22:00Z</time>
      </trkpt>
      <trkpt lat="39.1641057443923" lon="117.75808813291188">
        <ele>-6.7</ele>
        <time>2025-09-28T09:22:02Z</time>
      </trkpt>
      <trkpt lat="39.164027814472114" lon="117.75813418978487">
        <ele>-6.7</ele>
        <time>2025-09-28T09:22:04Z</time>
      </trkpt>
      <trkpt lat="39.16394389079183" lon="117.75818525264292">
        <ele>-6.7</ele>
        <time>2025-09-28T09:22:06Z</time>
      </trkpt>
      <trkpt lat="39.163859967731106" lon="117.75823731665223">
        <ele>-6.7</ele>
        <time>2025-09-28T09:22:08Z</time>
      </trkpt>
      <trkpt lat="39.163776043723566" lon="117.75828737873299">
        <ele>-6.7</ele>
        <time>2025-09-28T09:22:10Z</time>
      </trkpt>
      <trkpt lat="39.16369411862297" lon="117.75833744067897">
        <ele>-6.9</ele>
        <time>2025-09-28T09:22:12Z</time>
      </trkpt>
      <trkpt lat="39.163613193550106" lon="117.75838850365125">
        <ele>-6.9</ele>
        <time>2025-09-28T09:22:14Z</time>
      </trkpt>
      <trkpt lat="39.16353526732351" lon="117.75844056740259">
        <ele>-7.2</ele>
        <time>2025-09-28T09:22:16Z</time>
      </trkpt>
      <trkpt lat="39.163457340666184" lon="117.75849163024456">
        <ele>-7.2</ele>
        <time>2025-09-28T09:22:18Z</time>
      </trkpt>
      <trkpt lat="39.163382412325184" lon="117.75854269282921">
        <ele>-7.2</ele>
        <time>2025-09-28T09:22:20Z</time>
      </trkpt>
      <trkpt lat="39.16331148491772" lon="117.7585997612921">
        <ele>-7.1</ele>
        <time>2025-09-28T09:22:22Z</time>
      </trkpt>
      <trkpt lat="39.163245558424634" lon="117.75866383660205">
        <ele>-7.1</ele>
        <time>2025-09-28T09:22:24Z</time>
      </trkpt>
      <trkpt lat="39.163179630462245" lon="117.75872490895787">
        <ele>-7.4</ele>
        <time>2025-09-28T09:22:26Z</time>
      </trkpt>
      <trkpt lat="39.16311269727001" lon="117.75877497004036">
        <ele>-7.4</ele>
        <time>2025-09-28T09:22:28Z</time>
      </trkpt>
      <trkpt lat="39.163047760266146" lon="117.75882002571481">
        <ele>-7.4</ele>
        <time>2025-09-28T09:22:30Z</time>
      </trkpt>
      <trkpt lat="39.162984825419976" lon="117.75887108757209">
        <ele>-7.3</ele>
        <time>2025-09-28T09:22:32Z</time>
      </trkpt>
      <trkpt lat="39.16292089618734" lon="117.75893115921689">
        <ele>-7.3</ele>
        <time>2025-09-28T09:22:34Z</time>
      </trkpt>
      <trkpt lat="39.162853972714885" lon="117.75899823885499">
        <ele>-6.9</ele>
        <time>2025-09-28T09:22:36Z</time>
      </trkpt>
      <trkpt lat="39.16278505280299" lon="117.75906932322688">
        <ele>-6.9</ele>
        <time>2025-09-28T09:22:38Z</time>
      </trkpt>
      <trkpt lat="39.16271813244265" lon="117.75914140865456">
        <ele>-6.9</ele>
        <time>2025-09-28T09:22:40Z</time>
      </trkpt>
      <trkpt lat="39.162651210599265" lon="117.75921049110994">
        <ele>-7.2</ele>
        <time>2025-09-28T09:22:42Z</time>
      </trkpt>
      <trkpt lat="39.162578281302714" lon="117.75925955303761">
        <ele>-7.2</ele>
        <time>2025-09-28T09:22:44Z</time>
      </trkpt>
      <trkpt lat="39.16250232923153" lon="117.75926456808592">
        <ele>-6.8</ele>
        <time>2025-09-28T09:22:46Z</time>
      </trkpt>
      <trkpt lat="39.16243234455491" lon="117.75921752648944">
        <ele>-6.8</ele>
        <time>2025-09-28T09:22:48Z</time>
      </trkpt>
      <trkpt lat="39.16237133407032" lon="117.75913344425213">
        <ele>-6.8</ele>
        <time>2025-09-28T09:22:50Z</time>
      </trkpt>
      <trkpt lat="39.16231831412834" lon="117.75904035174696">
        <ele>-6.9</ele>
        <time>2025-09-28T09:22:52Z</time>
      </trkpt>
      <trkpt lat="39.16226229628225" lon="117.75894726003662">
        <ele>-6.9</ele>
        <time>2025-09-28T09:22:54Z</time>
      </trkpt>
      <trkpt lat="39.16220727815651" lon="117.75885416861233">
        <ele>-7.2</ele>
        <time>2025-09-28T09:22:56Z</time>
      </trkpt>
      <trkpt lat="39.162149263209564" lon="117.75876308008672">
        <ele>-7.2</ele>
        <time>2025-09-28T09:22:58Z</time>
      </trkpt>
      <trkpt lat="39.16209124802618" lon="117.75867099090995">
        <ele>-7.2</ele>
        <time>2025-09-28T09:23:00Z</time>
      </trkpt>
      <trkpt lat="39.16203223267611" lon="117.75857690017979">
        <ele>-6.8</ele>
        <time>2025-09-28T09:23:02Z</time>
      </trkpt>
      <trkpt lat="39.161974214930076" lon="117.75847880559265">
        <ele>-6.8</ele>
        <time>2025-09-28T09:23:04Z</time>
      </trkpt>
      <trkpt lat="39.16191919575173" lon="117.758380711084">
        <ele>-6.7</ele>
        <time>2025-09-28T09:23:06Z</time>
      </trkpt>
      <trkpt lat="39.16186417797105" lon="117.75828461909342">
        <ele>-6.7</ele>
        <time>2025-09-28T09:23:08Z</time>
      </trkpt>
      <trkpt lat="39.16180916260824" lon="117.75819253164231">
        <ele>-6.7</ele>
        <time>2025-09-28T09:23:10Z</time>
      </trkpt>
      <trkpt lat="39.16175214977712" lon="117.75810244689211">
        <ele>-6.9</ele>
        <time>2025-09-28T09:23:12Z</time>
      </trkpt>
      <trkpt lat="39.161697137595645" lon="117.75801536532397">
        <ele>-6.9</ele>
        <time>2025-09-28T09:23:14Z</time>
      </trkpt>
      <trkpt lat="39.16164312509669" lon="117.75792828399229">
        <ele>-7.1</ele>
        <time>2025-09-28T09:23:16Z</time>
      </trkpt>
      <trkpt lat="39.16159011177262" lon="117.75784020188968">
        <ele>-7.1</ele>
        <time>2025-09-28T09:23:18Z</time>
      </trkpt>
      <trkpt lat="39.161540096949096" lon="117.75775211977778">
        <ele>-7.1</ele>
        <time>2025-09-28T09:23:20Z</time>
      </trkpt>
      <trkpt lat="39.16149008441427" lon="117.7576680420351">
        <ele>-7.1</ele>
        <time>2025-09-28T09:23:22Z</time>
      </trkpt>
      <trkpt lat="39.16144207144759" lon="117.75758496537283">
        <ele>-7.1</ele>
        <time>2025-09-28T09:23:24Z</time>
      </trkpt>
      <trkpt lat="39.16139106101151" lon="117.75750289041541">
        <ele>-7.3</ele>
        <time>2025-09-28T09:23:26Z</time>
      </trkpt>
      <trkpt lat="39.16134605070369" lon="117.757427821931">
        <ele>-7.3</ele>
        <time>2025-09-28T09:23:28Z</time>
      </trkpt>
      <trkpt lat="39.161309043200276" lon="117.75736776746598">
        <ele>-7.3</ele>
        <time>2025-09-28T09:23:30Z</time>
      </trkpt>
      <trkpt lat="39.16128603434743" lon="117.75732172514405">
        <ele>-7.5</ele>
        <time>2025-09-28T09:23:32Z</time>
      </trkpt>
      <trkpt lat="39.16129999773861" lon="117.75726366645473">
        <ele>-7.2</ele>
        <time>2025-09-28T09:24:02Z</time>
      </trkpt>
      <trkpt lat="39.161333967319344" lon="117.75724264156327">
        <ele>-7.2</ele>
        <time>2025-09-28T09:24:06Z</time>
      </trkpt>
      <trkpt lat="39.16134695473598" lon="117.75723263012368">
        <ele>-7.4</ele>
        <time>2025-09-28T09:24:12Z</time>
      </trkpt>
      <trkpt lat="39.16133196947987" lon="117.7572446437754">
        <ele>-7.4</ele>
        <time>2025-09-28T09:24:30Z</time>
      </trkpt>
      <trkpt lat="39.16129202296548" lon="117.7573057086656">
        <ele>-7.4</ele>
        <time>2025-09-28T09:25:28Z</time>
      </trkpt>
      <trkpt lat="39.1613160307073" lon="117.7573507498408">
        <ele>-7.5</ele>
        <time>2025-09-28T09:25:32Z</time>
      </trkpt>
      <trkpt lat="39.161348036226634" lon="117.75740079502681">
        <ele>-7.5</ele>
        <time>2025-09-28T09:25:40Z</time>
      </trkpt>
      <trkpt lat="39.16138404044753" lon="117.75745284180198">
        <ele>-7.1</ele>
        <time>2025-09-28T09:25:44Z</time>
      </trkpt>
      <trkpt lat="39.161424051811" lon="117.75752390704349">
        <ele>-7.1</ele>
        <time>2025-09-28T09:25:46Z</time>
      </trkpt>
      <trkpt lat="39.16146706357159" lon="117.75759897612937">
        <ele>-6.9</ele>
        <time>2025-09-28T09:25:48Z</time>
      </trkpt>
      <trkpt lat="39.16151107544557" lon="117.75767504635847">
        <ele>-6.9</ele>
        <time>2025-09-28T09:25:50Z</time>
      </trkpt>
      <trkpt lat="39.161557086846955" lon="117.75775211761436">
        <ele>-6.9</ele>
        <time>2025-09-28T09:25:52Z</time>
      </trkpt>
      <trkpt lat="39.1616050962624" lon="117.75782718688721">
        <ele>-6.9</ele>
        <time>2025-09-28T09:25:54Z</time>
      </trkpt>
      <trkpt lat="39.161658102912725" lon="117.75790225579432">
        <ele>-6.9</ele>
        <time>2025-09-28T09:25:56Z</time>
      </trkpt>
      <trkpt lat="39.161709108907004" lon="117.75797332117043">
        <ele>-7</ele>
        <time>2025-09-28T09:25:58Z</time>
      </trkpt>
      <trkpt lat="39.16175711326341" lon="117.75803738005054">
        <ele>-7</ele>
        <time>2025-09-28T09:26:00Z</time>
      </trkpt>
      <trkpt lat="39.161798118309385" lon="117.75809443287903">
        <ele>-7</ele>
        <time>2025-09-28T09:26:02Z</time>
      </trkpt>
      <trkpt lat="39.161835125331756" lon="117.75815048535017">
        <ele>-7</ele>
        <time>2025-09-28T09:26:04Z</time>
      </trkpt>
      <trkpt lat="39.161873134480125" lon="117.75821154297071">
        <ele>-7</ele>
        <time>2025-09-28T09:26:06Z</time>
      </trkpt>
      <trkpt lat="39.16191514610013" lon="117.75828160951714">
        <ele>-6.8</ele>
        <time>2025-09-28T09:26:08Z</time>
      </trkpt>
      <trkpt lat="39.161959159342615" lon="117.75835668120504">
        <ele>-6.8</ele>
        <time>2025-09-28T09:26:10Z</time>
      </trkpt>
      <trkpt lat="39.16200317120282" lon="117.75842875005523">
        <ele>-6.8</ele>
        <time>2025-09-28T09:26:12Z</time>
      </trkpt>
      <trkpt lat="39.16204418503418" lon="117.75850081953567">
        <ele>-6.7</ele>
        <time>2025-09-28T09:26:14Z</time>
      </trkpt>
      <trkpt lat="39.16208519958871" lon="117.75857389030719">
        <ele>-6.7</ele>
        <time>2025-09-28T09:26:16Z</time>
      </trkpt>
      <trkpt lat="39.16212521761665" lon="117.75865196669271">
        <ele>-6.6</ele>
        <time>2025-09-28T09:26:18Z</time>
      </trkpt>
      <trkpt lat="39.16216423537994" lon="117.75872804139651">
        <ele>-6.6</ele>
        <time>2025-09-28T09:26:20Z</time>
      </trkpt>
      <trkpt lat="39.16220325281054" lon="117.758803115323">
        <ele>-6.6</ele>
        <time>2025-09-28T09:26:22Z</time>
      </trkpt>
      <trkpt lat="39.16224126885836" lon="117.75887418541723">
        <ele>-6.7</ele>
        <time>2025-09-28T09:26:24Z</time>
      </trkpt>
      <trkpt lat="39.16228428102405" lon="117.75894325299542">
        <ele>-6.7</ele>
        <time>2025-09-28T09:26:26Z</time>
      </trkpt>
      <trkpt lat="39.16232629285641" lon="117.75901031880122">
        <ele>-6.6</ele>
        <time>2025-09-28T09:26:28Z</time>
      </trkpt>
      <trkpt lat="39.16236730599841" lon="117.75907838601546">
        <ele>-6.6</ele>
        <time>2025-09-28T09:26:30Z</time>
      </trkpt>
      <trkpt lat="39.16241031756547" lon="117.75914545212599">
        <ele>-6.6</ele>
        <time>2025-09-28T09:26:32Z</time>
      </trkpt>
      <trkpt lat="39.16245532476378" lon="117.75920651175804">
        <ele>-6.6</ele>
        <time>2025-09-28T09:26:34Z</time>
      </trkpt>
      <trkpt lat="39.16250831393055" lon="117.759243544744">
        <ele>-6.6</ele>
        <time>2025-09-28T09:26:36Z</time>
      </trkpt>
      <trkpt lat="39.16256528063956" lon="117.75924453856574">
        <ele>-6.6</ele>
        <time>2025-09-28T09:26:38Z</time>
      </trkpt>
      <trkpt lat="39.16262522659576" lon="117.75921149549146">
        <ele>-6.6</ele>
        <time>2025-09-28T09:26:40Z</time>
      </trkpt>
      <trkpt lat="39.16268316432992" lon="117.75916143451379">
        <ele>-6.6</ele>
        <time>2025-09-28T09:26:42Z</time>
      </trkpt>
      <trkpt lat="39.16273810282962" lon="117.75910937190038">
        <ele>-6.7</ele>
        <time>2025-09-28T09:26:44Z</time>
      </trkpt>
      <trkpt lat="39.16279204202207" lon="117.75905730954318">
        <ele>-6.7</ele>
        <time>2025-09-28T09:26:46Z</time>
      </trkpt>
      <trkpt lat="39.16284598186348" lon="117.75900624837833">
        <ele>-6.7</ele>
        <time>2025-09-28T09:26:48Z</time>
      </trkpt>
      <trkpt lat="39.16290092175464" lon="117.75895618827127">
        <ele>-6.7</ele>
        <time>2025-09-28T09:26:50Z</time>
      </trkpt>
      <trkpt lat="39.162954861238525" lon="117.75890412629374">
        <ele>-6.7</ele>
        <time>2025-09-28T09:26:52Z</time>
      </trkpt>
      <trkpt lat="39.163006800375726" lon="117.75884906153205">
        <ele>-6.6</ele>
        <time>2025-09-28T09:26:54Z</time>
      </trkpt>
      <trkpt lat="39.16305773967494" lon="117.7587929959889">
        <ele>-6.6</ele>
        <time>2025-09-28T09:26:56Z</time>
      </trkpt>
      <trkpt lat="39.16311267941604" lon="117.75874193533973">
        <ele>-6.6</ele>
        <time>2025-09-28T09:26:58Z</time>
      </trkpt>
      <trkpt lat="39.16317361515249" lon="117.75868987300306">
        <ele>-6.6</ele>
        <time>2025-09-28T09:27:00Z</time>
      </trkpt>
      <trkpt lat="39.163237550281146" lon="117.75863981250554">
        <ele>-6.6</ele>
        <time>2025-09-28T09:27:02Z</time>
      </trkpt>
      <trkpt lat="39.16330148603707" lon="117.75859075317103">
        <ele>-6.6</ele>
        <time>2025-09-28T09:27:04Z</time>
      </trkpt>
      <trkpt lat="39.16336542294818" lon="117.75854369603385">
        <ele>-6.6</ele>
        <time>2025-09-28T09:27:06Z</time>
      </trkpt>
      <trkpt lat="39.1634303582846" lon="117.75849463679714">
        <ele>-6.6</ele>
        <time>2025-09-28T09:27:08Z</time>
      </trkpt>
      <trkpt lat="39.16350029074255" lon="117.75844557703904">
        <ele>-6.6</ele>
        <time>2025-09-28T09:27:10Z</time>
      </trkpt>
      <trkpt lat="39.16357322256524" lon="117.75839851908262">
        <ele>-6.6</ele>
        <time>2025-09-28T09:27:12Z</time>
      </trkpt>
      <trkpt lat="39.163645155590025" lon="117.75835246239134">
        <ele>-6.5</ele>
        <time>2025-09-28T09:27:14Z</time>
      </trkpt>
      <trkpt lat="39.16371309211666" lon="117.75830840837037">
        <ele>-6.5</ele>
        <time>2025-09-28T09:27:16Z</time>
      </trkpt>
      <trkpt lat="39.163780030355156" lon="117.75826635662533">
        <ele>-6.6</ele>
        <time>2025-09-28T09:27:18Z</time>
      </trkpt>
      <trkpt lat="39.16384596977461" lon="117.75822530611808">
        <ele>-6.6</ele>
        <time>2025-09-28T09:27:20Z</time>
      </trkpt>
      <trkpt lat="39.16391190769648" lon="117.75818125261938">
        <ele>-6.6</ele>
        <time>2025-09-28T09:27:22Z</time>
      </trkpt>
      <trkpt lat="39.163978844060324" lon="117.7581351970427">
        <ele>-6.5</ele>
        <time>2025-09-28T09:27:24Z</time>
      </trkpt>
      <trkpt lat="39.164046779909725" lon="117.75808914144022">
        <ele>-6.5</ele>
        <time>2025-09-28T09:27:26Z</time>
      </trkpt>
      <trkpt lat="39.16411571679017" lon="117.75804608886412">
        <ele>-6.4</ele>
        <time>2025-09-28T09:27:28Z</time>
      </trkpt>
      <trkpt lat="39.1641866540945" lon="117.7580060391685">
        <ele>-6.4</ele>
        <time>2025-09-28T09:27:30Z</time>
      </trkpt>
      <trkpt lat="39.16425759145912" lon="117.75796598954967">
        <ele>-6.4</ele>
        <time>2025-09-28T09:27:32Z</time>
      </trkpt>
      <trkpt lat="39.16432852888404" lon="117.75792594000761">
        <ele>-6.3</ele>
        <time>2025-09-28T09:27:34Z</time>
      </trkpt>
      <trkpt lat="39.164396467639264" lon="117.75788488991444">
        <ele>-6.3</ele>
        <time>2025-09-28T09:27:36Z</time>
      </trkpt>
      <trkpt lat="39.16446540586451" lon="117.75784383977471">
        <ele>-6.4</ele>
        <time>2025-09-28T09:27:38Z</time>
      </trkpt>
      <trkpt lat="39.164534344659316" lon="117.7578037907215">
        <ele>-6.4</ele>
        <time>2025-09-28T09:27:40Z</time>
      </trkpt>
      <trkpt lat="39.16460328300947" lon="117.75776274074127">
        <ele>-6.4</ele>
        <time>2025-09-28T09:27:42Z</time>
      </trkpt>
      <trkpt lat="39.164667224891204" lon="117.7577226924801">
        <ele>-6.5</ele>
        <time>2025-09-28T09:27:44Z</time>
      </trkpt>
      <trkpt lat="39.16472317258068" lon="117.75768464731416">
        <ele>-6.5</ele>
        <time>2025-09-28T09:27:46Z</time>
      </trkpt>
      <trkpt lat="39.1647721239741" lon="117.75764560211034">
        <ele>-6.5</ele>
        <time>2025-09-28T09:27:48Z</time>
      </trkpt>
      <trkpt lat="39.164818078201236" lon="117.75760855935431">
        <ele>-6.5</ele>
        <time>2025-09-28T09:27:50Z</time>
      </trkpt>
      <trkpt lat="39.16486803060547" lon="117.7575725171497">
        <ele>-6.5</ele>
        <time>2025-09-28T09:27:52Z</time>
      </trkpt>
      <trkpt lat="39.16492198267329" lon="117.75754047847059">
        <ele>-6.4</ele>
        <time>2025-09-28T09:27:54Z</time>
      </trkpt>
      <trkpt lat="39.16497693319565" lon="117.75750643773031">
        <ele>-6.4</ele>
        <time>2025-09-28T09:27:56Z</time>
      </trkpt>
      <trkpt lat="39.16503287970944" lon="117.75746538999033">
        <ele>-6.4</ele>
        <time>2025-09-28T09:27:58Z</time>
      </trkpt>
      <trkpt lat="39.165092821452355" lon="117.75741933688484">
        <ele>-6.4</ele>
        <time>2025-09-28T09:28:00Z</time>
      </trkpt>
      <trkpt lat="39.165154760126015" lon="117.75736927968659">
        <ele>-6.4</ele>
        <time>2025-09-28T09:28:02Z</time>
      </trkpt>
      <trkpt lat="39.165219697603014" lon="117.75732022320945">
        <ele>-6.4</ele>
        <time>2025-09-28T09:28:04Z</time>
      </trkpt>
      <trkpt lat="39.16528463614347" lon="117.75727316880851">
        <ele>-6.4</ele>
        <time>2025-09-28T09:28:06Z</time>
      </trkpt>
      <trkpt lat="39.1653505736884" lon="117.75722511340872">
        <ele>-6.4</ele>
        <time>2025-09-28T09:28:08Z</time>
      </trkpt>
      <trkpt lat="39.16541251127299" lon="117.75717205375142">
        <ele>-6.4</ele>
        <time>2025-09-28T09:28:10Z</time>
      </trkpt>
      <trkpt lat="39.16547344811055" lon="117.75711599143847">
        <ele>-6.4</ele>
        <time>2025-09-28T09:28:12Z</time>
      </trkpt>
      <trkpt lat="39.165532386728906" lon="117.75706093050145">
        <ele>-6.5</ele>
        <time>2025-09-28T09:28:14Z</time>
      </trkpt>
      <trkpt lat="39.16559132641399" lon="117.75700787164534">
        <ele>-6.5</ele>
        <time>2025-09-28T09:28:16Z</time>
      </trkpt>
      <trkpt lat="39.165651266086144" lon="117.75695581376252">
        <ele>-6.5</ele>
        <time>2025-09-28T09:28:18Z</time>
      </trkpt>
      <trkpt lat="39.16571320467368" lon="117.75690375575567">
        <ele>-6.5</ele>
        <time>2025-09-28T09:28:20Z</time>
      </trkpt>
      <trkpt lat="39.165776142297695" lon="117.75685069679218">
        <ele>-6.5</ele>
        <time>2025-09-28T09:28:22Z</time>
      </trkpt>
      <trkpt lat="39.16584007943375" lon="117.7567976378371">
        <ele>-6.5</ele>
        <time>2025-09-28T09:28:24Z</time>
      </trkpt>
      <trkpt lat="39.165903015864004" lon="117.75674157628086">
        <ele>-6.5</ele>
        <time>2025-09-28T09:28:26Z</time>
      </trkpt>
      <trkpt lat="39.165965951479876" lon="117.75668351297242">
        <ele>-6.5</ele>
        <time>2025-09-28T09:28:28Z</time>
      </trkpt>
      <trkpt lat="39.16602488820065" lon="117.75662244748892">
        <ele>-6.4</ele>
        <time>2025-09-28T09:28:30Z</time>
      </trkpt>
      <trkpt lat="39.1660818276273" lon="117.7565643852781">
        <ele>-6.4</ele>
        <time>2025-09-28T09:28:32Z</time>
      </trkpt>
      <trkpt lat="39.16613676928152" lon="117.75650832537133">
        <ele>-6.7</ele>
        <time>2025-09-28T09:28:34Z</time>
      </trkpt>
      <trkpt lat="39.16618971315087" lon="117.75645426775237">
        <ele>-6.7</ele>
        <time>2025-09-28T09:28:36Z</time>
      </trkpt>
      <trkpt lat="39.166238660863215" lon="117.7564032135985">
        <ele>-6.7</ele>
        <time>2025-09-28T09:28:38Z</time>
      </trkpt>
      <trkpt lat="39.16628261254042" lon="117.75635416207886">
        <ele>-6.8</ele>
        <time>2025-09-28T09:28:40Z</time>
      </trkpt>
      <trkpt lat="39.1663225662243" lon="117.75630411025125">
        <ele>-6.8</ele>
        <time>2025-09-28T09:28:42Z</time>
      </trkpt>
      <trkpt lat="39.1663625200007" lon="117.75625405854477">
        <ele>-6.6</ele>
        <time>2025-09-28T09:28:44Z</time>
      </trkpt>
      <trkpt lat="39.166403470590815" lon="117.75619800126114">
        <ele>-6.6</ele>
        <time>2025-09-28T09:28:46Z</time>
      </trkpt>
      <trkpt lat="39.166446419666805" lon="117.75614094294936">
        <ele>-6.6</ele>
        <time>2025-09-28T09:28:48Z</time>
      </trkpt>
      <trkpt lat="39.16649136856555" lon="117.75608588638629">
        <ele>-6.9</ele>
        <time>2025-09-28T09:28:50Z</time>
      </trkpt>
      <trkpt lat="39.16653932684893" lon="117.7560558526096">
        <ele>-6.9</ele>
        <time>2025-09-28T09:28:52Z</time>
      </trkpt>
      <trkpt lat="39.166582300498895" lon="117.7560538452925">
        <ele>-6.9</ele>
        <time>2025-09-28T09:29:06Z</time>
      </trkpt>
      <trkpt lat="39.166619288328235" lon="117.75607586086403">
        <ele>-6.9</ele>
        <time>2025-09-28T09:29:08Z</time>
      </trkpt>
      <trkpt lat="39.16664928431844" lon="117.75610688566378">
        <ele>-6.7</ele>
        <time>2025-09-28T09:29:10Z</time>
      </trkpt>
      <trkpt lat="39.166678282718586" lon="117.75614191433968">
        <ele>-6.7</ele>
        <time>2025-09-28T09:29:12Z</time>
      </trkpt>
      <trkpt lat="39.16670728384606" lon="117.75618294863997">
        <ele>-6.7</ele>
        <time>2025-09-28T09:29:14Z</time>
      </trkpt>
      <trkpt lat="39.16674128521611" lon="117.75623098889386">
        <ele>-6.7</ele>
        <time>2025-09-28T09:29:16Z</time>
      </trkpt>
      <trkpt lat="39.166775288924924" lon="117.75628403392159">
        <ele>-6.7</ele>
        <time>2025-09-28T09:29:18Z</time>
      </trkpt>
      <trkpt lat="39.16680929409587" lon="117.75634008189108">
        <ele>-6.8</ele>
        <time>2025-09-28T09:29:20Z</time>
      </trkpt>
      <trkpt lat="39.16683930220584" lon="117.75639713145985">
        <ele>-6.8</ele>
        <time>2025-09-28T09:29:22Z</time>
      </trkpt>
      <trkpt lat="39.166868310570564" lon="117.75645318037267">
        <ele>-6.8</ele>
        <time>2025-09-28T09:29:24Z</time>
      </trkpt>
      <trkpt lat="39.166896320561065" lon="117.75651123145173">
        <ele>-6.8</ele>
        <time>2025-09-28T09:29:26Z</time>
      </trkpt>
      <trkpt lat="39.16692533285161" lon="117.7565752882454">
        <ele>-6.8</ele>
        <time>2025-09-28T09:29:28Z</time>
      </trkpt>
      <trkpt lat="39.166960344524206" lon="117.75664535017287">
        <ele>-6.7</ele>
        <time>2025-09-28T09:29:30Z</time>
      </trkpt>
      <trkpt lat="39.167003353040826" lon="117.7567184141796">
        <ele>-6.7</ele>
        <time>2025-09-28T09:29:32Z</time>
      </trkpt>
      <trkpt lat="39.167046363162" lon="117.75679448131572">
        <ele>-6.6</ele>
        <time>2025-09-28T09:29:34Z</time>
      </trkpt>
      <trkpt lat="39.16709037337596" lon="117.75687154956486">
        <ele>-6.6</ele>
        <time>2025-09-28T09:29:36Z</time>
      </trkpt>
      <trkpt lat="39.167135384166365" lon="117.75695061990288">
        <ele>-6.6</ele>
        <time>2025-09-28T09:29:38Z</time>
      </trkpt>
      <trkpt lat="39.1671823935241" lon="117.75702868931938">
        <ele>-6.7</ele>
        <time>2025-09-28T09:29:40Z</time>
      </trkpt>
      <trkpt lat="39.167229402624514" lon="117.75710575805756">
        <ele>-6.7</ele>
        <time>2025-09-28T09:29:42Z</time>
      </trkpt>
      <trkpt lat="39.16727441215922" lon="117.75718082538482">
        <ele>-6.7</ele>
        <time>2025-09-28T09:29:44Z</time>
      </trkpt>
      <trkpt lat="39.16731942044146" lon="117.75725289004534">
        <ele>-6.7</ele>
        <time>2025-09-28T09:29:46Z</time>
      </trkpt>
      <trkpt lat="39.167364427447446" lon="117.75732195200773">
        <ele>-6.7</ele>
        <time>2025-09-28T09:29:48Z</time>
      </trkpt>
      <trkpt lat="39.167409432663206" lon="117.75738701025612">
        <ele>-6.7</ele>
        <time>2025-09-28T09:29:50Z</time>
      </trkpt>
      <trkpt lat="39.167456436356915" lon="117.75745106746474">
        <ele>-6.7</ele>
        <time>2025-09-28T09:29:52Z</time>
      </trkpt>
      <trkpt lat="39.167506439913396" lon="117.75751812746513">
        <ele>-6.8</ele>
        <time>2025-09-28T09:29:54Z</time>
      </trkpt>
      <trkpt lat="39.16755544671915" lon="117.7575901927866">
        <ele>-6.8</ele>
        <time>2025-09-28T09:29:56Z</time>
      </trkpt>
      <trkpt lat="39.16759945717523" lon="117.75766325999335">
        <ele>-6.8</ele>
        <time>2025-09-28T09:29:58Z</time>
      </trkpt>
      <trkpt lat="39.16764046960181" lon="117.75773632783859">
        <ele>-6.9</ele>
        <time>2025-09-28T09:30:00Z</time>
      </trkpt>
      <trkpt lat="39.1676854793498" lon="117.757808394425">
        <ele>-6.9</ele>
        <time>2025-09-28T09:30:02Z</time>
      </trkpt>
      <trkpt lat="39.167734486411476" lon="117.7578794597421">
        <ele>-6.8</ele>
        <time>2025-09-28T09:30:04Z</time>
      </trkpt>
      <trkpt lat="39.16778749129095" lon="117.7579505247925">
        <ele>-6.8</ele>
        <time>2025-09-28T09:30:06Z</time>
      </trkpt>
      <trkpt lat="39.167840496869495" lon="117.75802259110162">
        <ele>-6.8</ele>
        <time>2025-09-28T09:30:08Z</time>
      </trkpt>
      <trkpt lat="39.16788750722191" lon="117.75809666046338">
        <ele>-6.9</ele>
        <time>2025-09-28T09:30:10Z</time>
      </trkpt>
      <trkpt lat="39.167930521180615" lon="117.75817273264441">
        <ele>-6.9</ele>
        <time>2025-09-28T09:30:12Z</time>
      </trkpt>
      <trkpt lat="39.16797253437425" lon="117.75824580214855">
        <ele>-6.9</ele>
        <time>2025-09-28T09:30:14Z</time>
      </trkpt>
      <trkpt lat="39.168016545528964" lon="117.75831686959275">
        <ele>-6.9</ele>
        <time>2025-09-28T09:30:16Z</time>
      </trkpt>
      <trkpt lat="39.16806255568446" lon="117.7583879370242">
        <ele>-6.9</ele>
        <time>2025-09-28T09:30:18Z</time>
      </trkpt>
      <trkpt lat="39.16810856602393" lon="117.75845900469737">
        <ele>-6.9</ele>
        <time>2025-09-28T09:30:20Z</time>
      </trkpt>
      <trkpt lat="39.16815457708011" lon="117.75853107365292">
        <ele>-6.9</ele>
        <time>2025-09-28T09:30:22Z</time>
      </trkpt>
      <trkpt lat="39.16820258767766" lon="117.75860414364651">
        <ele>-6.9</ele>
        <time>2025-09-28T09:30:24Z</time>
      </trkpt>
      <trkpt lat="39.168253595618786" lon="117.75867521141804">
        <ele>-6.8</ele>
        <time>2025-09-28T09:30:26Z</time>
      </trkpt>
      <trkpt lat="39.16830760250992" lon="117.75874728010012">
        <ele>-6.8</ele>
        <time>2025-09-28T09:30:28Z</time>
      </trkpt>
      <trkpt lat="39.168361610676726" lon="117.75882135113947">
        <ele>-6.7</ele>
        <time>2025-09-28T09:30:30Z</time>
      </trkpt>
      <trkpt lat="39.168413621864204" lon="117.75889842587007">
        <ele>-6.7</ele>
        <time>2025-09-28T09:30:32Z</time>
      </trkpt>
      <trkpt lat="39.16846163837817" lon="117.75898050670386">
        <ele>-6.7</ele>
        <time>2025-09-28T09:30:34Z</time>
      </trkpt>
      <trkpt lat="39.16850865627992" lon="117.7590635890524">
        <ele>-6.8</ele>
        <time>2025-09-28T09:30:36Z</time>
      </trkpt>
      <trkpt lat="39.16855867210254" lon="117.75914567027796">
        <ele>-6.8</ele>
        <time>2025-09-28T09:30:38Z</time>
      </trkpt>
      <trkpt lat="39.16860868705335" lon="117.75922574967649">
        <ele>-6.7</ele>
        <time>2025-09-28T09:30:40Z</time>
      </trkpt>
      <trkpt lat="39.168658703358204" lon="117.75930783153598">
        <ele>-6.7</ele>
        <time>2025-09-28T09:30:42Z</time>
      </trkpt>
      <trkpt lat="39.16870772162607" lon="117.759391916007">
        <ele>-6.7</ele>
        <time>2025-09-28T09:30:44Z</time>
      </trkpt>
      <trkpt lat="39.168754740198395" lon="117.75947399889723">
        <ele>-6.6</ele>
        <time>2025-09-28T09:30:46Z</time>
      </trkpt>
      <trkpt lat="39.1688017578746" lon="117.75955407992853">
        <ele>-6.6</ele>
        <time>2025-09-28T09:30:48Z</time>
      </trkpt>
      <trkpt lat="39.168848775782486" lon="117.75963416126456">
        <ele>-6.7</ele>
        <time>2025-09-28T09:30:50Z</time>
      </trkpt>
      <trkpt lat="39.16889479451322" lon="117.75971424303239">
        <ele>-6.7</ele>
        <time>2025-09-28T09:30:52Z</time>
      </trkpt>
      <trkpt lat="39.16893981117491" lon="117.75978931972757">
        <ele>-6.7</ele>
        <time>2025-09-28T09:30:54Z</time>
      </trkpt>
      <trkpt lat="39.16898082459711" lon="117.7598543861585">
        <ele>-6.9</ele>
        <time>2025-09-28T09:30:56Z</time>
      </trkpt>
      <trkpt lat="39.16901283533538" lon="117.75990543844333">
        <ele>-6.9</ele>
        <time>2025-09-28T09:30:58Z</time>
      </trkpt>
      <trkpt lat="39.16903884153867" lon="117.75994247609843">
        <ele>-7</ele>
        <time>2025-09-28T09:31:00Z</time>
      </trkpt>
      <trkpt lat="39.16906384194889" lon="117.75996850174118">
        <ele>-7</ele>
        <time>2025-09-28T09:31:02Z</time>
      </trkpt>
      <trkpt lat="39.16909484235108" lon="117.7600005333162">
        <ele>-7</ele>
        <time>2025-09-28T09:31:04Z</time>
      </trkpt>
      <trkpt lat="39.16912484690423" lon="117.7600385717417">
        <ele>-6.9</ele>
        <time>2025-09-28T09:31:08Z</time>
      </trkpt>
      <trkpt lat="39.16915285504653" lon="117.76008061494818">
        <ele>-7</ele>
        <time>2025-09-28T09:31:10Z</time>
      </trkpt>
      <trkpt lat="39.16917586030774" lon="117.76011264771148">
        <ele>-7</ele>
        <time>2025-09-28T09:31:12Z</time>
      </trkpt>
      <trkpt lat="39.16920286205951" lon="117.76014267777916">
        <ele>-7</ele>
        <time>2025-09-28T09:31:14Z</time>
      </trkpt>
      <trkpt lat="39.16923385851982" lon="117.76016770178639">
        <ele>-6.8</ele>
        <time>2025-09-28T09:31:16Z</time>
      </trkpt>
      <trkpt lat="39.16927184316275" lon="117.76017971037795">
        <ele>-6.8</ele>
        <time>2025-09-28T09:31:18Z</time>
      </trkpt>
      <trkpt lat="39.16930981537258" lon="117.76017069547028">
        <ele>-6.9</ele>
        <time>2025-09-28T09:31:20Z</time>
      </trkpt>
      <trkpt lat="39.16934478048875" lon="117.76014666417738">
        <ele>-6.9</ele>
        <time>2025-09-28T09:31:22Z</time>
      </trkpt>
      <trkpt lat="39.169374742680894" lon="117.76011262238485">
        <ele>-6.9</ele>
        <time>2025-09-28T09:31:24Z</time>
      </trkpt>
      <trkpt lat="39.16940470373774" lon="117.76007657841824">
        <ele>-6.9</ele>
        <time>2025-09-28T09:31:26Z</time>
      </trkpt>
      <trkpt lat="39.16944066658238" lon="117.76004954376543">
        <ele>-6.9</ele>
        <time>2025-09-28T09:31:28Z</time>
      </trkpt>
      <trkpt lat="39.16947564765991" lon="117.76005254265046">
        <ele>-6.9</ele>
        <time>2025-09-28T09:31:30Z</time>
      </trkpt>
      <trkpt lat="39.169509645802265" lon="117.76008357285662">
        <ele>-6.9</ele>
        <time>2025-09-28T09:31:32Z</time>
      </trkpt>
      <trkpt lat="39.16953965933088" lon="117.76013662818507">
        <ele>-6.9</ele>
        <time>2025-09-28T09:31:34Z</time>
      </trkpt>
      <trkpt lat="39.16956867473708" lon="117.7601916860136">
        <ele>-6.8</ele>
        <time>2025-09-28T09:31:36Z</time>
      </trkpt>
      <trkpt lat="39.16959968907034" lon="117.760246743731">
        <ele>-6.8</ele>
        <time>2025-09-28T09:31:38Z</time>
      </trkpt>
      <trkpt lat="39.169632700540916" lon="117.76029879796234">
        <ele>-6.8</ele>
        <time>2025-09-28T09:31:40Z</time>
      </trkpt>
      <trkpt lat="39.169673706783186" lon="117.76034985017628">
        <ele>-6.8</ele>
        <time>2025-09-28T09:31:42Z</time>
      </trkpt>
      <trkpt lat="39.169716716740425" lon="117.76040891129833">
        <ele>-6.8</ele>
        <time>2025-09-28T09:31:44Z</time>
      </trkpt>
      <trkpt lat="39.16976172805218" lon="117.76047197686268">
        <ele>-6.8</ele>
        <time>2025-09-28T09:31:46Z</time>
      </trkpt>
      <trkpt lat="39.16980674132221" lon="117.76053804602334">
        <ele>-6.8</ele>
        <time>2025-09-28T09:31:48Z</time>
      </trkpt>
      <trkpt lat="39.16985175474914" lon="117.7606041153901">
        <ele>-6.8</ele>
        <time>2025-09-28T09:31:50Z</time>
      </trkpt>
      <trkpt lat="39.169894771344225" lon="117.76067318864493">
        <ele>-6.8</ele>
        <time>2025-09-28T09:31:52Z</time>
      </trkpt>
      <trkpt lat="39.16993578990454" lon="117.76074326352521">
        <ele>-6.8</ele>
        <time>2025-09-28T09:31:54Z</time>
      </trkpt>
      <trkpt lat="39.169974810437395" lon="117.76081434004072">
        <ele>-6.8</ele>
        <time>2025-09-28T09:31:56Z</time>
      </trkpt>
      <trkpt lat="39.170015831822326" lon="117.76088841999778">
        <ele>-6.8</ele>
        <time>2025-09-28T09:31:58Z</time>
      </trkpt>
      <trkpt lat="39.170054855205464" lon="117.76096350162406">
        <ele>-6.8</ele>
        <time>2025-09-28T09:32:00Z</time>
      </trkpt>
      <trkpt lat="39.17009587760865" lon="117.76103858326113">
        <ele>-6.8</ele>
        <time>2025-09-28T09:32:02Z</time>
      </trkpt>
      <trkpt lat="39.17013589955281" lon="117.76111166296397">
        <ele>-6.8</ele>
        <time>2025-09-28T09:32:04Z</time>
      </trkpt>
      <trkpt lat="39.17017891991563" lon="117.76118474253614">
        <ele>-6.9</ele>
        <time>2025-09-28T09:32:06Z</time>
      </trkpt>
      <trkpt lat="39.170220942321635" lon="117.76125982482691">
        <ele>-6.9</ele>
        <time>2025-09-28T09:32:08Z</time>
      </trkpt>
      <trkpt lat="39.17026396623899" lon="117.7613379107767">
        <ele>-6.8</ele>
        <time>2025-09-28T09:32:10Z</time>
      </trkpt>
      <trkpt lat="39.17030699164677" lon="117.76141799936795">
        <ele>-6.8</ele>
        <time>2025-09-28T09:32:12Z</time>
      </trkpt>
      <trkpt lat="39.170349019152574" lon="117.7615000907503">
        <ele>-6.8</ele>
        <time>2025-09-28T09:32:14Z</time>
      </trkpt>
      <trkpt lat="39.17039004813133" lon="117.76158318376125">
        <ele>-6.8</ele>
        <time>2025-09-28T09:32:16Z</time>
      </trkpt>
      <trkpt lat="39.170430078591686" lon="117.76166727841228">
        <ele>-6.8</ele>
        <time>2025-09-28T09:32:18Z</time>
      </trkpt>
      <trkpt lat="39.17046910859741" lon="117.76174937113517">
        <ele>-6.8</ele>
        <time>2025-09-28T09:32:20Z</time>
      </trkpt>
      <trkpt lat="39.170506142628724" lon="117.7618354692165">
        <ele>-6.8</ele>
        <time>2025-09-28T09:32:22Z</time>
      </trkpt>
      <trkpt lat="39.17054117941303" lon="117.76192357030166">
        <ele>-6.8</ele>
        <time>2025-09-28T09:32:24Z</time>
      </trkpt>
      <trkpt lat="39.17057521706305" lon="117.76201167187678">
        <ele>-6.8</ele>
        <time>2025-09-28T09:32:26Z</time>
      </trkpt>
      <trkpt lat="39.17061225255577" lon="117.76209877222303">
        <ele>-6.8</ele>
        <time>2025-09-28T09:32:28Z</time>
      </trkpt>
      <trkpt lat="39.17065028772664" lon="117.76218587279612">
        <ele>-6.8</ele>
        <time>2025-09-28T09:32:30Z</time>
      </trkpt>
      <trkpt lat="39.17068432486121" lon="117.76227197301436">
        <ele>-7</ele>
        <time>2025-09-28T09:32:32Z</time>
      </trkpt>
      <trkpt lat="39.17071535532474" lon="117.76234505808222">
        <ele>-7</ele>
        <time>2025-09-28T09:32:34Z</time>
      </trkpt>
      <trkpt lat="39.1707423809498" lon="117.76240713044163">
        <ele>-7.2</ele>
        <time>2025-09-28T09:32:36Z</time>
      </trkpt>
      <trkpt lat="39.170769403342746" lon="117.76246419684684">
        <ele>-7.2</ele>
        <time>2025-09-28T09:32:38Z</time>
      </trkpt>
      <trkpt lat="39.17079443243736" lon="117.76252927349368">
        <ele>-7.2</ele>
        <time>2025-09-28T09:32:40Z</time>
      </trkpt>
      <trkpt lat="39.17081846701975" lon="117.76260135909459">
        <ele>-7.1</ele>
        <time>2025-09-28T09:32:42Z</time>
      </trkpt>
      <trkpt lat="39.170841506461954" lon="117.7626794524832">
        <ele>-7.1</ele>
        <time>2025-09-28T09:32:44Z</time>
      </trkpt>
      <trkpt lat="39.17086354807719" lon="117.76275954876299">
        <ele>-7</ele>
        <time>2025-09-28T09:32:46Z</time>
      </trkpt>
      <trkpt lat="39.170886588640975" lon="117.76283864396933">
        <ele>-7</ele>
        <time>2025-09-28T09:32:48Z</time>
      </trkpt>
      <trkpt lat="39.170910626765924" lon="117.76291473559586">
        <ele>-7</ele>
        <time>2025-09-28T09:32:50Z</time>
      </trkpt>
      <trkpt lat="39.17093566104394" lon="117.76298582110876">
        <ele>-7</ele>
        <time>2025-09-28T09:32:52Z</time>
      </trkpt>
      <trkpt lat="39.17095969192404" lon="117.763050899459">
        <ele>-7</ele>
        <time>2025-09-28T09:32:54Z</time>
      </trkpt>
      <trkpt lat="39.17099071185714" lon="117.76310596454822">
        <ele>-6.9</ele>
        <time>2025-09-28T09:32:56Z</time>
      </trkpt>
      <trkpt lat="39.17103470469005" lon="117.76313299289052">
        <ele>-6.9</ele>
        <time>2025-09-28T09:32:58Z</time>
      </trkpt>
      <trkpt lat="39.171084671688135" lon="117.76312798024108">
        <ele>-6.9</ele>
        <time>2025-09-28T09:33:00Z</time>
      </trkpt>
      <trkpt lat="39.17113661870839" lon="117.76309593341026">
        <ele>-6.4</ele>
        <time>2025-09-28T09:33:02Z</time>
      </trkpt>
      <trkpt lat="39.171176567292996" lon="117.7630558781193">
        <ele>-6.4</ele>
        <time>2025-09-28T09:33:04Z</time>
      </trkpt>
      <trkpt lat="39.17121052571441" lon="117.76302483493816">
        <ele>-6</ele>
        <time>2025-09-28T09:33:06Z</time>
      </trkpt>
      <trkpt lat="39.1712444890164" lon="117.76300080056139">
        <ele>-6</ele>
        <time>2025-09-28T09:33:08Z</time>
      </trkpt>
      <trkpt lat="39.17128744979368" lon="117.76298077006835">
        <ele>-6</ele>
        <time>2025-09-28T09:33:10Z</time>
      </trkpt>
      <trkpt lat="39.171339415643445" lon="117.7629757571995">
        <ele>-5.9</ele>
        <time>2025-09-28T09:33:12Z</time>
      </trkpt>
      <trkpt lat="39.171391398791144" lon="117.76299577560049">
        <ele>-5.9</ele>
        <time>2025-09-28T09:33:14Z</time>
      </trkpt>
      <trkpt lat="39.171439407202186" lon="117.76304883587888">
        <ele>-5.8</ele>
        <time>2025-09-28T09:33:16Z</time>
      </trkpt>
      <trkpt lat="39.17147743345164" lon="117.76311891892307">
        <ele>-5.8</ele>
        <time>2025-09-28T09:33:18Z</time>
      </trkpt>
      <trkpt lat="39.17150647077877" lon="117.76319701342362">
        <ele>-5.8</ele>
        <time>2025-09-28T09:33:20Z</time>
      </trkpt>
      <trkpt lat="39.1715335073941" lon="117.76327210466819">
        <ele>-5.8</ele>
        <time>2025-09-28T09:33:22Z</time>
      </trkpt>
      <trkpt lat="39.171563535392494" lon="117.76333718311803">
        <ele>-5.8</ele>
        <time>2025-09-28T09:33:24Z</time>
      </trkpt>
      <trkpt lat="39.17160654033285" lon="117.7633802321773">
        <ele>-5.9</ele>
        <time>2025-09-28T09:33:26Z</time>
      </trkpt>
      <trkpt lat="39.17165452189239" lon="117.76339424384273">
        <ele>-5.9</ele>
        <time>2025-09-28T09:33:28Z</time>
      </trkpt>
      <trkpt lat="39.17170947743722" lon="117.76337721526527">
        <ele>-5.9</ele>
        <time>2025-09-28T09:33:30Z</time>
      </trkpt>
      <trkpt lat="39.17176441960369" lon="117.76334116261336">
        <ele>-5.8</ele>
        <time>2025-09-28T09:33:32Z</time>
      </trkpt>
      <trkpt lat="39.171823354535825" lon="117.7632981006539">
        <ele>-5.8</ele>
        <time>2025-09-28T09:33:34Z</time>
      </trkpt>
      <trkpt lat="39.17188229093715" lon="117.76325704130682">
        <ele>-5.7</ele>
        <time>2025-09-28T09:33:36Z</time>
      </trkpt>
      <trkpt lat="39.17194022868895" lon="117.76321698342635">
        <ele>-5.7</ele>
        <time>2025-09-28T09:33:38Z</time>
      </trkpt>
      <trkpt lat="39.17199517036425" lon="117.7631799297811">
        <ele>-5.7</ele>
        <time>2025-09-28T09:33:40Z</time>
      </trkpt>
      <trkpt lat="39.17204112228112" lon="117.76314988615269">
        <ele>-5.9</ele>
        <time>2025-09-28T09:33:42Z</time>
      </trkpt>
      <trkpt lat="39.17208207996684" lon="117.7631238482309">
        <ele>-5.9</ele>
        <time>2025-09-28T09:33:44Z</time>
      </trkpt>
      <trkpt lat="39.172121040944546" lon="117.76310081436337">
        <ele>-5.8</ele>
        <time>2025-09-28T09:33:46Z</time>
      </trkpt>
      <trkpt lat="39.172159012266995" lon="117.76309179822422">
        <ele>-5.8</ele>
        <time>2025-09-28T09:33:48Z</time>
      </trkpt>
      <trkpt lat="39.17219600157709" lon="117.76310781361512">
        <ele>-5.8</ele>
        <time>2025-09-28T09:33:50Z</time>
      </trkpt>
      <trkpt lat="39.17223100113746" lon="117.76313684562102">
        <ele>-5.9</ele>
        <time>2025-09-28T09:33:52Z</time>
      </trkpt>
      <trkpt lat="39.1722689919777" lon="117.76315586469423">
        <ele>-5.9</ele>
        <time>2025-09-28T09:33:54Z</time>
      </trkpt>
      <trkpt lat="39.17230996709756" lon="117.7631548582187">
        <ele>-6.2</ele>
        <time>2025-09-28T09:33:56Z</time>
      </trkpt>
    </trkseg>
  </trk>
</gpx>