<?xml version="1.0" encoding="UTF-8"?>
<gpx xmlns="http://www.topografix.com/GPX/1/1" xmlns:gpxtpx="http://www.garmin.com/xmlschemas/TrackPointExtension/v1" xmlns:xsi="http://www.w3.org/2001/XMLSchema-instance" xsi:schemaLocation="http://www.topografix.com/GPX/1/1 http://www.topografix.com/GPX/1/1/gpx.xsd" version="1.1" creator="gpx.py -- https://github.com/tkrajina/gpxpy">
  <trk>
    <name>gpx from codoon</name>
    <type>Run</type>
    <trkseg>
      <trkpt lat="39.171454642743065" lon="117.76339827436836">
        <ele>3.8</ele>
        <time>2025-09-28T23:18:48Z</time>
      </trkpt>
      <trkpt lat="39.17149857868202" lon="117.76334420025923">
        <ele>3.9</ele>
        <time>2025-09-28T23:18:49Z</time>
      </trkpt>
      <trkpt lat="39.17152651433323" lon="117.76327611061573">
        <ele>3.9</ele>
        <time>2025-09-28T23:18:50Z</time>
      </trkpt>
      <trkpt lat="39.17148449145697" lon="117.76320803009281">
        <ele>3.9</ele>
        <time>2025-09-28T23:18:53Z</time>
      </trkpt>
      <trkpt lat="39.1714284756117" lon="117.76313794904969">
        <ele>4</ele>
        <time>2025-09-28T23:18:55Z</time>
      </trkpt>
      <trkpt lat="39.17136247696337" lon="117.7630838895871">
        <ele>4</ele>
        <time>2025-09-28T23:18:57Z</time>
      </trkpt>
      <trkpt lat="39.17131847514632" lon="117.76304384500598">
        <ele>4</ele>
        <time>2025-09-28T23:18:59Z</time>
      </trkpt>
      <trkpt lat="39.17126550087839" lon="117.76303584172246">
        <ele>4</ele>
        <time>2025-09-28T23:19:01Z</time>
      </trkpt>
      <trkpt lat="39.17120555364719" lon="117.76306088070066">
        <ele>4</ele>
        <time>2025-09-28T23:19:03Z</time>
      </trkpt>
      <trkpt lat="39.1711396252895" lon="117.76310794810351">
        <ele>3.3</ele>
        <time>2025-09-28T23:19:05Z</time>
      </trkpt>
      <trkpt lat="39.17106768590588" lon="117.76313398994957">
        <ele>3.3</ele>
        <time>2025-09-28T23:19:07Z</time>
      </trkpt>
      <trkpt lat="39.170997711205736" lon="117.76311096994031">
        <ele>3.3</ele>
        <time>2025-09-28T23:19:09Z</time>
      </trkpt>
      <trkpt lat="39.17094469522724" lon="117.76304289133799">
        <ele>2.7</ele>
        <time>2025-09-28T23:19:11Z</time>
      </trkpt>
      <trkpt lat="39.170903657813106" lon="117.7629537851766">
        <ele>2.7</ele>
        <time>2025-09-28T23:19:13Z</time>
      </trkpt>
      <trkpt lat="39.170866617629045" lon="117.7628636776292">
        <ele>2.7</ele>
        <time>2025-09-28T23:19:15Z</time>
      </trkpt>
      <trkpt lat="39.17082957978429" lon="117.7627765741817">
        <ele>2.7</ele>
        <time>2025-09-28T23:19:17Z</time>
      </trkpt>
      <trkpt lat="39.17079953466658" lon="117.76268446401092">
        <ele>2.7</ele>
        <time>2025-09-28T23:19:19Z</time>
      </trkpt>
      <trkpt lat="39.17076949120391" lon="117.76259435669952">
        <ele>2.5</ele>
        <time>2025-09-28T23:19:21Z</time>
      </trkpt>
      <trkpt lat="39.17074044676198" lon="117.7625032484099">
        <ele>2.5</ele>
        <time>2025-09-28T23:19:23Z</time>
      </trkpt>
      <trkpt lat="39.17071040589047" lon="117.76241614553078">
        <ele>2.3</ele>
        <time>2025-09-28T23:19:25Z</time>
      </trkpt>
      <trkpt lat="39.17068236410577" lon="117.76232904275038">
        <ele>2.3</ele>
        <time>2025-09-28T23:19:27Z</time>
      </trkpt>
      <trkpt lat="39.170652324435764" lon="117.76224294179417">
        <ele>2.3</ele>
        <time>2025-09-28T23:19:29Z</time>
      </trkpt>
      <trkpt lat="39.17062128429299" lon="117.76215483888633">
        <ele>2.5</ele>
        <time>2025-09-28T23:19:31Z</time>
      </trkpt>
      <trkpt lat="39.17059024376529" lon="117.76206573513255">
        <ele>2.5</ele>
        <time>2025-09-28T23:19:33Z</time>
      </trkpt>
      <trkpt lat="39.17055720601245" lon="117.76197863441166">
        <ele>2.4</ele>
        <time>2025-09-28T23:19:35Z</time>
      </trkpt>
      <trkpt lat="39.170522172323054" lon="117.76189553909948">
        <ele>2.4</ele>
        <time>2025-09-28T23:19:37Z</time>
      </trkpt>
      <trkpt lat="39.17048714083024" lon="117.76181544769878">
        <ele>2.4</ele>
        <time>2025-09-28T23:19:39Z</time>
      </trkpt>
      <trkpt lat="39.17045510908896" lon="117.76173735860151">
        <ele>2.5</ele>
        <time>2025-09-28T23:19:41Z</time>
      </trkpt>
      <trkpt lat="39.170418082452606" lon="117.76166227399307">
        <ele>2.5</ele>
        <time>2025-09-28T23:19:43Z</time>
      </trkpt>
      <trkpt lat="39.17038005467995" lon="117.76158418621922">
        <ele>2.7</ele>
        <time>2025-09-28T23:19:45Z</time>
      </trkpt>
      <trkpt lat="39.17033802756804" lon="117.76150309569488">
        <ele>2.7</ele>
        <time>2025-09-28T23:19:47Z</time>
      </trkpt>
      <trkpt lat="39.170296995644" lon="117.7614149971077">
        <ele>2.7</ele>
        <time>2025-09-28T23:19:49Z</time>
      </trkpt>
      <trkpt lat="39.17025196572581" lon="117.76132589822025">
        <ele>2.7</ele>
        <time>2025-09-28T23:19:51Z</time>
      </trkpt>
      <trkpt lat="39.17020693294081" lon="117.76123179386025">
        <ele>2.7</ele>
        <time>2025-09-28T23:19:53Z</time>
      </trkpt>
      <trkpt lat="39.17015890161729" lon="117.76113668913351">
        <ele>2.6</ele>
        <time>2025-09-28T23:19:55Z</time>
      </trkpt>
      <trkpt lat="39.170110871862946" lon="117.76104358715196">
        <ele>2.6</ele>
        <time>2025-09-28T23:19:57Z</time>
      </trkpt>
      <trkpt lat="39.17005984667027" lon="117.760954490583">
        <ele>2.6</ele>
        <time>2025-09-28T23:19:59Z</time>
      </trkpt>
      <trkpt lat="39.17000982240453" lon="117.76086739656387">
        <ele>2.5</ele>
        <time>2025-09-28T23:20:01Z</time>
      </trkpt>
      <trkpt lat="39.16995880022879" lon="117.76078230532462">
        <ele>2.5</ele>
        <time>2025-09-28T23:20:03Z</time>
      </trkpt>
      <trkpt lat="39.16990677890334" lon="117.76069721455389">
        <ele>2.4</ele>
        <time>2025-09-28T23:20:05Z</time>
      </trkpt>
      <trkpt lat="39.16985176021788" lon="117.76061312564609">
        <ele>2.4</ele>
        <time>2025-09-28T23:20:07Z</time>
      </trkpt>
      <trkpt lat="39.16979274414982" lon="117.760529037581">
        <ele>2.4</ele>
        <time>2025-09-28T23:20:09Z</time>
      </trkpt>
      <trkpt lat="39.1697347265416" lon="117.76044294745888">
        <ele>2.5</ele>
        <time>2025-09-28T23:20:11Z</time>
      </trkpt>
      <trkpt lat="39.16968270625305" lon="117.76035785805097">
        <ele>2.5</ele>
        <time>2025-09-28T23:20:13Z</time>
      </trkpt>
      <trkpt lat="39.169633684451945" lon="117.76027276860344">
        <ele>2.3</ele>
        <time>2025-09-28T23:20:15Z</time>
      </trkpt>
      <trkpt lat="39.16958166586922" lon="117.7601896821195">
        <ele>2.3</ele>
        <time>2025-09-28T23:20:17Z</time>
      </trkpt>
      <trkpt lat="39.16952764989634" lon="117.76010859844847">
        <ele>2.3</ele>
        <time>2025-09-28T23:20:19Z</time>
      </trkpt>
      <trkpt lat="39.16947463532998" lon="117.76003051829782">
        <ele>2.3</ele>
        <time>2025-09-28T23:20:21Z</time>
      </trkpt>
      <trkpt lat="39.16942662153372" lon="117.75995844445144">
        <ele>2.3</ele>
        <time>2025-09-28T23:20:23Z</time>
      </trkpt>
      <trkpt lat="39.169384607869674" lon="117.75989237672066">
        <ele>2.5</ele>
        <time>2025-09-28T23:20:25Z</time>
      </trkpt>
      <trkpt lat="39.16934159611339" lon="117.7598283115292">
        <ele>2.5</ele>
        <time>2025-09-28T23:20:27Z</time>
      </trkpt>
      <trkpt lat="39.16929758682861" lon="117.75976724995863">
        <ele>2.5</ele>
        <time>2025-09-28T23:20:29Z</time>
      </trkpt>
      <trkpt lat="39.16925057772631" lon="117.7597031856566">
        <ele>2.3</ele>
        <time>2025-09-28T23:20:31Z</time>
      </trkpt>
      <trkpt lat="39.16920356590871" lon="117.75963411608191">
        <ele>2.3</ele>
        <time>2025-09-28T23:20:33Z</time>
      </trkpt>
      <trkpt lat="39.169154554305614" lon="117.75956304480823">
        <ele>2.4</ele>
        <time>2025-09-28T23:20:35Z</time>
      </trkpt>
      <trkpt lat="39.16910654002424" lon="117.75948796930119">
        <ele>2.4</ele>
        <time>2025-09-28T23:20:37Z</time>
      </trkpt>
      <trkpt lat="39.16905952366164" lon="117.75940989068643">
        <ele>2.4</ele>
        <time>2025-09-28T23:20:39Z</time>
      </trkpt>
      <trkpt lat="39.169012506957806" lon="117.75933081128262">
        <ele>2.3</ele>
        <time>2025-09-28T23:20:41Z</time>
      </trkpt>
      <trkpt lat="39.1689634922216" lon="117.75925273350614">
        <ele>2.3</ele>
        <time>2025-09-28T23:20:43Z</time>
      </trkpt>
      <trkpt lat="39.168911478367804" lon="117.75917265425882">
        <ele>2.7</ele>
        <time>2025-09-28T23:20:45Z</time>
      </trkpt>
      <trkpt lat="39.168857465375886" lon="117.75909157450391">
        <ele>2.7</ele>
        <time>2025-09-28T23:20:47Z</time>
      </trkpt>
      <trkpt lat="39.168803452622484" lon="117.75901049506233">
        <ele>2.7</ele>
        <time>2025-09-28T23:20:49Z</time>
      </trkpt>
      <trkpt lat="39.168749440107696" lon="117.75892941593419">
        <ele>2.8</ele>
        <time>2025-09-28T23:20:51Z</time>
      </trkpt>
      <trkpt lat="39.16869542674312" lon="117.75884633500786">
        <ele>2.8</ele>
        <time>2025-09-28T23:20:53Z</time>
      </trkpt>
      <trkpt lat="39.16864041313827" lon="117.75876125243462">
        <ele>2.8</ele>
        <time>2025-09-28T23:20:55Z</time>
      </trkpt>
      <trkpt lat="39.16858539818247" lon="117.75867316706415">
        <ele>2.8</ele>
        <time>2025-09-28T23:20:57Z</time>
      </trkpt>
      <trkpt lat="39.16852838576114" lon="117.75858708440579">
        <ele>2.8</ele>
        <time>2025-09-28T23:20:59Z</time>
      </trkpt>
      <trkpt lat="39.16846937426063" lon="117.75850000131692">
        <ele>2.8</ele>
        <time>2025-09-28T23:21:01Z</time>
      </trkpt>
      <trkpt lat="39.16841036356485" lon="117.75841391962592">
        <ele>2.8</ele>
        <time>2025-09-28T23:21:03Z</time>
      </trkpt>
      <trkpt lat="39.168354349788544" lon="117.75832483481477">
        <ele>2.7</ele>
        <time>2025-09-28T23:21:05Z</time>
      </trkpt>
      <trkpt lat="39.16829733637077" lon="117.75823474948429">
        <ele>2.7</ele>
        <time>2025-09-28T23:21:07Z</time>
      </trkpt>
      <trkpt lat="39.16823832443188" lon="117.75814466479714">
        <ele>2.7</ele>
        <time>2025-09-28T23:21:09Z</time>
      </trkpt>
      <trkpt lat="39.16817931278907" lon="117.75805458049896">
        <ele>2.5</ele>
        <time>2025-09-28T23:21:11Z</time>
      </trkpt>
      <trkpt lat="39.16812030093028" lon="117.75796349557638">
        <ele>2.5</ele>
        <time>2025-09-28T23:21:13Z</time>
      </trkpt>
      <trkpt lat="39.16806228878288" lon="117.75787241092458">
        <ele>2.5</ele>
        <time>2025-09-28T23:21:15Z</time>
      </trkpt>
      <trkpt lat="39.16800527685253" lon="117.75778232754857">
        <ele>2.4</ele>
        <time>2025-09-28T23:21:17Z</time>
      </trkpt>
      <trkpt lat="39.16794926663673" lon="117.75769624843753">
        <ele>2.4</ele>
        <time>2025-09-28T23:21:19Z</time>
      </trkpt>
      <trkpt lat="39.16789325619264" lon="117.75760916868597">
        <ele>2.7</ele>
        <time>2025-09-28T23:21:21Z</time>
      </trkpt>
      <trkpt lat="39.16783624661771" lon="117.7575220894263">
        <ele>2.7</ele>
        <time>2025-09-28T23:21:23Z</time>
      </trkpt>
      <trkpt lat="39.16777623810975" lon="117.75743300893708">
        <ele>2.7</ele>
        <time>2025-09-28T23:21:25Z</time>
      </trkpt>
      <trkpt lat="39.16771522950516" lon="117.75734192698964">
        <ele>2.5</ele>
        <time>2025-09-28T23:21:27Z</time>
      </trkpt>
      <trkpt lat="39.16765522012675" lon="117.75724984433508">
        <ele>2.5</ele>
        <time>2025-09-28T23:21:29Z</time>
      </trkpt>
      <trkpt lat="39.16759521057647" lon="117.75715676111426">
        <ele>2.6</ele>
        <time>2025-09-28T23:21:31Z</time>
      </trkpt>
      <trkpt lat="39.16752420066746" lon="117.7570486651632">
        <ele>2.6</ele>
        <time>2025-09-28T23:21:33Z</time>
      </trkpt>
      <trkpt lat="39.16745419107047" lon="117.75694157061265">
        <ele>2.9</ele>
        <time>2025-09-28T23:21:36Z</time>
      </trkpt>
      <trkpt lat="39.167385180831936" lon="117.7568334755291">
        <ele>2.9</ele>
        <time>2025-09-28T23:21:38Z</time>
      </trkpt>
      <trkpt lat="39.16732717011847" lon="117.75673739105964">
        <ele>2.9</ele>
        <time>2025-09-28T23:21:40Z</time>
      </trkpt>
      <trkpt lat="39.16726816033618" lon="117.75664130716343">
        <ele>2.9</ele>
        <time>2025-09-28T23:21:42Z</time>
      </trkpt>
      <trkpt lat="39.16721215003838" lon="117.756547225222">
        <ele>2.9</ele>
        <time>2025-09-28T23:21:44Z</time>
      </trkpt>
      <trkpt lat="39.167156140523176" lon="117.75645414464928">
        <ele>2.8</ele>
        <time>2025-09-28T23:21:46Z</time>
      </trkpt>
      <trkpt lat="39.16710313000449" lon="117.7563620650501">
        <ele>2.8</ele>
        <time>2025-09-28T23:21:48Z</time>
      </trkpt>
      <trkpt lat="39.16705012024818" lon="117.75627098679314">
        <ele>2.8</ele>
        <time>2025-09-28T23:21:50Z</time>
      </trkpt>
      <trkpt lat="39.16700210962543" lon="117.75618391201165">
        <ele>2.6</ele>
        <time>2025-09-28T23:21:52Z</time>
      </trkpt>
      <trkpt lat="39.1669590994301" lon="117.75610384342635">
        <ele>2.6</ele>
        <time>2025-09-28T23:21:54Z</time>
      </trkpt>
      <trkpt lat="39.16692209121617" lon="117.7560357854304">
        <ele>2.6</ele>
        <time>2025-09-28T23:21:56Z</time>
      </trkpt>
      <trkpt lat="39.16688708946031" lon="117.7559847430038">
        <ele>2.6</ele>
        <time>2025-09-28T23:21:58Z</time>
      </trkpt>
      <trkpt lat="39.166854090559426" lon="117.7559427086908">
        <ele>2.6</ele>
        <time>2025-09-28T23:22:00Z</time>
      </trkpt>
      <trkpt lat="39.16682109390799" lon="117.75590567903386">
        <ele>2.6</ele>
        <time>2025-09-28T23:22:02Z</time>
      </trkpt>
      <trkpt lat="39.16678610023413" lon="117.75587265334802">
        <ele>2.6</ele>
        <time>2025-09-28T23:22:04Z</time>
      </trkpt>
      <trkpt lat="39.16675111312215" lon="117.75585464138528">
        <ele>2.5</ele>
        <time>2025-09-28T23:22:06Z</time>
      </trkpt>
      <trkpt lat="39.16671713282002" lon="117.7558536448022">
        <ele>2.5</ele>
        <time>2025-09-28T23:22:08Z</time>
      </trkpt>
      <trkpt lat="39.1666891554939" lon="117.75586766113491">
        <ele>2.5</ele>
        <time>2025-09-28T23:22:10Z</time>
      </trkpt>
      <trkpt lat="39.16666318004404" lon="117.75588868361487">
        <ele>2.5</ele>
        <time>2025-09-28T23:22:12Z</time>
      </trkpt>
      <trkpt lat="39.16664020545714" lon="117.75591571122145">
        <ele>2.5</ele>
        <time>2025-09-28T23:22:14Z</time>
      </trkpt>
      <trkpt lat="39.16661323589634" lon="117.75594874486944">
        <ele>2.1</ele>
        <time>2025-09-28T23:22:16Z</time>
      </trkpt>
      <trkpt lat="39.16658127549644" lon="117.75599579206187">
        <ele>2.1</ele>
        <time>2025-09-28T23:22:18Z</time>
      </trkpt>
      <trkpt lat="39.166543323152915" lon="117.75605284933617">
        <ele>2.1</ele>
        <time>2025-09-28T23:22:20Z</time>
      </trkpt>
      <trkpt lat="39.166501374631885" lon="117.75611291004986">
        <ele>2.1</ele>
        <time>2025-09-28T23:22:22Z</time>
      </trkpt>
      <trkpt lat="39.166459426243996" lon="117.7561729709382">
        <ele>2.1</ele>
        <time>2025-09-28T23:22:24Z</time>
      </trkpt>
      <trkpt lat="39.166413477665344" lon="117.75622702693087">
        <ele>2.3</ele>
        <time>2025-09-28T23:22:26Z</time>
      </trkpt>
      <trkpt lat="39.16636552902741" lon="117.75627808052259">
        <ele>2.3</ele>
        <time>2025-09-28T23:22:28Z</time>
      </trkpt>
      <trkpt lat="39.1663145813581" lon="117.75632713275294">
        <ele>2.3</ele>
        <time>2025-09-28T23:22:30Z</time>
      </trkpt>
      <trkpt lat="39.166264635002804" lon="117.75638018872066">
        <ele>2.2</ele>
        <time>2025-09-28T23:22:32Z</time>
      </trkpt>
      <trkpt lat="39.166212691761864" lon="117.75643724883842">
        <ele>2.2</ele>
        <time>2025-09-28T23:22:34Z</time>
      </trkpt>
      <trkpt lat="39.166157751794216" lon="117.75649731232375">
        <ele>2.1</ele>
        <time>2025-09-28T23:22:36Z</time>
      </trkpt>
      <trkpt lat="39.16609781446118" lon="117.75655637567411">
        <ele>2.1</ele>
        <time>2025-09-28T23:22:38Z</time>
      </trkpt>
      <trkpt lat="39.16603487949764" lon="117.7566164405234">
        <ele>2.1</ele>
        <time>2025-09-28T23:22:40Z</time>
      </trkpt>
      <trkpt lat="39.16597094619074" lon="117.75667850757728">
        <ele>2.1</ele>
        <time>2025-09-28T23:22:42Z</time>
      </trkpt>
      <trkpt lat="39.16590801383682" lon="117.75674357755379">
        <ele>2.1</ele>
        <time>2025-09-28T23:22:44Z</time>
      </trkpt>
      <trkpt lat="39.16584608010692" lon="117.75680664569157">
        <ele>2.1</ele>
        <time>2025-09-28T23:22:46Z</time>
      </trkpt>
      <trkpt lat="39.16578114688499" lon="117.75686671152071">
        <ele>2.1</ele>
        <time>2025-09-28T23:22:48Z</time>
      </trkpt>
      <trkpt lat="39.16571421450747" lon="117.75692577681482">
        <ele>2.1</ele>
        <time>2025-09-28T23:22:50Z</time>
      </trkpt>
      <trkpt lat="39.165649281550614" lon="117.75698584298887">
        <ele>2.2</ele>
        <time>2025-09-28T23:22:52Z</time>
      </trkpt>
      <trkpt lat="39.1655843482486" lon="117.75704490836738">
        <ele>2.2</ele>
        <time>2025-09-28T23:22:54Z</time>
      </trkpt>
      <trkpt lat="39.165517414818645" lon="117.75710097125227">
        <ele>2.3</ele>
        <time>2025-09-28T23:22:56Z</time>
      </trkpt>
      <trkpt lat="39.16544748280053" lon="117.75715603369564">
        <ele>2.3</ele>
        <time>2025-09-28T23:22:58Z</time>
      </trkpt>
      <trkpt lat="39.165376552942234" lon="117.75721409934432">
        <ele>2.3</ele>
        <time>2025-09-28T23:23:00Z</time>
      </trkpt>
      <trkpt lat="39.16530562418306" lon="117.75727416711581">
        <ele>2.3</ele>
        <time>2025-09-28T23:23:02Z</time>
      </trkpt>
      <trkpt lat="39.16523469653614" lon="117.7573362370274">
        <ele>2.3</ele>
        <time>2025-09-28T23:23:04Z</time>
      </trkpt>
      <trkpt lat="39.165161769725756" lon="117.75739730639249">
        <ele>2.3</ele>
        <time>2025-09-28T23:23:06Z</time>
      </trkpt>
      <trkpt lat="39.16508884255972" lon="117.75745737494759">
        <ele>2.3</ele>
        <time>2025-09-28T23:23:08Z</time>
      </trkpt>
      <trkpt lat="39.165016911463795" lon="117.75751043660556">
        <ele>2.3</ele>
        <time>2025-09-28T23:23:10Z</time>
      </trkpt>
      <trkpt lat="39.16494997402571" lon="117.75755649080355">
        <ele>2.1</ele>
        <time>2025-09-28T23:23:12Z</time>
      </trkpt>
      <trkpt lat="39.164896022474515" lon="117.75758953050283">
        <ele>2.1</ele>
        <time>2025-09-28T23:23:14Z</time>
      </trkpt>
      <trkpt lat="39.164852061038054" lon="117.7576145610063">
        <ele>2.1</ele>
        <time>2025-09-28T23:23:16Z</time>
      </trkpt>
      <trkpt lat="39.164815094473944" lon="117.75763758865313">
        <ele>2</ele>
        <time>2025-09-28T23:23:36Z</time>
      </trkpt>
      <trkpt lat="39.16477513271613" lon="117.75766662270173">
        <ele>2.1</ele>
        <time>2025-09-28T23:23:38Z</time>
      </trkpt>
      <trkpt lat="39.16473317066844" lon="117.7576926540437">
        <ele>2.1</ele>
        <time>2025-09-28T23:23:40Z</time>
      </trkpt>
      <trkpt lat="39.164692203022234" lon="117.75770867527595">
        <ele>2</ele>
        <time>2025-09-28T23:23:42Z</time>
      </trkpt>
      <trkpt lat="39.16465223479304" lon="117.75772469639321">
        <ele>2</ele>
        <time>2025-09-28T23:23:44Z</time>
      </trkpt>
      <trkpt lat="39.16460927541351" lon="117.75775473194837">
        <ele>2</ele>
        <time>2025-09-28T23:23:46Z</time>
      </trkpt>
      <trkpt lat="39.16455832840113" lon="117.75779978364399">
        <ele>2</ele>
        <time>2025-09-28T23:23:48Z</time>
      </trkpt>
      <trkpt lat="39.16450138705372" lon="117.75784884023214">
        <ele>2</ele>
        <time>2025-09-28T23:23:50Z</time>
      </trkpt>
      <trkpt lat="39.16443944621201" lon="117.75789289252093">
        <ele>2.2</ele>
        <time>2025-09-28T23:23:52Z</time>
      </trkpt>
      <trkpt lat="39.164372507385565" lon="117.75793494351471">
        <ele>2.2</ele>
        <time>2025-09-28T23:23:54Z</time>
      </trkpt>
      <trkpt lat="39.164301570997765" lon="117.75797699510227">
        <ele>2.2</ele>
        <time>2025-09-28T23:23:56Z</time>
      </trkpt>
      <trkpt lat="39.16422863843405" lon="117.75802405211039">
        <ele>2.1</ele>
        <time>2025-09-28T23:23:58Z</time>
      </trkpt>
      <trkpt lat="39.16415070995117" lon="117.75807311189823">
        <ele>2.1</ele>
        <time>2025-09-28T23:24:00Z</time>
      </trkpt>
      <trkpt lat="39.164069783337844" lon="117.75812217218302">
        <ele>2</ele>
        <time>2025-09-28T23:24:02Z</time>
      </trkpt>
      <trkpt lat="39.163986856961664" lon="117.7581692307907">
        <ele>2</ele>
        <time>2025-09-28T23:24:04Z</time>
      </trkpt>
      <trkpt lat="39.16390492955396" lon="117.75821528835141">
        <ele>2</ele>
        <time>2025-09-28T23:24:06Z</time>
      </trkpt>
      <trkpt lat="39.16382500103924" lon="117.75826134575898">
        <ele>2</ele>
        <time>2025-09-28T23:24:08Z</time>
      </trkpt>
      <trkpt lat="39.16374807239814" lon="117.75831040597626">
        <ele>2</ele>
        <time>2025-09-28T23:24:10Z</time>
      </trkpt>
      <trkpt lat="39.163672143779884" lon="117.75836046721376">
        <ele>2</ele>
        <time>2025-09-28T23:24:12Z</time>
      </trkpt>
      <trkpt lat="39.163599213474505" lon="117.75841052818919">
        <ele>2</ele>
        <time>2025-09-28T23:24:14Z</time>
      </trkpt>
      <trkpt lat="39.16352728160822" lon="117.75845858708256">
        <ele>2</ele>
        <time>2025-09-28T23:24:16Z</time>
      </trkpt>
      <trkpt lat="39.16345435095309" lon="117.758507647253">
        <ele>2</ele>
        <time>2025-09-28T23:24:18Z</time>
      </trkpt>
      <trkpt lat="39.163386417953426" lon="117.75855770794392">
        <ele>2</ele>
        <time>2025-09-28T23:24:20Z</time>
      </trkpt>
      <trkpt lat="39.16332847803993" lon="117.7586057653933">
        <ele>2.1</ele>
        <time>2025-09-28T23:24:22Z</time>
      </trkpt>
      <trkpt lat="39.163287524898145" lon="117.75864781451114">
        <ele>2.1</ele>
        <time>2025-09-28T23:24:24Z</time>
      </trkpt>
      <trkpt lat="39.16325756259953" lon="117.75868485707285">
        <ele>2.1</ele>
        <time>2025-09-28T23:24:26Z</time>
      </trkpt>
      <trkpt lat="39.1632255999191" lon="117.75871889680538">
        <ele>2.3</ele>
        <time>2025-09-28T23:24:28Z</time>
      </trkpt>
      <trkpt lat="39.163185643652376" lon="117.75875594076525">
        <ele>2.3</ele>
        <time>2025-09-28T23:24:30Z</time>
      </trkpt>
      <trkpt lat="39.163135694999" lon="117.75879598922286">
        <ele>2.4</ele>
        <time>2025-09-28T23:24:32Z</time>
      </trkpt>
      <trkpt lat="39.163078754367795" lon="117.75884304603552">
        <ele>2.4</ele>
        <time>2025-09-28T23:24:34Z</time>
      </trkpt>
      <trkpt lat="39.163016819515626" lon="117.75889510887966">
        <ele>2.4</ele>
        <time>2025-09-28T23:24:36Z</time>
      </trkpt>
      <trkpt lat="39.16294788891871" lon="117.75894717274367">
        <ele>2.5</ele>
        <time>2025-09-28T23:24:38Z</time>
      </trkpt>
      <trkpt lat="39.16287596075251" lon="117.75900023818153">
        <ele>2.5</ele>
        <time>2025-09-28T23:24:40Z</time>
      </trkpt>
      <trkpt lat="39.162805032648" lon="117.75905430469179">
        <ele>2.6</ele>
        <time>2025-09-28T23:24:42Z</time>
      </trkpt>
      <trkpt lat="39.16273810504479" lon="117.75911337617386">
        <ele>2.6</ele>
        <time>2025-09-28T23:24:44Z</time>
      </trkpt>
      <trkpt lat="39.16267617571233" lon="117.75917444932836">
        <ele>2.6</ele>
        <time>2025-09-28T23:24:46Z</time>
      </trkpt>
      <trkpt lat="39.162615245363845" lon="117.75923452145874">
        <ele>2.6</ele>
        <time>2025-09-28T23:24:48Z</time>
      </trkpt>
      <trkpt lat="39.162549307475" lon="117.75927557394066">
        <ele>2.6</ele>
        <time>2025-09-28T23:24:50Z</time>
      </trkpt>
      <trkpt lat="39.16248634488815" lon="117.75927558195704">
        <ele>2.6</ele>
        <time>2025-09-28T23:24:52Z</time>
      </trkpt>
      <trkpt lat="39.16243735162852" lon="117.75923554518256">
        <ele>2.6</ele>
        <time>2025-09-28T23:24:54Z</time>
      </trkpt>
      <trkpt lat="39.16240033794728" lon="117.75917148123425">
        <ele>2.6</ele>
        <time>2025-09-28T23:24:56Z</time>
      </trkpt>
      <trkpt lat="39.16236232113392" lon="117.75910041013262">
        <ele>2.6</ele>
        <time>2025-09-28T23:24:58Z</time>
      </trkpt>
      <trkpt lat="39.162313307181876" lon="117.75902233322137">
        <ele>2.6</ele>
        <time>2025-09-28T23:25:00Z</time>
      </trkpt>
      <trkpt lat="39.16226029363605" lon="117.75894025286854">
        <ele>2.5</ele>
        <time>2025-09-28T23:25:02Z</time>
      </trkpt>
      <trkpt lat="39.162211277414215" lon="117.75885717127183">
        <ele>2.5</ele>
        <time>2025-09-28T23:25:04Z</time>
      </trkpt>
      <trkpt lat="39.162163261932086" lon="117.75877609198186">
        <ele>2.5</ele>
        <time>2025-09-28T23:25:06Z</time>
      </trkpt>
      <trkpt lat="39.162117247116946" lon="117.75869801589691">
        <ele>2.5</ele>
        <time>2025-09-28T23:25:08Z</time>
      </trkpt>
      <trkpt lat="39.16206923424732" lon="117.75862094140257">
        <ele>2.5</ele>
        <time>2025-09-28T23:25:10Z</time>
      </trkpt>
      <trkpt lat="39.16202122106042" lon="117.75854286615088">
        <ele>2.6</ele>
        <time>2025-09-28T23:25:12Z</time>
      </trkpt>
      <trkpt lat="39.1619752063767" lon="117.7584637898987">
        <ele>2.6</ele>
        <time>2025-09-28T23:25:14Z</time>
      </trkpt>
      <trkpt lat="39.16193019132631" lon="117.75838471381837">
        <ele>2.6</ele>
        <time>2025-09-28T23:25:16Z</time>
      </trkpt>
      <trkpt lat="39.16188717898834" lon="117.75831264499287">
        <ele>2.6</ele>
        <time>2025-09-28T23:25:18Z</time>
      </trkpt>
      <trkpt lat="39.161841172801005" lon="117.75824858501316">
        <ele>2.6</ele>
        <time>2025-09-28T23:25:20Z</time>
      </trkpt>
      <trkpt lat="39.16179417047946" lon="117.75819053150238">
        <ele>2.6</ele>
        <time>2025-09-28T23:25:22Z</time>
      </trkpt>
      <trkpt lat="39.16174716776283" lon="117.75813147713157">
        <ele>2.5</ele>
        <time>2025-09-28T23:25:24Z</time>
      </trkpt>
      <trkpt lat="39.16170615593332" lon="117.75806141096201">
        <ele>2.5</ele>
        <time>2025-09-28T23:25:26Z</time>
      </trkpt>
      <trkpt lat="39.16166813890878" lon="117.75798433754386">
        <ele>2.5</ele>
        <time>2025-09-28T23:25:28Z</time>
      </trkpt>
      <trkpt lat="39.161628121248874" lon="117.75790326062258">
        <ele>2.5</ele>
        <time>2025-09-28T23:25:30Z</time>
      </trkpt>
      <trkpt lat="39.161586106031194" lon="117.75782418628467">
        <ele>2.5</ele>
        <time>2025-09-28T23:25:32Z</time>
      </trkpt>
      <trkpt lat="39.16154809370874" lon="117.75775512176976">
        <ele>2.4</ele>
        <time>2025-09-28T23:25:34Z</time>
      </trkpt>
      <trkpt lat="39.16151708543846" lon="117.75770207260095">
        <ele>2.4</ele>
        <time>2025-09-28T23:25:36Z</time>
      </trkpt>
      <trkpt lat="39.16149308213007" lon="117.7576670406541">
        <ele>2.4</ele>
        <time>2025-09-28T23:25:38Z</time>
      </trkpt>
      <trkpt lat="39.16146707955506" lon="117.7576310080233">
        <ele>2.4</ele>
        <time>2025-09-28T23:25:40Z</time>
      </trkpt>
      <trkpt lat="39.161441072540285" lon="117.75758596649534">
        <ele>2.4</ele>
        <time>2025-09-28T23:25:42Z</time>
      </trkpt>
      <trkpt lat="39.16141206489911" lon="117.75753592048171">
        <ele>2.2</ele>
        <time>2025-09-28T23:25:44Z</time>
      </trkpt>
      <trkpt lat="39.16138405725001" lon="117.75748687545178">
        <ele>2.2</ele>
        <time>2025-09-28T23:25:46Z</time>
      </trkpt>
      <trkpt lat="39.16135904889204" lon="117.75743983213216">
        <ele>2.2</ele>
        <time>2025-09-28T23:25:48Z</time>
      </trkpt>
      <trkpt lat="39.16133803823768" lon="117.75739278840999">
        <ele>2.2</ele>
        <time>2025-09-28T23:25:50Z</time>
      </trkpt>
      <trkpt lat="39.16132901906339" lon="117.75734274031622">
        <ele>2.2</ele>
        <time>2025-09-28T23:25:52Z</time>
      </trkpt>
      <trkpt lat="39.16133199187313" lon="117.75729068885359">
        <ele>2.4</ele>
        <time>2025-09-28T23:25:54Z</time>
      </trkpt>
      <trkpt lat="39.16131398114986" lon="117.75724664802397">
        <ele>2.1</ele>
        <time>2025-09-28T23:26:28Z</time>
      </trkpt>
      <trkpt lat="39.16130398514936" lon="117.7572426453812">
        <ele>2.1</ele>
        <time>2025-09-28T23:26:32Z</time>
      </trkpt>
      <trkpt lat="39.161314973754514" lon="117.75723263419616">
        <ele>2.2</ele>
        <time>2025-09-28T23:26:46Z</time>
      </trkpt>
      <trkpt lat="39.161334966725015" lon="117.757242641436">
        <ele>2.1</ele>
        <time>2025-09-28T23:26:48Z</time>
      </trkpt>
      <trkpt lat="39.16133498083138" lon="117.75727166984016">
        <ele>2.3</ele>
        <time>2025-09-28T23:26:56Z</time>
      </trkpt>
      <trkpt lat="39.16133200651911" lon="117.75732071830738">
        <ele>2.7</ele>
        <time>2025-09-28T23:27:00Z</time>
      </trkpt>
      <trkpt lat="39.16134202456834" lon="117.75736976523596">
        <ele>2.7</ele>
        <time>2025-09-28T23:27:02Z</time>
      </trkpt>
      <trkpt lat="39.16136403409669" lon="117.75741580779165">
        <ele>2.5</ele>
        <time>2025-09-28T23:27:06Z</time>
      </trkpt>
      <trkpt lat="39.161394042900426" lon="117.75746985734729">
        <ele>2.5</ele>
        <time>2025-09-28T23:27:08Z</time>
      </trkpt>
      <trkpt lat="39.1614250512167" lon="117.75752390691623">
        <ele>2.5</ele>
        <time>2025-09-28T23:27:10Z</time>
      </trkpt>
      <trkpt lat="39.16145905984979" lon="117.75758196022387">
        <ele>2.5</ele>
        <time>2025-09-28T23:27:12Z</time>
      </trkpt>
      <trkpt lat="39.1614930686061" lon="117.75764001369357">
        <ele>2.6</ele>
        <time>2025-09-28T23:27:14Z</time>
      </trkpt>
      <trkpt lat="39.16152607707489" lon="117.75769606545124">
        <ele>2.6</ele>
        <time>2025-09-28T23:27:16Z</time>
      </trkpt>
      <trkpt lat="39.16155608693674" lon="117.75775111673838">
        <ele>2.6</ele>
        <time>2025-09-28T23:27:18Z</time>
      </trkpt>
      <trkpt lat="39.161578096094345" lon="117.75779515812742">
        <ele>2.6</ele>
        <time>2025-09-28T23:27:22Z</time>
      </trkpt>
      <trkpt lat="39.16159710558258" lon="117.75783619696921">
        <ele>2.8</ele>
        <time>2025-09-28T23:27:24Z</time>
      </trkpt>
      <trkpt lat="39.16161811445284" lon="117.75787823664665">
        <ele>2.8</ele>
        <time>2025-09-28T23:27:28Z</time>
      </trkpt>
      <trkpt lat="39.16164612229236" lon="117.75792628158712">
        <ele>2.9</ele>
        <time>2025-09-28T23:27:32Z</time>
      </trkpt>
      <trkpt lat="39.16167812783933" lon="117.75797432612933">
        <ele>2.9</ele>
        <time>2025-09-28T23:27:36Z</time>
      </trkpt>
      <trkpt lat="39.16170613173395" lon="117.75801436316276">
        <ele>2.7</ele>
        <time>2025-09-28T23:27:40Z</time>
      </trkpt>
      <trkpt lat="39.16173113643876" lon="117.75805239861934">
        <ele>2.7</ele>
        <time>2025-09-28T23:27:42Z</time>
      </trkpt>
      <trkpt lat="39.16175314401251" lon="117.75809243656622">
        <ele>2.6</ele>
        <time>2025-09-28T23:27:46Z</time>
      </trkpt>
      <trkpt lat="39.1617821485223" lon="117.75813447574232">
        <ele>2.5</ele>
        <time>2025-09-28T23:27:50Z</time>
      </trkpt>
      <trkpt lat="39.161809156364846" lon="117.75818051935268">
        <ele>2.6</ele>
        <time>2025-09-28T23:27:54Z</time>
      </trkpt>
      <trkpt lat="39.16183616376291" lon="117.75822556203856">
        <ele>2.6</ele>
        <time>2025-09-28T23:27:58Z</time>
      </trkpt>
      <trkpt lat="39.16186117242313" lon="117.75827060507615">
        <ele>2.7</ele>
        <time>2025-09-28T23:28:00Z</time>
      </trkpt>
      <trkpt lat="39.16189517581023" lon="117.7583156470656">
        <ele>2.7</ele>
        <time>2025-09-28T23:28:02Z</time>
      </trkpt>
      <trkpt lat="39.16193418367696" lon="117.7583747029754">
        <ele>2.7</ele>
        <time>2025-09-28T23:28:04Z</time>
      </trkpt>
      <trkpt lat="39.16197819558381" lon="117.7584467718877">
        <ele>2.7</ele>
        <time>2025-09-28T23:28:06Z</time>
      </trkpt>
      <trkpt lat="39.16202121146842" lon="117.75852484741694">
        <ele>2.7</ele>
        <time>2025-09-28T23:28:08Z</time>
      </trkpt>
      <trkpt lat="39.16206422810998" lon="117.75860392428174">
        <ele>2.6</ele>
        <time>2025-09-28T23:28:10Z</time>
      </trkpt>
      <trkpt lat="39.16210624234358" lon="117.75867699528607">
        <ele>2.6</ele>
        <time>2025-09-28T23:28:12Z</time>
      </trkpt>
      <trkpt lat="39.16214625741842" lon="117.75874906574884">
        <ele>2.5</ele>
        <time>2025-09-28T23:28:14Z</time>
      </trkpt>
      <trkpt lat="39.16218527110288" lon="117.75881713236927">
        <ele>2.5</ele>
        <time>2025-09-28T23:28:16Z</time>
      </trkpt>
      <trkpt lat="39.16222628376751" lon="117.75888519895634">
        <ele>2.5</ele>
        <time>2025-09-28T23:28:18Z</time>
      </trkpt>
      <trkpt lat="39.16226829545823" lon="117.75895226457641">
        <ele>2.6</ele>
        <time>2025-09-28T23:28:20Z</time>
      </trkpt>
      <trkpt lat="39.162314305486866" lon="117.759020330966">
        <ele>2.6</ele>
        <time>2025-09-28T23:28:22Z</time>
      </trkpt>
      <trkpt lat="39.16236031789577" lon="117.7590924018459">
        <ele>2.5</ele>
        <time>2025-09-28T23:28:24Z</time>
      </trkpt>
      <trkpt lat="39.16240632993732" lon="117.75916347190248">
        <ele>2.5</ele>
        <time>2025-09-28T23:28:26Z</time>
      </trkpt>
      <trkpt lat="39.16245133717525" lon="117.75922453158692">
        <ele>2.5</ele>
        <time>2025-09-28T23:28:28Z</time>
      </trkpt>
      <trkpt lat="39.16249733108229" lon="117.75926256657092">
        <ele>2.2</ele>
        <time>2025-09-28T23:28:30Z</time>
      </trkpt>
      <trkpt lat="39.16254430876524" lon="117.75927257134852">
        <ele>2.2</ele>
        <time>2025-09-28T23:28:32Z</time>
      </trkpt>
      <trkpt lat="39.16259426900615" lon="117.75925454562515">
        <ele>2.2</ele>
        <time>2025-09-28T23:28:34Z</time>
      </trkpt>
      <trkpt lat="39.16265121282904" lon="117.7592144954027">
        <ele>2.2</ele>
        <time>2025-09-28T23:28:36Z</time>
      </trkpt>
      <trkpt lat="39.16271014829764" lon="117.75916143107813">
        <ele>2.2</ele>
        <time>2025-09-28T23:28:38Z</time>
      </trkpt>
      <trkpt lat="39.16277008161455" lon="117.75910536355573">
        <ele>2.4</ele>
        <time>2025-09-28T23:28:40Z</time>
      </trkpt>
      <trkpt lat="39.16282901508852" lon="117.75904829524477">
        <ele>2.4</ele>
        <time>2025-09-28T23:28:42Z</time>
      </trkpt>
      <trkpt lat="39.162889946944574" lon="117.75899022577168">
        <ele>2.4</ele>
        <time>2025-09-28T23:28:44Z</time>
      </trkpt>
      <trkpt lat="39.162950878923866" lon="117.75893215645915">
        <ele>2.4</ele>
        <time>2025-09-28T23:28:46Z</time>
      </trkpt>
      <trkpt lat="39.16300981330427" lon="117.75887608967594">
        <ele>2.4</ele>
        <time>2025-09-28T23:28:48Z</time>
      </trkpt>
      <trkpt lat="39.16306475452143" lon="117.75882803198883">
        <ele>2.3</ele>
        <time>2025-09-28T23:28:50Z</time>
      </trkpt>
      <trkpt lat="39.16311370480488" lon="117.75878998570334">
        <ele>2.3</ele>
        <time>2025-09-28T23:28:52Z</time>
      </trkpt>
      <trkpt lat="39.16316165843964" lon="117.75875694487081">
        <ele>2.2</ele>
        <time>2025-09-28T23:28:54Z</time>
      </trkpt>
      <trkpt lat="39.16320661011799" lon="117.75871689712405">
        <ele>2.2</ele>
        <time>2025-09-28T23:28:56Z</time>
      </trkpt>
      <trkpt lat="39.1632565535084" lon="117.75866683834349">
        <ele>2.2</ele>
        <time>2025-09-28T23:28:58Z</time>
      </trkpt>
      <trkpt lat="39.16331448795611" lon="117.75860877030784">
        <ele>2.3</ele>
        <time>2025-09-28T23:29:00Z</time>
      </trkpt>
      <trkpt lat="39.163383415998545" lon="117.75855070103327">
        <ele>2.3</ele>
        <time>2025-09-28T23:29:02Z</time>
      </trkpt>
      <trkpt lat="39.16345634285391" lon="117.75849463348837">
        <ele>2.3</ele>
        <time>2025-09-28T23:29:04Z</time>
      </trkpt>
      <trkpt lat="39.163529270884226" lon="117.75844056816617">
        <ele>2.3</ele>
        <time>2025-09-28T23:29:06Z</time>
      </trkpt>
      <trkpt lat="39.16360220060538" lon="117.75838950608501">
        <ele>2.3</ele>
        <time>2025-09-28T23:29:08Z</time>
      </trkpt>
      <trkpt lat="39.163675132526684" lon="117.7583424482546">
        <ele>2.5</ele>
        <time>2025-09-28T23:29:10Z</time>
      </trkpt>
      <trkpt lat="39.16375106432321" lon="117.75829839323657">
        <ele>2.5</ele>
        <time>2025-09-28T23:29:12Z</time>
      </trkpt>
      <trkpt lat="39.16382699671519" lon="117.75825533933875">
        <ele>2.5</ele>
        <time>2025-09-28T23:29:14Z</time>
      </trkpt>
      <trkpt lat="39.16390392962594" lon="117.75821428745316">
        <ele>2.5</ele>
        <time>2025-09-28T23:29:16Z</time>
      </trkpt>
      <trkpt lat="39.16398286037414" lon="117.75817123334656">
        <ele>2.5</ele>
        <time>2025-09-28T23:29:18Z</time>
      </trkpt>
      <trkpt lat="39.16406279059887" lon="117.75812817920134">
        <ele>2.8</ele>
        <time>2025-09-28T23:29:20Z</time>
      </trkpt>
      <trkpt lat="39.16414371978367" lon="117.75808412399817">
        <ele>2.8</ele>
        <time>2025-09-28T23:29:22Z</time>
      </trkpt>
      <trkpt lat="39.16422464904157" lon="117.75804006888787">
        <ele>2.8</ele>
        <time>2025-09-28T23:29:24Z</time>
      </trkpt>
      <trkpt lat="39.1643045774258" lon="117.75799301095273">
        <ele>2.8</ele>
        <time>2025-09-28T23:29:26Z</time>
      </trkpt>
      <trkpt lat="39.164384504870036" lon="117.75794395109844">
        <ele>2.8</ele>
        <time>2025-09-28T23:29:28Z</time>
      </trkpt>
      <trkpt lat="39.16446243410017" lon="117.75789589262413">
        <ele>2.8</ele>
        <time>2025-09-28T23:29:30Z</time>
      </trkpt>
      <trkpt lat="39.16453636680491" lon="117.75784983678554">
        <ele>2.8</ele>
        <time>2025-09-28T23:29:32Z</time>
      </trkpt>
      <trkpt lat="39.164602305852405" lon="117.75780678508444">
        <ele>2.8</ele>
        <time>2025-09-28T23:29:34Z</time>
      </trkpt>
      <trkpt lat="39.16466224903194" lon="117.75776473523976">
        <ele>2.7</ele>
        <time>2025-09-28T23:29:36Z</time>
      </trkpt>
      <trkpt lat="39.164717194235344" lon="117.75772068411248">
        <ele>2.7</ele>
        <time>2025-09-28T23:29:38Z</time>
      </trkpt>
      <trkpt lat="39.16476814188238" lon="117.75767663358741">
        <ele>2.7</ele>
        <time>2025-09-28T23:29:40Z</time>
      </trkpt>
      <trkpt lat="39.16482108941557" lon="117.75763458489617">
        <ele>2.7</ele>
        <time>2025-09-28T23:29:42Z</time>
      </trkpt>
      <trkpt lat="39.16488103386134" lon="117.75759453739026">
        <ele>2.7</ele>
        <time>2025-09-28T23:29:44Z</time>
      </trkpt>
      <trkpt lat="39.16494797371955" lon="117.75755348807651">
        <ele>2.9</ele>
        <time>2025-09-28T23:29:46Z</time>
      </trkpt>
      <trkpt lat="39.16501591056976" lon="117.75750743375788">
        <ele>2.9</ele>
        <time>2025-09-28T23:29:48Z</time>
      </trkpt>
      <trkpt lat="39.16508284512922" lon="117.75745537373305">
        <ele>3</ele>
        <time>2025-09-28T23:29:50Z</time>
      </trkpt>
      <trkpt lat="39.16514977880579" lon="117.75740131186538">
        <ele>3</ele>
        <time>2025-09-28T23:29:52Z</time>
      </trkpt>
      <trkpt lat="39.165219709833025" lon="117.75734524778866">
        <ele>3</ele>
        <time>2025-09-28T23:29:54Z</time>
      </trkpt>
      <trkpt lat="39.16528964146449" lon="117.75729018484415">
        <ele>3</ele>
        <time>2025-09-28T23:29:56Z</time>
      </trkpt>
      <trkpt lat="39.16535757390833" lon="117.75723412132153">
        <ele>3</ele>
        <time>2025-09-28T23:29:58Z</time>
      </trkpt>
      <trkpt lat="39.16542550695231" lon="117.75717905892584">
        <ele>2.9</ele>
        <time>2025-09-28T23:30:00Z</time>
      </trkpt>
      <trkpt lat="39.165492440219914" lon="117.75712299583023">
        <ele>2.9</ele>
        <time>2025-09-28T23:30:02Z</time>
      </trkpt>
      <trkpt lat="39.16556037445011" lon="117.7570699356699">
        <ele>2.9</ele>
        <time>2025-09-28T23:30:04Z</time>
      </trkpt>
      <trkpt lat="39.16562630805984" lon="117.75701287202831">
        <ele>2.9</ele>
        <time>2025-09-28T23:30:06Z</time>
      </trkpt>
      <trkpt lat="39.16569224083953" lon="117.75695380661364">
        <ele>2.9</ele>
        <time>2025-09-28T23:30:08Z</time>
      </trkpt>
      <trkpt lat="39.165758172802164" lon="117.75689273944303">
        <ele>2.9</ele>
        <time>2025-09-28T23:30:10Z</time>
      </trkpt>
      <trkpt lat="39.16582510431038" lon="117.75683167232486">
        <ele>2.9</ele>
        <time>2025-09-28T23:30:12Z</time>
      </trkpt>
      <trkpt lat="39.16589003714177" lon="117.75677060564108">
        <ele>2.9</ele>
        <time>2025-09-28T23:30:14Z</time>
      </trkpt>
      <trkpt lat="39.16595397023737" lon="117.75670853831139">
        <ele>2.8</ele>
        <time>2025-09-28T23:30:16Z</time>
      </trkpt>
      <trkpt lat="39.16601690360395" lon="117.75664547034481">
        <ele>2.8</ele>
        <time>2025-09-28T23:30:18Z</time>
      </trkpt>
      <trkpt lat="39.166080836063614" lon="117.75658140149596">
        <ele>2.8</ele>
        <time>2025-09-28T23:30:20Z</time>
      </trkpt>
      <trkpt lat="39.16614576808286" lon="117.756517332718">
        <ele>2.8</ele>
        <time>2025-09-28T23:30:22Z</time>
      </trkpt>
      <trkpt lat="39.16621069979719" lon="117.75645226319762">
        <ele>2.8</ele>
        <time>2025-09-28T23:30:24Z</time>
      </trkpt>
      <trkpt lat="39.16627463226072" lon="117.75638719400908">
        <ele>2.8</ele>
        <time>2025-09-28T23:30:26Z</time>
      </trkpt>
      <trkpt lat="39.166336565161394" lon="117.75632012341116">
        <ele>2.8</ele>
        <time>2025-09-28T23:30:28Z</time>
      </trkpt>
      <trkpt lat="39.166396497614755" lon="117.75624904956163">
        <ele>2.5</ele>
        <time>2025-09-28T23:30:30Z</time>
      </trkpt>
      <trkpt lat="39.16645543174105" lon="117.75617997793864">
        <ele>2.5</ele>
        <time>2025-09-28T23:30:32Z</time>
      </trkpt>
      <trkpt lat="39.166510371969565" lon="117.75611891445038">
        <ele>2.5</ele>
        <time>2025-09-28T23:30:34Z</time>
      </trkpt>
      <trkpt lat="39.1665623282917" lon="117.75608988103953">
        <ele>2.4</ele>
        <time>2025-09-28T23:30:36Z</time>
      </trkpt>
      <trkpt lat="39.166609301789265" lon="117.75609287782562">
        <ele>2.4</ele>
        <time>2025-09-28T23:30:38Z</time>
      </trkpt>
      <trkpt lat="39.166658286547325" lon="117.7561239002321">
        <ele>2.5</ele>
        <time>2025-09-28T23:30:40Z</time>
      </trkpt>
      <trkpt lat="39.1667092723882" lon="117.7561599270626">
        <ele>2.5</ele>
        <time>2025-09-28T23:30:42Z</time>
      </trkpt>
      <trkpt lat="39.16675626064635" lon="117.75619595446524">
        <ele>2.5</ele>
        <time>2025-09-28T23:30:44Z</time>
      </trkpt>
      <trkpt lat="39.166791255609574" lon="117.75623098252849">
        <ele>2.5</ele>
        <time>2025-09-28T23:30:46Z</time>
      </trkpt>
      <trkpt lat="39.16681226160942" lon="117.75627201802432">
        <ele>2.5</ele>
        <time>2025-09-28T23:30:48Z</time>
      </trkpt>
      <trkpt lat="39.16682927772684" lon="117.75633006999489">
        <ele>2.5</ele>
        <time>2025-09-28T23:30:50Z</time>
      </trkpt>
      <trkpt lat="39.166851301473734" lon="117.75641114306912">
        <ele>2.5</ele>
        <time>2025-09-28T23:30:52Z</time>
      </trkpt>
      <trkpt lat="39.166885323860804" lon="117.75650422624852">
        <ele>2.5</ele>
        <time>2025-09-28T23:30:54Z</time>
      </trkpt>
      <trkpt lat="39.166928342161896" lon="117.75659931059668">
        <ele>2.4</ele>
        <time>2025-09-28T23:30:56Z</time>
      </trkpt>
      <trkpt lat="39.166976355971485" lon="117.75669039093614">
        <ele>2.4</ele>
        <time>2025-09-28T23:30:58Z</time>
      </trkpt>
      <trkpt lat="39.1670263693707" lon="117.75678247237843">
        <ele>2.4</ele>
        <time>2025-09-28T23:31:00Z</time>
      </trkpt>
      <trkpt lat="39.167080382130706" lon="117.7568775566045">
        <ele>2.4</ele>
        <time>2025-09-28T23:31:02Z</time>
      </trkpt>
      <trkpt lat="39.16713839428293" lon="117.75697564365551">
        <ele>2.4</ele>
        <time>2025-09-28T23:31:04Z</time>
      </trkpt>
      <trkpt lat="39.167199405971886" lon="117.75707573273033">
        <ele>2.6</ele>
        <time>2025-09-28T23:31:06Z</time>
      </trkpt>
      <trkpt lat="39.167261417919896" lon="117.75717682313655">
        <ele>2.6</ele>
        <time>2025-09-28T23:31:08Z</time>
      </trkpt>
      <trkpt lat="39.167325429058785" lon="117.75727791378065">
        <ele>2.7</ele>
        <time>2025-09-28T23:31:10Z</time>
      </trkpt>
      <trkpt lat="39.16739143987943" lon="117.75738000564787">
        <ele>2.7</ele>
        <time>2025-09-28T23:31:12Z</time>
      </trkpt>
      <trkpt lat="39.16745745058732" lon="117.75748109702646">
        <ele>2.7</ele>
        <time>2025-09-28T23:31:14Z</time>
      </trkpt>
      <trkpt lat="39.16752346117119" lon="117.75758118790151">
        <ele>2.5</ele>
        <time>2025-09-28T23:31:16Z</time>
      </trkpt>
      <trkpt lat="39.167590471028106" lon="117.75768027813105">
        <ele>2.5</ele>
        <time>2025-09-28T23:31:18Z</time>
      </trkpt>
      <trkpt lat="39.167656481836104" lon="117.75777936895976">
        <ele>2.3</ele>
        <time>2025-09-28T23:31:20Z</time>
      </trkpt>
      <trkpt lat="39.16772249300316" lon="117.75787846026012">
        <ele>2.3</ele>
        <time>2025-09-28T23:31:22Z</time>
      </trkpt>
      <trkpt lat="39.16778750563352" lon="117.75797855317339">
        <ele>2.3</ele>
        <time>2025-09-28T23:31:24Z</time>
      </trkpt>
      <trkpt lat="39.16785151818872" lon="117.75807664465653">
        <ele>2.2</ele>
        <time>2025-09-28T23:31:26Z</time>
      </trkpt>
      <trkpt lat="39.1679155310951" lon="117.75817473660105">
        <ele>2.2</ele>
        <time>2025-09-28T23:31:28Z</time>
      </trkpt>
      <trkpt lat="39.16797754396556" lon="117.75826982617627">
        <ele>2.3</ele>
        <time>2025-09-28T23:31:30Z</time>
      </trkpt>
      <trkpt lat="39.168040557627684" lon="117.758366918123">
        <ele>2.3</ele>
        <time>2025-09-28T23:31:32Z</time>
      </trkpt>
      <trkpt lat="39.168103571102904" lon="117.75846300948344">
        <ele>2.3</ele>
        <time>2025-09-28T23:31:34Z</time>
      </trkpt>
      <trkpt lat="39.16816758539053" lon="117.75856110324263">
        <ele>2.4</ele>
        <time>2025-09-28T23:31:36Z</time>
      </trkpt>
      <trkpt lat="39.1682315994909" lon="117.75865819641503">
        <ele>2.4</ele>
        <time>2025-09-28T23:31:38Z</time>
      </trkpt>
      <trkpt lat="39.16829561339327" lon="117.75875428898644">
        <ele>2.4</ele>
        <time>2025-09-28T23:31:40Z</time>
      </trkpt>
      <trkpt lat="39.168360627584256" lon="117.75885138292759">
        <ele>2.4</ele>
        <time>2025-09-28T23:31:42Z</time>
      </trkpt>
      <trkpt lat="39.16842464490123" lon="117.75895248168919">
        <ele>2.4</ele>
        <time>2025-09-28T23:31:44Z</time>
      </trkpt>
      <trkpt lat="39.168487663732314" lon="117.75905458213136">
        <ele>2.3</ele>
        <time>2025-09-28T23:31:46Z</time>
      </trkpt>
      <trkpt lat="39.16854768360477" lon="117.75915468131106">
        <ele>2.3</ele>
        <time>2025-09-28T23:31:48Z</time>
      </trkpt>
      <trkpt lat="39.168607702163435" lon="117.75925177774232">
        <ele>2.3</ele>
        <time>2025-09-28T23:31:50Z</time>
      </trkpt>
      <trkpt lat="39.168667720501176" lon="117.75934787354262">
        <ele>2.3</ele>
        <time>2025-09-28T23:31:52Z</time>
      </trkpt>
      <trkpt lat="39.168728738016064" lon="117.75944296857072">
        <ele>2.3</ele>
        <time>2025-09-28T23:31:54Z</time>
      </trkpt>
      <trkpt lat="39.16878875758795" lon="117.7595400663338">
        <ele>2.1</ele>
        <time>2025-09-28T23:31:56Z</time>
      </trkpt>
      <trkpt lat="39.168848778073446" lon="117.75963816563844">
        <ele>2.1</ele>
        <time>2025-09-28T23:31:58Z</time>
      </trkpt>
      <trkpt lat="39.16890979716272" lon="117.75973426307647">
        <ele>2.1</ele>
        <time>2025-09-28T23:32:00Z</time>
      </trkpt>
      <trkpt lat="39.1689708154261" lon="117.75982835874748">
        <ele>2</ele>
        <time>2025-09-28T23:32:02Z</time>
      </trkpt>
      <trkpt lat="39.169028832285086" lon="117.75991644857874">
        <ele>2</ele>
        <time>2025-09-28T23:32:04Z</time>
      </trkpt>
      <trkpt lat="39.16907685064904" lon="117.75999653116436">
        <ele>2.1</ele>
        <time>2025-09-28T23:32:06Z</time>
      </trkpt>
      <trkpt lat="39.16910986869883" lon="117.76006059813888">
        <ele>2.1</ele>
        <time>2025-09-28T23:32:08Z</time>
      </trkpt>
      <trkpt lat="39.16913890166505" lon="117.76014568927707">
        <ele>1.9</ele>
        <time>2025-09-28T23:32:32Z</time>
      </trkpt>
      <trkpt lat="39.169164900490976" lon="117.76016971280539">
        <ele>1.9</ele>
        <time>2025-09-28T23:32:34Z</time>
      </trkpt>
      <trkpt lat="39.16919589519676" lon="117.76019173348492">
        <ele>2</ele>
        <time>2025-09-28T23:32:36Z</time>
      </trkpt>
      <trkpt lat="39.16923787985782" lon="117.76020774606305">
        <ele>2</ele>
        <time>2025-09-28T23:32:38Z</time>
      </trkpt>
      <trkpt lat="39.16928285622533" lon="117.76021274593954">
        <ele>2</ele>
        <time>2025-09-28T23:32:40Z</time>
      </trkpt>
      <trkpt lat="39.169323827837815" lon="117.7602057328769">
        <ele>1.9</ele>
        <time>2025-09-28T23:32:42Z</time>
      </trkpt>
      <trkpt lat="39.169351798246176" lon="117.76018370467389">
        <ele>2</ele>
        <time>2025-09-28T23:32:46Z</time>
      </trkpt>
      <trkpt lat="39.16937276275711" lon="117.76014465837852">
        <ele>2</ele>
        <time>2025-09-28T23:32:48Z</time>
      </trkpt>
      <trkpt lat="39.16939872083064" lon="117.7600996048252">
        <ele>2</ele>
        <time>2025-09-28T23:32:50Z</time>
      </trkpt>
      <trkpt lat="39.169434683064466" lon="117.76007156902878">
        <ele>1.9</ele>
        <time>2025-09-28T23:32:52Z</time>
      </trkpt>
      <trkpt lat="39.16947066649622" lon="117.76007957336172">
        <ele>1.9</ele>
        <time>2025-09-28T23:32:54Z</time>
      </trkpt>
      <trkpt lat="39.16950567115771" lon="117.76012261687569">
        <ele>1.9</ele>
        <time>2025-09-28T23:32:56Z</time>
      </trkpt>
      <trkpt lat="39.16953868654101" lon="117.76018167863569">
        <ele>1.9</ele>
        <time>2025-09-28T23:32:58Z</time>
      </trkpt>
      <trkpt lat="39.16957770088213" lon="117.76024474428614">
        <ele>1.9</ele>
        <time>2025-09-28T23:33:00Z</time>
      </trkpt>
      <trkpt lat="39.16961971598127" lon="117.76031181424463">
        <ele>2</ele>
        <time>2025-09-28T23:33:02Z</time>
      </trkpt>
      <trkpt lat="39.16966473186738" lon="117.76038288854917">
        <ele>2</ele>
        <time>2025-09-28T23:33:04Z</time>
      </trkpt>
      <trkpt lat="39.16971274616239" lon="117.76045396271063">
        <ele>2.1</ele>
        <time>2025-09-28T23:33:06Z</time>
      </trkpt>
      <trkpt lat="39.16975976062531" lon="117.76052403610238">
        <ele>2.1</ele>
        <time>2025-09-28T23:33:08Z</time>
      </trkpt>
      <trkpt lat="39.16980577403438" lon="117.76059110643683">
        <ele>2.1</ele>
        <time>2025-09-28T23:33:10Z</time>
      </trkpt>
      <trkpt lat="39.16984979000568" lon="117.76066017952198">
        <ele>2.1</ele>
        <time>2025-09-28T23:33:12Z</time>
      </trkpt>
      <trkpt lat="39.16989180794182" lon="117.76073025423194">
        <ele>2.1</ele>
        <time>2025-09-28T23:33:14Z</time>
      </trkpt>
      <trkpt lat="39.16993482792144" lon="117.76080433364095">
        <ele>2.1</ele>
        <time>2025-09-28T23:33:16Z</time>
      </trkpt>
      <trkpt lat="39.16997984753334" lon="117.76087941420633">
        <ele>2.1</ele>
        <time>2025-09-28T23:33:18Z</time>
      </trkpt>
      <trkpt lat="39.170025868616484" lon="117.76095749837772">
        <ele>2.1</ele>
        <time>2025-09-28T23:33:20Z</time>
      </trkpt>
      <trkpt lat="39.17007188991783" lon="117.76103558283607">
        <ele>2.1</ele>
        <time>2025-09-28T23:33:22Z</time>
      </trkpt>
      <trkpt lat="39.17011791206293" lon="117.76111466874465">
        <ele>2.1</ele>
        <time>2025-09-28T23:33:24Z</time>
      </trkpt>
      <trkpt lat="39.17016393506013" lon="117.76119475611446">
        <ele>2</ele>
        <time>2025-09-28T23:33:26Z</time>
      </trkpt>
      <trkpt lat="39.17020896077151" lon="117.76127784742593">
        <ele>2</ele>
        <time>2025-09-28T23:33:28Z</time>
      </trkpt>
      <trkpt lat="39.17025198410439" lon="117.76135493226704">
        <ele>2</ele>
        <time>2025-09-28T23:33:30Z</time>
      </trkpt>
      <trkpt lat="39.170292008147264" lon="117.76143001541222">
        <ele>1.9</ele>
        <time>2025-09-28T23:33:32Z</time>
      </trkpt>
      <trkpt lat="39.170332033030654" lon="117.76150610000361">
        <ele>1.9</ele>
        <time>2025-09-28T23:33:34Z</time>
      </trkpt>
      <trkpt lat="39.17037106192298" lon="117.76158719092112">
        <ele>2</ele>
        <time>2025-09-28T23:33:36Z</time>
      </trkpt>
      <trkpt lat="39.17041109304048" lon="117.76167228677747">
        <ele>2</ele>
        <time>2025-09-28T23:33:38Z</time>
      </trkpt>
      <trkpt lat="39.17045012565454" lon="117.76175838429374">
        <ele>2</ele>
        <time>2025-09-28T23:33:40Z</time>
      </trkpt>
      <trkpt lat="39.170488159774116" lon="117.76184548348179">
        <ele>2.1</ele>
        <time>2025-09-28T23:33:42Z</time>
      </trkpt>
      <trkpt lat="39.17052819625606" lon="117.7619375887796">
        <ele>2.1</ele>
        <time>2025-09-28T23:33:44Z</time>
      </trkpt>
      <trkpt lat="39.17056623487813" lon="117.76203069593468">
        <ele>2.1</ele>
        <time>2025-09-28T23:33:46Z</time>
      </trkpt>
      <trkpt lat="39.17060527123234" lon="117.76212079973533">
        <ele>2.3</ele>
        <time>2025-09-28T23:33:48Z</time>
      </trkpt>
      <trkpt lat="39.170643307799956" lon="117.7622099028273">
        <ele>2.3</ele>
        <time>2025-09-28T23:33:50Z</time>
      </trkpt>
      <trkpt lat="39.17068234606134" lon="117.76230200981917">
        <ele>2.3</ele>
        <time>2025-09-28T23:33:52Z</time>
      </trkpt>
      <trkpt lat="39.170719387145894" lon="117.76239611990762">
        <ele>2.3</ele>
        <time>2025-09-28T23:33:54Z</time>
      </trkpt>
      <trkpt lat="39.170758428036834" lon="117.76249123138184">
        <ele>2.3</ele>
        <time>2025-09-28T23:33:56Z</time>
      </trkpt>
      <trkpt lat="39.17079447169634" lon="117.76258734489102">
        <ele>2.3</ele>
        <time>2025-09-28T23:33:58Z</time>
      </trkpt>
      <trkpt lat="39.17083051568159" lon="117.7626834588297">
        <ele>2.3</ele>
        <time>2025-09-28T23:34:00Z</time>
      </trkpt>
      <trkpt lat="39.1708645604885" lon="117.76277857221079">
        <ele>2.3</ele>
        <time>2025-09-28T23:34:02Z</time>
      </trkpt>
      <trkpt lat="39.170894602472785" lon="117.76286567655707">
        <ele>2.3</ele>
        <time>2025-09-28T23:34:04Z</time>
      </trkpt>
      <trkpt lat="39.1709266373277" lon="117.76294376975883">
        <ele>2.3</ele>
        <time>2025-09-28T23:34:06Z</time>
      </trkpt>
      <trkpt lat="39.17095567000977" lon="117.76301585611071">
        <ele>2.1</ele>
        <time>2025-09-28T23:34:08Z</time>
      </trkpt>
      <trkpt lat="39.17098769275977" lon="117.7630759272579">
        <ele>2.1</ele>
        <time>2025-09-28T23:34:10Z</time>
      </trkpt>
      <trkpt lat="39.1710246980516" lon="117.76311497153206">
        <ele>2.5</ele>
        <time>2025-09-28T23:34:12Z</time>
      </trkpt>
      <trkpt lat="39.17107067507521" lon="117.76312097322129">
        <ele>2.5</ele>
        <time>2025-09-28T23:34:14Z</time>
      </trkpt>
      <trkpt lat="39.17111963222303" lon="117.76310094185364">
        <ele>2.5</ele>
        <time>2025-09-28T23:34:16Z</time>
      </trkpt>
      <trkpt lat="39.17116458201685" lon="117.76306689344415">
        <ele>3.3</ele>
        <time>2025-09-28T23:34:18Z</time>
      </trkpt>
      <trkpt lat="39.17120753303272" lon="117.76303284534274">
        <ele>3.3</ele>
        <time>2025-09-28T23:34:20Z</time>
      </trkpt>
      <trkpt lat="39.17125548529366" lon="117.7630048041684">
        <ele>3.7</ele>
        <time>2025-09-28T23:34:22Z</time>
      </trkpt>
      <trkpt lat="39.17131044798305" lon="117.76299778840936">
        <ele>3.7</ele>
        <time>2025-09-28T23:34:24Z</time>
      </trkpt>
      <trkpt lat="39.1713674288876" lon="117.76301880744701">
        <ele>3.7</ele>
        <time>2025-09-28T23:34:26Z</time>
      </trkpt>
      <trkpt lat="39.17141943567523" lon="117.76307286852794">
        <ele>3.7</ele>
        <time>2025-09-28T23:34:28Z</time>
      </trkpt>
      <trkpt lat="39.1714644606423" lon="117.76314695579245">
        <ele>3.7</ele>
        <time>2025-09-28T23:34:30Z</time>
      </trkpt>
      <trkpt lat="39.17150149612634" lon="117.76322905442463">
        <ele>3.5</ele>
        <time>2025-09-28T23:34:32Z</time>
      </trkpt>
      <trkpt lat="39.1715475216133" lon="117.76330414336304">
        <ele>3.5</ele>
        <time>2025-09-28T23:34:34Z</time>
      </trkpt>
      <trkpt lat="39.17160552117543" lon="117.76335219678676">
        <ele>3.5</ele>
        <time>2025-09-28T23:34:36Z</time>
      </trkpt>
      <trkpt lat="39.17167848514843" lon="117.7633622001796">
        <ele>3.5</ele>
        <time>2025-09-28T23:34:38Z</time>
      </trkpt>
      <trkpt lat="39.17175342116424" lon="117.76333415514267">
        <ele>3.5</ele>
        <time>2025-09-28T23:34:40Z</time>
      </trkpt>
      <trkpt lat="39.171826345036195" lon="117.76328708635619">
        <ele>3.7</ele>
        <time>2025-09-28T23:34:42Z</time>
      </trkpt>
      <trkpt lat="39.17189626725409" lon="117.76323501174089">
        <ele>3.7</ele>
        <time>2025-09-28T23:34:44Z</time>
      </trkpt>
      <trkpt lat="39.17196219542348" lon="117.7631879440604">
        <ele>3.7</ele>
        <time>2025-09-28T23:34:46Z</time>
      </trkpt>
      <trkpt lat="39.17202512544211" lon="117.76314087686396">
        <ele>3.7</ele>
        <time>2025-09-28T23:34:48Z</time>
      </trkpt>
      <trkpt lat="39.17208405998695" lon="117.7630968140467">
        <ele>3.7</ele>
        <time>2025-09-28T23:34:50Z</time>
      </trkpt>
      <trkpt lat="39.17214299876764" lon="117.76305875884395">
        <ele>3.4</ele>
        <time>2025-09-28T23:34:52Z</time>
      </trkpt>
      <trkpt lat="39.17219495768137" lon="117.76304373341871">
        <ele>3.4</ele>
        <time>2025-09-28T23:34:54Z</time>
      </trkpt>
      <trkpt lat="39.17223394370195" lon="117.76305674475671">
        <ele>3.4</ele>
        <time>2025-09-28T23:34:56Z</time>
      </trkpt>
      <trkpt lat="39.17226094723408" lon="117.76308477645637">
        <ele>3.2</ele>
        <time>2025-09-28T23:34:58Z</time>
      </trkpt>
      <trkpt lat="39.17228395176061" lon="117.76311080618794">
        <ele>3.2</ele>
        <time>2025-09-28T23:35:00Z</time>
      </trkpt>
    </trkseg>
  </trk>
</gpx>