<?xml version="1.0" encoding="UTF-8"?>
<gpx xmlns="http://www.topografix.com/GPX/1/1" xmlns:gpxtpx="http://www.garmin.com/xmlschemas/TrackPointExtension/v1" xmlns:xsi="http://www.w3.org/2001/XMLSchema-instance" xsi:schemaLocation="http://www.topografix.com/GPX/1/1 http://www.topografix.com/GPX/1/1/gpx.xsd" version="1.1" creator="gpx.py -- https://github.com/tkrajina/gpxpy">
  <trk>
    <name>gpx from codoon</name>
    <type>Run</type>
    <trkseg>
      <trkpt lat="39.17198122832255" lon="117.7632510211307">
        <ele>-1.4</ele>
        <time>2025-09-29T23:28:12Z</time>
      </trkpt>
      <trkpt lat="39.17196423765045" lon="117.76325002203053">
        <ele>-1.4</ele>
        <time>2025-09-29T23:28:13Z</time>
      </trkpt>
      <trkpt lat="39.171942254837305" lon="117.76325603240929">
        <ele>-1.4</ele>
        <time>2025-09-29T23:28:14Z</time>
      </trkpt>
      <trkpt lat="39.17189630865486" lon="117.7632940863048">
        <ele>-1.4</ele>
        <time>2025-09-29T23:28:17Z</time>
      </trkpt>
      <trkpt lat="39.171837373010604" lon="117.76333614698925">
        <ele>-1.4</ele>
        <time>2025-09-29T23:28:19Z</time>
      </trkpt>
      <trkpt lat="39.17176844897669" lon="117.76338621918151">
        <ele>-1.5</ele>
        <time>2025-09-29T23:28:21Z</time>
      </trkpt>
      <trkpt lat="39.17170851123176" lon="117.76342427508679">
        <ele>-1.5</ele>
        <time>2025-09-29T23:28:23Z</time>
      </trkpt>
      <trkpt lat="39.17164656550988" lon="117.76344931476903">
        <ele>-1.5</ele>
        <time>2025-09-29T23:28:25Z</time>
      </trkpt>
      <trkpt lat="39.1715885933635" lon="117.76344031069922">
        <ele>-1.5</ele>
        <time>2025-09-29T23:28:27Z</time>
      </trkpt>
      <trkpt lat="39.171541589280906" lon="117.76339525948961">
        <ele>-1.5</ele>
        <time>2025-09-29T23:28:29Z</time>
      </trkpt>
      <trkpt lat="39.17150756280716" lon="117.76332918010728">
        <ele>-1.4</ele>
        <time>2025-09-29T23:28:31Z</time>
      </trkpt>
      <trkpt lat="39.171480525340776" lon="117.7632530874013">
        <ele>-1.4</ele>
        <time>2025-09-29T23:28:33Z</time>
      </trkpt>
      <trkpt lat="39.171455484801335" lon="117.76317399092964">
        <ele>-1.3</ele>
        <time>2025-09-29T23:28:35Z</time>
      </trkpt>
      <trkpt lat="39.171430450048526" lon="117.7631029047964">
        <ele>-1.3</ele>
        <time>2025-09-29T23:28:37Z</time>
      </trkpt>
      <trkpt lat="39.17140643084368" lon="117.76305484760124">
        <ele>-1.3</ele>
        <time>2025-09-29T23:28:39Z</time>
      </trkpt>
      <trkpt lat="39.171376433282376" lon="117.76303282384">
        <ele>-1.2</ele>
        <time>2025-09-29T23:28:41Z</time>
      </trkpt>
      <trkpt lat="39.17134045244938" lon="117.76302982466154">
        <ele>-1.2</ele>
        <time>2025-09-29T23:28:43Z</time>
      </trkpt>
      <trkpt lat="39.171302483202155" lon="117.76304184453471">
        <ele>-1.1</ele>
        <time>2025-09-29T23:28:45Z</time>
      </trkpt>
      <trkpt lat="39.171267514272955" lon="117.76305686779511">
        <ele>-1.1</ele>
        <time>2025-09-29T23:28:47Z</time>
      </trkpt>
      <trkpt lat="39.17123554705659" lon="117.76307689695909">
        <ele>-1.1</ele>
        <time>2025-09-29T23:28:49Z</time>
      </trkpt>
      <trkpt lat="39.17119958291166" lon="117.76309792790657">
        <ele>-1.4</ele>
        <time>2025-09-29T23:28:51Z</time>
      </trkpt>
      <trkpt lat="39.17115062994009" lon="117.76312396681428">
        <ele>-1.4</ele>
        <time>2025-09-29T23:28:53Z</time>
      </trkpt>
      <trkpt lat="39.17108567946333" lon="117.7631399952066">
        <ele>-2.2</ele>
        <time>2025-09-29T23:28:55Z</time>
      </trkpt>
      <trkpt lat="39.17102470501795" lon="117.76312498410286">
        <ele>-2.2</ele>
        <time>2025-09-29T23:28:57Z</time>
      </trkpt>
      <trkpt lat="39.170977691714356" lon="117.76306591598218">
        <ele>-2.2</ele>
        <time>2025-09-29T23:28:59Z</time>
      </trkpt>
      <trkpt lat="39.17094764842503" lon="117.76297780957658">
        <ele>-2.4</ele>
        <time>2025-09-29T23:29:01Z</time>
      </trkpt>
      <trkpt lat="39.17091660117992" lon="117.76288269493438">
        <ele>-2.4</ele>
        <time>2025-09-29T23:29:03Z</time>
      </trkpt>
      <trkpt lat="39.170882558079185" lon="117.76279058481869">
        <ele>-2.4</ele>
        <time>2025-09-29T23:29:05Z</time>
      </trkpt>
      <trkpt lat="39.17084651782168" lon="117.76270047782641">
        <ele>-2.4</ele>
        <time>2025-09-29T23:29:07Z</time>
      </trkpt>
      <trkpt lat="39.17081347607895" lon="117.7626103708296">
        <ele>-2.4</ele>
        <time>2025-09-29T23:29:09Z</time>
      </trkpt>
      <trkpt lat="39.17077743842058" lon="117.76252326827979">
        <ele>-2.3</ele>
        <time>2025-09-29T23:29:11Z</time>
      </trkpt>
      <trkpt lat="39.170742401112086" lon="117.76243716718102">
        <ele>-2.3</ele>
        <time>2025-09-29T23:29:13Z</time>
      </trkpt>
      <trkpt lat="39.170710363633134" lon="117.76235306848834">
        <ele>-2.5</ele>
        <time>2025-09-29T23:29:15Z</time>
      </trkpt>
      <trkpt lat="39.17067932714695" lon="117.76227097243296">
        <ele>-2.5</ele>
        <time>2025-09-29T23:29:17Z</time>
      </trkpt>
      <trkpt lat="39.170647292817264" lon="117.76219087924656">
        <ele>-2.5</ele>
        <time>2025-09-29T23:29:19Z</time>
      </trkpt>
      <trkpt lat="39.170606256759605" lon="117.76209977419609">
        <ele>-2.4</ele>
        <time>2025-09-29T23:29:21Z</time>
      </trkpt>
      <trkpt lat="39.170565220995954" lon="117.76200866953299">
        <ele>-2.4</ele>
        <time>2025-09-29T23:29:24Z</time>
      </trkpt>
      <trkpt lat="39.17052418683505" lon="117.76191956765979">
        <ele>-2.3</ele>
        <time>2025-09-29T23:29:26Z</time>
      </trkpt>
      <trkpt lat="39.170488157819236" lon="117.76184247988888">
        <ele>-2.3</ele>
        <time>2025-09-29T23:29:28Z</time>
      </trkpt>
      <trkpt lat="39.170450130844415" lon="117.76176639384431">
        <ele>-2.5</ele>
        <time>2025-09-29T23:29:30Z</time>
      </trkpt>
      <trkpt lat="39.170412104075304" lon="117.76169030807063">
        <ele>-2.5</ele>
        <time>2025-09-29T23:29:32Z</time>
      </trkpt>
      <trkpt lat="39.17037507885196" lon="117.76161722600156">
        <ele>-2.5</ele>
        <time>2025-09-29T23:29:34Z</time>
      </trkpt>
      <trkpt lat="39.17034005456047" lon="117.76154714747912">
        <ele>-2.7</ele>
        <time>2025-09-29T23:29:36Z</time>
      </trkpt>
      <trkpt lat="39.17030602857597" lon="117.76147506669881">
        <ele>-2.7</ele>
        <time>2025-09-29T23:29:38Z</time>
      </trkpt>
      <trkpt lat="39.17027200214047" lon="117.76140198498517">
        <ele>-2.8</ele>
        <time>2025-09-29T23:29:40Z</time>
      </trkpt>
      <trkpt lat="39.170235977076565" lon="117.7613289037766">
        <ele>-2.8</ele>
        <time>2025-09-29T23:29:42Z</time>
      </trkpt>
      <trkpt lat="39.170199952203035" lon="117.76125582281873">
        <ele>-2.8</ele>
        <time>2025-09-29T23:29:44Z</time>
      </trkpt>
      <trkpt lat="39.17016192807331" lon="117.76118174119961">
        <ele>-2.6</ele>
        <time>2025-09-29T23:29:46Z</time>
      </trkpt>
      <trkpt lat="39.17012190532093" lon="117.76110766009289">
        <ele>-2.6</ele>
        <time>2025-09-29T23:29:48Z</time>
      </trkpt>
      <trkpt lat="39.17007988581471" lon="117.76103658297772">
        <ele>-2.5</ele>
        <time>2025-09-29T23:29:50Z</time>
      </trkpt>
      <trkpt lat="39.17003686707994" lon="117.76096550622745">
        <ele>-2.5</ele>
        <time>2025-09-29T23:29:52Z</time>
      </trkpt>
      <trkpt lat="39.169993848526005" lon="117.76089442971494">
        <ele>-2.5</ele>
        <time>2025-09-29T23:29:54Z</time>
      </trkpt>
      <trkpt lat="39.169950828922424" lon="117.76082135114103">
        <ele>-2.3</ele>
        <time>2025-09-29T23:29:56Z</time>
      </trkpt>
      <trkpt lat="39.16990881137013" lon="117.76075227727645">
        <ele>-2.3</ele>
        <time>2025-09-29T23:29:58Z</time>
      </trkpt>
      <trkpt lat="39.16986579641078" lon="117.76068620719344">
        <ele>-2.3</ele>
        <time>2025-09-29T23:30:00Z</time>
      </trkpt>
      <trkpt lat="39.16982278282427" lon="117.76062213959662">
        <ele>-2.3</ele>
        <time>2025-09-29T23:30:02Z</time>
      </trkpt>
      <trkpt lat="39.1697817663861" lon="117.76055506852761">
        <ele>-2.3</ele>
        <time>2025-09-29T23:30:04Z</time>
      </trkpt>
      <trkpt lat="39.16973975130366" lon="117.76048899893209">
        <ele>-2.4</ele>
        <time>2025-09-29T23:30:06Z</time>
      </trkpt>
      <trkpt lat="39.169697735176136" lon="117.76042092728123">
        <ele>-2.4</ele>
        <time>2025-09-29T23:30:08Z</time>
      </trkpt>
      <trkpt lat="39.16965372159403" lon="117.76035485835885">
        <ele>-2.4</ele>
        <time>2025-09-29T23:30:10Z</time>
      </trkpt>
      <trkpt lat="39.16960870935613" lon="117.76028979089452">
        <ele>-2.6</ele>
        <time>2025-09-29T23:30:12Z</time>
      </trkpt>
      <trkpt lat="39.169567694906824" lon="117.76022472312131">
        <ele>-2.6</ele>
        <time>2025-09-29T23:30:14Z</time>
      </trkpt>
      <trkpt lat="39.169527682385414" lon="117.7601636598948">
        <ele>-2.4</ele>
        <time>2025-09-29T23:30:16Z</time>
      </trkpt>
      <trkpt lat="39.16949067058363" lon="117.7601066009258">
        <ele>-2.4</ele>
        <time>2025-09-29T23:30:18Z</time>
      </trkpt>
      <trkpt lat="39.169455660655586" lon="117.76005454742247">
        <ele>-2.4</ele>
        <time>2025-09-29T23:30:20Z</time>
      </trkpt>
      <trkpt lat="39.16942165257816" lon="117.76000649836408">
        <ele>-2.3</ele>
        <time>2025-09-29T23:30:22Z</time>
      </trkpt>
      <trkpt lat="39.16938764750614" lon="117.75996345495957">
        <ele>-2.3</ele>
        <time>2025-09-29T23:30:24Z</time>
      </trkpt>
      <trkpt lat="39.169355644234265" lon="117.75992541692382">
        <ele>-2.5</ele>
        <time>2025-09-29T23:30:26Z</time>
      </trkpt>
      <trkpt lat="39.169331635704474" lon="117.7598863768331">
        <ele>-2.5</ele>
        <time>2025-09-29T23:30:28Z</time>
      </trkpt>
      <trkpt lat="39.16931162486534" lon="117.75984733630555">
        <ele>-2.5</ele>
        <time>2025-09-29T23:30:30Z</time>
      </trkpt>
      <trkpt lat="39.16928363039566" lon="117.75982831891109">
        <ele>-2.6</ele>
        <time>2025-09-29T23:30:32Z</time>
      </trkpt>
      <trkpt lat="39.16925265335791" lon="117.75983633167895">
        <ele>-2.8</ele>
        <time>2025-09-29T23:30:36Z</time>
      </trkpt>
      <trkpt lat="39.16922068968772" lon="117.75986636886266">
        <ele>-2.8</ele>
        <time>2025-09-29T23:30:38Z</time>
      </trkpt>
      <trkpt lat="39.1691977242235" lon="117.7599024115795">
        <ele>-2.8</ele>
        <time>2025-09-29T23:30:40Z</time>
      </trkpt>
      <trkpt lat="39.16917276115569" lon="117.75994045682818">
        <ele>-2.8</ele>
        <time>2025-09-29T23:30:42Z</time>
      </trkpt>
      <trkpt lat="39.169146801656936" lon="117.75998350782187">
        <ele>-2.8</ele>
        <time>2025-09-29T23:30:44Z</time>
      </trkpt>
      <trkpt lat="39.169117847519715" lon="117.76003256595799">
        <ele>-3</ele>
        <time>2025-09-29T23:30:46Z</time>
      </trkpt>
      <trkpt lat="39.169089894644415" lon="117.76008462742479">
        <ele>-3</ele>
        <time>2025-09-29T23:30:48Z</time>
      </trkpt>
      <trkpt lat="39.169060943639316" lon="117.7601386913816">
        <ele>-3</ele>
        <time>2025-09-29T23:30:50Z</time>
      </trkpt>
      <trkpt lat="39.16902999392171" lon="117.76019275573117">
        <ele>-3</ele>
        <time>2025-09-29T23:30:52Z</time>
      </trkpt>
      <trkpt lat="39.16899504786347" lon="117.76024882297293">
        <ele>-3</ele>
        <time>2025-09-29T23:30:54Z</time>
      </trkpt>
      <trkpt lat="39.16896010430565" lon="117.7603088948643">
        <ele>-2.9</ele>
        <time>2025-09-29T23:30:56Z</time>
      </trkpt>
      <trkpt lat="39.16892516267483" lon="117.76037197031098">
        <ele>-2.9</ele>
        <time>2025-09-29T23:30:58Z</time>
      </trkpt>
      <trkpt lat="39.16888822417381" lon="117.76043804959423">
        <ele>-2.9</ele>
        <time>2025-09-29T23:31:00Z</time>
      </trkpt>
      <trkpt lat="39.16884728819461" lon="117.76050412959258">
        <ele>-2.8</ele>
        <time>2025-09-29T23:31:02Z</time>
      </trkpt>
      <trkpt lat="39.16880135411619" lon="117.76056820815782">
        <ele>-2.8</ele>
        <time>2025-09-29T23:31:04Z</time>
      </trkpt>
      <trkpt lat="39.16875442016821" lon="117.76063128590326">
        <ele>-2.7</ele>
        <time>2025-09-29T23:31:06Z</time>
      </trkpt>
      <trkpt lat="39.16870448813724" lon="117.76069436421794">
        <ele>-2.7</ele>
        <time>2025-09-29T23:31:08Z</time>
      </trkpt>
      <trkpt lat="39.16865255743205" lon="117.7607574429745">
        <ele>-2.7</ele>
        <time>2025-09-29T23:31:10Z</time>
      </trkpt>
      <trkpt lat="39.16859862805271" lon="117.76082052217288">
        <ele>-2.6</ele>
        <time>2025-09-29T23:31:12Z</time>
      </trkpt>
      <trkpt lat="39.168544698199064" lon="117.76088260040598">
        <ele>-2.6</ele>
        <time>2025-09-29T23:31:14Z</time>
      </trkpt>
      <trkpt lat="39.16848777087793" lon="117.76094568035747">
        <ele>-2.5</ele>
        <time>2025-09-29T23:31:16Z</time>
      </trkpt>
      <trkpt lat="39.16843084183433" lon="117.76100575702104">
        <ele>-2.5</ele>
        <time>2025-09-29T23:31:18Z</time>
      </trkpt>
      <trkpt lat="39.1683709140711" lon="117.76106483307487">
        <ele>-2.5</ele>
        <time>2025-09-29T23:31:20Z</time>
      </trkpt>
      <trkpt lat="39.1683109845557" lon="117.76112090580136">
        <ele>-2.6</ele>
        <time>2025-09-29T23:31:22Z</time>
      </trkpt>
      <trkpt lat="39.16825005637314" lon="117.76117797996902">
        <ele>-2.6</ele>
        <time>2025-09-29T23:31:24Z</time>
      </trkpt>
      <trkpt lat="39.16818712886114" lon="117.76123405337499">
        <ele>-2.3</ele>
        <time>2025-09-29T23:31:26Z</time>
      </trkpt>
      <trkpt lat="39.168124200830654" lon="117.7612891257568">
        <ele>-2.3</ele>
        <time>2025-09-29T23:31:28Z</time>
      </trkpt>
      <trkpt lat="39.16806126974071" lon="117.7613391924106">
        <ele>-2.3</ele>
        <time>2025-09-29T23:31:30Z</time>
      </trkpt>
      <trkpt lat="39.167998336835225" lon="117.76138625565324">
        <ele>-2.3</ele>
        <time>2025-09-29T23:31:32Z</time>
      </trkpt>
      <trkpt lat="39.16793440332769" lon="117.76143131677026">
        <ele>-2.3</ele>
        <time>2025-09-29T23:31:34Z</time>
      </trkpt>
      <trkpt lat="39.1678704692554" lon="117.76147537680198">
        <ele>-2.5</ele>
        <time>2025-09-29T23:31:36Z</time>
      </trkpt>
      <trkpt lat="39.16780553456529" lon="117.76151743468714">
        <ele>-2.5</ele>
        <time>2025-09-29T23:31:38Z</time>
      </trkpt>
      <trkpt lat="39.16773959924845" lon="117.76155749041385">
        <ele>-2.5</ele>
        <time>2025-09-29T23:31:40Z</time>
      </trkpt>
      <trkpt lat="39.16767466339856" lon="117.76159754608834">
        <ele>-2.6</ele>
        <time>2025-09-29T23:31:42Z</time>
      </trkpt>
      <trkpt lat="39.167610725727016" lon="117.76163559933485">
        <ele>-2.6</ele>
        <time>2025-09-29T23:31:44Z</time>
      </trkpt>
      <trkpt lat="39.16754678746294" lon="117.76167265145943">
        <ele>-2.8</ele>
        <time>2025-09-29T23:31:46Z</time>
      </trkpt>
      <trkpt lat="39.167482847308804" lon="117.7617067000745">
        <ele>-2.8</ele>
        <time>2025-09-29T23:31:48Z</time>
      </trkpt>
      <trkpt lat="39.167420904717865" lon="117.76173874610383">
        <ele>-2.8</ele>
        <time>2025-09-29T23:31:50Z</time>
      </trkpt>
      <trkpt lat="39.167360959034205" lon="117.76176778834439">
        <ele>-2.6</ele>
        <time>2025-09-29T23:31:52Z</time>
      </trkpt>
      <trkpt lat="39.16730201084031" lon="117.76179382691119">
        <ele>-2.6</ele>
        <time>2025-09-29T23:31:54Z</time>
      </trkpt>
      <trkpt lat="39.16725205604296" lon="117.7618178619717">
        <ele>-2.6</ele>
        <time>2025-09-29T23:31:56Z</time>
      </trkpt>
      <trkpt lat="39.16720909582039" lon="117.7618398937737">
        <ele>-2.6</ele>
        <time>2025-09-29T23:31:58Z</time>
      </trkpt>
      <trkpt lat="39.167175128331436" lon="117.76185892085822">
        <ele>-2.6</ele>
        <time>2025-09-29T23:32:00Z</time>
      </trkpt>
      <trkpt lat="39.16714215830549" lon="117.76187494423513">
        <ele>-2.6</ele>
        <time>2025-09-29T23:32:02Z</time>
      </trkpt>
      <trkpt lat="39.16710918632939" lon="117.76188796402495">
        <ele>-2.6</ele>
        <time>2025-09-29T23:32:04Z</time>
      </trkpt>
      <trkpt lat="39.16707122124225" lon="117.76190699166104">
        <ele>-2.6</ele>
        <time>2025-09-29T23:32:06Z</time>
      </trkpt>
      <trkpt lat="39.16702626227644" lon="117.76192902380903">
        <ele>-2.6</ele>
        <time>2025-09-29T23:32:08Z</time>
      </trkpt>
      <trkpt lat="39.166977305696825" lon="117.76195105648857">
        <ele>-2.6</ele>
        <time>2025-09-29T23:32:10Z</time>
      </trkpt>
      <trkpt lat="39.16692535025542" lon="117.76197208836882">
        <ele>-2.6</ele>
        <time>2025-09-29T23:32:12Z</time>
      </trkpt>
      <trkpt lat="39.16687139732882" lon="117.76199512293329">
        <ele>-2.6</ele>
        <time>2025-09-29T23:32:14Z</time>
      </trkpt>
      <trkpt lat="39.16681544823783" lon="117.7620221626001">
        <ele>-2.6</ele>
        <time>2025-09-29T23:32:16Z</time>
      </trkpt>
      <trkpt lat="39.16675950049181" lon="117.76205120471539">
        <ele>-2.7</ele>
        <time>2025-09-29T23:32:18Z</time>
      </trkpt>
      <trkpt lat="39.16670155660142" lon="117.76208425195918">
        <ele>-2.7</ele>
        <time>2025-09-29T23:32:20Z</time>
      </trkpt>
      <trkpt lat="39.16664261466584" lon="117.76211930180183">
        <ele>-2.7</ele>
        <time>2025-09-29T23:32:22Z</time>
      </trkpt>
      <trkpt lat="39.166581675947484" lon="117.76215735559249">
        <ele>-2.7</ele>
        <time>2025-09-29T23:32:24Z</time>
      </trkpt>
      <trkpt lat="39.16651973853809" lon="117.7621964107918">
        <ele>-2.7</ele>
        <time>2025-09-29T23:32:26Z</time>
      </trkpt>
      <trkpt lat="39.16645480296092" lon="117.76223546644374">
        <ele>-2.5</ele>
        <time>2025-09-29T23:32:28Z</time>
      </trkpt>
      <trkpt lat="39.16639186758849" lon="117.76227652434764">
        <ele>-2.5</ele>
        <time>2025-09-29T23:32:30Z</time>
      </trkpt>
      <trkpt lat="39.16632893227715" lon="117.76231758232991">
        <ele>-2.6</ele>
        <time>2025-09-29T23:32:32Z</time>
      </trkpt>
      <trkpt lat="39.16626499895895" lon="117.76236064296106">
        <ele>-2.6</ele>
        <time>2025-09-29T23:32:34Z</time>
      </trkpt>
      <trkpt lat="39.16620106637922" lon="117.7624047049021">
        <ele>-2.6</ele>
        <time>2025-09-29T23:32:36Z</time>
      </trkpt>
      <trkpt lat="39.16613713252368" lon="117.76244676448188">
        <ele>-2.9</ele>
        <time>2025-09-29T23:32:38Z</time>
      </trkpt>
      <trkpt lat="39.166075198221705" lon="117.76248982511704">
        <ele>-2.9</ele>
        <time>2025-09-29T23:32:40Z</time>
      </trkpt>
      <trkpt lat="39.16601326398661" lon="117.76253288583833">
        <ele>-2.9</ele>
        <time>2025-09-29T23:32:42Z</time>
      </trkpt>
      <trkpt lat="39.165951330495865" lon="117.7625769478774">
        <ele>-2.9</ele>
        <time>2025-09-29T23:32:44Z</time>
      </trkpt>
      <trkpt lat="39.165889398433244" lon="117.76262301247426">
        <ele>-2.9</ele>
        <time>2025-09-29T23:32:46Z</time>
      </trkpt>
      <trkpt lat="39.16582646908182" lon="117.76267208100508">
        <ele>-2.8</ele>
        <time>2025-09-29T23:32:48Z</time>
      </trkpt>
      <trkpt lat="39.16576453922415" lon="117.76272114952035">
        <ele>-2.8</ele>
        <time>2025-09-29T23:32:50Z</time>
      </trkpt>
      <trkpt lat="39.16570160936096" lon="117.76276921703376">
        <ele>-2.9</ele>
        <time>2025-09-29T23:32:52Z</time>
      </trkpt>
      <trkpt lat="39.16563967624433" lon="117.76281327955573">
        <ele>-2.9</ele>
        <time>2025-09-29T23:32:54Z</time>
      </trkpt>
      <trkpt lat="39.16557774388489" lon="117.76285834341243">
        <ele>-2.9</ele>
        <time>2025-09-29T23:32:56Z</time>
      </trkpt>
      <trkpt lat="39.16551781316933" lon="117.76290741209677">
        <ele>-2.9</ele>
        <time>2025-09-29T23:32:58Z</time>
      </trkpt>
      <trkpt lat="39.16545888401986" lon="117.76295948451371">
        <ele>-2.9</ele>
        <time>2025-09-29T23:33:00Z</time>
      </trkpt>
      <trkpt lat="39.16540195308877" lon="117.76301055554984">
        <ele>-3.1</ele>
        <time>2025-09-29T23:33:02Z</time>
      </trkpt>
      <trkpt lat="39.16534502225048" lon="117.76306162670662">
        <ele>-3.1</ele>
        <time>2025-09-29T23:33:04Z</time>
      </trkpt>
      <trkpt lat="39.165288090808616" lon="117.76311169672744">
        <ele>-3.1</ele>
        <time>2025-09-29T23:33:06Z</time>
      </trkpt>
      <trkpt lat="39.165232159561256" lon="117.76316276799584">
        <ele>-2.9</ele>
        <time>2025-09-29T23:33:08Z</time>
      </trkpt>
      <trkpt lat="39.165176226306976" lon="117.76321083560109">
        <ele>-2.9</ele>
        <time>2025-09-29T23:33:10Z</time>
      </trkpt>
      <trkpt lat="39.165121292542054" lon="117.76325890318586">
        <ele>-2.9</ele>
        <time>2025-09-29T23:33:12Z</time>
      </trkpt>
      <trkpt lat="39.165070353675496" lon="117.76330296530647">
        <ele>-2.9</ele>
        <time>2025-09-29T23:33:14Z</time>
      </trkpt>
      <trkpt lat="39.165027405203936" lon="117.76334001762805">
        <ele>-2.9</ele>
        <time>2025-09-29T23:33:16Z</time>
      </trkpt>
      <trkpt lat="39.1649954446157" lon="117.76336905846458">
        <ele>-2.8</ele>
        <time>2025-09-29T23:33:18Z</time>
      </trkpt>
      <trkpt lat="39.164969484738926" lon="117.76340410619659">
        <ele>-2.8</ele>
        <time>2025-09-29T23:33:20Z</time>
      </trkpt>
      <trkpt lat="39.16495052217084" lon="117.7634411556384">
        <ele>-2.8</ele>
        <time>2025-09-29T23:33:24Z</time>
      </trkpt>
      <trkpt lat="39.16493256118565" lon="117.76348120883713">
        <ele>-2.8</ele>
        <time>2025-09-29T23:33:26Z</time>
      </trkpt>
      <trkpt lat="39.16491559682133" lon="117.76351725688102">
        <ele>-2.8</ele>
        <time>2025-09-29T23:33:28Z</time>
      </trkpt>
      <trkpt lat="39.164896637247736" lon="117.76355831162469">
        <ele>-2.8</ele>
        <time>2025-09-29T23:33:30Z</time>
      </trkpt>
      <trkpt lat="39.164884679291106" lon="117.7636073757901">
        <ele>-2.6</ele>
        <time>2025-09-29T23:33:32Z</time>
      </trkpt>
      <trkpt lat="39.1648847207436" lon="117.76366545007777">
        <ele>-2.6</ele>
        <time>2025-09-29T23:33:34Z</time>
      </trkpt>
      <trkpt lat="39.16489675735224" lon="117.7637265268493">
        <ele>-2.6</ele>
        <time>2025-09-29T23:33:36Z</time>
      </trkpt>
      <trkpt lat="39.164922785790445" lon="117.76378760201203">
        <ele>-2.5</ele>
        <time>2025-09-29T23:33:38Z</time>
      </trkpt>
      <trkpt lat="39.1649578104673" lon="117.76385067878314">
        <ele>-2.5</ele>
        <time>2025-09-29T23:33:40Z</time>
      </trkpt>
      <trkpt lat="39.16500183284527" lon="117.76391775976752">
        <ele>-2.4</ele>
        <time>2025-09-29T23:33:42Z</time>
      </trkpt>
      <trkpt lat="39.16504785710272" lon="117.76398884589244">
        <ele>-2.4</ele>
        <time>2025-09-29T23:33:44Z</time>
      </trkpt>
      <trkpt lat="39.16509588399902" lon="117.76406493849758">
        <ele>-2.4</ele>
        <time>2025-09-29T23:33:46Z</time>
      </trkpt>
      <trkpt lat="39.165142913155094" lon="117.76414303410418">
        <ele>-2.4</ele>
        <time>2025-09-29T23:33:48Z</time>
      </trkpt>
      <trkpt lat="39.16519194354383" lon="117.76422413365987">
        <ele>-2.4</ele>
        <time>2025-09-29T23:33:50Z</time>
      </trkpt>
      <trkpt lat="39.16524097489998" lon="117.76430623482901">
        <ele>-2.4</ele>
        <time>2025-09-29T23:33:52Z</time>
      </trkpt>
      <trkpt lat="39.16529000649104" lon="117.76438833630719">
        <ele>-2.4</ele>
        <time>2025-09-29T23:33:54Z</time>
      </trkpt>
      <trkpt lat="39.16533804039711" lon="117.76447244085988">
        <ele>-2.4</ele>
        <time>2025-09-29T23:33:56Z</time>
      </trkpt>
      <trkpt lat="39.16538407274801" lon="117.76455254069865">
        <ele>-2.5</ele>
        <time>2025-09-29T23:33:58Z</time>
      </trkpt>
      <trkpt lat="39.16543210263792" lon="117.76463063792347">
        <ele>-2.5</ele>
        <time>2025-09-29T23:34:00Z</time>
      </trkpt>
      <trkpt lat="39.16547913107665" lon="117.7647057315643">
        <ele>-2.6</ele>
        <time>2025-09-29T23:34:02Z</time>
      </trkpt>
      <trkpt lat="39.16552616197494" lon="117.76478382946317">
        <ele>-2.6</ele>
        <time>2025-09-29T23:34:04Z</time>
      </trkpt>
      <trkpt lat="39.16557119654222" lon="117.76486493190642">
        <ele>-2.6</ele>
        <time>2025-09-29T23:34:06Z</time>
      </trkpt>
      <trkpt lat="39.16561923031984" lon="117.76494703560923">
        <ele>-2.4</ele>
        <time>2025-09-29T23:34:08Z</time>
      </trkpt>
      <trkpt lat="39.16567026102715" lon="117.76502713654855">
        <ele>-2.4</ele>
        <time>2025-09-29T23:34:10Z</time>
      </trkpt>
      <trkpt lat="39.165713298994824" lon="117.76511024284265">
        <ele>-2.4</ele>
        <time>2025-09-29T23:34:12Z</time>
      </trkpt>
      <trkpt lat="39.16572935704456" lon="117.76519835964636">
        <ele>-2.3</ele>
        <time>2025-09-29T23:34:14Z</time>
      </trkpt>
      <trkpt lat="39.1657044327109" lon="117.76527746981074">
        <ele>-2.3</ele>
        <time>2025-09-29T23:34:16Z</time>
      </trkpt>
      <trkpt lat="39.16565151279998" lon="117.76534056207156">
        <ele>-2</ele>
        <time>2025-09-29T23:34:18Z</time>
      </trkpt>
      <trkpt lat="39.16559158243791" lon="117.76538462953752">
        <ele>-2</ele>
        <time>2025-09-29T23:34:20Z</time>
      </trkpt>
      <trkpt lat="39.16553764548103" lon="117.76542469087723">
        <ele>-2</ele>
        <time>2025-09-29T23:34:22Z</time>
      </trkpt>
      <trkpt lat="39.165488706395216" lon="117.7654657530184">
        <ele>-1.6</ele>
        <time>2025-09-29T23:34:24Z</time>
      </trkpt>
      <trkpt lat="39.16545476861483" lon="117.76551983109641">
        <ele>-1.6</ele>
        <time>2025-09-29T23:34:26Z</time>
      </trkpt>
      <trkpt lat="39.165444828442155" lon="117.76558892680279">
        <ele>-1.3</ele>
        <time>2025-09-29T23:34:28Z</time>
      </trkpt>
      <trkpt lat="39.165460880872445" lon="117.76566803315488">
        <ele>-1.3</ele>
        <time>2025-09-29T23:34:30Z</time>
      </trkpt>
      <trkpt lat="39.16548692759064" lon="117.76574713851879">
        <ele>-1.3</ele>
        <time>2025-09-29T23:34:32Z</time>
      </trkpt>
      <trkpt lat="39.165508972942014" lon="117.76582123777038">
        <ele>-1.4</ele>
        <time>2025-09-29T23:34:34Z</time>
      </trkpt>
      <trkpt lat="39.16552701926647" lon="117.76589333501084">
        <ele>-1.4</ele>
        <time>2025-09-29T23:34:36Z</time>
      </trkpt>
      <trkpt lat="39.16554506735944" lon="117.76596743526079">
        <ele>-1.6</ele>
        <time>2025-09-29T23:34:38Z</time>
      </trkpt>
      <trkpt lat="39.16555112434769" lon="117.76604354006601">
        <ele>-1.6</ele>
        <time>2025-09-29T23:34:40Z</time>
      </trkpt>
      <trkpt lat="39.16553719338665" lon="117.76611964767552">
        <ele>-1.6</ele>
        <time>2025-09-29T23:34:42Z</time>
      </trkpt>
      <trkpt lat="39.16549727080566" lon="117.76618674627501">
        <ele>-1.7</ele>
        <time>2025-09-29T23:34:44Z</time>
      </trkpt>
      <trkpt lat="39.16544734223273" lon="117.76623882534982">
        <ele>-1.7</ele>
        <time>2025-09-29T23:34:46Z</time>
      </trkpt>
      <trkpt lat="39.16539241349154" lon="117.76628689957496">
        <ele>-1.5</ele>
        <time>2025-09-29T23:34:48Z</time>
      </trkpt>
      <trkpt lat="39.16534048466796" lon="117.76633697633049">
        <ele>-1.5</ele>
        <time>2025-09-29T23:34:50Z</time>
      </trkpt>
      <trkpt lat="39.165287558952755" lon="117.76639005754485">
        <ele>-1.5</ele>
        <time>2025-09-29T23:34:52Z</time>
      </trkpt>
      <trkpt lat="39.165234632523045" lon="117.76644213747701">
        <ele>-1.5</ele>
        <time>2025-09-29T23:34:54Z</time>
      </trkpt>
      <trkpt lat="39.16517769798771" lon="117.76648119969921">
        <ele>-1.5</ele>
        <time>2025-09-29T23:34:56Z</time>
      </trkpt>
      <trkpt lat="39.16511774168658" lon="117.76649122143482">
        <ele>-1.4</ele>
        <time>2025-09-29T23:34:58Z</time>
      </trkpt>
      <trkpt lat="39.16505875471939" lon="117.76646419085695">
        <ele>-1.4</ele>
        <time>2025-09-29T23:35:00Z</time>
      </trkpt>
      <trkpt lat="39.16500674254435" lon="117.7664111228159">
        <ele>-1.4</ele>
        <time>2025-09-29T23:35:02Z</time>
      </trkpt>
      <trkpt lat="39.16496471241117" lon="117.76634303256102">
        <ele>-1.5</ele>
        <time>2025-09-29T23:35:04Z</time>
      </trkpt>
      <trkpt lat="39.16492867565614" lon="117.76627093614756">
        <ele>-1.5</ele>
        <time>2025-09-29T23:35:06Z</time>
      </trkpt>
      <trkpt lat="39.16489264068534" lon="117.76620084276388">
        <ele>-1.5</ele>
        <time>2025-09-29T23:35:08Z</time>
      </trkpt>
      <trkpt lat="39.16484762163374" lon="117.76614376888081">
        <ele>-1.5</ele>
        <time>2025-09-29T23:35:10Z</time>
      </trkpt>
      <trkpt lat="39.16479362002564" lon="117.76610171718464">
        <ele>-1.5</ele>
        <time>2025-09-29T23:35:12Z</time>
      </trkpt>
      <trkpt lat="39.164740630666245" lon="117.7660756877107">
        <ele>-1.3</ele>
        <time>2025-09-29T23:35:14Z</time>
      </trkpt>
      <trkpt lat="39.165259800934656" lon="117.76541270987853">
        <ele>-1.5</ele>
        <time>2025-09-29T23:43:34Z</time>
      </trkpt>
      <trkpt lat="39.164859394647955" lon="117.76586738398002">
        <ele>-1.6</ele>
        <time>2025-09-29T23:43:45Z</time>
      </trkpt>
      <trkpt lat="39.164680681433126" lon="117.76609472179946">
        <ele>-1.6</ele>
        <time>2025-09-29T23:43:53Z</time>
      </trkpt>
      <trkpt lat="39.16472765036424" lon="117.76609071025175">
        <ele>-1.7</ele>
        <time>2025-09-29T23:44:03Z</time>
      </trkpt>
      <trkpt lat="39.164809581763485" lon="117.76606566501782">
        <ele>-1.7</ele>
        <time>2025-09-29T23:44:06Z</time>
      </trkpt>
      <trkpt lat="39.1648855047807" lon="117.76602559972063">
        <ele>-1.5</ele>
        <time>2025-09-29T23:44:14Z</time>
      </trkpt>
      <trkpt lat="39.16494942144352" lon="117.7659685124297">
        <ele>-1.5</ele>
        <time>2025-09-29T23:44:16Z</time>
      </trkpt>
      <trkpt lat="39.16497737226163" lon="117.76592745202547">
        <ele>-1.5</ele>
        <time>2025-09-29T23:44:18Z</time>
      </trkpt>
      <trkpt lat="39.16502131206687" lon="117.76588438689572">
        <ele>-1.4</ele>
        <time>2025-09-29T23:44:20Z</time>
      </trkpt>
      <trkpt lat="39.1650652590568" lon="117.76585033428604">
        <ele>-1.4</ele>
        <time>2025-09-29T23:44:26Z</time>
      </trkpt>
      <trkpt lat="39.16511321003823" lon="117.76582429226542">
        <ele>-1.4</ele>
        <time>2025-09-29T23:44:28Z</time>
      </trkpt>
      <trkpt lat="39.1651341738917" lon="117.7657942481902">
        <ele>-1.6</ele>
        <time>2025-09-29T23:44:30Z</time>
      </trkpt>
      <trkpt lat="39.16515413758071" lon="117.76576320290481">
        <ele>-1.6</ele>
        <time>2025-09-29T23:44:34Z</time>
      </trkpt>
      <trkpt lat="39.16517410130288" lon="117.765732157663">
        <ele>-1.6</ele>
        <time>2025-09-29T23:44:36Z</time>
      </trkpt>
      <trkpt lat="39.165201067199455" lon="117.76570912257829">
        <ele>-1.6</ele>
        <time>2025-09-29T23:44:38Z</time>
      </trkpt>
      <trkpt lat="39.16522803468594" lon="117.76568809026682">
        <ele>-1.6</ele>
        <time>2025-09-29T23:44:40Z</time>
      </trkpt>
      <trkpt lat="39.16524799770392" lon="117.76565604375718">
        <ele>-1.6</ele>
        <time>2025-09-29T23:44:42Z</time>
      </trkpt>
      <trkpt lat="39.16525495358176" lon="117.76560497289154">
        <ele>-1.6</ele>
        <time>2025-09-29T23:44:46Z</time>
      </trkpt>
      <trkpt lat="39.16525490979308" lon="117.76554889619175">
        <ele>-1.6</ele>
        <time>2025-09-29T23:44:50Z</time>
      </trkpt>
      <trkpt lat="39.165264870315255" lon="117.7655058361224">
        <ele>-1.6</ele>
        <time>2025-09-29T23:44:54Z</time>
      </trkpt>
      <trkpt lat="39.165292838913935" lon="117.76548680660831">
        <ele>-1.6</ele>
        <time>2025-09-29T23:44:56Z</time>
      </trkpt>
      <trkpt lat="39.16533580563947" lon="117.76547678748723">
        <ele>-1.6</ele>
        <time>2025-09-29T23:44:58Z</time>
      </trkpt>
      <trkpt lat="39.16538576666399" lon="117.76546476475137">
        <ele>-1.6</ele>
        <time>2025-09-29T23:45:00Z</time>
      </trkpt>
      <trkpt lat="39.165447714361974" lon="117.76544472958551">
        <ele>-1.6</ele>
        <time>2025-09-29T23:45:02Z</time>
      </trkpt>
      <trkpt lat="39.165508659561404" lon="117.76542068911435">
        <ele>-2.2</ele>
        <time>2025-09-29T23:45:04Z</time>
      </trkpt>
      <trkpt lat="39.165559609157135" lon="117.76539464721814">
        <ele>-2.2</ele>
        <time>2025-09-29T23:45:06Z</time>
      </trkpt>
      <trkpt lat="39.16559356652761" lon="117.76536560343406">
        <ele>-2.2</ele>
        <time>2025-09-29T23:45:08Z</time>
      </trkpt>
      <trkpt lat="39.16562451797033" lon="117.7653265464847">
        <ele>-2.7</ele>
        <time>2025-09-29T23:45:10Z</time>
      </trkpt>
      <trkpt lat="39.16565446542718" lon="117.76528148159355">
        <ele>-2.7</ele>
        <time>2025-09-29T23:45:12Z</time>
      </trkpt>
      <trkpt lat="39.165676420005795" lon="117.76523942187465">
        <ele>-2.9</ele>
        <time>2025-09-29T23:45:14Z</time>
      </trkpt>
      <trkpt lat="39.165675393657956" lon="117.76520437462885">
        <ele>-2.9</ele>
        <time>2025-09-29T23:45:16Z</time>
      </trkpt>
      <trkpt lat="39.165652384229496" lon="117.76517433699274">
        <ele>-2.9</ele>
        <time>2025-09-29T23:45:18Z</time>
      </trkpt>
      <trkpt lat="39.16561837751622" lon="117.7651392940472">
        <ele>-2.6</ele>
        <time>2025-09-29T23:45:20Z</time>
      </trkpt>
      <trkpt lat="39.16558136267282" lon="117.76509123401696">
        <ele>-2.6</ele>
        <time>2025-09-29T23:45:22Z</time>
      </trkpt>
      <trkpt lat="39.16554234375078" lon="117.7650361649298">
        <ele>-2.4</ele>
        <time>2025-09-29T23:45:24Z</time>
      </trkpt>
      <trkpt lat="39.16550232552659" lon="117.76498109610799">
        <ele>-2.4</ele>
        <time>2025-09-29T23:45:26Z</time>
      </trkpt>
      <trkpt lat="39.16546030783351" lon="117.76492502633877">
        <ele>-2.4</ele>
        <time>2025-09-29T23:45:28Z</time>
      </trkpt>
      <trkpt lat="39.16542228409161" lon="117.76486394951777">
        <ele>-2.3</ele>
        <time>2025-09-29T23:45:30Z</time>
      </trkpt>
      <trkpt lat="39.165388257353044" lon="117.76480187102393">
        <ele>-2.3</ele>
        <time>2025-09-29T23:45:32Z</time>
      </trkpt>
      <trkpt lat="39.16536422858671" lon="117.76474479809241">
        <ele>-2.5</ele>
        <time>2025-09-29T23:45:34Z</time>
      </trkpt>
      <trkpt lat="39.165349198355486" lon="117.76469273081135">
        <ele>-2.5</ele>
        <time>2025-09-29T23:45:36Z</time>
      </trkpt>
      <trkpt lat="39.16533716643992" lon="117.76464066327262">
        <ele>-2.5</ele>
        <time>2025-09-29T23:45:38Z</time>
      </trkpt>
      <trkpt lat="39.16532213714425" lon="117.76458959756393">
        <ele>-2.5</ele>
        <time>2025-09-29T23:45:40Z</time>
      </trkpt>
      <trkpt lat="39.16530111671897" lon="117.76454554199478">
        <ele>-2.5</ele>
        <time>2025-09-29T23:45:42Z</time>
      </trkpt>
      <trkpt lat="39.165280114992356" lon="117.76452651954392">
        <ele>-2.7</ele>
        <time>2025-09-29T23:45:44Z</time>
      </trkpt>
      <trkpt lat="39.16525512086553" lon="117.76451450686561">
        <ele>-2.6</ele>
        <time>2025-09-29T23:45:56Z</time>
      </trkpt>
      <trkpt lat="39.16523112093808" lon="117.7644954848233">
        <ele>-2.4</ele>
        <time>2025-09-29T23:46:00Z</time>
      </trkpt>
      <trkpt lat="39.165208098127785" lon="117.76444642310733">
        <ele>-2.4</ele>
        <time>2025-09-29T23:46:02Z</time>
      </trkpt>
      <trkpt lat="39.16518706902797" lon="117.76439035203751">
        <ele>-2.5</ele>
        <time>2025-09-29T23:46:04Z</time>
      </trkpt>
      <trkpt lat="39.16516504136919" lon="117.76433528255187">
        <ele>-2.5</ele>
        <time>2025-09-29T23:46:06Z</time>
      </trkpt>
      <trkpt lat="39.16514001928036" lon="117.76428522013961">
        <ele>-2.5</ele>
        <time>2025-09-29T23:46:08Z</time>
      </trkpt>
      <trkpt lat="39.16511499948562" lon="117.76423816176765">
        <ele>-2.4</ele>
        <time>2025-09-29T23:46:10Z</time>
      </trkpt>
      <trkpt lat="39.165087982421824" lon="117.76419310636447">
        <ele>-2.4</ele>
        <time>2025-09-29T23:46:12Z</time>
      </trkpt>
      <trkpt lat="39.16505696780021" lon="117.76414805156318">
        <ele>-2.4</ele>
        <time>2025-09-29T23:46:14Z</time>
      </trkpt>
      <trkpt lat="39.165023954435235" lon="117.76410299710946">
        <ele>-2.4</ele>
        <time>2025-09-29T23:46:16Z</time>
      </trkpt>
      <trkpt lat="39.164988940868284" lon="117.76405594040295">
        <ele>-2.4</ele>
        <time>2025-09-29T23:46:18Z</time>
      </trkpt>
      <trkpt lat="39.16495492533064" lon="117.76400688107518">
        <ele>-2.4</ele>
        <time>2025-09-29T23:46:20Z</time>
      </trkpt>
      <trkpt lat="39.16492190710673" lon="117.76395481784414">
        <ele>-2.4</ele>
        <time>2025-09-29T23:46:22Z</time>
      </trkpt>
      <trkpt lat="39.16489088851581" lon="117.76390375577652">
        <ele>-2.4</ele>
        <time>2025-09-29T23:46:24Z</time>
      </trkpt>
      <trkpt lat="39.164861869552496" lon="117.7638536948653">
        <ele>-2.7</ele>
        <time>2025-09-29T23:46:26Z</time>
      </trkpt>
      <trkpt lat="39.16483584889804" lon="117.76380363368789">
        <ele>-2.7</ele>
        <time>2025-09-29T23:46:28Z</time>
      </trkpt>
      <trkpt lat="39.16481482392899" lon="117.76375156941755">
        <ele>-2.7</ele>
        <time>2025-09-29T23:46:30Z</time>
      </trkpt>
      <trkpt lat="39.16478880058565" lon="117.76369750334067">
        <ele>-2.7</ele>
        <time>2025-09-29T23:46:32Z</time>
      </trkpt>
      <trkpt lat="39.16475078660509" lon="117.76364644276836">
        <ele>-2.7</ele>
        <time>2025-09-29T23:46:34Z</time>
      </trkpt>
      <trkpt lat="39.16470377591333" lon="117.76359237962443">
        <ele>-2.5</ele>
        <time>2025-09-29T23:46:36Z</time>
      </trkpt>
      <trkpt lat="39.164656758213596" lon="117.76352830385477">
        <ele>-2.5</ele>
        <time>2025-09-29T23:46:38Z</time>
      </trkpt>
      <trkpt lat="39.164614730608065" lon="117.76345421491231">
        <ele>-2.4</ele>
        <time>2025-09-29T23:46:40Z</time>
      </trkpt>
      <trkpt lat="39.16457469918642" lon="117.76337612089345">
        <ele>-2.4</ele>
        <time>2025-09-29T23:46:42Z</time>
      </trkpt>
      <trkpt lat="39.1645316697579" lon="117.76329802753794">
        <ele>-2.4</ele>
        <time>2025-09-29T23:46:44Z</time>
      </trkpt>
      <trkpt lat="39.16448564442331" lon="117.76322293863086">
        <ele>-2.3</ele>
        <time>2025-09-29T23:46:46Z</time>
      </trkpt>
      <trkpt lat="39.164435622357026" lon="117.7631488517517">
        <ele>-2.3</ele>
        <time>2025-09-29T23:46:48Z</time>
      </trkpt>
      <trkpt lat="39.164386597806086" lon="117.76307176123515">
        <ele>-2.1</ele>
        <time>2025-09-29T23:46:50Z</time>
      </trkpt>
      <trkpt lat="39.16433956881763" lon="117.7629896644845">
        <ele>-2.1</ele>
        <time>2025-09-29T23:46:52Z</time>
      </trkpt>
      <trkpt lat="39.16429453888028" lon="117.76290756779181">
        <ele>-2.1</ele>
        <time>2025-09-29T23:46:54Z</time>
      </trkpt>
      <trkpt lat="39.1642485125189" lon="117.7628294765124">
        <ele>-2.1</ele>
        <time>2025-09-29T23:46:56Z</time>
      </trkpt>
      <trkpt lat="39.164200488926404" lon="117.76275338825012">
        <ele>-2.1</ele>
        <time>2025-09-29T23:46:58Z</time>
      </trkpt>
      <trkpt lat="39.16415446298994" lon="117.76267529752963">
        <ele>-2.1</ele>
        <time>2025-09-29T23:47:00Z</time>
      </trkpt>
      <trkpt lat="39.164109433284935" lon="117.76259220080263">
        <ele>-2.1</ele>
        <time>2025-09-29T23:47:02Z</time>
      </trkpt>
      <trkpt lat="39.164064403148714" lon="117.76250810316819">
        <ele>-2.1</ele>
        <time>2025-09-29T23:47:04Z</time>
      </trkpt>
      <trkpt lat="39.16401637437012" lon="117.7624230050198">
        <ele>-2</ele>
        <time>2025-09-29T23:47:06Z</time>
      </trkpt>
      <trkpt lat="39.16396634770338" lon="117.76233890868359">
        <ele>-2</ele>
        <time>2025-09-29T23:47:08Z</time>
      </trkpt>
      <trkpt lat="39.16391832076666" lon="117.76225581363916">
        <ele>-2.1</ele>
        <time>2025-09-29T23:47:10Z</time>
      </trkpt>
      <trkpt lat="39.16387029606446" lon="117.7621757225554">
        <ele>-2.1</ele>
        <time>2025-09-29T23:47:12Z</time>
      </trkpt>
      <trkpt lat="39.16382026881395" lon="117.76208962477052">
        <ele>-2.1</ele>
        <time>2025-09-29T23:47:14Z</time>
      </trkpt>
      <trkpt lat="39.16376924176255" lon="117.76200252625395">
        <ele>-2.2</ele>
        <time>2025-09-29T23:47:16Z</time>
      </trkpt>
      <trkpt lat="39.163717215573854" lon="117.76191542821888">
        <ele>-2.2</ele>
        <time>2025-09-29T23:47:18Z</time>
      </trkpt>
      <trkpt lat="39.163667193026114" lon="117.76183533866244">
        <ele>-2.2</ele>
        <time>2025-09-29T23:47:20Z</time>
      </trkpt>
      <trkpt lat="39.16361717005807" lon="117.76175424821264">
        <ele>-2.2</ele>
        <time>2025-09-29T23:47:22Z</time>
      </trkpt>
      <trkpt lat="39.163568148667366" lon="117.76167616151201">
        <ele>-2.2</ele>
        <time>2025-09-29T23:47:24Z</time>
      </trkpt>
      <trkpt lat="39.163520128186164" lon="117.76160007734171">
        <ele>-2.2</ele>
        <time>2025-09-29T23:47:26Z</time>
      </trkpt>
      <trkpt lat="39.16347510933248" lon="117.76152899897403">
        <ele>-2.2</ele>
        <time>2025-09-29T23:47:28Z</time>
      </trkpt>
      <trkpt lat="39.163427093077324" lon="117.76145892240422">
        <ele>-2.3</ele>
        <time>2025-09-29T23:47:30Z</time>
      </trkpt>
      <trkpt lat="39.163374080600526" lon="117.76138984787697">
        <ele>-2.3</ele>
        <time>2025-09-29T23:47:32Z</time>
      </trkpt>
      <trkpt lat="39.163320066989016" lon="117.76131777018219">
        <ele>-2.3</ele>
        <time>2025-09-29T23:47:34Z</time>
      </trkpt>
      <trkpt lat="39.16327004803781" lon="117.76124068637588">
        <ele>-2.3</ele>
        <time>2025-09-29T23:47:36Z</time>
      </trkpt>
      <trkpt lat="39.1632230250088" lon="117.7611595978051">
        <ele>-2.3</ele>
        <time>2025-09-29T23:47:38Z</time>
      </trkpt>
      <trkpt lat="39.163176000965954" lon="117.76107650722032">
        <ele>-2.3</ele>
        <time>2025-09-29T23:47:40Z</time>
      </trkpt>
      <trkpt lat="39.16312897716984" lon="117.76099341696018">
        <ele>-2.3</ele>
        <time>2025-09-29T23:47:42Z</time>
      </trkpt>
      <trkpt lat="39.16308395243334" lon="117.7609103267704">
        <ele>-2.3</ele>
        <time>2025-09-29T23:47:44Z</time>
      </trkpt>
      <trkpt lat="39.16303593095567" lon="117.76082923958688">
        <ele>-2.3</ele>
        <time>2025-09-29T23:47:46Z</time>
      </trkpt>
      <trkpt lat="39.16298891157051" lon="117.76075215717022">
        <ele>-2.3</ele>
        <time>2025-09-29T23:47:48Z</time>
      </trkpt>
      <trkpt lat="39.162943891820916" lon="117.76067607592171">
        <ele>-2.4</ele>
        <time>2025-09-29T23:47:50Z</time>
      </trkpt>
      <trkpt lat="39.16290587115987" lon="117.76060499975118">
        <ele>-2.4</ele>
        <time>2025-09-29T23:47:52Z</time>
      </trkpt>
      <trkpt lat="39.16287085071372" lon="117.76053692684516">
        <ele>-2.4</ele>
        <time>2025-09-29T23:47:54Z</time>
      </trkpt>
      <trkpt lat="39.162832835228414" lon="117.76047386020416">
        <ele>-2.5</ele>
        <time>2025-09-29T23:47:56Z</time>
      </trkpt>
      <trkpt lat="39.16279182286833" lon="117.76041279639288">
        <ele>-2.5</ele>
        <time>2025-09-29T23:47:58Z</time>
      </trkpt>
      <trkpt lat="39.16275181363969" lon="117.760357739395">
        <ele>-2.6</ele>
        <time>2025-09-29T23:48:00Z</time>
      </trkpt>
      <trkpt lat="39.16271280452309" lon="117.76030368353814">
        <ele>-2.6</ele>
        <time>2025-09-29T23:48:02Z</time>
      </trkpt>
      <trkpt lat="39.16267679313559" lon="117.76024862631535">
        <ele>-2.6</ele>
        <time>2025-09-29T23:48:04Z</time>
      </trkpt>
      <trkpt lat="39.162641779485284" lon="117.76019056574951">
        <ele>-2.6</ele>
        <time>2025-09-29T23:48:06Z</time>
      </trkpt>
      <trkpt lat="39.16261076180947" lon="117.7601295014838">
        <ele>-2.6</ele>
        <time>2025-09-29T23:48:08Z</time>
      </trkpt>
      <trkpt lat="39.16258074308563" lon="117.7600674361535">
        <ele>-2.6</ele>
        <time>2025-09-29T23:48:10Z</time>
      </trkpt>
      <trkpt lat="39.162550724500285" lon="117.76000537100559">
        <ele>-2.6</ele>
        <time>2025-09-29T23:48:12Z</time>
      </trkpt>
      <trkpt lat="39.16252170370852" lon="117.75994030258936">
        <ele>-2.6</ele>
        <time>2025-09-29T23:48:14Z</time>
      </trkpt>
      <trkpt lat="39.16249268365039" lon="117.75987623547846">
        <ele>-2.7</ele>
        <time>2025-09-29T23:48:16Z</time>
      </trkpt>
      <trkpt lat="39.16246366258196" lon="117.75981016635885">
        <ele>-2.7</ele>
        <time>2025-09-29T23:48:18Z</time>
      </trkpt>
      <trkpt lat="39.16243664221285" lon="117.7597471004874">
        <ele>-2.7</ele>
        <time>2025-09-29T23:48:20Z</time>
      </trkpt>
      <trkpt lat="39.16241262422722" lon="117.75969104209341">
        <ele>-2.7</ele>
        <time>2025-09-29T23:48:22Z</time>
      </trkpt>
      <trkpt lat="39.16239260627014" lon="117.75963898771313">
        <ele>-2.7</ele>
        <time>2025-09-29T23:48:24Z</time>
      </trkpt>
      <trkpt lat="39.16238158306542" lon="117.75958693231638">
        <ele>-2.8</ele>
        <time>2025-09-29T23:48:26Z</time>
      </trkpt>
      <trkpt lat="39.162385548773514" lon="117.75953087078597">
        <ele>-2.8</ele>
        <time>2025-09-29T23:48:28Z</time>
      </trkpt>
      <trkpt lat="39.16240750503826" lon="117.75947680928593">
        <ele>-2.8</ele>
        <time>2025-09-29T23:48:30Z</time>
      </trkpt>
      <trkpt lat="39.16244045826639" lon="117.75942875302506">
        <ele>-2.5</ele>
        <time>2025-09-29T23:48:32Z</time>
      </trkpt>
      <trkpt lat="39.16247541208105" lon="117.7593836998632">
        <ele>-2.5</ele>
        <time>2025-09-29T23:48:34Z</time>
      </trkpt>
      <trkpt lat="39.16249637203574" lon="117.75933464426278">
        <ele>-2.6</ele>
        <time>2025-09-29T23:48:36Z</time>
      </trkpt>
      <trkpt lat="39.16249534346223" lon="117.75928258834634">
        <ele>-2.6</ele>
        <time>2025-09-29T23:48:38Z</time>
      </trkpt>
      <trkpt lat="39.162473326899686" lon="117.75922953415693">
        <ele>-2.6</ele>
        <time>2025-09-29T23:48:40Z</time>
      </trkpt>
      <trkpt lat="39.162440317527754" lon="117.75917748257268">
        <ele>-2.5</ele>
        <time>2025-09-29T23:48:42Z</time>
      </trkpt>
      <trkpt lat="39.162406306631" lon="117.75912142696899">
        <ele>-2.5</ele>
        <time>2025-09-29T23:48:44Z</time>
      </trkpt>
      <trkpt lat="39.1623712931299" lon="117.75905936524607">
        <ele>-2.6</ele>
        <time>2025-09-29T23:48:46Z</time>
      </trkpt>
      <trkpt lat="39.16233727807514" lon="117.75899530145372">
        <ele>-2.6</ele>
        <time>2025-09-29T23:48:48Z</time>
      </trkpt>
      <trkpt lat="39.16230126490427" lon="117.75893223917134">
        <ele>-2.6</ele>
        <time>2025-09-29T23:48:50Z</time>
      </trkpt>
      <trkpt lat="39.16226325197551" lon="117.7588671752196">
        <ele>-2.4</ele>
        <time>2025-09-29T23:48:52Z</time>
      </trkpt>
      <trkpt lat="39.16222324093093" lon="117.75880311277803">
        <ele>-2.4</ele>
        <time>2025-09-29T23:48:54Z</time>
      </trkpt>
      <trkpt lat="39.16218022965636" lon="117.75873504671212">
        <ele>-2.5</ele>
        <time>2025-09-29T23:48:56Z</time>
      </trkpt>
      <trkpt lat="39.162138219031604" lon="117.7586689828346">
        <ele>-2.5</ele>
        <time>2025-09-29T23:48:58Z</time>
      </trkpt>
      <trkpt lat="39.16209820523617" lon="117.75859891473517">
        <ele>-2.5</ele>
        <time>2025-09-29T23:49:00Z</time>
      </trkpt>
      <trkpt lat="39.162059191025094" lon="117.75852884674312">
        <ele>-2.5</ele>
        <time>2025-09-29T23:49:02Z</time>
      </trkpt>
      <trkpt lat="39.162019177586494" lon="117.75845877911308">
        <ele>-2.5</ele>
        <time>2025-09-29T23:49:04Z</time>
      </trkpt>
      <trkpt lat="39.161977167097625" lon="117.75839171507408">
        <ele>-2.5</ele>
        <time>2025-09-29T23:49:06Z</time>
      </trkpt>
      <trkpt lat="39.16193315691016" lon="117.75832264944341">
        <ele>-2.5</ele>
        <time>2025-09-29T23:49:08Z</time>
      </trkpt>
      <trkpt lat="39.16188714808467" lon="117.7582535842956">
        <ele>-2.5</ele>
        <time>2025-09-29T23:49:10Z</time>
      </trkpt>
      <trkpt lat="39.161838142776276" lon="117.75818752283038">
        <ele>-2.5</ele>
        <time>2025-09-29T23:49:12Z</time>
      </trkpt>
      <trkpt lat="39.16179413517443" lon="117.75812246195903">
        <ele>-2.5</ele>
        <time>2025-09-29T23:49:14Z</time>
      </trkpt>
      <trkpt lat="39.16175412535041" lon="117.75805740078155">
        <ele>-2.6</ele>
        <time>2025-09-29T23:49:16Z</time>
      </trkpt>
      <trkpt lat="39.16172010955006" lon="117.75798733397">
        <ele>-2.6</ele>
        <time>2025-09-29T23:49:18Z</time>
      </trkpt>
      <trkpt lat="39.161683096221644" lon="117.75791826878694">
        <ele>-2.6</ele>
        <time>2025-09-29T23:49:20Z</time>
      </trkpt>
      <trkpt lat="39.161640089681164" lon="117.75785521064486">
        <ele>-2.4</ele>
        <time>2025-09-29T23:49:22Z</time>
      </trkpt>
      <trkpt lat="39.16159308667488" lon="117.75779415521322">
        <ele>-2.4</ele>
        <time>2025-09-29T23:49:24Z</time>
      </trkpt>
      <trkpt lat="39.16154708321085" lon="117.75773309983335">
        <ele>-2.6</ele>
        <time>2025-09-29T23:49:26Z</time>
      </trkpt>
      <trkpt lat="39.1615070758162" lon="117.7576710428696">
        <ele>-2.6</ele>
        <time>2025-09-29T23:49:28Z</time>
      </trkpt>
      <trkpt lat="39.16147106518686" lon="117.7576069835892">
        <ele>-2.6</ele>
        <time>2025-09-29T23:49:30Z</time>
      </trkpt>
      <trkpt lat="39.16143305738678" lon="117.75754592774044">
        <ele>-2.6</ele>
        <time>2025-09-29T23:49:32Z</time>
      </trkpt>
      <trkpt lat="39.16139505071264" lon="117.75748687405189">
        <ele>-2.6</ele>
        <time>2025-09-29T23:49:34Z</time>
      </trkpt>
      <trkpt lat="39.16136104178889" lon="117.75742782002206">
        <ele>-2.7</ele>
        <time>2025-09-29T23:49:36Z</time>
      </trkpt>
      <trkpt lat="39.16133702606852" lon="117.75736676291785">
        <ele>-2.7</ele>
        <time>2025-09-29T23:49:38Z</time>
      </trkpt>
      <trkpt lat="39.16132500725909" lon="117.75731371232179">
        <ele>-2.7</ele>
        <time>2025-09-29T23:49:40Z</time>
      </trkpt>
      <trkpt lat="39.16141301384152" lon="117.75743381933133">
        <ele>-3</ele>
        <time>2025-09-29T23:52:31Z</time>
      </trkpt>
      <trkpt lat="39.161424043381516" lon="117.75750689018132">
        <ele>-2.9</ele>
        <time>2025-09-29T23:52:34Z</time>
      </trkpt>
      <trkpt lat="39.16143906824839" lon="117.75757495580461">
        <ele>-2.9</ele>
        <time>2025-09-29T23:52:36Z</time>
      </trkpt>
      <trkpt lat="39.161458089405635" lon="117.75764001814768">
        <ele>-2.7</ele>
        <time>2025-09-29T23:52:38Z</time>
      </trkpt>
      <trkpt lat="39.16149609590759" lon="117.7576980712703">
        <ele>-2.7</ele>
        <time>2025-09-29T23:52:40Z</time>
      </trkpt>
      <trkpt lat="39.16153410505638" lon="117.7577611295728">
        <ele>-2.7</ele>
        <time>2025-09-29T23:52:42Z</time>
      </trkpt>
      <trkpt lat="39.161576112480624" lon="117.75782518856403">
        <ele>-2.8</ele>
        <time>2025-09-29T23:52:44Z</time>
      </trkpt>
      <trkpt lat="39.161617121668066" lon="117.75789124989939">
        <ele>-2.8</ele>
        <time>2025-09-29T23:52:46Z</time>
      </trkpt>
      <trkpt lat="39.16165812947917" lon="117.75795430840499">
        <ele>-2.6</ele>
        <time>2025-09-29T23:52:48Z</time>
      </trkpt>
      <trkpt lat="39.16169613767579" lon="117.75801436443533">
        <ele>-2.6</ele>
        <time>2025-09-29T23:52:50Z</time>
      </trkpt>
      <trkpt lat="39.161737143705324" lon="117.75807341923814">
        <ele>-2.6</ele>
        <time>2025-09-29T23:52:52Z</time>
      </trkpt>
      <trkpt lat="39.161779148749744" lon="117.7581314730594">
        <ele>-2.7</ele>
        <time>2025-09-29T23:52:54Z</time>
      </trkpt>
      <trkpt lat="39.16182215592552" lon="117.75819453203694">
        <ele>-2.7</ele>
        <time>2025-09-29T23:52:56Z</time>
      </trkpt>
      <trkpt lat="39.16186416488627" lon="117.75825959338745">
        <ele>-2.6</ele>
        <time>2025-09-29T23:52:58Z</time>
      </trkpt>
      <trkpt lat="39.161906175051975" lon="117.75832665700229">
        <ele>-2.6</ele>
        <time>2025-09-29T23:53:00Z</time>
      </trkpt>
      <trkpt lat="39.16194818379823" lon="117.75839071773048">
        <ele>-2.6</ele>
        <time>2025-09-29T23:53:02Z</time>
      </trkpt>
      <trkpt lat="39.16199219203586" lon="117.75845577943757">
        <ele>-2.6</ele>
        <time>2025-09-29T23:53:04Z</time>
      </trkpt>
      <trkpt lat="39.16203820083697" lon="117.75852384421333">
        <ele>-2.6</ele>
        <time>2025-09-29T23:53:06Z</time>
      </trkpt>
      <trkpt lat="39.162084213017344" lon="117.75859791547282">
        <ele>-2.5</ele>
        <time>2025-09-29T23:53:08Z</time>
      </trkpt>
      <trkpt lat="39.16213222528505" lon="117.7586739888349">
        <ele>-2.5</ele>
        <time>2025-09-29T23:53:10Z</time>
      </trkpt>
      <trkpt lat="39.1621782389511" lon="117.75875006272797">
        <ele>-2.5</ele>
        <time>2025-09-29T23:53:12Z</time>
      </trkpt>
      <trkpt lat="39.16222225401527" lon="117.75882613715187">
        <ele>-2.6</ele>
        <time>2025-09-29T23:53:14Z</time>
      </trkpt>
      <trkpt lat="39.16226127280551" lon="117.75890321354666">
        <ele>-2.6</ele>
        <time>2025-09-29T23:53:16Z</time>
      </trkpt>
      <trkpt lat="39.162301291766155" lon="117.75898129115973">
        <ele>-2.7</ele>
        <time>2025-09-29T23:53:18Z</time>
      </trkpt>
      <trkpt lat="39.16234630687423" lon="117.75905736629555">
        <ele>-2.7</ele>
        <time>2025-09-29T23:53:20Z</time>
      </trkpt>
      <trkpt lat="39.162396317004436" lon="117.75912943679371">
        <ele>-2.7</ele>
        <time>2025-09-29T23:53:22Z</time>
      </trkpt>
      <trkpt lat="39.16244632843725" lon="117.75920350968475">
        <ele>-2.8</ele>
        <time>2025-09-29T23:53:24Z</time>
      </trkpt>
      <trkpt lat="39.16249634118862" lon="117.75927958498974">
        <ele>-2.8</ele>
        <time>2025-09-29T23:53:26Z</time>
      </trkpt>
      <trkpt lat="39.1625433564938" lon="117.75935666203195">
        <ele>-3</ele>
        <time>2025-09-29T23:53:28Z</time>
      </trkpt>
      <trkpt lat="39.16258637099736" lon="117.75942773336429">
        <ele>-3</ele>
        <time>2025-09-29T23:53:30Z</time>
      </trkpt>
      <trkpt lat="39.16262238700191" lon="117.75949380039401">
        <ele>-3</ele>
        <time>2025-09-29T23:53:32Z</time>
      </trkpt>
      <trkpt lat="39.162661399103115" lon="117.75955586289096">
        <ele>-2.8</ele>
        <time>2025-09-29T23:53:34Z</time>
      </trkpt>
      <trkpt lat="39.16270341242293" lon="117.7596229306522">
        <ele>-2.8</ele>
        <time>2025-09-29T23:53:36Z</time>
      </trkpt>
      <trkpt lat="39.16275042695986" lon="117.75969700566336">
        <ele>-2.8</ele>
        <time>2025-09-29T23:53:38Z</time>
      </trkpt>
      <trkpt lat="39.162794442321136" lon="117.75976907911726">
        <ele>-2.8</ele>
        <time>2025-09-29T23:53:40Z</time>
      </trkpt>
      <trkpt lat="39.162834449808955" lon="117.75982313347879">
        <ele>-2.8</ele>
        <time>2025-09-29T23:53:42Z</time>
      </trkpt>
      <trkpt lat="39.16289546472237" lon="117.75991122289739">
        <ele>-3</ele>
        <time>2025-09-29T23:54:06Z</time>
      </trkpt>
      <trkpt lat="39.16292248429854" lon="117.75997228704131">
        <ele>-2.9</ele>
        <time>2025-09-29T23:54:08Z</time>
      </trkpt>
      <trkpt lat="39.162954505150246" lon="117.76004035851226">
        <ele>-2.9</ele>
        <time>2025-09-29T23:54:10Z</time>
      </trkpt>
      <trkpt lat="39.16299152732894" lon="117.76011543737795">
        <ele>-2.9</ele>
        <time>2025-09-29T23:54:12Z</time>
      </trkpt>
      <trkpt lat="39.16303454674099" lon="117.76019151686671">
        <ele>-2.8</ele>
        <time>2025-09-29T23:54:14Z</time>
      </trkpt>
      <trkpt lat="39.16307856517216" lon="117.76026659537884">
        <ele>-2.8</ele>
        <time>2025-09-29T23:54:16Z</time>
      </trkpt>
      <trkpt lat="39.16311958439079" lon="117.76033967228568">
        <ele>-3</ele>
        <time>2025-09-29T23:54:18Z</time>
      </trkpt>
      <trkpt lat="39.16315560556815" lon="117.76041074782084">
        <ele>-3</ele>
        <time>2025-09-29T23:54:20Z</time>
      </trkpt>
      <trkpt lat="39.16319262392115" lon="117.76047781893409">
        <ele>-3</ele>
        <time>2025-09-29T23:54:22Z</time>
      </trkpt>
      <trkpt lat="39.163234638257094" lon="117.76054288735091">
        <ele>-3</ele>
        <time>2025-09-29T23:54:24Z</time>
      </trkpt>
      <trkpt lat="39.163279652179675" lon="117.76060995786473">
        <ele>-3</ele>
        <time>2025-09-29T23:54:26Z</time>
      </trkpt>
      <trkpt lat="39.16332566811079" lon="117.76068103303452">
        <ele>-3</ele>
        <time>2025-09-29T23:54:28Z</time>
      </trkpt>
      <trkpt lat="39.16337368487451" lon="117.76075511162688">
        <ele>-3</ele>
        <time>2025-09-29T23:54:30Z</time>
      </trkpt>
      <trkpt lat="39.16342170429729" lon="117.76083319507755">
        <ele>-3</ele>
        <time>2025-09-29T23:54:32Z</time>
      </trkpt>
      <trkpt lat="39.163470726437616" lon="117.7609162844573">
        <ele>-3</ele>
        <time>2025-09-29T23:54:34Z</time>
      </trkpt>
      <trkpt lat="39.163518752526784" lon="117.76100438007907">
        <ele>-3</ele>
        <time>2025-09-29T23:54:36Z</time>
      </trkpt>
      <trkpt lat="39.16357077776948" lon="117.76109447788163">
        <ele>-3</ele>
        <time>2025-09-29T23:54:38Z</time>
      </trkpt>
      <trkpt lat="39.163622802046014" lon="117.76118257373282">
        <ele>-3</ele>
        <time>2025-09-29T23:54:40Z</time>
      </trkpt>
      <trkpt lat="39.16367682351944" lon="117.76126766618263">
        <ele>-3</ele>
        <time>2025-09-29T23:54:42Z</time>
      </trkpt>
      <trkpt lat="39.163729844576636" lon="117.76135075675086">
        <ele>-2.7</ele>
        <time>2025-09-29T23:54:44Z</time>
      </trkpt>
      <trkpt lat="39.163780863882266" lon="117.76142884200677">
        <ele>-2.7</ele>
        <time>2025-09-29T23:54:46Z</time>
      </trkpt>
      <trkpt lat="39.16382988587153" lon="117.76150893016661">
        <ele>-2.7</ele>
        <time>2025-09-29T23:54:48Z</time>
      </trkpt>
      <trkpt lat="39.16387890873202" lon="117.76159001981274">
        <ele>-2.8</ele>
        <time>2025-09-29T23:54:50Z</time>
      </trkpt>
      <trkpt lat="39.16392893187894" lon="117.76167211082914">
        <ele>-2.8</ele>
        <time>2025-09-29T23:54:52Z</time>
      </trkpt>
      <trkpt lat="39.16397995661794" lon="117.76175720561395">
        <ele>-2.9</ele>
        <time>2025-09-29T23:54:54Z</time>
      </trkpt>
      <trkpt lat="39.16403098096302" lon="117.76184129954021">
        <ele>-2.9</ele>
        <time>2025-09-29T23:54:56Z</time>
      </trkpt>
      <trkpt lat="39.16408200752317" lon="117.76192839740132">
        <ele>-2.9</ele>
        <time>2025-09-29T23:54:58Z</time>
      </trkpt>
      <trkpt lat="39.164132033630736" lon="117.76201349333319">
        <ele>-2.9</ele>
        <time>2025-09-29T23:55:00Z</time>
      </trkpt>
      <trkpt lat="39.16418206197739" lon="117.76210159323168">
        <ele>-2.9</ele>
        <time>2025-09-29T23:55:02Z</time>
      </trkpt>
      <trkpt lat="39.16423109451216" lon="117.76219469968852">
        <ele>-2.8</ele>
        <time>2025-09-29T23:55:04Z</time>
      </trkpt>
      <trkpt lat="39.16428012668673" lon="117.76228680533144">
        <ele>-2.8</ele>
        <time>2025-09-29T23:55:06Z</time>
      </trkpt>
      <trkpt lat="39.16433315544809" lon="117.762376908416">
        <ele>-2.8</ele>
        <time>2025-09-29T23:55:08Z</time>
      </trkpt>
      <trkpt lat="39.16438817926946" lon="117.76246100426555">
        <ele>-2.7</ele>
        <time>2025-09-29T23:55:10Z</time>
      </trkpt>
      <trkpt lat="39.16444420274818" lon="117.76254510031707">
        <ele>-2.7</ele>
        <time>2025-09-29T23:55:12Z</time>
      </trkpt>
      <trkpt lat="39.16449722893579" lon="117.76263019831333">
        <ele>-2.7</ele>
        <time>2025-09-29T23:55:14Z</time>
      </trkpt>
      <trkpt lat="39.164548257930335" lon="117.76271729937704">
        <ele>-2.7</ele>
        <time>2025-09-29T23:55:16Z</time>
      </trkpt>
      <trkpt lat="39.16459828572933" lon="117.7628013971937">
        <ele>-2.7</ele>
        <time>2025-09-29T23:55:18Z</time>
      </trkpt>
      <trkpt lat="39.16465031328028" lon="117.76288649633034">
        <ele>-2.9</ele>
        <time>2025-09-29T23:55:20Z</time>
      </trkpt>
      <trkpt lat="39.16470334187656" lon="117.76297359817593">
        <ele>-2.9</ele>
        <time>2025-09-29T23:55:22Z</time>
      </trkpt>
      <trkpt lat="39.16475637282397" lon="117.76306370413603">
        <ele>-3</ele>
        <time>2025-09-29T23:55:24Z</time>
      </trkpt>
      <trkpt lat="39.16480840465021" lon="117.76315381059945">
        <ele>-3</ele>
        <time>2025-09-29T23:55:26Z</time>
      </trkpt>
      <trkpt lat="39.164858437246956" lon="117.76324291643044">
        <ele>-3</ele>
        <time>2025-09-29T23:55:28Z</time>
      </trkpt>
      <trkpt lat="39.164901474977135" lon="117.76333302478585">
        <ele>-3</ele>
        <time>2025-09-29T23:55:30Z</time>
      </trkpt>
      <trkpt lat="39.1649155316006" lon="117.7634251397472">
        <ele>-3</ele>
        <time>2025-09-29T23:55:32Z</time>
      </trkpt>
      <trkpt lat="39.16490560488209" lon="117.7635202619791">
        <ele>-3.1</ele>
        <time>2025-09-29T23:55:34Z</time>
      </trkpt>
      <trkpt lat="39.164889684179194" lon="117.76361838923125">
        <ele>-3.1</ele>
        <time>2025-09-29T23:55:36Z</time>
      </trkpt>
      <trkpt lat="39.16489875042478" lon="117.76371851631656">
        <ele>-3.1</ele>
        <time>2025-09-29T23:55:38Z</time>
      </trkpt>
      <trkpt lat="39.16493379872077" lon="117.76381463540024">
        <ele>-3.1</ele>
        <time>2025-09-29T23:55:40Z</time>
      </trkpt>
      <trkpt lat="39.16498583146729" lon="117.7639027424008">
        <ele>-3.1</ele>
        <time>2025-09-29T23:55:42Z</time>
      </trkpt>
      <trkpt lat="39.16504485888126" lon="117.76398884627399">
        <ele>-3.1</ele>
        <time>2025-09-29T23:55:44Z</time>
      </trkpt>
      <trkpt lat="39.16510388655464" lon="117.76407495048808">
        <ele>-3.1</ele>
        <time>2025-09-29T23:55:46Z</time>
      </trkpt>
      <trkpt lat="39.16515791745124" lon="117.76416105567871">
        <ele>-3.1</ele>
        <time>2025-09-29T23:55:48Z</time>
      </trkpt>
      <trkpt lat="39.16521594844366" lon="117.76425016462804">
        <ele>-3.1</ele>
        <time>2025-09-29T23:55:50Z</time>
      </trkpt>
      <trkpt lat="39.16527697867408" lon="117.76434027487328">
        <ele>-3.1</ele>
        <time>2025-09-29T23:55:52Z</time>
      </trkpt>
      <trkpt lat="39.165336014085376" lon="117.76443539233244">
        <ele>-3.2</ele>
        <time>2025-09-29T23:55:54Z</time>
      </trkpt>
      <trkpt lat="39.16538905485966" lon="117.764532513613">
        <ele>-3.2</ele>
        <time>2025-09-29T23:55:56Z</time>
      </trkpt>
      <trkpt lat="39.16543909699059" lon="117.7646286343803">
        <ele>-3.2</ele>
        <time>2025-09-29T23:55:58Z</time>
      </trkpt>
      <trkpt lat="39.16549213390192" lon="117.76471974853493">
        <ele>-3.2</ele>
        <time>2025-09-29T23:56:00Z</time>
      </trkpt>
      <trkpt lat="39.16554916495364" lon="117.76480585588692">
        <ele>-3.2</ele>
        <time>2025-09-29T23:56:02Z</time>
      </trkpt>
      <trkpt lat="39.1656051938224" lon="117.76488795835108">
        <ele>-3.4</ele>
        <time>2025-09-29T23:56:04Z</time>
      </trkpt>
      <trkpt lat="39.165661220642214" lon="117.7649670570969">
        <ele>-3.4</ele>
        <time>2025-09-29T23:56:06Z</time>
      </trkpt>
      <trkpt lat="39.16571724691553" lon="117.7650451547825">
        <ele>-3.4</ele>
        <time>2025-09-29T23:56:08Z</time>
      </trkpt>
      <trkpt lat="39.16576228451705" lon="117.7651292622398">
        <ele>-3.7</ele>
        <time>2025-09-29T23:56:10Z</time>
      </trkpt>
      <trkpt lat="39.16576934795778" lon="117.76521738026435">
        <ele>-3.7</ele>
        <time>2025-09-29T23:56:12Z</time>
      </trkpt>
      <trkpt lat="39.1657274306602" lon="117.76529248723173">
        <ele>-3.2</ele>
        <time>2025-09-29T23:56:14Z</time>
      </trkpt>
      <trkpt lat="39.165650514166416" lon="117.76534156355766">
        <ele>-3.2</ele>
        <time>2025-09-29T23:56:16Z</time>
      </trkpt>
      <trkpt lat="39.165572583621476" lon="117.76537161426559">
        <ele>-3.2</ele>
        <time>2025-09-29T23:56:18Z</time>
      </trkpt>
      <trkpt lat="39.16550464408003" lon="117.76539765829637">
        <ele>-2.6</ele>
        <time>2025-09-29T23:56:20Z</time>
      </trkpt>
      <trkpt lat="39.1654447013757" lon="117.765425704066">
        <ele>-2.6</ele>
        <time>2025-09-29T23:56:22Z</time>
      </trkpt>
      <trkpt lat="39.16538476103311" lon="117.76545675396359">
        <ele>-2.4</ele>
        <time>2025-09-29T23:56:24Z</time>
      </trkpt>
      <trkpt lat="39.165327823620785" lon="117.76549381171769">
        <ele>-2.4</ele>
        <time>2025-09-29T23:56:26Z</time>
      </trkpt>
      <trkpt lat="39.16528489513457" lon="117.76555289785084">
        <ele>-2.4</ele>
        <time>2025-09-29T23:56:28Z</time>
      </trkpt>
      <trkpt lat="39.16526295745369" lon="117.76561598695706">
        <ele>-2.6</ele>
        <time>2025-09-29T23:56:30Z</time>
      </trkpt>
      <trkpt lat="39.1652410175533" lon="117.76567607212091">
        <ele>-2.6</ele>
        <time>2025-09-29T23:56:32Z</time>
      </trkpt>
      <trkpt lat="39.165215063619996" lon="117.76571512905274">
        <ele>-2.6</ele>
        <time>2025-09-29T23:56:36Z</time>
      </trkpt>
      <trkpt lat="39.16518211231277" lon="117.76575218418834">
        <ele>-2.6</ele>
        <time>2025-09-29T23:56:38Z</time>
      </trkpt>
      <trkpt lat="39.165168151368285" lon="117.76579123972874">
        <ele>-2.5</ele>
        <time>2025-09-29T23:56:40Z</time>
      </trkpt>
      <trkpt lat="39.16514219996183" lon="117.76583330100748">
        <ele>-2.5</ele>
        <time>2025-09-29T23:56:42Z</time>
      </trkpt>
      <trkpt lat="39.16510524800901" lon="117.76586635131818">
        <ele>-2.4</ele>
        <time>2025-09-29T23:56:46Z</time>
      </trkpt>
      <trkpt lat="39.16505030359357" lon="117.76589539843032">
        <ele>-2.4</ele>
        <time>2025-09-29T23:56:48Z</time>
      </trkpt>
      <trkpt lat="39.16499636020311" lon="117.76592644822414">
        <ele>-2.4</ele>
        <time>2025-09-29T23:56:50Z</time>
      </trkpt>
      <trkpt lat="39.1649474242201" lon="117.76597051545882">
        <ele>-2.4</ele>
        <time>2025-09-29T23:56:52Z</time>
      </trkpt>
      <trkpt lat="39.16489948850847" lon="117.76601558404337">
        <ele>-2.4</ele>
        <time>2025-09-29T23:56:54Z</time>
      </trkpt>
      <trkpt lat="39.16485554730164" lon="117.76605664664513">
        <ele>-2.4</ele>
        <time>2025-09-29T23:56:56Z</time>
      </trkpt>
      <trkpt lat="39.16480359490789" lon="117.76607768248502">
        <ele>-2.4</ele>
        <time>2025-09-29T23:56:58Z</time>
      </trkpt>
      <trkpt lat="39.16475062553559" lon="117.76607668783146">
        <ele>-2.7</ele>
        <time>2025-09-29T23:57:00Z</time>
      </trkpt>
      <trkpt lat="39.16470464322625" lon="117.7660646769764">
        <ele>-2.7</ele>
        <time>2025-09-29T23:57:02Z</time>
      </trkpt>
      <trkpt lat="39.16672457206144" lon="117.76212830226517">
        <ele>-2.8</ele>
        <time>2025-09-30T00:08:11Z</time>
      </trkpt>
      <trkpt lat="39.16675252376135" lon="117.7620802406359">
        <ele>-2.8</ele>
        <time>2025-09-30T00:08:13Z</time>
      </trkpt>
      <trkpt lat="39.16680646541531" lon="117.76204018545883">
        <ele>-2.9</ele>
        <time>2025-09-30T00:08:16Z</time>
      </trkpt>
      <trkpt lat="39.16688739508416" lon="117.76200613415143">
        <ele>-2.9</ele>
        <time>2025-09-30T00:08:18Z</time>
      </trkpt>
      <trkpt lat="39.16697132170831" lon="117.7619700801093">
        <ele>-2.8</ele>
        <time>2025-09-30T00:08:20Z</time>
      </trkpt>
      <trkpt lat="39.167058247260094" lon="117.7619350269478">
        <ele>-2.8</ele>
        <time>2025-09-30T00:08:22Z</time>
      </trkpt>
      <trkpt lat="39.16714417410406" lon="117.76190097517097">
        <ele>-2.8</ele>
        <time>2025-09-30T00:08:24Z</time>
      </trkpt>
      <trkpt lat="39.16722609553329" lon="117.76185490957671">
        <ele>-2.8</ele>
        <time>2025-09-30T00:08:26Z</time>
      </trkpt>
      <trkpt lat="39.16730301674855" lon="117.76180383873854">
        <ele>-2.8</ele>
        <time>2025-09-30T00:08:28Z</time>
      </trkpt>
      <trkpt lat="39.167382933689716" lon="117.76174876286757">
        <ele>-2.7</ele>
        <time>2025-09-30T00:08:30Z</time>
      </trkpt>
      <trkpt lat="39.16746684901989" lon="117.76169468781987">
        <ele>-2.7</ele>
        <time>2025-09-30T00:08:32Z</time>
      </trkpt>
      <trkpt lat="39.16755176322039" lon="117.7616396115935">
        <ele>-2.6</ele>
        <time>2025-09-30T00:08:34Z</time>
      </trkpt>
      <trkpt lat="39.16763368059164" lon="117.76158653826153">
        <ele>-2.6</ele>
        <time>2025-09-30T00:08:36Z</time>
      </trkpt>
      <trkpt lat="39.16771760072631" lon="117.76153947190583">
        <ele>-2.6</ele>
        <time>2025-09-30T00:08:38Z</time>
      </trkpt>
      <trkpt lat="39.16780252354693" lon="117.76149741143257">
        <ele>-2.7</ele>
        <time>2025-09-30T00:08:40Z</time>
      </trkpt>
      <trkpt lat="39.16788844456608" lon="117.76145334855613">
        <ele>-2.7</ele>
        <time>2025-09-30T00:08:42Z</time>
      </trkpt>
      <trkpt lat="39.16797236302401" lon="117.76140327896258">
        <ele>-2.7</ele>
        <time>2025-09-30T00:08:44Z</time>
      </trkpt>
      <trkpt lat="39.16805627650152" lon="117.7613452000912">
        <ele>-2.7</ele>
        <time>2025-09-30T00:08:46Z</time>
      </trkpt>
      <trkpt lat="39.1681391875346" lon="117.76128211564827">
        <ele>-2.7</ele>
        <time>2025-09-30T00:08:48Z</time>
      </trkpt>
      <trkpt lat="39.16821909796921" lon="117.76121502710085">
        <ele>-2.6</ele>
        <time>2025-09-30T00:08:50Z</time>
      </trkpt>
      <trkpt lat="39.16829400713674" lon="117.76114093124735">
        <ele>-2.6</ele>
        <time>2025-09-30T00:08:52Z</time>
      </trkpt>
      <trkpt lat="39.16836491574832" lon="117.76106183035549">
        <ele>-2.6</ele>
        <time>2025-09-30T00:08:54Z</time>
      </trkpt>
      <trkpt lat="39.16843482517621" lon="117.76098272988473">
        <ele>-2.5</ele>
        <time>2025-09-30T00:08:56Z</time>
      </trkpt>
      <trkpt lat="39.168503736656874" lon="117.76090563214224">
        <ele>-2.5</ele>
        <time>2025-09-30T00:08:58Z</time>
      </trkpt>
      <trkpt lat="39.168575645346316" lon="117.76082653199775">
        <ele>-2.6</ele>
        <time>2025-09-30T00:09:00Z</time>
      </trkpt>
      <trkpt lat="39.1686465536273" lon="117.76074542998279">
        <ele>-2.6</ele>
        <time>2025-09-30T00:09:02Z</time>
      </trkpt>
      <trkpt lat="39.16871646029821" lon="117.76066032383645">
        <ele>-2.6</ele>
        <time>2025-09-30T00:09:04Z</time>
      </trkpt>
      <trkpt lat="39.16878336779086" lon="117.76057321613722">
        <ele>-2.5</ele>
        <time>2025-09-30T00:09:06Z</time>
      </trkpt>
      <trkpt lat="39.1688482743263" lon="117.76048210451555">
        <ele>-2.5</ele>
        <time>2025-09-30T00:09:08Z</time>
      </trkpt>
      <trkpt lat="39.16891117874435" lon="117.76038498676529">
        <ele>-2.6</ele>
        <time>2025-09-30T00:09:10Z</time>
      </trkpt>
      <trkpt lat="39.16897108587132" lon="117.76028887096642">
        <ele>-2.6</ele>
        <time>2025-09-30T00:09:12Z</time>
      </trkpt>
      <trkpt lat="39.169035001640886" lon="117.7602107752603">
        <ele>-2.6</ele>
        <time>2025-09-30T00:09:14Z</time>
      </trkpt>
      <trkpt lat="39.1691069294518" lon="117.76016071011975">
        <ele>-2.8</ele>
        <time>2025-09-30T00:09:16Z</time>
      </trkpt>
      <trkpt lat="39.16918586501986" lon="117.76013066653603">
        <ele>-2.8</ele>
        <time>2025-09-30T00:09:18Z</time>
      </trkpt>
      <trkpt lat="39.169266800619646" lon="117.76010262497147">
        <ele>-2.7</ele>
        <time>2025-09-30T00:09:20Z</time>
      </trkpt>
      <trkpt lat="39.16934773625036" lon="117.760074583444">
        <ele>-2.7</ele>
        <time>2025-09-30T00:09:22Z</time>
      </trkpt>
      <trkpt lat="39.16943168307251" lon="117.76006856606838">
        <ele>-2.7</ele>
        <time>2025-09-30T00:09:24Z</time>
      </trkpt>
      <trkpt lat="39.1695096605341" lon="117.76010860073934">
        <ele>-2.9</ele>
        <time>2025-09-30T00:09:26Z</time>
      </trkpt>
      <trkpt lat="39.169578666456914" lon="117.76018768026192">
        <ele>-2.9</ele>
        <time>2025-09-30T00:09:28Z</time>
      </trkpt>
      <trkpt lat="39.169636690425115" lon="117.76028578283344">
        <ele>-2.8</ele>
        <time>2025-09-30T00:09:30Z</time>
      </trkpt>
      <trkpt lat="39.169693713531665" lon="117.76038088260073">
        <ele>-2.8</ele>
        <time>2025-09-30T00:09:32Z</time>
      </trkpt>
      <trkpt lat="39.16975273517856" lon="117.7604749814076">
        <ele>-2.8</ele>
        <time>2025-09-30T00:09:34Z</time>
      </trkpt>
      <trkpt lat="39.169814755977264" lon="117.76057008138856">
        <ele>-2.8</ele>
        <time>2025-09-30T00:09:36Z</time>
      </trkpt>
      <trkpt lat="39.169878775919116" lon="117.76066518154184">
        <ele>-2.8</ele>
        <time>2025-09-30T00:09:38Z</time>
      </trkpt>
      <trkpt lat="39.16993979611912" lon="117.76075727906355">
        <ele>-3</ele>
        <time>2025-09-30T00:09:40Z</time>
      </trkpt>
      <trkpt lat="39.169998817805" lon="117.7608493772396">
        <ele>-3</ele>
        <time>2025-09-30T00:09:42Z</time>
      </trkpt>
      <trkpt lat="39.17005384277748" lon="117.76094247747953">
        <ele>-3</ele>
        <time>2025-09-30T00:09:44Z</time>
      </trkpt>
      <trkpt lat="39.17010986933827" lon="117.76103858147948">
        <ele>-3.1</ele>
        <time>2025-09-30T00:09:46Z</time>
      </trkpt>
      <trkpt lat="39.17016589873532" lon="117.7611386905717">
        <ele>-3.1</ele>
        <time>2025-09-30T00:09:48Z</time>
      </trkpt>
      <trkpt lat="39.17022492734848" lon="117.7612398009225">
        <ele>-3.1</ele>
        <time>2025-09-30T00:09:50Z</time>
      </trkpt>
      <trkpt lat="39.17028295881884" lon="117.76134391540313">
        <ele>-3.1</ele>
        <time>2025-09-30T00:09:52Z</time>
      </trkpt>
      <trkpt lat="39.17033899377002" lon="117.76145103418453">
        <ele>-3.1</ele>
        <time>2025-09-30T00:09:54Z</time>
      </trkpt>
      <trkpt lat="39.17039203218489" lon="117.76156015625443">
        <ele>-3.3</ele>
        <time>2025-09-30T00:09:56Z</time>
      </trkpt>
      <trkpt lat="39.17044207279526" lon="117.76166927926407">
        <ele>-3.3</ele>
        <time>2025-09-30T00:09:58Z</time>
      </trkpt>
      <trkpt lat="39.17049311064135" lon="117.7617743979261">
        <ele>-3.3</ele>
        <time>2025-09-30T00:10:00Z</time>
      </trkpt>
      <trkpt lat="39.1705421487554" lon="117.7618775149611">
        <ele>-3.3</ele>
        <time>2025-09-30T00:10:02Z</time>
      </trkpt>
      <trkpt lat="39.170587190265486" lon="117.76198163420625">
        <ele>-3.3</ele>
        <time>2025-09-30T00:10:04Z</time>
      </trkpt>
      <trkpt lat="39.170629234591615" lon="117.76208675554852">
        <ele>-3.3</ele>
        <time>2025-09-30T00:10:06Z</time>
      </trkpt>
      <trkpt lat="39.17066927783454" lon="117.7621878728058">
        <ele>-3.3</ele>
        <time>2025-09-30T00:10:08Z</time>
      </trkpt>
      <trkpt lat="39.170710319514036" lon="117.76228698797591">
        <ele>-3.1</ele>
        <time>2025-09-30T00:10:10Z</time>
      </trkpt>
      <trkpt lat="39.170753360359946" lon="117.76238610334937">
        <ele>-3.1</ele>
        <time>2025-09-30T00:10:12Z</time>
      </trkpt>
      <trkpt lat="39.17079740770734" lon="117.76249523133126">
        <ele>-3.1</ele>
        <time>2025-09-30T00:10:14Z</time>
      </trkpt>
      <trkpt lat="39.170841459546736" lon="117.7626103672669">
        <ele>-3.1</ele>
        <time>2025-09-30T00:10:16Z</time>
      </trkpt>
      <trkpt lat="39.17088751340405" lon="117.76272950851974">
        <ele>-3.1</ele>
        <time>2025-09-30T00:10:18Z</time>
      </trkpt>
      <trkpt lat="39.17093356501325" lon="117.76284464545422">
        <ele>-3.1</ele>
        <time>2025-09-30T00:10:20Z</time>
      </trkpt>
      <trkpt lat="39.1709806144258" lon="117.76295677912788">
        <ele>-3.1</ele>
        <time>2025-09-30T00:10:22Z</time>
      </trkpt>
      <trkpt lat="39.17103165150054" lon="117.76305389406006">
        <ele>-3.1</ele>
        <time>2025-09-30T00:10:24Z</time>
      </trkpt>
      <trkpt lat="39.171094654638736" lon="117.76311195885546">
        <ele>-2.5</ele>
        <time>2025-09-30T00:10:26Z</time>
      </trkpt>
      <trkpt lat="39.17116261589053" lon="117.76311395271713">
        <ele>-2.5</ele>
        <time>2025-09-30T00:10:28Z</time>
      </trkpt>
      <trkpt lat="39.17122455354951" lon="117.76307689835868">
        <ele>-2.1</ele>
        <time>2025-09-30T00:10:30Z</time>
      </trkpt>
      <trkpt lat="39.17127748616705" lon="117.76302482641341">
        <ele>-2.1</ele>
        <time>2025-09-30T00:10:32Z</time>
      </trkpt>
      <trkpt lat="39.17133242738441" lon="117.76298677184735">
        <ele>-2.1</ele>
        <time>2025-09-30T00:10:34Z</time>
      </trkpt>
      <trkpt lat="39.171395386050186" lon="117.76298075632684">
        <ele>-1.8</ele>
        <time>2025-09-30T00:10:36Z</time>
      </trkpt>
      <trkpt lat="39.171455384577136" lon="117.76302981002944">
        <ele>-1.8</ele>
        <time>2025-09-30T00:10:38Z</time>
      </trkpt>
      <trkpt lat="39.171509415263365" lon="117.76311991610862">
        <ele>-1.7</ele>
        <time>2025-09-30T00:10:40Z</time>
      </trkpt>
      <trkpt lat="39.17154846768934" lon="117.76322804718254">
        <ele>-1.7</ele>
        <time>2025-09-30T00:10:42Z</time>
      </trkpt>
      <trkpt lat="39.1715975019541" lon="117.76331815472466">
        <ele>-1.7</ele>
        <time>2025-09-30T00:10:44Z</time>
      </trkpt>
      <trkpt lat="39.171650514368665" lon="117.76338022657913">
        <ele>-1.8</ele>
        <time>2025-09-30T00:10:46Z</time>
      </trkpt>
      <trkpt lat="39.17170349156635" lon="117.76339223506892">
        <ele>-1.8</ele>
        <time>2025-09-30T00:10:48Z</time>
      </trkpt>
      <trkpt lat="39.17174744796043" lon="117.76336719774272">
        <ele>-1.8</ele>
        <time>2025-09-30T00:10:50Z</time>
      </trkpt>
      <trkpt lat="39.171792386891084" lon="117.76331812991431">
        <ele>-1.8</ele>
        <time>2025-09-30T00:10:52Z</time>
      </trkpt>
      <trkpt lat="39.17185231424961" lon="117.7632650552329">
        <ele>-1.8</ele>
        <time>2025-09-30T00:10:54Z</time>
      </trkpt>
      <trkpt lat="39.171922240708476" lon="117.76321898823986">
        <ele>-1.8</ele>
        <time>2025-09-30T00:10:56Z</time>
      </trkpt>
      <trkpt lat="39.17199316874944" lon="117.76317592499642">
        <ele>-1.8</ele>
        <time>2025-09-30T00:10:58Z</time>
      </trkpt>
      <trkpt lat="39.17205510565259" lon="117.76313786927282">
        <ele>-1.8</ele>
        <time>2025-09-30T00:11:00Z</time>
      </trkpt>
      <trkpt lat="39.17211704121634" lon="117.76309781110389">
        <ele>-1.6</ele>
        <time>2025-09-30T00:11:02Z</time>
      </trkpt>
      <trkpt lat="39.172181981319916" lon="117.76306676391725">
        <ele>-1.6</ele>
        <time>2025-09-30T00:11:04Z</time>
      </trkpt>
      <trkpt lat="39.17224594287515" lon="117.7630657545193">
        <ele>-2</ele>
        <time>2025-09-30T00:11:06Z</time>
      </trkpt>
      <trkpt lat="39.17229893108114" lon="117.76309378292243">
        <ele>-2</ele>
        <time>2025-09-30T00:11:08Z</time>
      </trkpt>
    </trkseg>
  </trk>
</gpx>