<?xml version="1.0" encoding="UTF-8"?>
<gpx xmlns="http://www.topografix.com/GPX/1/1" xmlns:gpxtpx="http://www.garmin.com/xmlschemas/TrackPointExtension/v1" xmlns:xsi="http://www.w3.org/2001/XMLSchema-instance" xsi:schemaLocation="http://www.topografix.com/GPX/1/1 http://www.topografix.com/GPX/1/1/gpx.xsd" version="1.1" creator="gpx.py -- https://github.com/tkrajina/gpxpy">
  <trk>
    <name>gpx from codoon</name>
    <type>Run</type>
    <trkseg>
      <trkpt lat="39.17120352707344" lon="117.76302083081849">
        <ele>-1</ele>
        <time>2025-10-11T09:13:11Z</time>
      </trkpt>
      <trkpt lat="39.17121051531894" lon="117.7630098161533">
        <ele>-1</ele>
        <time>2025-10-11T09:13:12Z</time>
      </trkpt>
      <trkpt lat="39.171190518121485" lon="117.76299680242622">
        <ele>-1</ele>
        <time>2025-10-11T09:13:13Z</time>
      </trkpt>
      <trkpt lat="39.17114156020606" lon="117.76301583244519">
        <ele>-1.6</ele>
        <time>2025-10-11T09:13:16Z</time>
      </trkpt>
      <trkpt lat="39.17107060766359" lon="117.76302385149833">
        <ele>-1.6</ele>
        <time>2025-10-11T09:13:18Z</time>
      </trkpt>
      <trkpt lat="39.171005632870546" lon="117.76300483597707">
        <ele>-2</ele>
        <time>2025-10-11T09:13:20Z</time>
      </trkpt>
      <trkpt lat="39.17095060728741" lon="117.76292073799264">
        <ele>-2</ele>
        <time>2025-10-11T09:13:22Z</time>
      </trkpt>
      <trkpt lat="39.17090756045649" lon="117.7628156126971">
        <ele>-2</ele>
        <time>2025-10-11T09:13:24Z</time>
      </trkpt>
      <trkpt lat="39.170869506287765" lon="117.76270347861295">
        <ele>-2.3</ele>
        <time>2025-10-11T09:13:26Z</time>
      </trkpt>
      <trkpt lat="39.17082945170877" lon="117.76258834166998">
        <ele>-2.3</ele>
        <time>2025-10-11T09:13:28Z</time>
      </trkpt>
      <trkpt lat="39.17078439852788" lon="117.76247020229869">
        <ele>-2.6</ele>
        <time>2025-10-11T09:13:30Z</time>
      </trkpt>
      <trkpt lat="39.17073334804333" lon="117.76235006189769">
        <ele>-2.6</ele>
        <time>2025-10-11T09:13:32Z</time>
      </trkpt>
      <trkpt lat="39.17068029991522" lon="117.76223092363922">
        <ele>-2.6</ele>
        <time>2025-10-11T09:13:34Z</time>
      </trkpt>
      <trkpt lat="39.17062725162826" lon="117.76211078483239">
        <ele>-2.6</ele>
        <time>2025-10-11T09:13:36Z</time>
      </trkpt>
      <trkpt lat="39.17057620332824" lon="117.76199164764915">
        <ele>-2.6</ele>
        <time>2025-10-11T09:13:38Z</time>
      </trkpt>
      <trkpt lat="39.17051815836003" lon="117.76187050962176">
        <ele>-2.6</ele>
        <time>2025-10-11T09:13:40Z</time>
      </trkpt>
      <trkpt lat="39.17045711698111" lon="117.76175137504869">
        <ele>-2.6</ele>
        <time>2025-10-11T09:13:42Z</time>
      </trkpt>
      <trkpt lat="39.17039607739493" lon="117.76163424351535">
        <ele>-2.6</ele>
        <time>2025-10-11T09:13:44Z</time>
      </trkpt>
      <trkpt lat="39.17033803780506" lon="117.76151911460755">
        <ele>-3</ele>
        <time>2025-10-11T09:13:46Z</time>
      </trkpt>
      <trkpt lat="39.17028099873242" lon="117.76140498737084">
        <ele>-3</ele>
        <time>2025-10-11T09:13:48Z</time>
      </trkpt>
      <trkpt lat="39.17022196130522" lon="117.76129086099971">
        <ele>-3.3</ele>
        <time>2025-10-11T09:13:50Z</time>
      </trkpt>
      <trkpt lat="39.17016292434256" lon="117.7611767352401">
        <ele>-3.3</ele>
        <time>2025-10-11T09:13:52Z</time>
      </trkpt>
      <trkpt lat="39.170104887877955" lon="117.76106361112627">
        <ele>-3.3</ele>
        <time>2025-10-11T09:13:54Z</time>
      </trkpt>
      <trkpt lat="39.17004485367189" lon="117.76095148902452">
        <ele>308</ele>
        <time>2025-10-11T09:13:56Z</time>
      </trkpt>
      <trkpt lat="39.16998282048112" lon="117.76083836661857">
        <ele>308</ele>
        <time>2025-10-11T09:13:58Z</time>
      </trkpt>
      <trkpt lat="39.169916791335396" lon="117.76072724761468">
        <ele>-2.8</ele>
        <time>2025-10-11T09:14:00Z</time>
      </trkpt>
      <trkpt lat="39.16984776622871" lon="117.7606191329946">
        <ele>-2.8</ele>
        <time>2025-10-11T09:14:02Z</time>
      </trkpt>
      <trkpt lat="39.169778742145795" lon="117.760512020061">
        <ele>-2.8</ele>
        <time>2025-10-11T09:14:04Z</time>
      </trkpt>
      <trkpt lat="39.169708718465664" lon="117.76040390666645">
        <ele>-3.2</ele>
        <time>2025-10-11T09:14:06Z</time>
      </trkpt>
      <trkpt lat="39.16963869520581" lon="117.7602957938242">
        <ele>-3.2</ele>
        <time>2025-10-11T09:14:08Z</time>
      </trkpt>
      <trkpt lat="39.169568674144394" lon="117.76019068489377">
        <ele>-3.2</ele>
        <time>2025-10-11T09:14:10Z</time>
      </trkpt>
      <trkpt lat="39.169502655829255" lon="117.76009358489705">
        <ele>-3</ele>
        <time>2025-10-11T09:14:12Z</time>
      </trkpt>
      <trkpt lat="39.16944264192499" lon="117.76000949902476">
        <ele>-3</ele>
        <time>2025-10-11T09:14:14Z</time>
      </trkpt>
      <trkpt lat="39.16939663050376" lon="117.75994343164324">
        <ele>-3.2</ele>
        <time>2025-10-11T09:14:16Z</time>
      </trkpt>
      <trkpt lat="39.16936661618098" lon="117.75988837458937">
        <ele>-3.2</ele>
        <time>2025-10-11T09:14:18Z</time>
      </trkpt>
      <trkpt lat="39.16934260016071" lon="117.75983632022432">
        <ele>-3.2</ele>
        <time>2025-10-11T09:14:20Z</time>
      </trkpt>
      <trkpt lat="39.16930758553865" lon="117.75977525748507">
        <ele>-3.5</ele>
        <time>2025-10-11T09:14:22Z</time>
      </trkpt>
      <trkpt lat="39.169257571863334" lon="117.75970018147588">
        <ele>-3.5</ele>
        <time>2025-10-11T09:14:24Z</time>
      </trkpt>
      <trkpt lat="39.16919855627438" lon="117.75961209267538">
        <ele>-3.5</ele>
        <time>2025-10-11T09:14:26Z</time>
      </trkpt>
      <trkpt lat="39.169135536508804" lon="117.75951199169823">
        <ele>-3.5</ele>
        <time>2025-10-11T09:14:28Z</time>
      </trkpt>
      <trkpt lat="39.16906551842097" lon="117.75940688667481">
        <ele>-3.5</ele>
        <time>2025-10-11T09:14:30Z</time>
      </trkpt>
      <trkpt lat="39.16898950147738" lon="117.75929677755325">
        <ele>-3.1</ele>
        <time>2025-10-11T09:14:32Z</time>
      </trkpt>
      <trkpt lat="39.16891048452111" lon="117.75918266510264">
        <ele>-3.1</ele>
        <time>2025-10-11T09:14:34Z</time>
      </trkpt>
      <trkpt lat="39.16883246634148" lon="117.75906655101217">
        <ele>-3.2</ele>
        <time>2025-10-11T09:14:36Z</time>
      </trkpt>
      <trkpt lat="39.16875544751181" lon="117.75894943637626">
        <ele>-3.2</ele>
        <time>2025-10-11T09:14:38Z</time>
      </trkpt>
      <trkpt lat="39.16867742922778" lon="117.75883132146672">
        <ele>-3.2</ele>
        <time>2025-10-11T09:14:40Z</time>
      </trkpt>
      <trkpt lat="39.16859841150264" lon="117.75871220630094">
        <ele>-3.4</ele>
        <time>2025-10-11T09:14:42Z</time>
      </trkpt>
      <trkpt lat="39.16851839434983" lon="117.7585920908965">
        <ele>-3.4</ele>
        <time>2025-10-11T09:14:44Z</time>
      </trkpt>
      <trkpt lat="39.168438377191436" lon="117.75847097514384">
        <ele>-3.3</ele>
        <time>2025-10-11T09:14:46Z</time>
      </trkpt>
      <trkpt lat="39.168357360632484" lon="117.75834885918815">
        <ele>-3.3</ele>
        <time>2025-10-11T09:14:48Z</time>
      </trkpt>
      <trkpt lat="39.168275345208514" lon="117.75822674407362">
        <ele>-3.3</ele>
        <time>2025-10-11T09:14:50Z</time>
      </trkpt>
      <trkpt lat="39.16819233092002" lon="117.7581046298008">
        <ele>-3.6</ele>
        <time>2025-10-11T09:14:52Z</time>
      </trkpt>
      <trkpt lat="39.168112315401196" lon="117.75798251586103">
        <ele>-3.6</ele>
        <time>2025-10-11T09:14:54Z</time>
      </trkpt>
      <trkpt lat="39.16803329983533" lon="117.75786040250935">
        <ele>308</ele>
        <time>2025-10-11T09:14:56Z</time>
      </trkpt>
      <trkpt lat="39.16795428481435" lon="117.75773828987357">
        <ele>308</ele>
        <time>2025-10-11T09:14:58Z</time>
      </trkpt>
      <trkpt lat="39.167874269931275" lon="117.75761417608784">
        <ele>-3.9</ele>
        <time>2025-10-11T09:15:00Z</time>
      </trkpt>
      <trkpt lat="39.167793256698545" lon="117.75749106416082">
        <ele>-3.8</ele>
        <time>2025-10-11T09:15:02Z</time>
      </trkpt>
      <trkpt lat="39.16771124657492" lon="117.7573719570303">
        <ele>-3.8</ele>
        <time>2025-10-11T09:15:04Z</time>
      </trkpt>
      <trkpt lat="39.16763123676056" lon="117.75725485228698">
        <ele>-3.5</ele>
        <time>2025-10-11T09:15:06Z</time>
      </trkpt>
      <trkpt lat="39.16755222733961" lon="117.75713874905084">
        <ele>-3.5</ele>
        <time>2025-10-11T09:15:08Z</time>
      </trkpt>
      <trkpt lat="39.16747521484088" lon="117.75701764136917">
        <ele>-3.5</ele>
        <time>2025-10-11T09:15:10Z</time>
      </trkpt>
      <trkpt lat="39.16740020122357" lon="117.75689553317822">
        <ele>-3.6</ele>
        <time>2025-10-11T09:15:12Z</time>
      </trkpt>
      <trkpt lat="39.167327186969985" lon="117.7567734254523">
        <ele>-3.6</ele>
        <time>2025-10-11T09:15:14Z</time>
      </trkpt>
      <trkpt lat="39.167255173600864" lon="117.75665332021993">
        <ele>-3.8</ele>
        <time>2025-10-11T09:15:16Z</time>
      </trkpt>
      <trkpt lat="39.16718216227398" lon="117.75653521770127">
        <ele>-3.8</ele>
        <time>2025-10-11T09:15:18Z</time>
      </trkpt>
      <trkpt lat="39.16711314772543" lon="117.75641411253115">
        <ele>-3.8</ele>
        <time>2025-10-11T09:15:20Z</time>
      </trkpt>
      <trkpt lat="39.167046133886046" lon="117.75629601061519">
        <ele>-3.6</ele>
        <time>2025-10-11T09:15:22Z</time>
      </trkpt>
      <trkpt lat="39.1669861186509" lon="117.75618291312094">
        <ele>-3.6</ele>
        <time>2025-10-11T09:15:24Z</time>
      </trkpt>
      <trkpt lat="39.166926110534966" lon="117.75608483008406">
        <ele>-4</ele>
        <time>2025-10-11T09:15:26Z</time>
      </trkpt>
      <trkpt lat="39.16686311599961" lon="117.756012771783">
        <ele>-4</ele>
        <time>2025-10-11T09:15:28Z</time>
      </trkpt>
      <trkpt lat="39.166794143206296" lon="117.75598175208982">
        <ele>-4</ele>
        <time>2025-10-11T09:15:30Z</time>
      </trkpt>
      <trkpt lat="39.166719194216085" lon="117.75599677541173">
        <ele>-4.2</ele>
        <time>2025-10-11T09:15:32Z</time>
      </trkpt>
      <trkpt lat="39.16664126600181" lon="117.75605483870268">
        <ele>-4.2</ele>
        <time>2025-10-11T09:15:34Z</time>
      </trkpt>
      <trkpt lat="39.16655935274378" lon="117.75614092856367">
        <ele>-4.1</ele>
        <time>2025-10-11T09:15:36Z</time>
      </trkpt>
      <trkpt lat="39.166475446332264" lon="117.7562390301986">
        <ele>-4.1</ele>
        <time>2025-10-11T09:15:38Z</time>
      </trkpt>
      <trkpt lat="39.16638654414369" lon="117.75633913480593">
        <ele>-4.1</ele>
        <time>2025-10-11T09:15:40Z</time>
      </trkpt>
      <trkpt lat="39.16629464364627" lon="117.75643823933962">
        <ele>-3.9</ele>
        <time>2025-10-11T09:15:42Z</time>
      </trkpt>
      <trkpt lat="39.166196747066394" lon="117.75653734511172">
        <ele>-3.9</ele>
        <time>2025-10-11T09:15:44Z</time>
      </trkpt>
      <trkpt lat="39.166096852035" lon="117.75663645161278">
        <ele>-3.8</ele>
        <time>2025-10-11T09:15:46Z</time>
      </trkpt>
      <trkpt lat="39.165996956899896" lon="117.75673455763355">
        <ele>-3.8</ele>
        <time>2025-10-11T09:15:48Z</time>
      </trkpt>
      <trkpt lat="39.165897062121005" lon="117.75683266411866">
        <ele>-3.8</ele>
        <time>2025-10-11T09:15:50Z</time>
      </trkpt>
      <trkpt lat="39.16579516983232" lon="117.75693277325011">
        <ele>-3.6</ele>
        <time>2025-10-11T09:15:52Z</time>
      </trkpt>
      <trkpt lat="39.1656912790993" lon="117.75703288311911">
        <ele>-3.6</ele>
        <time>2025-10-11T09:15:54Z</time>
      </trkpt>
      <trkpt lat="39.16558738680943" lon="117.75712898957698">
        <ele>308</ele>
        <time>2025-10-11T09:15:56Z</time>
      </trkpt>
      <trkpt lat="39.16548449038752" lon="117.75721708852983">
        <ele>308</ele>
        <time>2025-10-11T09:15:58Z</time>
      </trkpt>
      <trkpt lat="39.16537959055841" lon="117.75729517829458">
        <ele>-3.8</ele>
        <time>2025-10-11T09:16:00Z</time>
      </trkpt>
      <trkpt lat="39.16527469193763" lon="117.75737527032287">
        <ele>-3.9</ele>
        <time>2025-10-11T09:16:02Z</time>
      </trkpt>
      <trkpt lat="39.16517179138234" lon="117.75745336042682">
        <ele>-3.9</ele>
        <time>2025-10-11T09:16:04Z</time>
      </trkpt>
      <trkpt lat="39.16507488551111" lon="117.75752744608945">
        <ele>-3.9</ele>
        <time>2025-10-11T09:16:06Z</time>
      </trkpt>
      <trkpt lat="39.164990964156985" lon="117.75758551442946">
        <ele>-3.9</ele>
        <time>2025-10-11T09:16:08Z</time>
      </trkpt>
      <trkpt lat="39.164918029402735" lon="117.75762956756222">
        <ele>-3.9</ele>
        <time>2025-10-11T09:16:10Z</time>
      </trkpt>
      <trkpt lat="39.16485108464565" lon="117.75766060703404">
        <ele>-4</ele>
        <time>2025-10-11T09:16:12Z</time>
      </trkpt>
      <trkpt lat="39.16478613773504" lon="117.75768964429672">
        <ele>-4</ele>
        <time>2025-10-11T09:16:14Z</time>
      </trkpt>
      <trkpt lat="39.16472020152258" lon="117.75773870177137">
        <ele>-4</ele>
        <time>2025-10-11T09:16:16Z</time>
      </trkpt>
      <trkpt lat="39.164651278314594" lon="117.75780978186604">
        <ele>-3.6</ele>
        <time>2025-10-11T09:16:18Z</time>
      </trkpt>
      <trkpt lat="39.1645733667423" lon="117.75789287546623">
        <ele>-3.6</ele>
        <time>2025-10-11T09:16:20Z</time>
      </trkpt>
      <trkpt lat="39.164481459626415" lon="117.75796796306801">
        <ele>-3.8</ele>
        <time>2025-10-11T09:16:22Z</time>
      </trkpt>
      <trkpt lat="39.16437955247155" lon="117.75803104000836">
        <ele>-3.8</ele>
        <time>2025-10-11T09:16:24Z</time>
      </trkpt>
      <trkpt lat="39.164272647397354" lon="117.75809211573609">
        <ele>-3.8</ele>
        <time>2025-10-11T09:16:26Z</time>
      </trkpt>
      <trkpt lat="39.16416474305639" lon="117.75815319176954">
        <ele>-4.4</ele>
        <time>2025-10-11T09:16:28Z</time>
      </trkpt>
      <trkpt lat="39.16405284227113" lon="117.75821627054151">
        <ele>-4.4</ele>
        <time>2025-10-11T09:16:30Z</time>
      </trkpt>
      <trkpt lat="39.16393994170492" lon="117.75827834860235">
        <ele>-4.5</ele>
        <time>2025-10-11T09:16:32Z</time>
      </trkpt>
      <trkpt lat="39.163828040690255" lon="117.75834042672004">
        <ele>-4.5</ele>
        <time>2025-10-11T09:16:34Z</time>
      </trkpt>
      <trkpt lat="39.16372014114464" lon="117.75840951175556">
        <ele>-4.5</ele>
        <time>2025-10-11T09:16:36Z</time>
      </trkpt>
      <trkpt lat="39.16361424324471" lon="117.75848360195589">
        <ele>-4.2</ele>
        <time>2025-10-11T09:16:38Z</time>
      </trkpt>
      <trkpt lat="39.163507347743014" lon="117.7585606956716">
        <ele>-4.2</ele>
        <time>2025-10-11T09:16:40Z</time>
      </trkpt>
      <trkpt lat="39.16339945144477" lon="117.75863478666109">
        <ele>-4</ele>
        <time>2025-10-11T09:16:42Z</time>
      </trkpt>
      <trkpt lat="39.16329055109173" lon="117.75869986859908">
        <ele>-4</ele>
        <time>2025-10-11T09:16:44Z</time>
      </trkpt>
      <trkpt lat="39.16318064607941" lon="117.75875494035013">
        <ele>-4</ele>
        <time>2025-10-11T09:16:46Z</time>
      </trkpt>
      <trkpt lat="39.16307473826418" lon="117.75880901068264">
        <ele>-3.9</ele>
        <time>2025-10-11T09:16:48Z</time>
      </trkpt>
      <trkpt lat="39.16297583294375" lon="117.75887509294539">
        <ele>-3.9</ele>
        <time>2025-10-11T09:16:50Z</time>
      </trkpt>
      <trkpt lat="39.16288293244141" lon="117.75895619056179">
        <ele>-3.9</ele>
        <time>2025-10-11T09:16:52Z</time>
      </trkpt>
      <trkpt lat="39.162795031416046" lon="117.75904129211484">
        <ele>-3.9</ele>
        <time>2025-10-11T09:16:54Z</time>
      </trkpt>
      <trkpt lat="39.162711126617204" lon="117.7591233902966">
        <ele>-3.9</ele>
        <time>2025-10-11T09:16:56Z</time>
      </trkpt>
      <trkpt lat="39.16263021749739" lon="117.75920048305358">
        <ele>308</ele>
        <time>2025-10-11T09:16:58Z</time>
      </trkpt>
      <trkpt lat="39.162547296357616" lon="117.75925355053049">
        <ele>-4.1</ele>
        <time>2025-10-11T09:17:00Z</time>
      </trkpt>
      <trkpt lat="39.16246834383179" lon="117.75925456165795">
        <ele>-4.1</ele>
        <time>2025-10-11T09:17:02Z</time>
      </trkpt>
      <trkpt lat="39.162396354790104" lon="117.75919750961131">
        <ele>-4.1</ele>
        <time>2025-10-11T09:17:04Z</time>
      </trkpt>
      <trkpt lat="39.16233633823636" lon="117.75910341664473">
        <ele>-4.1</ele>
        <time>2025-10-11T09:17:06Z</time>
      </trkpt>
      <trkpt lat="39.16227831806562" lon="117.75900431852865">
        <ele>-3.8</ele>
        <time>2025-10-11T09:17:08Z</time>
      </trkpt>
      <trkpt lat="39.16221830053158" lon="117.75890722325242">
        <ele>-3.8</ele>
        <time>2025-10-11T09:17:10Z</time>
      </trkpt>
      <trkpt lat="39.16215628398477" lon="117.75880912762645">
        <ele>-3.9</ele>
        <time>2025-10-11T09:17:12Z</time>
      </trkpt>
      <trkpt lat="39.16209626713871" lon="117.75871203325461">
        <ele>-3.9</ele>
        <time>2025-10-11T09:17:14Z</time>
      </trkpt>
      <trkpt lat="39.16203525122921" lon="117.75861493946032">
        <ele>-3.9</ele>
        <time>2025-10-11T09:17:16Z</time>
      </trkpt>
      <trkpt lat="39.1619752366655" lon="117.75852084910952">
        <ele>-4.2</ele>
        <time>2025-10-11T09:17:18Z</time>
      </trkpt>
      <trkpt lat="39.161913224141124" lon="117.75842776047224">
        <ele>-4.2</ele>
        <time>2025-10-11T09:17:20Z</time>
      </trkpt>
      <trkpt lat="39.1618552090302" lon="117.75833367070938">
        <ele>-4.3</ele>
        <time>2025-10-11T09:17:22Z</time>
      </trkpt>
      <trkpt lat="39.16180019298146" lon="117.75824058201523">
        <ele>-4.3</ele>
        <time>2025-10-11T09:17:24Z</time>
      </trkpt>
      <trkpt lat="39.16175017635326" lon="117.75815149718932">
        <ele>-4.3</ele>
        <time>2025-10-11T09:17:26Z</time>
      </trkpt>
      <trkpt lat="39.16170216088918" lon="117.7580664165623">
        <ele>-4.4</ele>
        <time>2025-10-11T09:17:28Z</time>
      </trkpt>
      <trkpt lat="39.16165714544496" lon="117.75798433894369">
        <ele>-4.4</ele>
        <time>2025-10-11T09:17:30Z</time>
      </trkpt>
      <trkpt lat="39.16161213024636" lon="117.7579022616482">
        <ele>-4.5</ele>
        <time>2025-10-11T09:17:32Z</time>
      </trkpt>
      <trkpt lat="39.16156711427965" lon="117.757818182663">
        <ele>-4.5</ele>
        <time>2025-10-11T09:17:34Z</time>
      </trkpt>
      <trkpt lat="39.16151810145173" lon="117.7577351055287">
        <ele>-4.5</ele>
        <time>2025-10-11T09:17:36Z</time>
      </trkpt>
      <trkpt lat="39.16146609115964" lon="117.75765303010621">
        <ele>-4.4</ele>
        <time>2025-10-11T09:17:38Z</time>
      </trkpt>
      <trkpt lat="39.161413081708176" lon="117.75757095513474">
        <ele>-4.4</ele>
        <time>2025-10-11T09:17:40Z</time>
      </trkpt>
      <trkpt lat="39.16136007200835" lon="117.75748787949661">
        <ele>-4.6</ele>
        <time>2025-10-11T09:17:42Z</time>
      </trkpt>
      <trkpt lat="39.16131805897502" lon="117.75741080871084">
        <ele>-4.6</ele>
        <time>2025-10-11T09:17:44Z</time>
      </trkpt>
      <trkpt lat="39.161630010252225" lon="117.75768604221271">
        <ele>-3.8</ele>
        <time>2025-10-11T09:34:47Z</time>
      </trkpt>
      <trkpt lat="39.16161604926553" lon="117.75774710509026">
        <ele>-3.8</ele>
        <time>2025-10-11T09:34:49Z</time>
      </trkpt>
      <trkpt lat="39.16160208638879" lon="117.7578041641233">
        <ele>-3.5</ele>
        <time>2025-10-11T09:34:52Z</time>
      </trkpt>
      <trkpt lat="39.161610108015815" lon="117.75785621547087">
        <ele>-3.5</ele>
        <time>2025-10-11T09:34:54Z</time>
      </trkpt>
      <trkpt lat="39.16161512693403" lon="117.75789925823516">
        <ele>-3.1</ele>
        <time>2025-10-11T09:34:56Z</time>
      </trkpt>
      <trkpt lat="39.161642131312924" lon="117.75793929525163">
        <ele>-3.1</ele>
        <time>2025-10-11T09:34:58Z</time>
      </trkpt>
      <trkpt lat="39.16166913216201" lon="117.75797232524684">
        <ele>-3.4</ele>
        <time>2025-10-11T09:35:02Z</time>
      </trkpt>
      <trkpt lat="39.16170013221556" lon="117.75800835783191">
        <ele>-3.4</ele>
        <time>2025-10-11T09:35:04Z</time>
      </trkpt>
      <trkpt lat="39.16173313061322" lon="117.75804338920746">
        <ele>-3.5</ele>
        <time>2025-10-11T09:35:06Z</time>
      </trkpt>
      <trkpt lat="39.16176613370456" lon="117.75808742981437">
        <ele>-3.5</ele>
        <time>2025-10-11T09:35:08Z</time>
      </trkpt>
      <trkpt lat="39.1617971432397" lon="117.75814148098615">
        <ele>-3.5</ele>
        <time>2025-10-11T09:35:10Z</time>
      </trkpt>
      <trkpt lat="39.16182515674643" lon="117.75819953677838">
        <ele>-3.3</ele>
        <time>2025-10-11T09:35:12Z</time>
      </trkpt>
      <trkpt lat="39.161853169852954" lon="117.75825659170454">
        <ele>-3.3</ele>
        <time>2025-10-11T09:35:14Z</time>
      </trkpt>
      <trkpt lat="39.161885177552705" lon="117.75830764009706">
        <ele>-3.3</ele>
        <time>2025-10-11T09:35:16Z</time>
      </trkpt>
      <trkpt lat="39.16191718534737" lon="117.75835868861436">
        <ele>-3.3</ele>
        <time>2025-10-11T09:35:18Z</time>
      </trkpt>
      <trkpt lat="39.16194819488787" lon="117.75841173945342">
        <ele>-3.3</ele>
        <time>2025-10-11T09:35:20Z</time>
      </trkpt>
      <trkpt lat="39.16197620737383" lon="117.75846679288392">
        <ele>-3.2</ele>
        <time>2025-10-11T09:35:22Z</time>
      </trkpt>
      <trkpt lat="39.16200522044084" lon="117.75852384841264">
        <ele>-3.2</ele>
        <time>2025-10-11T09:35:24Z</time>
      </trkpt>
      <trkpt lat="39.16203623350725" lon="117.75858290592866">
        <ele>-3.2</ele>
        <time>2025-10-11T09:35:26Z</time>
      </trkpt>
      <trkpt lat="39.16207024438143" lon="117.7586409621837">
        <ele>-3.3</ele>
        <time>2025-10-11T09:35:28Z</time>
      </trkpt>
      <trkpt lat="39.16210825407981" lon="117.75870102018825">
        <ele>-3.3</ele>
        <time>2025-10-11T09:35:30Z</time>
      </trkpt>
      <trkpt lat="39.16214726493879" lon="117.75876408139298">
        <ele>-3.2</ele>
        <time>2025-10-11T09:35:32Z</time>
      </trkpt>
      <trkpt lat="39.16218727697891" lon="117.75883014582496">
        <ele>-3.2</ele>
        <time>2025-10-11T09:35:34Z</time>
      </trkpt>
      <trkpt lat="39.162224290959394" lon="117.75889621084698">
        <ele>-3.2</ele>
        <time>2025-10-11T09:35:36Z</time>
      </trkpt>
      <trkpt lat="39.16226330171692" lon="117.75895827157812">
        <ele>-3.2</ele>
        <time>2025-10-11T09:35:38Z</time>
      </trkpt>
      <trkpt lat="39.16230530973142" lon="117.75901832998326">
        <ele>-3.2</ele>
        <time>2025-10-11T09:35:40Z</time>
      </trkpt>
      <trkpt lat="39.16234431910608" lon="117.75907738787535">
        <ele>-3.3</ele>
        <time>2025-10-11T09:35:42Z</time>
      </trkpt>
      <trkpt lat="39.16237733050683" lon="117.75913344348866">
        <ele>-3.3</ele>
        <time>2025-10-11T09:35:44Z</time>
      </trkpt>
      <trkpt lat="39.162410341464785" lon="117.75918849817958">
        <ele>-3.3</ele>
        <time>2025-10-11T09:35:46Z</time>
      </trkpt>
      <trkpt lat="39.16244934617683" lon="117.75923854687869">
        <ele>-3.4</ele>
        <time>2025-10-11T09:35:48Z</time>
      </trkpt>
      <trkpt lat="39.16250133318198" lon="117.75927057466802">
        <ele>-3.4</ele>
        <time>2025-10-11T09:35:50Z</time>
      </trkpt>
      <trkpt lat="39.162556299400926" lon="117.75926856551779">
        <ele>-3.3</ele>
        <time>2025-10-11T09:35:52Z</time>
      </trkpt>
      <trkpt lat="39.16261124885568" lon="117.75923652411629">
        <ele>-3.3</ele>
        <time>2025-10-11T09:35:54Z</time>
      </trkpt>
      <trkpt lat="39.16266019188855" lon="117.75918646422424">
        <ele>-3.3</ele>
        <time>2025-10-11T09:35:56Z</time>
      </trkpt>
      <trkpt lat="39.16271013330965" lon="117.7591344021851">
        <ele>-3.3</ele>
        <time>2025-10-11T09:35:58Z</time>
      </trkpt>
      <trkpt lat="39.16276107423576" lon="117.75908234014764">
        <ele>-3.3</ele>
        <time>2025-10-11T09:36:00Z</time>
      </trkpt>
      <trkpt lat="39.16281501347949" lon="117.75903027785742">
        <ele>-3.4</ele>
        <time>2025-10-11T09:36:02Z</time>
      </trkpt>
      <trkpt lat="39.16286895282222" lon="117.75897821569623">
        <ele>-3.4</ele>
        <time>2025-10-11T09:36:04Z</time>
      </trkpt>
      <trkpt lat="39.16292289062287" lon="117.75892315048569">
        <ele>-3.4</ele>
        <time>2025-10-11T09:36:06Z</time>
      </trkpt>
      <trkpt lat="39.16297882843693" lon="117.75887008727872">
        <ele>-3.4</ele>
        <time>2025-10-11T09:36:08Z</time>
      </trkpt>
      <trkpt lat="39.1630337664045" lon="117.75881602327885">
        <ele>-3.4</ele>
        <time>2025-10-11T09:36:10Z</time>
      </trkpt>
      <trkpt lat="39.163090707080656" lon="117.75876896652687">
        <ele>-3.3</ele>
        <time>2025-10-11T09:36:12Z</time>
      </trkpt>
      <trkpt lat="39.16314864724457" lon="117.7587219097532">
        <ele>-3.3</ele>
        <time>2025-10-11T09:36:14Z</time>
      </trkpt>
      <trkpt lat="39.16320858684076" lon="117.75867585387816">
        <ele>-3.3</ele>
        <time>2025-10-11T09:36:16Z</time>
      </trkpt>
      <trkpt lat="39.16326652609331" lon="117.75862679522285">
        <ele>-3.3</ele>
        <time>2025-10-11T09:36:18Z</time>
      </trkpt>
      <trkpt lat="39.16332346656233" lon="117.75857873785255">
        <ele>-3.3</ele>
        <time>2025-10-11T09:36:20Z</time>
      </trkpt>
      <trkpt lat="39.16337740889679" lon="117.75853068097426">
        <ele>-3.5</ele>
        <time>2025-10-11T09:36:22Z</time>
      </trkpt>
      <trkpt lat="39.16343435006663" lon="117.7584836248628">
        <ele>-3.5</ele>
        <time>2025-10-11T09:36:24Z</time>
      </trkpt>
      <trkpt lat="39.163493290660426" lon="117.75843756963876">
        <ele>-3.5</ele>
        <time>2025-10-11T09:36:26Z</time>
      </trkpt>
      <trkpt lat="39.16355523060766" lon="117.75839351620229">
        <ele>-3.4</ele>
        <time>2025-10-11T09:36:28Z</time>
      </trkpt>
      <trkpt lat="39.16361617385168" lon="117.7583544681463">
        <ele>-3.4</ele>
        <time>2025-10-11T09:36:30Z</time>
      </trkpt>
      <trkpt lat="39.16367911701569" lon="117.75831742196942">
        <ele>-3.4</ele>
        <time>2025-10-11T09:36:32Z</time>
      </trkpt>
      <trkpt lat="39.163741062395665" lon="117.7582833790716">
        <ele>-3.4</ele>
        <time>2025-10-11T09:36:34Z</time>
      </trkpt>
      <trkpt lat="39.16380400879375" lon="117.75825233918364">
        <ele>-3.4</ele>
        <time>2025-10-11T09:36:36Z</time>
      </trkpt>
      <trkpt lat="39.16386495745818" lon="117.75822330164803">
        <ele>-3.4</ele>
        <time>2025-10-11T09:36:38Z</time>
      </trkpt>
      <trkpt lat="39.163927903927046" lon="117.75819226184919">
        <ele>-3.4</ele>
        <time>2025-10-11T09:36:40Z</time>
      </trkpt>
      <trkpt lat="39.163988850580324" lon="117.75815922030507">
        <ele>-3.3</ele>
        <time>2025-10-11T09:36:42Z</time>
      </trkpt>
      <trkpt lat="39.1640507961634" lon="117.75812517766462">
        <ele>-3.3</ele>
        <time>2025-10-11T09:36:44Z</time>
      </trkpt>
      <trkpt lat="39.16411074245971" lon="117.75809013431456">
        <ele>-3.3</ele>
        <time>2025-10-11T09:36:46Z</time>
      </trkpt>
      <trkpt lat="39.1641696883643" lon="117.75805308911484">
        <ele>-3.2</ele>
        <time>2025-10-11T09:36:48Z</time>
      </trkpt>
      <trkpt lat="39.16422663499239" lon="117.75801504321934">
        <ele>-3.2</ele>
        <time>2025-10-11T09:36:50Z</time>
      </trkpt>
      <trkpt lat="39.164284580568555" lon="117.75797599625177">
        <ele>-2.8</ele>
        <time>2025-10-11T09:36:52Z</time>
      </trkpt>
      <trkpt lat="39.16434052789896" lon="117.757937950624">
        <ele>-2.8</ele>
        <time>2025-10-11T09:36:54Z</time>
      </trkpt>
      <trkpt lat="39.1643924796954" lon="117.75790390961674">
        <ele>-2.8</ele>
        <time>2025-10-11T09:36:56Z</time>
      </trkpt>
      <trkpt lat="39.16444343365464" lon="117.75787287181949">
        <ele>-2.8</ele>
        <time>2025-10-11T09:36:58Z</time>
      </trkpt>
      <trkpt lat="39.16449239035951" lon="117.75784483734606">
        <ele>-2.8</ele>
        <time>2025-10-11T09:37:00Z</time>
      </trkpt>
      <trkpt lat="39.164539348786874" lon="117.75781780417131">
        <ele>-2.8</ele>
        <time>2025-10-11T09:37:02Z</time>
      </trkpt>
      <trkpt lat="39.16457831198591" lon="117.75779077204977">
        <ele>-2.8</ele>
        <time>2025-10-11T09:37:04Z</time>
      </trkpt>
      <trkpt lat="39.16461627934046" lon="117.75777074711901">
        <ele>-2.8</ele>
        <time>2025-10-11T09:37:06Z</time>
      </trkpt>
      <trkpt lat="39.164685211700764" lon="117.75771768518008">
        <ele>-2.8</ele>
        <time>2025-10-11T09:37:38Z</time>
      </trkpt>
      <trkpt lat="39.16471218060963" lon="117.75768765171472">
        <ele>-2.8</ele>
        <time>2025-10-11T09:37:40Z</time>
      </trkpt>
      <trkpt lat="39.164741148365685" lon="117.75765761803808">
        <ele>-2.8</ele>
        <time>2025-10-11T09:37:42Z</time>
      </trkpt>
      <trkpt lat="39.164772115468985" lon="117.75762858514756">
        <ele>-2.9</ele>
        <time>2025-10-11T09:37:44Z</time>
      </trkpt>
      <trkpt lat="39.16480508091858" lon="117.75759855104695">
        <ele>-2.9</ele>
        <time>2025-10-11T09:37:46Z</time>
      </trkpt>
      <trkpt lat="39.16484604116031" lon="117.75756751497693">
        <ele>-3.2</ele>
        <time>2025-10-11T09:37:48Z</time>
      </trkpt>
      <trkpt lat="39.16489999472344" lon="117.75753847928453">
        <ele>-3.2</ele>
        <time>2025-10-11T09:37:50Z</time>
      </trkpt>
      <trkpt lat="39.164963942885386" lon="117.75751044335148">
        <ele>-3.2</ele>
        <time>2025-10-11T09:37:52Z</time>
      </trkpt>
      <trkpt lat="39.16503188573895" lon="117.75747640100562">
        <ele>-3.3</ele>
        <time>2025-10-11T09:37:54Z</time>
      </trkpt>
      <trkpt lat="39.16510381985681" lon="117.7574293453605">
        <ele>-3.3</ele>
        <time>2025-10-11T09:37:56Z</time>
      </trkpt>
      <trkpt lat="39.16517774845431" lon="117.75737328069913">
        <ele>-3.3</ele>
        <time>2025-10-11T09:37:58Z</time>
      </trkpt>
      <trkpt lat="39.16525367451739" lon="117.75731421298721">
        <ele>-3.3</ele>
        <time>2025-10-11T09:38:00Z</time>
      </trkpt>
      <trkpt lat="39.165329600710045" lon="117.75725514544301">
        <ele>-3.3</ele>
        <time>2025-10-11T09:38:02Z</time>
      </trkpt>
      <trkpt lat="39.16540352821771" lon="117.75719607832119">
        <ele>-3.3</ele>
        <time>2025-10-11T09:38:04Z</time>
      </trkpt>
      <trkpt lat="39.16547645596556" lon="117.75713601052077">
        <ele>-3.3</ele>
        <time>2025-10-11T09:38:06Z</time>
      </trkpt>
      <trkpt lat="39.165549382407995" lon="117.75707293998184">
        <ele>-3.3</ele>
        <time>2025-10-11T09:38:08Z</time>
      </trkpt>
      <trkpt lat="39.16562330697322" lon="117.75700686660453">
        <ele>-3.3</ele>
        <time>2025-10-11T09:38:10Z</time>
      </trkpt>
      <trkpt lat="39.16569722980094" lon="117.75693678958078">
        <ele>-3.3</ele>
        <time>2025-10-11T09:38:12Z</time>
      </trkpt>
      <trkpt lat="39.16577015198658" lon="117.75686371003908">
        <ele>-3.5</ele>
        <time>2025-10-11T09:38:14Z</time>
      </trkpt>
      <trkpt lat="39.165844073307774" lon="117.75678962967055">
        <ele>-3.5</ele>
        <time>2025-10-11T09:38:16Z</time>
      </trkpt>
      <trkpt lat="39.16591599601688" lon="117.75671554982128">
        <ele>-3.4</ele>
        <time>2025-10-11T09:38:18Z</time>
      </trkpt>
      <trkpt lat="39.16599091622379" lon="117.75663946795535">
        <ele>-3.4</ele>
        <time>2025-10-11T09:38:20Z</time>
      </trkpt>
      <trkpt lat="39.16606483723731" lon="117.75656338649613">
        <ele>-3.4</ele>
        <time>2025-10-11T09:38:22Z</time>
      </trkpt>
      <trkpt lat="39.166136760566424" lon="117.75648930745581">
        <ele>-3.5</ele>
        <time>2025-10-11T09:38:24Z</time>
      </trkpt>
      <trkpt lat="39.166206686650455" lon="117.75641823175206">
        <ele>-3.5</ele>
        <time>2025-10-11T09:38:26Z</time>
      </trkpt>
      <trkpt lat="39.16627561260777" lon="117.75634515454867">
        <ele>-3</ele>
        <time>2025-10-11T09:38:28Z</time>
      </trkpt>
      <trkpt lat="39.16634253949709" lon="117.75627107692613">
        <ele>-3</ele>
        <time>2025-10-11T09:38:30Z</time>
      </trkpt>
      <trkpt lat="39.16639947430305" lon="117.75620100455565">
        <ele>-3</ele>
        <time>2025-10-11T09:38:32Z</time>
      </trkpt>
      <trkpt lat="39.16644642011238" lon="117.75614194387497">
        <ele>-3</ele>
        <time>2025-10-11T09:38:34Z</time>
      </trkpt>
      <trkpt lat="39.16648337774067" lon="117.75609589663642">
        <ele>-3</ele>
        <time>2025-10-11T09:38:36Z</time>
      </trkpt>
      <trkpt lat="39.16651434430989" lon="117.756061861322">
        <ele>-3</ele>
        <time>2025-10-11T09:38:38Z</time>
      </trkpt>
      <trkpt lat="39.16654931738846" lon="117.75604784396631">
        <ele>-3</ele>
        <time>2025-10-11T09:38:40Z</time>
      </trkpt>
      <trkpt lat="39.16658729930758" lon="117.75605784834184">
        <ele>-2.9</ele>
        <time>2025-10-11T09:38:44Z</time>
      </trkpt>
      <trkpt lat="39.16662529098299" lon="117.75608987301912">
        <ele>-2.9</ele>
        <time>2025-10-11T09:38:46Z</time>
      </trkpt>
      <trkpt lat="39.16665329306881" lon="117.75613190826836">
        <ele>-2.8</ele>
        <time>2025-10-11T09:38:48Z</time>
      </trkpt>
      <trkpt lat="39.16667430115236" lon="117.75617794820356">
        <ele>-2.8</ele>
        <time>2025-10-11T09:38:50Z</time>
      </trkpt>
      <trkpt lat="39.166688314805" lon="117.75622699192166">
        <ele>-2.8</ele>
        <time>2025-10-11T09:38:52Z</time>
      </trkpt>
      <trkpt lat="39.16669633164843" lon="117.75627503558796">
        <ele>-2.9</ele>
        <time>2025-10-11T09:38:54Z</time>
      </trkpt>
      <trkpt lat="39.16670035094518" lon="117.75632307987523">
        <ele>-2.9</ele>
        <time>2025-10-11T09:38:56Z</time>
      </trkpt>
      <trkpt lat="39.16670536882649" lon="117.75636912227348">
        <ele>-3.1</ele>
        <time>2025-10-11T09:38:58Z</time>
      </trkpt>
      <trkpt lat="39.1667193828232" lon="117.75641816644541">
        <ele>-3.1</ele>
        <time>2025-10-11T09:39:00Z</time>
      </trkpt>
      <trkpt lat="39.1667433923595" lon="117.7564702122851">
        <ele>-3.1</ele>
        <time>2025-10-11T09:39:02Z</time>
      </trkpt>
      <trkpt lat="39.16677639988391" lon="117.75652926371973">
        <ele>-3.3</ele>
        <time>2025-10-11T09:39:04Z</time>
      </trkpt>
      <trkpt lat="39.16681240807051" lon="117.75659331967798">
        <ele>-3.3</ele>
        <time>2025-10-11T09:39:06Z</time>
      </trkpt>
      <trkpt lat="39.16685141741932" lon="117.75666338115717">
        <ele>-3.4</ele>
        <time>2025-10-11T09:39:08Z</time>
      </trkpt>
      <trkpt lat="39.16688843000209" lon="117.75673744694569">
        <ele>-3.4</ele>
        <time>2025-10-11T09:39:10Z</time>
      </trkpt>
      <trkpt lat="39.16692844195035" lon="117.75681351453348">
        <ele>-3.4</ele>
        <time>2025-10-11T09:39:12Z</time>
      </trkpt>
      <trkpt lat="39.16697045292685" lon="117.75688958214604">
        <ele>-3.4</ele>
        <time>2025-10-11T09:39:14Z</time>
      </trkpt>
      <trkpt lat="39.16701446198008" lon="117.75696364785239">
        <ele>-3.4</ele>
        <time>2025-10-11T09:39:16Z</time>
      </trkpt>
      <trkpt lat="39.16706247078059" lon="117.7570417171905">
        <ele>-3.3</ele>
        <time>2025-10-11T09:39:18Z</time>
      </trkpt>
      <trkpt lat="39.167112478139344" lon="117.75711878559504">
        <ele>-3.3</ele>
        <time>2025-10-11T09:39:20Z</time>
      </trkpt>
      <trkpt lat="39.16716348560831" lon="117.75719685513525">
        <ele>-3.3</ele>
        <time>2025-10-11T09:39:22Z</time>
      </trkpt>
      <trkpt lat="39.16721249399765" lon="117.75727392424336">
        <ele>-3.3</ele>
        <time>2025-10-11T09:39:24Z</time>
      </trkpt>
      <trkpt lat="39.167260504176475" lon="117.75735299573314">
        <ele>-3.3</ele>
        <time>2025-10-11T09:39:26Z</time>
      </trkpt>
      <trkpt lat="39.167306515768104" lon="117.75743206777852">
        <ele>-3.3</ele>
        <time>2025-10-11T09:39:28Z</time>
      </trkpt>
      <trkpt lat="39.167353528483986" lon="117.75751414297311">
        <ele>-3.4</ele>
        <time>2025-10-11T09:39:30Z</time>
      </trkpt>
      <trkpt lat="39.167399541539304" lon="117.75759521762315">
        <ele>-3.4</ele>
        <time>2025-10-11T09:39:32Z</time>
      </trkpt>
      <trkpt lat="39.16744955146411" lon="117.75767429008064">
        <ele>-3.4</ele>
        <time>2025-10-11T09:39:34Z</time>
      </trkpt>
      <trkpt lat="39.16749855968713" lon="117.75774835794927">
        <ele>-3.4</ele>
        <time>2025-10-11T09:39:36Z</time>
      </trkpt>
      <trkpt lat="39.16754656920968" lon="117.75782342721551">
        <ele>-3.4</ele>
        <time>2025-10-11T09:39:38Z</time>
      </trkpt>
      <trkpt lat="39.16759358003979" lon="117.75789949789014">
        <ele>-3</ele>
        <time>2025-10-11T09:39:40Z</time>
      </trkpt>
      <trkpt lat="39.167640589543495" lon="117.75797256580032">
        <ele>-3</ele>
        <time>2025-10-11T09:39:42Z</time>
      </trkpt>
      <trkpt lat="39.16768559785018" lon="117.75804062913437">
        <ele>-2.9</ele>
        <time>2025-10-11T09:39:44Z</time>
      </trkpt>
      <trkpt lat="39.16772660662333" lon="117.75810468911806">
        <ele>-2.9</ele>
        <time>2025-10-11T09:39:46Z</time>
      </trkpt>
      <trkpt lat="39.16776461368463" lon="117.75816174251773">
        <ele>-2.9</ele>
        <time>2025-10-11T09:39:48Z</time>
      </trkpt>
      <trkpt lat="39.167798618539706" lon="117.75820978735231">
        <ele>-2.8</ele>
        <time>2025-10-11T09:39:50Z</time>
      </trkpt>
      <trkpt lat="39.167827620687845" lon="117.75824682163243">
        <ele>-2.8</ele>
        <time>2025-10-11T09:39:52Z</time>
      </trkpt>
      <trkpt lat="39.16785462092709" lon="117.7582778500602">
        <ele>-2.6</ele>
        <time>2025-10-11T09:39:54Z</time>
      </trkpt>
      <trkpt lat="39.167877621994165" lon="117.75830587595307">
        <ele>-2.5</ele>
        <time>2025-10-11T09:40:04Z</time>
      </trkpt>
      <trkpt lat="39.16790362184064" lon="117.75833490253304">
        <ele>-2.5</ele>
        <time>2025-10-11T09:40:06Z</time>
      </trkpt>
      <trkpt lat="39.167926622966185" lon="117.75836292850248">
        <ele>-2.5</ele>
        <time>2025-10-11T09:40:08Z</time>
      </trkpt>
      <trkpt lat="39.167951627688154" lon="117.75839996356336">
        <ele>-2.7</ele>
        <time>2025-10-11T09:40:10Z</time>
      </trkpt>
      <trkpt lat="39.16797863710241" lon="117.75844800983702">
        <ele>-2.7</ele>
        <time>2025-10-11T09:40:12Z</time>
      </trkpt>
      <trkpt lat="39.16801164943202" lon="117.7585080679299">
        <ele>-3</ele>
        <time>2025-10-11T09:40:14Z</time>
      </trkpt>
      <trkpt lat="39.16805265983114" lon="117.75857313039022">
        <ele>-3</ele>
        <time>2025-10-11T09:40:16Z</time>
      </trkpt>
      <trkpt lat="39.16809667344121" lon="117.75864720208598">
        <ele>-3</ele>
        <time>2025-10-11T09:40:18Z</time>
      </trkpt>
      <trkpt lat="39.16814468704352" lon="117.75872527773461">
        <ele>-3</ele>
        <time>2025-10-11T09:40:20Z</time>
      </trkpt>
      <trkpt lat="39.168193702989605" lon="117.75880835881662">
        <ele>-3</ele>
        <time>2025-10-11T09:40:22Z</time>
      </trkpt>
      <trkpt lat="39.16824471745738" lon="117.75889043891561">
        <ele>-3</ele>
        <time>2025-10-11T09:40:24Z</time>
      </trkpt>
      <trkpt lat="39.16829373335272" lon="117.75897251959061">
        <ele>-3</ele>
        <time>2025-10-11T09:40:26Z</time>
      </trkpt>
      <trkpt lat="39.16834574826977" lon="117.7590556012709">
        <ele>-3</ele>
        <time>2025-10-11T09:40:28Z</time>
      </trkpt>
      <trkpt lat="39.16839876118145" lon="117.75913567994377">
        <ele>-2.7</ele>
        <time>2025-10-11T09:40:30Z</time>
      </trkpt>
      <trkpt lat="39.168453770912805" lon="117.75921175437415">
        <ele>-2.7</ele>
        <time>2025-10-11T09:40:32Z</time>
      </trkpt>
      <trkpt lat="39.16850578150809" lon="117.75928582730828">
        <ele>-2.6</ele>
        <time>2025-10-11T09:40:34Z</time>
      </trkpt>
      <trkpt lat="39.168554792950985" lon="117.75935789872484">
        <ele>-2.6</ele>
        <time>2025-10-11T09:40:36Z</time>
      </trkpt>
      <trkpt lat="39.168599805251766" lon="117.75942696764687">
        <ele>-2.6</ele>
        <time>2025-10-11T09:40:38Z</time>
      </trkpt>
      <trkpt lat="39.16863981670903" lon="117.75948902982566">
        <ele>-2.5</ele>
        <time>2025-10-11T09:40:40Z</time>
      </trkpt>
      <trkpt lat="39.16867782720991" lon="117.75954708808477">
        <ele>-2.5</ele>
        <time>2025-10-11T09:40:42Z</time>
      </trkpt>
      <trkpt lat="39.16871583497504" lon="117.75960014104469">
        <ele>-2.5</ele>
        <time>2025-10-11T09:40:44Z</time>
      </trkpt>
      <trkpt lat="39.16875284343334" lon="117.75965319426557">
        <ele>-2.5</ele>
        <time>2025-10-11T09:40:46Z</time>
      </trkpt>
      <trkpt lat="39.16878885143428" lon="117.75970424555388">
        <ele>-2.5</ele>
        <time>2025-10-11T09:40:48Z</time>
      </trkpt>
      <trkpt lat="39.16882685892395" lon="117.75975629781053">
        <ele>-2.5</ele>
        <time>2025-10-11T09:40:50Z</time>
      </trkpt>
      <trkpt lat="39.16886586649929" lon="117.75980935117018">
        <ele>-2.5</ele>
        <time>2025-10-11T09:40:52Z</time>
      </trkpt>
      <trkpt lat="39.16890387592946" lon="117.75986440699914">
        <ele>-2.3</ele>
        <time>2025-10-11T09:40:54Z</time>
      </trkpt>
      <trkpt lat="39.168938887242774" lon="117.75991946335365">
        <ele>-2.3</ele>
        <time>2025-10-11T09:40:56Z</time>
      </trkpt>
      <trkpt lat="39.168973898080544" lon="117.75997351874236">
        <ele>-2.3</ele>
        <time>2025-10-11T09:40:58Z</time>
      </trkpt>
      <trkpt lat="39.169008909023674" lon="117.76002757426951">
        <ele>-2.3</ele>
        <time>2025-10-11T09:41:00Z</time>
      </trkpt>
      <trkpt lat="39.16904491830352" lon="117.76007962757869">
        <ele>-2.3</ele>
        <time>2025-10-11T09:41:02Z</time>
      </trkpt>
      <trkpt lat="39.169079926500764" lon="117.7601286777927">
        <ele>-2.3</ele>
        <time>2025-10-11T09:41:04Z</time>
      </trkpt>
      <trkpt lat="39.169109934779996" lon="117.7601727231617">
        <ele>-2.3</ele>
        <time>2025-10-11T09:41:06Z</time>
      </trkpt>
      <trkpt lat="39.169133944895385" lon="117.76021376602328">
        <ele>-2.3</ele>
        <time>2025-10-11T09:41:08Z</time>
      </trkpt>
      <trkpt lat="39.16915595506377" lon="117.76025280697353">
        <ele>-2.3</ele>
        <time>2025-10-11T09:41:10Z</time>
      </trkpt>
      <trkpt lat="39.169181962922444" lon="117.76029184748681">
        <ele>-2.3</ele>
        <time>2025-10-11T09:41:12Z</time>
      </trkpt>
      <trkpt lat="39.16920996726326" lon="117.76032688331236">
        <ele>-2.2</ele>
        <time>2025-10-11T09:41:14Z</time>
      </trkpt>
      <trkpt lat="39.16927193599418" lon="117.76033588555983">
        <ele>-1.5</ele>
        <time>2025-10-11T09:41:50Z</time>
      </trkpt>
      <trkpt lat="39.169291888364675" lon="117.7602758155004">
        <ele>-1.5</ele>
        <time>2025-10-11T09:41:54Z</time>
      </trkpt>
      <trkpt lat="39.16931483790426" lon="117.76021374298782">
        <ele>-1.7</ele>
        <time>2025-10-11T09:41:58Z</time>
      </trkpt>
      <trkpt lat="39.169339789356734" lon="117.7601566759931">
        <ele>-1.4</ele>
        <time>2025-10-11T09:42:02Z</time>
      </trkpt>
      <trkpt lat="39.16936274269769" lon="117.76010061052241">
        <ele>-1.4</ele>
        <time>2025-10-11T09:42:04Z</time>
      </trkpt>
      <trkpt lat="39.16938570614293" lon="117.76006156412599">
        <ele>-1.5</ele>
        <time>2025-10-11T09:42:06Z</time>
      </trkpt>
      <trkpt lat="39.16941168137201" lon="117.76004554300428">
        <ele>-1.5</ele>
        <time>2025-10-11T09:42:08Z</time>
      </trkpt>
      <trkpt lat="39.16944067481234" lon="117.76006355935351">
        <ele>-1.7</ele>
        <time>2025-10-11T09:42:10Z</time>
      </trkpt>
      <trkpt lat="39.169473680630674" lon="117.7601066030894">
        <ele>-1.7</ele>
        <time>2025-10-11T09:42:12Z</time>
      </trkpt>
      <trkpt lat="39.169509692431504" lon="117.76016266106717">
        <ele>-1.7</ele>
        <time>2025-10-11T09:42:14Z</time>
      </trkpt>
      <trkpt lat="39.16955170376847" lon="117.76022372403625">
        <ele>-2.1</ele>
        <time>2025-10-11T09:42:16Z</time>
      </trkpt>
      <trkpt lat="39.16959271702288" lon="117.7602867895576">
        <ele>-2.1</ele>
        <time>2025-10-11T09:42:18Z</time>
      </trkpt>
      <trkpt lat="39.16963173220068" lon="117.76035085664888">
        <ele>-2.1</ele>
        <time>2025-10-11T09:42:20Z</time>
      </trkpt>
      <trkpt lat="39.16967074812676" lon="117.7604159250646">
        <ele>-2.1</ele>
        <time>2025-10-11T09:42:22Z</time>
      </trkpt>
      <trkpt lat="39.16971676067171" lon="117.76048199392305">
        <ele>-2.1</ele>
        <time>2025-10-11T09:42:24Z</time>
      </trkpt>
      <trkpt lat="39.169765775234474" lon="117.76055406942686">
        <ele>-2.1</ele>
        <time>2025-10-11T09:42:26Z</time>
      </trkpt>
      <trkpt lat="39.169818788837084" lon="117.7606281469477">
        <ele>-2.1</ele>
        <time>2025-10-11T09:42:28Z</time>
      </trkpt>
      <trkpt lat="39.16987080444979" lon="117.76070422714274">
        <ele>-2</ele>
        <time>2025-10-11T09:42:30Z</time>
      </trkpt>
      <trkpt lat="39.16991882508898" lon="117.76078431271077">
        <ele>-2</ele>
        <time>2025-10-11T09:42:32Z</time>
      </trkpt>
      <trkpt lat="39.169964849607" lon="117.76086840344246">
        <ele>-2</ele>
        <time>2025-10-11T09:42:34Z</time>
      </trkpt>
      <trkpt lat="39.170011876887365" lon="117.76095750015938">
        <ele>-2</ele>
        <time>2025-10-11T09:42:36Z</time>
      </trkpt>
      <trkpt lat="39.17006190205604" lon="117.76104559570793">
        <ele>-2</ele>
        <time>2025-10-11T09:42:38Z</time>
      </trkpt>
      <trkpt lat="39.17011192875503" lon="117.76113569395025">
        <ele>-1.8</ele>
        <time>2025-10-11T09:42:40Z</time>
      </trkpt>
      <trkpt lat="39.17015995503662" lon="117.76122278932299">
        <ele>-1.8</ele>
        <time>2025-10-11T09:42:42Z</time>
      </trkpt>
      <trkpt lat="39.17020498209585" lon="117.76130788308873">
        <ele>-1.8</ele>
        <time>2025-10-11T09:42:44Z</time>
      </trkpt>
      <trkpt lat="39.17025001004899" lon="117.76139397837095">
        <ele>-1.8</ele>
        <time>2025-10-11T09:42:46Z</time>
      </trkpt>
      <trkpt lat="39.170292040038305" lon="117.7614800743827">
        <ele>-1.8</ele>
        <time>2025-10-11T09:42:48Z</time>
      </trkpt>
      <trkpt lat="39.17033107206347" lon="117.7615661711238">
        <ele>-1.6</ele>
        <time>2025-10-11T09:42:50Z</time>
      </trkpt>
      <trkpt lat="39.17037010177325" lon="117.76164826345794">
        <ele>-1.6</ele>
        <time>2025-10-11T09:42:52Z</time>
      </trkpt>
      <trkpt lat="39.17040713096123" lon="117.76172735278543">
        <ele>-1.6</ele>
        <time>2025-10-11T09:42:54Z</time>
      </trkpt>
      <trkpt lat="39.17044615788974" lon="117.7618044397595">
        <ele>-1.6</ele>
        <time>2025-10-11T09:42:56Z</time>
      </trkpt>
      <trkpt lat="39.1704821868011" lon="117.7618815273933">
        <ele>-1.6</ele>
        <time>2025-10-11T09:42:58Z</time>
      </trkpt>
      <trkpt lat="39.17051821854639" lon="117.76196262011727">
        <ele>-1.4</ele>
        <time>2025-10-11T09:43:00Z</time>
      </trkpt>
      <trkpt lat="39.17054925347762" lon="117.7620437137847">
        <ele>-1.4</ele>
        <time>2025-10-11T09:43:02Z</time>
      </trkpt>
      <trkpt lat="39.1705832842241" lon="117.76212080253474">
        <ele>-1.4</ele>
        <time>2025-10-11T09:43:04Z</time>
      </trkpt>
      <trkpt lat="39.17061731186071" lon="117.76219288549173">
        <ele>-1.6</ele>
        <time>2025-10-11T09:43:06Z</time>
      </trkpt>
      <trkpt lat="39.170653339166805" lon="117.76226596965391">
        <ele>-1.6</ele>
        <time>2025-10-11T09:43:08Z</time>
      </trkpt>
      <trkpt lat="39.1706853717008" lon="117.76234305945749">
        <ele>-1.5</ele>
        <time>2025-10-11T09:43:10Z</time>
      </trkpt>
      <trkpt lat="39.170717406460994" lon="117.7624231532118">
        <ele>-1.5</ele>
        <time>2025-10-11T09:43:12Z</time>
      </trkpt>
      <trkpt lat="39.17074644186935" lon="117.76250124518971">
        <ele>-1.5</ele>
        <time>2025-10-11T09:43:14Z</time>
      </trkpt>
      <trkpt lat="39.170773478673794" lon="117.76257933770582">
        <ele>-1.5</ele>
        <time>2025-10-11T09:43:16Z</time>
      </trkpt>
      <trkpt lat="39.17079851687414" lon="117.76265743075997">
        <ele>-1.5</ele>
        <time>2025-10-11T09:43:18Z</time>
      </trkpt>
      <trkpt lat="39.1708235532401" lon="117.76273252038003">
        <ele>-1.5</ele>
        <time>2025-10-11T09:43:20Z</time>
      </trkpt>
      <trkpt lat="39.17084758970936" lon="117.7628066091466">
        <ele>-1.5</ele>
        <time>2025-10-11T09:43:22Z</time>
      </trkpt>
      <trkpt lat="39.17087562125745" lon="117.76287669267543">
        <ele>-1.5</ele>
        <time>2025-10-11T09:43:24Z</time>
      </trkpt>
      <trkpt lat="39.17090165208769" lon="117.76294377293969">
        <ele>-1.2</ele>
        <time>2025-10-11T09:43:26Z</time>
      </trkpt>
      <trkpt lat="39.170924682076425" lon="117.76300684878657">
        <ele>-1.2</ele>
        <time>2025-10-11T09:43:28Z</time>
      </trkpt>
      <trkpt lat="39.1709487095301" lon="117.76306692092653">
        <ele>-1.2</ele>
        <time>2025-10-11T09:43:30Z</time>
      </trkpt>
      <trkpt lat="39.17098571968284" lon="117.76311297398051">
        <ele>-1.2</ele>
        <time>2025-10-11T09:43:32Z</time>
      </trkpt>
      <trkpt lat="39.17104269857317" lon="117.76313098935738">
        <ele>-1.2</ele>
        <time>2025-10-11T09:43:34Z</time>
      </trkpt>
      <trkpt lat="39.171102658971726" lon="117.76312497417874">
        <ele>-0.5</ele>
        <time>2025-10-11T09:43:36Z</time>
      </trkpt>
      <trkpt lat="39.17115860641759" lon="117.76309693186711">
        <ele>-0.5</ele>
        <time>2025-10-11T09:43:38Z</time>
      </trkpt>
      <trkpt lat="39.17120455632131" lon="117.76306388459113">
        <ele>-0.5</ele>
        <time>2025-10-11T09:43:40Z</time>
      </trkpt>
      <trkpt lat="39.171251505673965" lon="117.7630308372384">
        <ele>0.2</ele>
        <time>2025-10-11T09:43:42Z</time>
      </trkpt>
      <trkpt lat="39.17129946070815" lon="117.76300680107363">
        <ele>0.2</ele>
        <time>2025-10-11T09:43:44Z</time>
      </trkpt>
      <trkpt lat="39.17134942911908" lon="117.76300379095653">
        <ele>0.4</ele>
        <time>2025-10-11T09:43:46Z</time>
      </trkpt>
      <trkpt lat="39.171395417214434" lon="117.76302581265234">
        <ele>0.4</ele>
        <time>2025-10-11T09:43:48Z</time>
      </trkpt>
      <trkpt lat="39.17143142928806" lon="117.76307386825604">
        <ele>0.4</ele>
        <time>2025-10-11T09:43:50Z</time>
      </trkpt>
      <trkpt lat="39.17145845511769" lon="117.76313394020137">
        <ele>0.7</ele>
        <time>2025-10-11T09:43:52Z</time>
      </trkpt>
      <trkpt lat="39.171482485641796" lon="117.76319801773789">
        <ele>0.7</ele>
        <time>2025-10-11T09:43:54Z</time>
      </trkpt>
      <trkpt lat="39.171506514205255" lon="117.76325909167362">
        <ele>0.9</ele>
        <time>2025-10-11T09:43:56Z</time>
      </trkpt>
      <trkpt lat="39.17153153457134" lon="117.76330915172744">
        <ele>0.9</ele>
        <time>2025-10-11T09:43:58Z</time>
      </trkpt>
      <trkpt lat="39.17155954479726" lon="117.76334719630076">
        <ele>0.9</ele>
        <time>2025-10-11T09:44:00Z</time>
      </trkpt>
      <trkpt lat="39.17159154142323" lon="117.76336922012803">
        <ele>0.8</ele>
        <time>2025-10-11T09:44:02Z</time>
      </trkpt>
      <trkpt lat="39.171627525117984" lon="117.76337622442927">
        <ele>0.8</ele>
        <time>2025-10-11T09:44:04Z</time>
      </trkpt>
      <trkpt lat="39.1716664971661" lon="117.76336921058568">
        <ele>0.6</ele>
        <time>2025-10-11T09:44:06Z</time>
      </trkpt>
      <trkpt lat="39.17170845687342" lon="117.76334717734322">
        <ele>0.6</ele>
        <time>2025-10-11T09:44:08Z</time>
      </trkpt>
      <trkpt lat="39.1717564053182" lon="117.76331412942999">
        <ele>0.6</ele>
        <time>2025-10-11T09:44:10Z</time>
      </trkpt>
      <trkpt lat="39.171807345011" lon="117.76327106854218">
        <ele>0.5</ele>
        <time>2025-10-11T09:44:12Z</time>
      </trkpt>
      <trkpt lat="39.17186028358981" lon="117.7632280074855">
        <ele>0.5</ele>
        <time>2025-10-11T09:44:14Z</time>
      </trkpt>
      <trkpt lat="39.1719172226708" lon="117.76318895104632">
        <ele>0.8</ele>
        <time>2025-10-11T09:44:16Z</time>
      </trkpt>
      <trkpt lat="39.17198115907243" lon="117.76315189630398">
        <ele>0.8</ele>
        <time>2025-10-11T09:44:18Z</time>
      </trkpt>
      <trkpt lat="39.172043091133204" lon="117.7631068318261">
        <ele>0.8</ele>
        <time>2025-10-11T09:44:20Z</time>
      </trkpt>
      <trkpt lat="39.17210202156393" lon="117.76305676155233">
        <ele>1.3</ele>
        <time>2025-10-11T09:44:22Z</time>
      </trkpt>
      <trkpt lat="39.17215497433792" lon="117.7630337259749">
        <ele>1.3</ele>
        <time>2025-10-11T09:44:24Z</time>
      </trkpt>
      <trkpt lat="39.172199955426095" lon="117.7630447340361">
        <ele>1.1</ele>
        <time>2025-10-11T09:44:26Z</time>
      </trkpt>
      <trkpt lat="39.17223396107342" lon="117.76308177612562">
        <ele>1.1</ele>
        <time>2025-10-11T09:44:28Z</time>
      </trkpt>
    </trkseg>
  </trk>
</gpx>