<?xml version="1.0" encoding="UTF-8"?>
<gpx xmlns="http://www.topografix.com/GPX/1/1" xmlns:gpxtpx="http://www.garmin.com/xmlschemas/TrackPointExtension/v1" xmlns:xsi="http://www.w3.org/2001/XMLSchema-instance" xsi:schemaLocation="http://www.topografix.com/GPX/1/1 http://www.topografix.com/GPX/1/1/gpx.xsd" version="1.1" creator="gpx.py -- https://github.com/tkrajina/gpxpy">
  <trk>
    <name>gpx from codoon</name>
    <type>Run</type>
    <trkseg>
      <trkpt lat="39.172280906261754" lon="117.7630427212225">
        <ele>2.7</ele>
        <time>2025-10-13T09:14:46Z</time>
      </trkpt>
      <trkpt lat="39.172264898361654" lon="117.76301769193469">
        <ele>3</ele>
        <time>2025-10-13T09:14:48Z</time>
      </trkpt>
      <trkpt lat="39.172231908819356" lon="117.76300467985682">
        <ele>3</ele>
        <time>2025-10-13T09:14:49Z</time>
      </trkpt>
      <trkpt lat="39.17216098606666" lon="117.76305575279106">
        <ele>3</ele>
        <time>2025-10-13T09:14:51Z</time>
      </trkpt>
      <trkpt lat="39.172085085863785" lon="117.76313486168212">
        <ele>3</ele>
        <time>2025-10-13T09:14:53Z</time>
      </trkpt>
      <trkpt lat="39.17198520914328" lon="117.763226990319">
        <ele>3</ele>
        <time>2025-10-13T09:14:56Z</time>
      </trkpt>
      <trkpt lat="39.1719042997192" lon="117.76328807769679">
        <ele>3.1</ele>
        <time>2025-10-13T09:14:58Z</time>
      </trkpt>
      <trkpt lat="39.17180639975412" lon="117.76334816614208">
        <ele>3.1</ele>
        <time>2025-10-13T09:15:00Z</time>
      </trkpt>
      <trkpt lat="39.17171949272205" lon="117.7634072520839">
        <ele>3.1</ele>
        <time>2025-10-13T09:15:02Z</time>
      </trkpt>
      <trkpt lat="39.171626568108366" lon="117.76343630077717">
        <ele>3.1</ele>
        <time>2025-10-13T09:15:04Z</time>
      </trkpt>
      <trkpt lat="39.171545599639195" lon="117.7634132818452">
        <ele>3.1</ele>
        <time>2025-10-13T09:15:06Z</time>
      </trkpt>
      <trkpt lat="39.17148658083323" lon="117.76333719291483">
        <ele>3.2</ele>
        <time>2025-10-13T09:15:08Z</time>
      </trkpt>
      <trkpt lat="39.17144253024546" lon="117.76322806066923">
        <ele>3.2</ele>
        <time>2025-10-13T09:15:10Z</time>
      </trkpt>
      <trkpt lat="39.17139848286226" lon="117.76312293400314">
        <ele>3.2</ele>
        <time>2025-10-13T09:15:12Z</time>
      </trkpt>
      <trkpt lat="39.171351460527646" lon="117.76305084958327">
        <ele>3</ele>
        <time>2025-10-13T09:15:14Z</time>
      </trkpt>
      <trkpt lat="39.17130047467157" lon="117.76302782724524">
        <ele>3</ele>
        <time>2025-10-13T09:15:16Z</time>
      </trkpt>
      <trkpt lat="39.171245517540115" lon="117.7630428530406">
        <ele>2.1</ele>
        <time>2025-10-13T09:15:18Z</time>
      </trkpt>
      <trkpt lat="39.1711815782363" lon="117.76307590257466">
        <ele>2.1</ele>
        <time>2025-10-13T09:15:20Z</time>
      </trkpt>
      <trkpt lat="39.1711086352371" lon="117.76309593697277">
        <ele>2.1</ele>
        <time>2025-10-13T09:15:22Z</time>
      </trkpt>
      <trkpt lat="39.17103867169065" lon="117.76308893708845">
        <ele>1.6</ele>
        <time>2025-10-13T09:15:24Z</time>
      </trkpt>
      <trkpt lat="39.17097667009115" lon="117.76303387598685">
        <ele>1.6</ele>
        <time>2025-10-13T09:15:26Z</time>
      </trkpt>
      <trkpt lat="39.17092464057999" lon="117.76294677376023">
        <ele>1.5</ele>
        <time>2025-10-13T09:15:28Z</time>
      </trkpt>
      <trkpt lat="39.17087659591868" lon="117.76284064772985">
        <ele>1.5</ele>
        <time>2025-10-13T09:15:30Z</time>
      </trkpt>
      <trkpt lat="39.17083054705815" lon="117.76272951577228">
        <ele>1.5</ele>
        <time>2025-10-13T09:15:32Z</time>
      </trkpt>
      <trkpt lat="39.17078749346689" lon="117.76261337783826">
        <ele>1.1</ele>
        <time>2025-10-13T09:15:34Z</time>
      </trkpt>
      <trkpt lat="39.17074643647154" lon="117.76249323536454">
        <ele>1.1</ele>
        <time>2025-10-13T09:15:36Z</time>
      </trkpt>
      <trkpt lat="39.17070437923526" lon="117.76237109124502">
        <ele>1.1</ele>
        <time>2025-10-13T09:15:38Z</time>
      </trkpt>
      <trkpt lat="39.17065932363138" lon="117.76224794698548">
        <ele>1.1</ele>
        <time>2025-10-13T09:15:40Z</time>
      </trkpt>
      <trkpt lat="39.17061227106786" lon="117.76212680610895">
        <ele>1.1</ele>
        <time>2025-10-13T09:15:42Z</time>
      </trkpt>
      <trkpt lat="39.17056521902373" lon="117.76200566591717">
        <ele>1.5</ele>
        <time>2025-10-13T09:15:44Z</time>
      </trkpt>
      <trkpt lat="39.17051416920869" lon="117.76188352572021">
        <ele>1.5</ele>
        <time>2025-10-13T09:15:46Z</time>
      </trkpt>
      <trkpt lat="39.170459121636455" lon="117.76176038553585">
        <ele>1.5</ele>
        <time>2025-10-13T09:15:48Z</time>
      </trkpt>
      <trkpt lat="39.17040107573029" lon="117.7616362452548">
        <ele>1.7</ele>
        <time>2025-10-13T09:15:50Z</time>
      </trkpt>
      <trkpt lat="39.17034203160255" lon="117.76151310700487">
        <ele>1.7</ele>
        <time>2025-10-13T09:15:52Z</time>
      </trkpt>
      <trkpt lat="39.170277991603335" lon="117.76139097127837">
        <ele>1.3</ele>
        <time>2025-10-13T09:15:54Z</time>
      </trkpt>
      <trkpt lat="39.17021095517036" lon="117.76127083897497">
        <ele>1.3</ele>
        <time>2025-10-13T09:15:56Z</time>
      </trkpt>
      <trkpt lat="39.170143919879465" lon="117.76115170851442">
        <ele>1.3</ele>
        <time>2025-10-13T09:15:58Z</time>
      </trkpt>
      <trkpt lat="39.170078886405456" lon="117.76103658310498">
        <ele>1.5</ele>
        <time>2025-10-13T09:16:00Z</time>
      </trkpt>
      <trkpt lat="39.17001385464302" lon="117.76092346062771">
        <ele>1.5</ele>
        <time>2025-10-13T09:16:02Z</time>
      </trkpt>
      <trkpt lat="39.16994882333855" lon="117.76081033875288">
        <ele>1.4</ele>
        <time>2025-10-13T09:16:04Z</time>
      </trkpt>
      <trkpt lat="39.16988279308324" lon="117.76069721760823">
        <ele>1.4</ele>
        <time>2025-10-13T09:16:06Z</time>
      </trkpt>
      <trkpt lat="39.16981676267993" lon="117.76058309592858">
        <ele>1.4</ele>
        <time>2025-10-13T09:16:08Z</time>
      </trkpt>
      <trkpt lat="39.16974873573372" lon="117.76047197851715">
        <ele>1.3</ele>
        <time>2025-10-13T09:16:10Z</time>
      </trkpt>
      <trkpt lat="39.169679711618414" lon="117.76036386519985">
        <ele>1.3</ele>
        <time>2025-10-13T09:16:12Z</time>
      </trkpt>
      <trkpt lat="39.169610689708605" lon="117.7602587558038">
        <ele>1.2</ele>
        <time>2025-10-13T09:16:14Z</time>
      </trkpt>
      <trkpt lat="39.16954466819775" lon="117.7601566499028">
        <ele>1.2</ele>
        <time>2025-10-13T09:16:16Z</time>
      </trkpt>
      <trkpt lat="39.16947664942003" lon="117.76005654697654">
        <ele>1.2</ele>
        <time>2025-10-13T09:16:18Z</time>
      </trkpt>
      <trkpt lat="39.16941062923735" lon="117.75995544316167">
        <ele>1.8</ele>
        <time>2025-10-13T09:16:20Z</time>
      </trkpt>
      <trkpt lat="39.169343610595035" lon="117.75985534106239">
        <ele>1.8</ele>
        <time>2025-10-13T09:16:22Z</time>
      </trkpt>
      <trkpt lat="39.16927758999248" lon="117.75975223601385">
        <ele>1.7</ele>
        <time>2025-10-13T09:16:24Z</time>
      </trkpt>
      <trkpt lat="39.16920957095605" lon="117.75964913172433">
        <ele>1.7</ele>
        <time>2025-10-13T09:16:26Z</time>
      </trkpt>
      <trkpt lat="39.16914055061733" lon="117.75954202371052">
        <ele>1.7</ele>
        <time>2025-10-13T09:16:28Z</time>
      </trkpt>
      <trkpt lat="39.169071531258986" lon="117.75943591732582">
        <ele>1.5</ele>
        <time>2025-10-13T09:16:30Z</time>
      </trkpt>
      <trkpt lat="39.169000512928825" lon="117.75932881065215">
        <ele>1.5</ele>
        <time>2025-10-13T09:16:32Z</time>
      </trkpt>
      <trkpt lat="39.16892949557204" lon="117.75922270559818">
        <ele>1.7</ele>
        <time>2025-10-13T09:16:34Z</time>
      </trkpt>
      <trkpt lat="39.168858478069396" lon="117.75911560001157">
        <ele>1.7</ele>
        <time>2025-10-13T09:16:36Z</time>
      </trkpt>
      <trkpt lat="39.16878945980027" lon="117.75900849471702">
        <ele>1.7</ele>
        <time>2025-10-13T09:16:38Z</time>
      </trkpt>
      <trkpt lat="39.168721441902335" lon="117.75890239090066">
        <ele>1.2</ele>
        <time>2025-10-13T09:16:40Z</time>
      </trkpt>
      <trkpt lat="39.16865342278608" lon="117.75879328446129">
        <ele>1.2</ele>
        <time>2025-10-13T09:16:42Z</time>
      </trkpt>
      <trkpt lat="39.16858340582337" lon="117.75868517989296">
        <ele>1</ele>
        <time>2025-10-13T09:16:44Z</time>
      </trkpt>
      <trkpt lat="39.168514388159736" lon="117.75857607471276">
        <ele>1</ele>
        <time>2025-10-13T09:16:46Z</time>
      </trkpt>
      <trkpt lat="39.16844537199018" lon="117.75846897217713">
        <ele>1</ele>
        <time>2025-10-13T09:16:48Z</time>
      </trkpt>
      <trkpt lat="39.16837435636793" lon="117.7583598683796">
        <ele>1.2</ele>
        <time>2025-10-13T09:16:50Z</time>
      </trkpt>
      <trkpt lat="39.16830334065676" lon="117.75824976412456">
        <ele>1.2</ele>
        <time>2025-10-13T09:16:52Z</time>
      </trkpt>
      <trkpt lat="39.16822932716212" lon="117.75813966083209">
        <ele>1.3</ele>
        <time>2025-10-13T09:16:54Z</time>
      </trkpt>
      <trkpt lat="39.16815631403297" lon="117.75803055901017">
        <ele>1.3</ele>
        <time>2025-10-13T09:16:56Z</time>
      </trkpt>
      <trkpt lat="39.168082300908814" lon="117.75791945586346">
        <ele>1.3</ele>
        <time>2025-10-13T09:16:58Z</time>
      </trkpt>
      <trkpt lat="39.16800728984048" lon="117.75781035544878">
        <ele>1.3</ele>
        <time>2025-10-13T09:17:00Z</time>
      </trkpt>
      <trkpt lat="39.16793028039079" lon="117.75770125586033">
        <ele>1.3</ele>
        <time>2025-10-13T09:17:02Z</time>
      </trkpt>
      <trkpt lat="39.16785227196852" lon="117.75759215697113">
        <ele>1.3</ele>
        <time>2025-10-13T09:17:04Z</time>
      </trkpt>
      <trkpt lat="39.16777526190668" lon="117.75748005555582">
        <ele>1.3</ele>
        <time>2025-10-13T09:17:06Z</time>
      </trkpt>
      <trkpt lat="39.16770324787526" lon="117.75736495115413">
        <ele>1.3</ele>
        <time>2025-10-13T09:17:08Z</time>
      </trkpt>
      <trkpt lat="39.167633233631854" lon="117.75725084811492">
        <ele>1.2</ele>
        <time>2025-10-13T09:17:10Z</time>
      </trkpt>
      <trkpt lat="39.167563221311916" lon="117.75713974862441">
        <ele>1.2</ele>
        <time>2025-10-13T09:17:12Z</time>
      </trkpt>
      <trkpt lat="39.16749121206285" lon="117.75703165288934">
        <ele>1.2</ele>
        <time>2025-10-13T09:17:14Z</time>
      </trkpt>
      <trkpt lat="39.167419203717145" lon="117.75692455868133">
        <ele>1.2</ele>
        <time>2025-10-13T09:17:16Z</time>
      </trkpt>
      <trkpt lat="39.167350193546866" lon="117.75681646368659">
        <ele>1.2</ele>
        <time>2025-10-13T09:17:18Z</time>
      </trkpt>
      <trkpt lat="39.16728318168948" lon="117.75670636709538">
        <ele>1</ele>
        <time>2025-10-13T09:17:20Z</time>
      </trkpt>
      <trkpt lat="39.16721916803953" lon="117.75659526976023">
        <ele>1</ele>
        <time>2025-10-13T09:17:22Z</time>
      </trkpt>
      <trkpt lat="39.16715615379321" lon="117.75648317195221">
        <ele>0.9</ele>
        <time>2025-10-13T09:17:24Z</time>
      </trkpt>
      <trkpt lat="39.167095137917066" lon="117.75636907262397">
        <ele>0.9</ele>
        <time>2025-10-13T09:17:26Z</time>
      </trkpt>
      <trkpt lat="39.16703512327721" lon="117.75625797659207">
        <ele>0.9</ele>
        <time>2025-10-13T09:17:28Z</time>
      </trkpt>
      <trkpt lat="39.16697611072893" lon="117.75615188566059">
        <ele>1</ele>
        <time>2025-10-13T09:17:30Z</time>
      </trkpt>
      <trkpt lat="39.16691011380274" lon="117.75607081920545">
        <ele>1</ele>
        <time>2025-10-13T09:17:32Z</time>
      </trkpt>
      <trkpt lat="39.166833141262195" lon="117.75602979123887">
        <ele>1.5</ele>
        <time>2025-10-13T09:17:34Z</time>
      </trkpt>
      <trkpt lat="39.166746198077" lon="117.75604181336084">
        <ele>1.5</ele>
        <time>2025-10-13T09:17:36Z</time>
      </trkpt>
      <trkpt lat="39.16665527588025" lon="117.75609587473947">
        <ele>1.5</ele>
        <time>2025-10-13T09:17:38Z</time>
      </trkpt>
      <trkpt lat="39.166567364069856" lon="117.75617696089806">
        <ele>1.4</ele>
        <time>2025-10-13T09:17:40Z</time>
      </trkpt>
      <trkpt lat="39.166482455227545" lon="117.75626805630795">
        <ele>1.4</ele>
        <time>2025-10-13T09:17:42Z</time>
      </trkpt>
      <trkpt lat="39.16639854610027" lon="117.75635915199187">
        <ele>1.3</ele>
        <time>2025-10-13T09:17:44Z</time>
      </trkpt>
      <trkpt lat="39.166313637415534" lon="117.75644924726372">
        <ele>1.3</ele>
        <time>2025-10-13T09:17:46Z</time>
      </trkpt>
      <trkpt lat="39.16622872857103" lon="117.75653834198292">
        <ele>1.3</ele>
        <time>2025-10-13T09:17:48Z</time>
      </trkpt>
      <trkpt lat="39.16614182120498" lon="117.75662743734007">
        <ele>1.2</ele>
        <time>2025-10-13T09:17:50Z</time>
      </trkpt>
      <trkpt lat="39.1660539142584" lon="117.75671553225428">
        <ele>1.2</ele>
        <time>2025-10-13T09:17:52Z</time>
      </trkpt>
      <trkpt lat="39.16596300984621" lon="117.75680462888248">
        <ele>1.2</ele>
        <time>2025-10-13T09:17:54Z</time>
      </trkpt>
      <trkpt lat="39.16587210525458" lon="117.75689272493152">
        <ele>1.4</ele>
        <time>2025-10-13T09:17:56Z</time>
      </trkpt>
      <trkpt lat="39.16578119999743" lon="117.7569788194223">
        <ele>1.4</ele>
        <time>2025-10-13T09:17:58Z</time>
      </trkpt>
      <trkpt lat="39.16569129346315" lon="117.75706291220246">
        <ele>1.3</ele>
        <time>2025-10-13T09:18:00Z</time>
      </trkpt>
      <trkpt lat="39.165601385743344" lon="117.7571440024007">
        <ele>1.3</ele>
        <time>2025-10-13T09:18:02Z</time>
      </trkpt>
      <trkpt lat="39.165506481230125" lon="117.75722509355184">
        <ele>1.3</ele>
        <time>2025-10-13T09:18:04Z</time>
      </trkpt>
      <trkpt lat="39.16541157549599" lon="117.75730318207387">
        <ele>0.9</ele>
        <time>2025-10-13T09:18:06Z</time>
      </trkpt>
      <trkpt lat="39.16531466920977" lon="117.757377267202">
        <ele>0.9</ele>
        <time>2025-10-13T09:18:08Z</time>
      </trkpt>
      <trkpt lat="39.16521876006752" lon="117.75744634752282">
        <ele>0.6</ele>
        <time>2025-10-13T09:18:10Z</time>
      </trkpt>
      <trkpt lat="39.16512484793413" lon="117.75751142385084">
        <ele>0.6</ele>
        <time>2025-10-13T09:18:12Z</time>
      </trkpt>
      <trkpt lat="39.16503193636201" lon="117.7575785022448">
        <ele>0.6</ele>
        <time>2025-10-13T09:18:14Z</time>
      </trkpt>
      <trkpt lat="39.16494002436436" lon="117.75764558072746">
        <ele>0.7</ele>
        <time>2025-10-13T09:18:16Z</time>
      </trkpt>
      <trkpt lat="39.16484811253393" lon="117.757712659426">
        <ele>0.7</ele>
        <time>2025-10-13T09:18:18Z</time>
      </trkpt>
      <trkpt lat="39.16475520247467" lon="117.75778174047707">
        <ele>1.2</ele>
        <time>2025-10-13T09:18:20Z</time>
      </trkpt>
      <trkpt lat="39.1646602953029" lon="117.75785382503595">
        <ele>1.2</ele>
        <time>2025-10-13T09:18:22Z</time>
      </trkpt>
      <trkpt lat="39.164562388570516" lon="117.75792290719085">
        <ele>1.2</ele>
        <time>2025-10-13T09:18:24Z</time>
      </trkpt>
      <trkpt lat="39.16446248063594" lon="117.7579869847552">
        <ele>1.1</ele>
        <time>2025-10-13T09:18:26Z</time>
      </trkpt>
      <trkpt lat="39.16436356968506" lon="117.75804605730104">
        <ele>1.1</ele>
        <time>2025-10-13T09:18:28Z</time>
      </trkpt>
      <trkpt lat="39.164262659016565" lon="117.75810312822793">
        <ele>1</ele>
        <time>2025-10-13T09:18:30Z</time>
      </trkpt>
      <trkpt lat="39.164161748989784" lon="117.75816120033353">
        <ele>1</ele>
        <time>2025-10-13T09:18:32Z</time>
      </trkpt>
      <trkpt lat="39.16405784243381" lon="117.75822227605968">
        <ele>1</ele>
        <time>2025-10-13T09:18:34Z</time>
      </trkpt>
      <trkpt lat="39.16395393601752" lon="117.75828335196412">
        <ele>0.9</ele>
        <time>2025-10-13T09:18:36Z</time>
      </trkpt>
      <trkpt lat="39.16385102914753" lon="117.75834442791955">
        <ele>0.9</ele>
        <time>2025-10-13T09:18:38Z</time>
      </trkpt>
      <trkpt lat="39.16375012175855" lon="117.75840650483333">
        <ele>0.9</ele>
        <time>2025-10-13T09:18:40Z</time>
      </trkpt>
      <trkpt lat="39.16365121385704" lon="117.7584695827143">
        <ele>0.9</ele>
        <time>2025-10-13T09:18:42Z</time>
      </trkpt>
      <trkpt lat="39.16355330817485" lon="117.75853766586229">
        <ele>0.9</ele>
        <time>2025-10-13T09:18:44Z</time>
      </trkpt>
      <trkpt lat="39.16345640153538" lon="117.75860474806002">
        <ele>0.8</ele>
        <time>2025-10-13T09:18:46Z</time>
      </trkpt>
      <trkpt lat="39.16335949560046" lon="117.75867283151985">
        <ele>0.8</ele>
        <time>2025-10-13T09:18:48Z</time>
      </trkpt>
      <trkpt lat="39.16326058616204" lon="117.75873190600086">
        <ele>0.8</ele>
        <time>2025-10-13T09:18:50Z</time>
      </trkpt>
      <trkpt lat="39.16315967478836" lon="117.75878497458504">
        <ele>0.8</ele>
        <time>2025-10-13T09:18:52Z</time>
      </trkpt>
      <trkpt lat="39.16306076287721" lon="117.75883904410416">
        <ele>0.8</ele>
        <time>2025-10-13T09:18:54Z</time>
      </trkpt>
      <trkpt lat="39.162965855254335" lon="117.7589051259525">
        <ele>0.7</ele>
        <time>2025-10-13T09:18:56Z</time>
      </trkpt>
      <trkpt lat="39.16287695246548" lon="117.75898622317594">
        <ele>0.7</ele>
        <time>2025-10-13T09:18:58Z</time>
      </trkpt>
      <trkpt lat="39.16279105089746" lon="117.75907232566271">
        <ele>0.5</ele>
        <time>2025-10-13T09:19:00Z</time>
      </trkpt>
      <trkpt lat="39.16271014663101" lon="117.75915842786607">
        <ele>0.5</ele>
        <time>2025-10-13T09:19:02Z</time>
      </trkpt>
      <trkpt lat="39.162631238654406" lon="117.75923952479458">
        <ele>0.5</ele>
        <time>2025-10-13T09:19:04Z</time>
      </trkpt>
      <trkpt lat="39.16255431626782" lon="117.75929659591496">
        <ele>0.6</ele>
        <time>2025-10-13T09:19:06Z</time>
      </trkpt>
      <trkpt lat="39.162480364137686" lon="117.75930361287251">
        <ele>0.6</ele>
        <time>2025-10-13T09:19:08Z</time>
      </trkpt>
      <trkpt lat="39.16241737244344" lon="117.75925156492207">
        <ele>0.8</ele>
        <time>2025-10-13T09:19:10Z</time>
      </trkpt>
      <trkpt lat="39.16236235440263" lon="117.75916047428893">
        <ele>0.8</ele>
        <time>2025-10-13T09:19:12Z</time>
      </trkpt>
      <trkpt lat="39.16231032770407" lon="117.75905636981065">
        <ele>0.8</ele>
        <time>2025-10-13T09:19:14Z</time>
      </trkpt>
      <trkpt lat="39.16225530372779" lon="117.7589532672914">
        <ele>1.1</ele>
        <time>2025-10-13T09:19:16Z</time>
      </trkpt>
      <trkpt lat="39.16219728083007" lon="117.75884816354915">
        <ele>1.1</ele>
        <time>2025-10-13T09:19:18Z</time>
      </trkpt>
      <trkpt lat="39.16213526016862" lon="117.7587420597923">
        <ele>1.1</ele>
        <time>2025-10-13T09:19:20Z</time>
      </trkpt>
      <trkpt lat="39.16207124164061" lon="117.75863695787325">
        <ele>1.1</ele>
        <time>2025-10-13T09:19:22Z</time>
      </trkpt>
      <trkpt lat="39.162005224169405" lon="117.7585308556959">
        <ele>1.1</ele>
        <time>2025-10-13T09:19:24Z</time>
      </trkpt>
      <trkpt lat="39.16194020651361" lon="117.75842475392956">
        <ele>1</ele>
        <time>2025-10-13T09:19:26Z</time>
      </trkpt>
      <trkpt lat="39.16187519031776" lon="117.7583206547629">
        <ele>1</ele>
        <time>2025-10-13T09:19:28Z</time>
      </trkpt>
      <trkpt lat="39.16180817726916" lon="117.7582195594465">
        <ele>0.8</ele>
        <time>2025-10-13T09:19:30Z</time>
      </trkpt>
      <trkpt lat="39.16174416229295" lon="117.7581174632171">
        <ele>0.8</ele>
        <time>2025-10-13T09:19:32Z</time>
      </trkpt>
      <trkpt lat="39.16168414480604" lon="117.75801436596241">
        <ele>0.8</ele>
        <time>2025-10-13T09:19:34Z</time>
      </trkpt>
      <trkpt lat="39.16163012567247" lon="117.75791427148694">
        <ele>0.5</ele>
        <time>2025-10-13T09:19:36Z</time>
      </trkpt>
      <trkpt lat="39.1615751115536" lon="117.75782218567113">
        <ele>0.5</ele>
        <time>2025-10-13T09:19:38Z</time>
      </trkpt>
      <trkpt lat="39.16152009875181" lon="117.75773210226701">
        <ele>0.7</ele>
        <time>2025-10-13T09:19:40Z</time>
      </trkpt>
      <trkpt lat="39.16146408634038" lon="117.75764101838203">
        <ele>0.7</ele>
        <time>2025-10-13T09:19:42Z</time>
      </trkpt>
      <trkpt lat="39.16140807472941" lon="117.75755093588938">
        <ele>0.7</ele>
        <time>2025-10-13T09:19:44Z</time>
      </trkpt>
      <trkpt lat="39.161357066372695" lon="117.7574728650253">
        <ele>0.5</ele>
        <time>2025-10-13T09:19:46Z</time>
      </trkpt>
      <trkpt lat="39.161321055224164" lon="117.75740680438201">
        <ele>0.5</ele>
        <time>2025-10-13T09:19:48Z</time>
      </trkpt>
    </trkseg>
  </trk>
</gpx>