<?xml version="1.0" encoding="UTF-8"?>
<gpx xmlns="http://www.topografix.com/GPX/1/1" xmlns:gpxtpx="http://www.garmin.com/xmlschemas/TrackPointExtension/v1" xmlns:xsi="http://www.w3.org/2001/XMLSchema-instance" xsi:schemaLocation="http://www.topografix.com/GPX/1/1 http://www.topografix.com/GPX/1/1/gpx.xsd" version="1.1" creator="gpx.py -- https://github.com/tkrajina/gpxpy">
  <trk>
    <name>gpx from codoon</name>
    <type>Run</type>
    <trkseg>
      <trkpt lat="39.17219195945093" lon="117.76304373380043">
        <ele>-4.3</ele>
        <time>2025-10-13T23:32:42Z</time>
      </trkpt>
      <trkpt lat="39.172179965141346" lon="117.76304173282024">
        <ele>-4.3</ele>
        <time>2025-10-13T23:32:43Z</time>
      </trkpt>
      <trkpt lat="39.17216494487682" lon="117.76299968212372">
        <ele>-4.3</ele>
        <time>2025-10-13T23:32:44Z</time>
      </trkpt>
      <trkpt lat="39.17208704569809" lon="117.76307879106396">
        <ele>-4.1</ele>
        <time>2025-10-13T23:32:47Z</time>
      </trkpt>
      <trkpt lat="39.17200613874303" lon="117.7631438830559">
        <ele>-4.1</ele>
        <time>2025-10-13T23:32:51Z</time>
      </trkpt>
      <trkpt lat="39.17190228966312" lon="117.76327205771904">
        <ele>-4.1</ele>
        <time>2025-10-13T23:32:53Z</time>
      </trkpt>
      <trkpt lat="39.171822370597766" lon="117.76332012862996">
        <ele>-4.1</ele>
        <time>2025-10-13T23:32:55Z</time>
      </trkpt>
      <trkpt lat="39.17173146022269" lon="117.76337120485297">
        <ele>-3.9</ele>
        <time>2025-10-13T23:32:57Z</time>
      </trkpt>
      <trkpt lat="39.17164052450473" lon="117.76338623546714">
        <ele>-3.9</ele>
        <time>2025-10-13T23:32:59Z</time>
      </trkpt>
      <trkpt lat="39.171560545616416" lon="117.76334919870884">
        <ele>-3.9</ele>
        <time>2025-10-13T23:33:01Z</time>
      </trkpt>
      <trkpt lat="39.171497527235395" lon="117.76327010672038">
        <ele>-3.7</ele>
        <time>2025-10-13T23:33:03Z</time>
      </trkpt>
      <trkpt lat="39.17145049054659" lon="117.76317799660455">
        <ele>-3.7</ele>
        <time>2025-10-13T23:33:05Z</time>
      </trkpt>
      <trkpt lat="39.1714104604602" lon="117.76310090482859">
        <ele>-3.7</ele>
        <time>2025-10-13T23:33:07Z</time>
      </trkpt>
      <trkpt lat="39.17137044306721" lon="117.76304183588272">
        <ele>-3.7</ele>
        <time>2025-10-13T23:33:09Z</time>
      </trkpt>
      <trkpt lat="39.17133044171841" lon="117.7630057958775">
        <ele>-3.7</ele>
        <time>2025-10-13T23:33:11Z</time>
      </trkpt>
      <trkpt lat="39.17129046117251" lon="117.76299979345701">
        <ele>-3.9</ele>
        <time>2025-10-13T23:33:13Z</time>
      </trkpt>
      <trkpt lat="39.17124349791861" lon="117.76301281571067">
        <ele>-3.9</ele>
        <time>2025-10-13T23:33:15Z</time>
      </trkpt>
      <trkpt lat="39.17119553526187" lon="117.76302583809938">
        <ele>-4.5</ele>
        <time>2025-10-13T23:33:18Z</time>
      </trkpt>
      <trkpt lat="39.171142574176066" lon="117.76303685862553">
        <ele>-4.5</ele>
        <time>2025-10-13T23:33:20Z</time>
      </trkpt>
      <trkpt lat="39.17108262069896" lon="117.76305288631715">
        <ele>-4.5</ele>
        <time>2025-10-13T23:33:22Z</time>
      </trkpt>
      <trkpt lat="39.171017666710384" lon="117.76306390838381">
        <ele>-5.3</ele>
        <time>2025-10-13T23:33:24Z</time>
      </trkpt>
      <trkpt lat="39.17096568629929" lon="117.7630478949342">
        <ele>-5.3</ele>
        <time>2025-10-13T23:33:26Z</time>
      </trkpt>
      <trkpt lat="39.17093267943142" lon="117.76300985152442">
        <ele>-5.2</ele>
        <time>2025-10-13T23:33:28Z</time>
      </trkpt>
      <trkpt lat="39.170911659308494" lon="117.76296279540495">
        <ele>-5.2</ele>
        <time>2025-10-13T23:33:30Z</time>
      </trkpt>
      <trkpt lat="39.170891640052055" lon="117.7629177417562">
        <ele>-5.2</ele>
        <time>2025-10-13T23:33:32Z</time>
      </trkpt>
      <trkpt lat="39.17087361831039" lon="117.762870685456">
        <ele>-5.4</ele>
        <time>2025-10-13T23:33:34Z</time>
      </trkpt>
      <trkpt lat="39.17085559527426" lon="117.76282162677197">
        <ele>-5.4</ele>
        <time>2025-10-13T23:33:36Z</time>
      </trkpt>
      <trkpt lat="39.17083557008201" lon="117.76276756224992">
        <ele>-5.7</ele>
        <time>2025-10-13T23:33:38Z</time>
      </trkpt>
      <trkpt lat="39.17081753221701" lon="117.76269647656628">
        <ele>-5.7</ele>
        <time>2025-10-13T23:33:40Z</time>
      </trkpt>
      <trkpt lat="39.17079648340195" lon="117.7626063680594">
        <ele>-5.7</ele>
        <time>2025-10-13T23:33:42Z</time>
      </trkpt>
      <trkpt lat="39.170771430482496" lon="117.76250624815091">
        <ele>-5.8</ele>
        <time>2025-10-13T23:33:44Z</time>
      </trkpt>
      <trkpt lat="39.17073738255914" lon="117.76240512863004">
        <ele>-5.8</ele>
        <time>2025-10-13T23:33:46Z</time>
      </trkpt>
      <trkpt lat="39.1707013361777" lon="117.76230400983972">
        <ele>-5.6</ele>
        <time>2025-10-13T23:33:48Z</time>
      </trkpt>
      <trkpt lat="39.170660292445774" lon="117.76220189094765">
        <ele>-5.6</ele>
        <time>2025-10-13T23:33:50Z</time>
      </trkpt>
      <trkpt lat="39.17061625019366" lon="117.76209877171405">
        <ele>-5.6</ele>
        <time>2025-10-13T23:33:52Z</time>
      </trkpt>
      <trkpt lat="39.170571208908676" lon="117.76199565310397">
        <ele>-5.3</ele>
        <time>2025-10-13T23:33:54Z</time>
      </trkpt>
      <trkpt lat="39.170528166819466" lon="117.76189253473603">
        <ele>-5.3</ele>
        <time>2025-10-13T23:33:56Z</time>
      </trkpt>
      <trkpt lat="39.170481130068765" lon="117.76179342215488">
        <ele>-5.4</ele>
        <time>2025-10-13T23:33:58Z</time>
      </trkpt>
      <trkpt lat="39.170433096843105" lon="117.7616983149234">
        <ele>-5.4</ele>
        <time>2025-10-13T23:34:00Z</time>
      </trkpt>
      <trkpt lat="39.170384063886594" lon="117.76160220705627">
        <ele>-5.4</ele>
        <time>2025-10-13T23:34:02Z</time>
      </trkpt>
      <trkpt lat="39.17033702879824" lon="117.76150409700384">
        <ele>-5.5</ele>
        <time>2025-10-13T23:34:04Z</time>
      </trkpt>
      <trkpt lat="39.1702889940071" lon="117.7614049863528">
        <ele>-5.5</ele>
        <time>2025-10-13T23:34:06Z</time>
      </trkpt>
      <trkpt lat="39.170239961421665" lon="117.76130787863475">
        <ele>-5.2</ele>
        <time>2025-10-13T23:34:08Z</time>
      </trkpt>
      <trkpt lat="39.17018993290925" lon="117.7612157773269">
        <ele>-5.2</ele>
        <time>2025-10-13T23:34:10Z</time>
      </trkpt>
      <trkpt lat="39.17014290605805" lon="117.76112868185558">
        <ele>-5.2</ele>
        <time>2025-10-13T23:34:12Z</time>
      </trkpt>
      <trkpt lat="39.17009588134725" lon="117.76104459022096">
        <ele>-5.7</ele>
        <time>2025-10-13T23:34:14Z</time>
      </trkpt>
      <trkpt lat="39.17004685869101" lon="117.76096150032966">
        <ele>-5.7</ele>
        <time>2025-10-13T23:34:16Z</time>
      </trkpt>
      <trkpt lat="39.16999583622892" lon="117.76087640871334">
        <ele>-5.8</ele>
        <time>2025-10-13T23:34:18Z</time>
      </trkpt>
      <trkpt lat="39.169944812797866" lon="117.76078931514176">
        <ele>-5.8</ele>
        <time>2025-10-13T23:34:20Z</time>
      </trkpt>
      <trkpt lat="39.169893790860606" lon="117.76070422421566">
        <ele>-5.8</ele>
        <time>2025-10-13T23:34:22Z</time>
      </trkpt>
      <trkpt lat="39.169844771041774" lon="117.76062413907727">
        <ele>-5.8</ele>
        <time>2025-10-13T23:34:24Z</time>
      </trkpt>
      <trkpt lat="39.16979575387469" lon="117.76054805878786">
        <ele>-5.8</ele>
        <time>2025-10-13T23:34:26Z</time>
      </trkpt>
      <trkpt lat="39.16974773813302" lon="117.76047498204393">
        <ele>-5.4</ele>
        <time>2025-10-13T23:34:28Z</time>
      </trkpt>
      <trkpt lat="39.16970072079198" lon="117.76039990316546">
        <ele>-5.4</ele>
        <time>2025-10-13T23:34:30Z</time>
      </trkpt>
      <trkpt lat="39.16965470246518" lon="117.76032382329994">
        <ele>-5.4</ele>
        <time>2025-10-13T23:34:32Z</time>
      </trkpt>
      <trkpt lat="39.16960768434273" lon="117.76024674271285">
        <ele>-5.4</ele>
        <time>2025-10-13T23:34:34Z</time>
      </trkpt>
      <trkpt lat="39.1695596682089" lon="117.76017166477175">
        <ele>-5.4</ele>
        <time>2025-10-13T23:34:36Z</time>
      </trkpt>
      <trkpt lat="39.16951565227153" lon="117.76010059105002">
        <ele>-5.7</ele>
        <time>2025-10-13T23:34:38Z</time>
      </trkpt>
      <trkpt lat="39.169473637094896" lon="117.76003252064959">
        <ele>-5.7</ele>
        <time>2025-10-13T23:34:40Z</time>
      </trkpt>
      <trkpt lat="39.169438626720314" lon="117.7599794662191">
        <ele>-5.7</ele>
        <time>2025-10-13T23:34:42Z</time>
      </trkpt>
      <trkpt lat="39.16940362169732" lon="117.75993542188927">
        <ele>-5.7</ele>
        <time>2025-10-13T23:34:44Z</time>
      </trkpt>
      <trkpt lat="39.169373615535164" lon="117.75989438033206">
        <ele>-5.9</ele>
        <time>2025-10-13T23:34:54Z</time>
      </trkpt>
      <trkpt lat="39.16934460477981" lon="117.75984633100202">
        <ele>-5.9</ele>
        <time>2025-10-13T23:34:56Z</time>
      </trkpt>
      <trkpt lat="39.16931659120265" lon="117.75979427724987">
        <ele>-6.2</ele>
        <time>2025-10-13T23:34:58Z</time>
      </trkpt>
      <trkpt lat="39.16928057899315" lon="117.75973621805419">
        <ele>-6.2</ele>
        <time>2025-10-13T23:35:00Z</time>
      </trkpt>
      <trkpt lat="39.16923756702422" lon="117.75967115224225">
        <ele>-6.2</ele>
        <time>2025-10-13T23:35:02Z</time>
      </trkpt>
      <trkpt lat="39.16918855761178" lon="117.75960408521098">
        <ele>-6.1</ele>
        <time>2025-10-13T23:35:04Z</time>
      </trkpt>
      <trkpt lat="39.16913754726808" lon="117.75953301429327">
        <ele>-6.1</ele>
        <time>2025-10-13T23:35:06Z</time>
      </trkpt>
      <trkpt lat="39.16908353604891" lon="117.75945693857204">
        <ele>-5.8</ele>
        <time>2025-10-13T23:35:08Z</time>
      </trkpt>
      <trkpt lat="39.16902752227785" lon="117.75937385581241">
        <ele>-5.8</ele>
        <time>2025-10-13T23:35:10Z</time>
      </trkpt>
      <trkpt lat="39.16896850828959" lon="117.7592867694552">
        <ele>-5.8</ele>
        <time>2025-10-13T23:35:12Z</time>
      </trkpt>
      <trkpt lat="39.168906494679064" lon="117.75919668062292">
        <ele>-5.6</ele>
        <time>2025-10-13T23:35:14Z</time>
      </trkpt>
      <trkpt lat="39.168842480331165" lon="117.75910258815907">
        <ele>-5.6</ele>
        <time>2025-10-13T23:35:16Z</time>
      </trkpt>
      <trkpt lat="39.16877946406309" lon="117.7590054927993">
        <ele>-5.6</ele>
        <time>2025-10-13T23:35:18Z</time>
      </trkpt>
      <trkpt lat="39.16871844586162" lon="117.75890639551697">
        <ele>-5.6</ele>
        <time>2025-10-13T23:35:20Z</time>
      </trkpt>
      <trkpt lat="39.16865542919928" lon="117.75880729895773">
        <ele>-5.6</ele>
        <time>2025-10-13T23:35:22Z</time>
      </trkpt>
      <trkpt lat="39.16859041515496" lon="117.75871020522045">
        <ele>-6.1</ele>
        <time>2025-10-13T23:35:24Z</time>
      </trkpt>
      <trkpt lat="39.168525403596924" lon="117.75861711611266">
        <ele>-6.1</ele>
        <time>2025-10-13T23:35:26Z</time>
      </trkpt>
      <trkpt lat="39.168462392236684" lon="117.75852602924546">
        <ele>-6.1</ele>
        <time>2025-10-13T23:35:28Z</time>
      </trkpt>
      <trkpt lat="39.16839938117864" lon="117.75843494277503">
        <ele>-6</ele>
        <time>2025-10-13T23:35:30Z</time>
      </trkpt>
      <trkpt lat="39.16833736983146" lon="117.7583438565743">
        <ele>-6</ele>
        <time>2025-10-13T23:35:32Z</time>
      </trkpt>
      <trkpt lat="39.16827535878675" lon="117.75825277077078">
        <ele>-5.7</ele>
        <time>2025-10-13T23:35:34Z</time>
      </trkpt>
      <trkpt lat="39.168215347381015" lon="117.7581626861332">
        <ele>-5.7</ele>
        <time>2025-10-13T23:35:36Z</time>
      </trkpt>
      <trkpt lat="39.16815833398057" lon="117.75807160048387">
        <ele>-5.7</ele>
        <time>2025-10-13T23:35:38Z</time>
      </trkpt>
      <trkpt lat="39.16810232080408" lon="117.7579815161195">
        <ele>-6</ele>
        <time>2025-10-13T23:35:40Z</time>
      </trkpt>
      <trkpt lat="39.168045307496335" lon="117.75788943025164">
        <ele>-6</ele>
        <time>2025-10-13T23:35:42Z</time>
      </trkpt>
      <trkpt lat="39.16798629669389" lon="117.75779934705665">
        <ele>-6.2</ele>
        <time>2025-10-13T23:35:44Z</time>
      </trkpt>
      <trkpt lat="39.167930283910245" lon="117.75770826286819">
        <ele>-6.2</ele>
        <time>2025-10-13T23:35:46Z</time>
      </trkpt>
      <trkpt lat="39.16787427192948" lon="117.75761818007531">
        <ele>-6.2</ele>
        <time>2025-10-13T23:35:48Z</time>
      </trkpt>
      <trkpt lat="39.16781726182999" lon="117.75753009978519">
        <ele>-6.3</ele>
        <time>2025-10-13T23:35:50Z</time>
      </trkpt>
      <trkpt lat="39.167760254480974" lon="117.75744702481121">
        <ele>-6.3</ele>
        <time>2025-10-13T23:35:52Z</time>
      </trkpt>
      <trkpt lat="39.167704247773926" lon="117.75736595201163">
        <ele>-6.1</ele>
        <time>2025-10-13T23:35:54Z</time>
      </trkpt>
      <trkpt lat="39.16764824082044" lon="117.75728387854758">
        <ele>-6.1</ele>
        <time>2025-10-13T23:35:56Z</time>
      </trkpt>
      <trkpt lat="39.16759323303784" lon="117.7572008043038">
        <ele>-6.1</ele>
        <time>2025-10-13T23:35:58Z</time>
      </trkpt>
      <trkpt lat="39.16754022528759" lon="117.75711973208377">
        <ele>-6.1</ele>
        <time>2025-10-13T23:36:00Z</time>
      </trkpt>
      <trkpt lat="39.16748821766517" lon="117.75703966102235">
        <ele>-6.1</ele>
        <time>2025-10-13T23:36:02Z</time>
      </trkpt>
      <trkpt lat="39.167435211345584" lon="117.75696059136268">
        <ele>-5.9</ele>
        <time>2025-10-13T23:36:04Z</time>
      </trkpt>
      <trkpt lat="39.16738620288818" lon="117.75688152149547">
        <ele>-5.9</ele>
        <time>2025-10-13T23:36:06Z</time>
      </trkpt>
      <trkpt lat="39.1673381940685" lon="117.75680245180274">
        <ele>-5.9</ele>
        <time>2025-10-13T23:36:08Z</time>
      </trkpt>
      <trkpt lat="39.16729018454471" lon="117.7567213805044">
        <ele>-5.9</ele>
        <time>2025-10-13T23:36:10Z</time>
      </trkpt>
      <trkpt lat="39.16724017551861" lon="117.7566383078787">
        <ele>-5.9</ele>
        <time>2025-10-13T23:36:12Z</time>
      </trkpt>
      <trkpt lat="39.167193165431144" lon="117.75655623615032">
        <ele>-5.7</ele>
        <time>2025-10-13T23:36:14Z</time>
      </trkpt>
      <trkpt lat="39.16714715454159" lon="117.75647316367858">
        <ele>-5.7</ele>
        <time>2025-10-13T23:36:16Z</time>
      </trkpt>
      <trkpt lat="39.16710214331382" lon="117.75639009141334">
        <ele>-5.7</ele>
        <time>2025-10-13T23:36:18Z</time>
      </trkpt>
      <trkpt lat="39.16705613338359" lon="117.75630802054302">
        <ele>-5.8</ele>
        <time>2025-10-13T23:36:20Z</time>
      </trkpt>
      <trkpt lat="39.167012122068556" lon="117.75622494881448">
        <ele>-5.8</ele>
        <time>2025-10-13T23:36:22Z</time>
      </trkpt>
      <trkpt lat="39.16696910996993" lon="117.75614087636723">
        <ele>-6</ele>
        <time>2025-10-13T23:36:24Z</time>
      </trkpt>
      <trkpt lat="39.16692709842449" lon="117.75605880597824">
        <ele>-6</ele>
        <time>2025-10-13T23:36:26Z</time>
      </trkpt>
      <trkpt lat="39.16688708858075" lon="117.75598274116784">
        <ele>-6</ele>
        <time>2025-10-13T23:36:28Z</time>
      </trkpt>
      <trkpt lat="39.16684908082557" lon="117.7559136827842">
        <ele>-6</ele>
        <time>2025-10-13T23:36:30Z</time>
      </trkpt>
      <trkpt lat="39.16681807432007" lon="117.7558566346789">
        <ele>-6</ele>
        <time>2025-10-13T23:36:32Z</time>
      </trkpt>
      <trkpt lat="39.16678707920515" lon="117.75582561038291">
        <ele>-6.3</ele>
        <time>2025-10-13T23:36:34Z</time>
      </trkpt>
      <trkpt lat="39.16675709740296" lon="117.7558266151126">
        <ele>-5.9</ele>
        <time>2025-10-13T23:36:42Z</time>
      </trkpt>
      <trkpt lat="39.16672113132148" lon="117.75585564611637">
        <ele>-5.7</ele>
        <time>2025-10-13T23:36:44Z</time>
      </trkpt>
      <trkpt lat="39.16667717611831" lon="117.75589869096855">
        <ele>-5.7</ele>
        <time>2025-10-13T23:36:46Z</time>
      </trkpt>
      <trkpt lat="39.16662623082947" lon="117.75595474871292">
        <ele>-5.7</ele>
        <time>2025-10-13T23:36:48Z</time>
      </trkpt>
      <trkpt lat="39.166572291402204" lon="117.75601981526698">
        <ele>-5.8</ele>
        <time>2025-10-13T23:36:50Z</time>
      </trkpt>
      <trkpt lat="39.166518354349535" lon="117.75608988664106">
        <ele>-5.8</ele>
        <time>2025-10-13T23:36:52Z</time>
      </trkpt>
      <trkpt lat="39.16646041940111" lon="117.7561589578356">
        <ele>-5.6</ele>
        <time>2025-10-13T23:36:54Z</time>
      </trkpt>
      <trkpt lat="39.16640148522143" lon="117.75622802938832">
        <ele>-5.6</ele>
        <time>2025-10-13T23:36:56Z</time>
      </trkpt>
      <trkpt lat="39.16633755463102" lon="117.75629810274157">
        <ele>-5.6</ele>
        <time>2025-10-13T23:36:58Z</time>
      </trkpt>
      <trkpt lat="39.166270626907234" lon="117.75637017858745">
        <ele>-5.9</ele>
        <time>2025-10-13T23:37:00Z</time>
      </trkpt>
      <trkpt lat="39.166201700103855" lon="117.7564412539989">
        <ele>-5.9</ele>
        <time>2025-10-13T23:37:02Z</time>
      </trkpt>
      <trkpt lat="39.16613477184359" lon="117.75651132845628">
        <ele>-6.3</ele>
        <time>2025-10-13T23:37:04Z</time>
      </trkpt>
      <trkpt lat="39.16606684481918" lon="117.7565824042251">
        <ele>-6.3</ele>
        <time>2025-10-13T23:37:06Z</time>
      </trkpt>
      <trkpt lat="39.16600091679673" lon="117.75665347998323">
        <ele>-6.3</ele>
        <time>2025-10-13T23:37:08Z</time>
      </trkpt>
      <trkpt lat="39.165934987093436" lon="117.75672055217024">
        <ele>-6.2</ele>
        <time>2025-10-13T23:37:10Z</time>
      </trkpt>
      <trkpt lat="39.165871054963866" lon="117.75678462144928">
        <ele>-6.2</ele>
        <time>2025-10-13T23:37:12Z</time>
      </trkpt>
      <trkpt lat="39.16580812145064" lon="117.75684668887945">
        <ele>-6.2</ele>
        <time>2025-10-13T23:37:14Z</time>
      </trkpt>
      <trkpt lat="39.16574418819876" lon="117.75690775565992">
        <ele>-6.2</ele>
        <time>2025-10-13T23:37:16Z</time>
      </trkpt>
      <trkpt lat="39.16568025556078" lon="117.75696982358579">
        <ele>-6.2</ele>
        <time>2025-10-13T23:37:18Z</time>
      </trkpt>
      <trkpt lat="39.16561232543565" lon="117.75703189220643">
        <ele>-6.4</ele>
        <time>2025-10-13T23:37:20Z</time>
      </trkpt>
      <trkpt lat="39.16554139771154" lon="117.75709496236617">
        <ele>-6.4</ele>
        <time>2025-10-13T23:37:22Z</time>
      </trkpt>
      <trkpt lat="39.16546946783112" lon="117.75715202699703">
        <ele>-6.4</ele>
        <time>2025-10-13T23:37:24Z</time>
      </trkpt>
      <trkpt lat="39.1653995368863" lon="117.75720909153003">
        <ele>-6.4</ele>
        <time>2025-10-13T23:37:26Z</time>
      </trkpt>
      <trkpt lat="39.16533260331067" lon="117.757264153878">
        <ele>-6.4</ele>
        <time>2025-10-13T23:37:28Z</time>
      </trkpt>
      <trkpt lat="39.16526567131374" lon="117.75732221931955">
        <ele>-6.3</ele>
        <time>2025-10-13T23:37:30Z</time>
      </trkpt>
      <trkpt lat="39.16519773758015" lon="117.7573752801238">
        <ele>-6.3</ele>
        <time>2025-10-13T23:37:32Z</time>
      </trkpt>
      <trkpt lat="39.16512880257341" lon="117.75742433723993">
        <ele>-6.3</ele>
        <time>2025-10-13T23:37:34Z</time>
      </trkpt>
      <trkpt lat="39.165060866569185" lon="117.75747239335448">
        <ele>-6.3</ele>
        <time>2025-10-13T23:37:36Z</time>
      </trkpt>
      <trkpt lat="39.164991933228315" lon="117.75752445367641">
        <ele>-6.3</ele>
        <time>2025-10-13T23:37:38Z</time>
      </trkpt>
      <trkpt lat="39.16492200157725" lon="117.75757851624567">
        <ele>-6.3</ele>
        <time>2025-10-13T23:37:40Z</time>
      </trkpt>
      <trkpt lat="39.16485606716282" lon="117.75763157744854">
        <ele>-6.3</ele>
        <time>2025-10-13T23:37:42Z</time>
      </trkpt>
      <trkpt lat="39.164795127880105" lon="117.75768063415013">
        <ele>-6.3</ele>
        <time>2025-10-13T23:37:44Z</time>
      </trkpt>
      <trkpt lat="39.164737185396724" lon="117.75772668757878">
        <ele>-6.4</ele>
        <time>2025-10-13T23:37:46Z</time>
      </trkpt>
      <trkpt lat="39.16468123928014" lon="117.75776773583355">
        <ele>-6.4</ele>
        <time>2025-10-13T23:37:48Z</time>
      </trkpt>
      <trkpt lat="39.16462029467167" lon="117.75780578178754">
        <ele>-6.1</ele>
        <time>2025-10-13T23:37:50Z</time>
      </trkpt>
      <trkpt lat="39.164558347664055" lon="117.75783782189256">
        <ele>-6.1</ele>
        <time>2025-10-13T23:37:52Z</time>
      </trkpt>
      <trkpt lat="39.16449340349213" lon="117.75787186444667">
        <ele>-6.1</ele>
        <time>2025-10-13T23:37:54Z</time>
      </trkpt>
      <trkpt lat="39.164423465390676" lon="117.75791191375784">
        <ele>-6</ele>
        <time>2025-10-13T23:37:56Z</time>
      </trkpt>
      <trkpt lat="39.1643505322001" lon="117.75795796960608">
        <ele>-6</ele>
        <time>2025-10-13T23:37:58Z</time>
      </trkpt>
      <trkpt lat="39.164274600868204" lon="117.75800402593771">
        <ele>-6.1</ele>
        <time>2025-10-13T23:38:00Z</time>
      </trkpt>
      <trkpt lat="39.16420066688348" lon="117.75804707906363">
        <ele>-6.1</ele>
        <time>2025-10-13T23:38:02Z</time>
      </trkpt>
      <trkpt lat="39.16412673245151" lon="117.7580891312587">
        <ele>-6.1</ele>
        <time>2025-10-13T23:38:04Z</time>
      </trkpt>
      <trkpt lat="39.16405279808594" lon="117.75813118353838">
        <ele>-6</ele>
        <time>2025-10-13T23:38:06Z</time>
      </trkpt>
      <trkpt lat="39.163977865419724" lon="117.75817523807707">
        <ele>-6</ele>
        <time>2025-10-13T23:38:08Z</time>
      </trkpt>
      <trkpt lat="39.16390493111813" lon="117.75821829142829">
        <ele>-5.9</ele>
        <time>2025-10-13T23:38:10Z</time>
      </trkpt>
      <trkpt lat="39.16383099747925" lon="117.75826134499539">
        <ele>-5.9</ele>
        <time>2025-10-13T23:38:12Z</time>
      </trkpt>
      <trkpt lat="39.16375906272308" lon="117.75830439839656">
        <ele>-5.9</ele>
        <time>2025-10-13T23:38:14Z</time>
      </trkpt>
      <trkpt lat="39.16368712751008" lon="117.7583464508544">
        <ele>-6.2</ele>
        <time>2025-10-13T23:38:16Z</time>
      </trkpt>
      <trkpt lat="39.163615192363274" lon="117.75838850339672">
        <ele>-6.2</ele>
        <time>2025-10-13T23:38:18Z</time>
      </trkpt>
      <trkpt lat="39.16354525874193" lon="117.75843556094888">
        <ele>-6.3</ele>
        <time>2025-10-13T23:38:20Z</time>
      </trkpt>
      <trkpt lat="39.16347732401583" lon="117.75848261835225">
        <ele>-6.3</ele>
        <time>2025-10-13T23:38:22Z</time>
      </trkpt>
      <trkpt lat="39.163411387652054" lon="117.75852867456624">
        <ele>-6.3</ele>
        <time>2025-10-13T23:38:24Z</time>
      </trkpt>
      <trkpt lat="39.163349448458376" lon="117.7585737293297">
        <ele>-6.4</ele>
        <time>2025-10-13T23:38:26Z</time>
      </trkpt>
      <trkpt lat="39.163292506907965" lon="117.75861978459862">
        <ele>-6.4</ele>
        <time>2025-10-13T23:38:28Z</time>
      </trkpt>
      <trkpt lat="39.163239560373405" lon="117.75866083422477">
        <ele>-6.5</ele>
        <time>2025-10-13T23:38:30Z</time>
      </trkpt>
      <trkpt lat="39.16319061260461" lon="117.75870388552">
        <ele>-6.5</ele>
        <time>2025-10-13T23:38:32Z</time>
      </trkpt>
      <trkpt lat="39.16314066711942" lon="117.75874994018409">
        <ele>-6.5</ele>
        <time>2025-10-13T23:38:34Z</time>
      </trkpt>
      <trkpt lat="39.16308872778216" lon="117.75880500468567">
        <ele>-6.3</ele>
        <time>2025-10-13T23:38:36Z</time>
      </trkpt>
      <trkpt lat="39.16303179261333" lon="117.75886207208096">
        <ele>-6.3</ele>
        <time>2025-10-13T23:38:38Z</time>
      </trkpt>
      <trkpt lat="39.16297085775112" lon="117.75891513590399">
        <ele>-6.4</ele>
        <time>2025-10-13T23:38:40Z</time>
      </trkpt>
      <trkpt lat="39.16290892248865" lon="117.75896619786538">
        <ele>-6.4</ele>
        <time>2025-10-13T23:38:42Z</time>
      </trkpt>
      <trkpt lat="39.16284798782898" lon="117.75901926195152">
        <ele>-6.4</ele>
        <time>2025-10-13T23:38:44Z</time>
      </trkpt>
      <trkpt lat="39.16278605607602" lon="117.75907633056538">
        <ele>-6.2</ele>
        <time>2025-10-13T23:38:46Z</time>
      </trkpt>
      <trkpt lat="39.16272412721551" lon="117.75913840468189">
        <ele>-6.2</ele>
        <time>2025-10-13T23:38:48Z</time>
      </trkpt>
      <trkpt lat="39.16266219793854" lon="117.7591994779091">
        <ele>-6.2</ele>
        <time>2025-10-13T23:38:50Z</time>
      </trkpt>
      <trkpt lat="39.162599267154995" lon="117.75925654713942">
        <ele>-6.2</ele>
        <time>2025-10-13T23:38:52Z</time>
      </trkpt>
      <trkpt lat="39.16253332089551" lon="117.75928258351107">
        <ele>-6.2</ele>
        <time>2025-10-13T23:38:54Z</time>
      </trkpt>
      <trkpt lat="39.162468351101325" lon="117.75926757563943">
        <ele>-6</ele>
        <time>2025-10-13T23:38:56Z</time>
      </trkpt>
      <trkpt lat="39.16241135200963" lon="117.75920851950269">
        <ele>-6</ele>
        <time>2025-10-13T23:38:58Z</time>
      </trkpt>
      <trkpt lat="39.16236433656416" lon="117.75913044193481">
        <ele>-6.2</ele>
        <time>2025-10-13T23:39:00Z</time>
      </trkpt>
      <trkpt lat="39.16232031790293" lon="117.75904936107919">
        <ele>-6.2</ele>
        <time>2025-10-13T23:39:02Z</time>
      </trkpt>
      <trkpt lat="39.16227530062242" lon="117.7589692817257">
        <ele>-6.2</ele>
        <time>2025-10-13T23:39:04Z</time>
      </trkpt>
      <trkpt lat="39.162230283574345" lon="117.75888920267799">
        <ele>-6.4</ele>
        <time>2025-10-13T23:39:06Z</time>
      </trkpt>
      <trkpt lat="39.16218326740398" lon="117.75880812313683">
        <ele>-6.4</ele>
        <time>2025-10-13T23:39:08Z</time>
      </trkpt>
      <trkpt lat="39.162134252120346" lon="117.75872604311397">
        <ele>-6.4</ele>
        <time>2025-10-13T23:39:10Z</time>
      </trkpt>
      <trkpt lat="39.16208423821232" lon="117.75864496458618">
        <ele>-6.4</ele>
        <time>2025-10-13T23:39:12Z</time>
      </trkpt>
      <trkpt lat="39.162032224129575" lon="117.75856088350058">
        <ele>-6.4</ele>
        <time>2025-10-13T23:39:14Z</time>
      </trkpt>
      <trkpt lat="39.161979211959704" lon="117.75847880495638">
        <ele>-6.4</ele>
        <time>2025-10-13T23:39:16Z</time>
      </trkpt>
      <trkpt lat="39.161926200562974" lon="117.75839772776868">
        <ele>-6.4</ele>
        <time>2025-10-13T23:39:18Z</time>
      </trkpt>
      <trkpt lat="39.16187519031776" lon="117.7583206547629">
        <ele>-6.6</ele>
        <time>2025-10-13T23:39:20Z</time>
      </trkpt>
      <trkpt lat="39.161829180453125" lon="117.75824958756735">
        <ele>-6.6</ele>
        <time>2025-10-13T23:39:22Z</time>
      </trkpt>
      <trkpt lat="39.161787171516586" lon="117.75818452624806">
        <ele>-6.6</ele>
        <time>2025-10-13T23:39:24Z</time>
      </trkpt>
      <trkpt lat="39.161754162049" lon="117.75812847317651">
        <ele>-6.9</ele>
        <time>2025-10-13T23:39:26Z</time>
      </trkpt>
      <trkpt lat="39.16172115527706" lon="117.75807742534946">
        <ele>-6.9</ele>
        <time>2025-10-13T23:39:28Z</time>
      </trkpt>
      <trkpt lat="39.161692150855075" lon="117.75803538628836">
        <ele>-7.1</ele>
        <time>2025-10-13T23:39:32Z</time>
      </trkpt>
      <trkpt lat="39.16166114922597" lon="117.75799635061134">
        <ele>-7.1</ele>
        <time>2025-10-13T23:39:34Z</time>
      </trkpt>
      <trkpt lat="39.161633142287236" lon="117.75795030753486">
        <ele>-6.9</ele>
        <time>2025-10-13T23:39:36Z</time>
      </trkpt>
      <trkpt lat="39.161601132704384" lon="117.75789425496562">
        <ele>-6.9</ele>
        <time>2025-10-13T23:39:38Z</time>
      </trkpt>
      <trkpt lat="39.16156612095913" lon="117.75783019487116">
        <ele>-6.9</ele>
        <time>2025-10-13T23:39:40Z</time>
      </trkpt>
      <trkpt lat="39.161529111057135" lon="117.75776713623223">
        <ele>-6.7</ele>
        <time>2025-10-13T23:39:42Z</time>
      </trkpt>
      <trkpt lat="39.16149410212306" lon="117.75770808153402">
        <ele>-6.7</ele>
        <time>2025-10-13T23:39:44Z</time>
      </trkpt>
      <trkpt lat="39.16146009322286" lon="117.75765002787445">
        <ele>-6.9</ele>
        <time>2025-10-13T23:39:46Z</time>
      </trkpt>
      <trkpt lat="39.16142308473294" lon="117.75758897177212">
        <ele>-6.9</ele>
        <time>2025-10-13T23:39:48Z</time>
      </trkpt>
      <trkpt lat="39.16138107488559" lon="117.75751890755483">
        <ele>-6.9</ele>
        <time>2025-10-13T23:39:50Z</time>
      </trkpt>
      <trkpt lat="39.161344065701044" lon="117.75745584985933">
        <ele>-7</ele>
        <time>2025-10-13T23:39:52Z</time>
      </trkpt>
      <trkpt lat="39.16131605721213" lon="117.7574048030451">
        <ele>-7</ele>
        <time>2025-10-13T23:39:54Z</time>
      </trkpt>
      <trkpt lat="39.16130304627586" lon="117.75736676724479">
        <ele>-6.8</ele>
        <time>2025-10-13T23:39:56Z</time>
      </trkpt>
      <trkpt lat="39.16129903151061" lon="117.75733173331768">
        <ele>-6.8</ele>
        <time>2025-10-13T23:39:58Z</time>
      </trkpt>
      <trkpt lat="39.16130801882842" lon="117.75731671743203">
        <ele>-6.7</ele>
        <time>2025-10-13T23:40:02Z</time>
      </trkpt>
      <trkpt lat="39.16136795489144" lon="117.75725865290251">
        <ele>-6.8</ele>
        <time>2025-10-13T23:42:30Z</time>
      </trkpt>
      <trkpt lat="39.16133902487987" lon="117.75736676266332">
        <ele>-7.1</ele>
        <time>2025-10-13T23:42:37Z</time>
      </trkpt>
      <trkpt lat="39.16134006462349" lon="117.75744884344638">
        <ele>-6.9</ele>
        <time>2025-10-13T23:42:41Z</time>
      </trkpt>
      <trkpt lat="39.16137607389047" lon="117.75751090025621">
        <ele>-6.9</ele>
        <time>2025-10-13T23:42:43Z</time>
      </trkpt>
      <trkpt lat="39.16141708182084" lon="117.75757595959914">
        <ele>-6.8</ele>
        <time>2025-10-13T23:42:45Z</time>
      </trkpt>
      <trkpt lat="39.161464089343625" lon="117.75764702437051">
        <ele>-6.8</ele>
        <time>2025-10-13T23:42:47Z</time>
      </trkpt>
      <trkpt lat="39.16151209696018" lon="117.75771909025904">
        <ele>-6.8</ele>
        <time>2025-10-13T23:42:49Z</time>
      </trkpt>
      <trkpt lat="39.16156510888168" lon="117.75780516983768">
        <ele>-7</ele>
        <time>2025-10-13T23:42:51Z</time>
      </trkpt>
      <trkpt lat="39.161615121837485" lon="117.75788924813406">
        <ele>-7</ele>
        <time>2025-10-13T23:42:54Z</time>
      </trkpt>
      <trkpt lat="39.161658135623874" lon="117.75796632056439">
        <ele>-7.1</ele>
        <time>2025-10-13T23:42:56Z</time>
      </trkpt>
      <trkpt lat="39.16169314614374" lon="117.75802737802755">
        <ele>-7.1</ele>
        <time>2025-10-13T23:42:58Z</time>
      </trkpt>
      <trkpt lat="39.16173015096221" lon="117.75807942624206">
        <ele>-7.1</ele>
        <time>2025-10-13T23:43:00Z</time>
      </trkpt>
      <trkpt lat="39.161771154539615" lon="117.75813347612052">
        <ele>-7.1</ele>
        <time>2025-10-13T23:43:02Z</time>
      </trkpt>
      <trkpt lat="39.16181515852292" lon="117.75819152985437">
        <ele>-7.1</ele>
        <time>2025-10-13T23:43:04Z</time>
      </trkpt>
      <trkpt lat="39.16186316914184" lon="117.75826660070935">
        <ele>-6.9</ele>
        <time>2025-10-13T23:43:06Z</time>
      </trkpt>
      <trkpt lat="39.161913184565215" lon="117.75835268292991">
        <ele>-6.9</ele>
        <time>2025-10-13T23:43:08Z</time>
      </trkpt>
      <trkpt lat="39.16196819993554" lon="117.75844377005062">
        <ele>-6.8</ele>
        <time>2025-10-13T23:43:10Z</time>
      </trkpt>
      <trkpt lat="39.16202621649066" lon="117.75853986239122">
        <ele>-6.8</ele>
        <time>2025-10-13T23:43:12Z</time>
      </trkpt>
      <trkpt lat="39.162088231542036" lon="117.75863695570999">
        <ele>-6.8</ele>
        <time>2025-10-13T23:43:14Z</time>
      </trkpt>
      <trkpt lat="39.16214924915078" lon="117.75873705275774">
        <ele>-6.8</ele>
        <time>2025-10-13T23:43:16Z</time>
      </trkpt>
      <trkpt lat="39.162210268211275" lon="117.75883915239464">
        <ele>-6.8</ele>
        <time>2025-10-13T23:43:18Z</time>
      </trkpt>
      <trkpt lat="39.16227128874547" lon="117.75894325464964">
        <ele>-6.9</ele>
        <time>2025-10-13T23:43:20Z</time>
      </trkpt>
      <trkpt lat="39.16233031417006" lon="117.75905336406872">
        <ele>-6.9</ele>
        <time>2025-10-13T23:43:22Z</time>
      </trkpt>
      <trkpt lat="39.1623883389608" lon="117.75916047098056">
        <ele>-6.9</ele>
        <time>2025-10-13T23:43:24Z</time>
      </trkpt>
      <trkpt lat="39.162439365527305" lon="117.75926257395108">
        <ele>-6.7</ele>
        <time>2025-10-13T23:43:26Z</time>
      </trkpt>
      <trkpt lat="39.16247938606539" lon="117.7593416539801">
        <ele>-6.7</ele>
        <time>2025-10-13T23:43:28Z</time>
      </trkpt>
      <trkpt lat="39.162511402545704" lon="117.75940471800108">
        <ele>-6.9</ele>
        <time>2025-10-13T23:43:30Z</time>
      </trkpt>
      <trkpt lat="39.16253841364324" lon="117.75945276657264">
        <ele>-6.9</ele>
        <time>2025-10-13T23:43:32Z</time>
      </trkpt>
      <trkpt lat="39.162567423068694" lon="117.75949981391261">
        <ele>-6.9</ele>
        <time>2025-10-13T23:43:34Z</time>
      </trkpt>
      <trkpt lat="39.162600425644015" lon="117.75953885213752">
        <ele>-6.9</ele>
        <time>2025-10-13T23:43:40Z</time>
      </trkpt>
      <trkpt lat="39.16264142809021" lon="117.75958589814309">
        <ele>-6.9</ele>
        <time>2025-10-13T23:43:42Z</time>
      </trkpt>
      <trkpt lat="39.16268943562639" lon="117.7596489608603">
        <ele>-6.9</ele>
        <time>2025-10-13T23:43:44Z</time>
      </trkpt>
      <trkpt lat="39.16274345183623" lon="117.75973304604942">
        <ele>-6.4</ele>
        <time>2025-10-13T23:43:46Z</time>
      </trkpt>
      <trkpt lat="39.16280047463284" lon="117.75983114662422">
        <ele>-6.4</ele>
        <time>2025-10-13T23:43:48Z</time>
      </trkpt>
      <trkpt lat="39.162862498891506" lon="117.75993625477126">
        <ele>-6.4</ele>
        <time>2025-10-13T23:43:50Z</time>
      </trkpt>
      <trkpt lat="39.16292752411661" lon="117.76004536751088">
        <ele>-6.4</ele>
        <time>2025-10-13T23:43:52Z</time>
      </trkpt>
      <trkpt lat="39.16299355154243" lon="117.76015848515922">
        <ele>-6.4</ele>
        <time>2025-10-13T23:43:54Z</time>
      </trkpt>
      <trkpt lat="39.16306157943249" lon="117.76027360540569">
        <ele>-6.4</ele>
        <time>2025-10-13T23:43:56Z</time>
      </trkpt>
      <trkpt lat="39.163130608404934" lon="117.76039072840975">
        <ele>-6.4</ele>
        <time>2025-10-13T23:43:58Z</time>
      </trkpt>
      <trkpt lat="39.16320063546471" lon="117.76050484853096">
        <ele>-6.5</ele>
        <time>2025-10-13T23:44:00Z</time>
      </trkpt>
      <trkpt lat="39.163270663600116" lon="117.76061997040695">
        <ele>-6.5</ele>
        <time>2025-10-13T23:44:02Z</time>
      </trkpt>
      <trkpt lat="39.16334069343531" lon="117.76073709519905">
        <ele>-6.5</ele>
        <time>2025-10-13T23:44:04Z</time>
      </trkpt>
      <trkpt lat="39.16340972435565" lon="117.760854220765">
        <ele>-6.5</ele>
        <time>2025-10-13T23:44:06Z</time>
      </trkpt>
      <trkpt lat="39.16347775387869" lon="117.76096734247855">
        <ele>-6.5</ele>
        <time>2025-10-13T23:44:08Z</time>
      </trkpt>
      <trkpt lat="39.16354678201731" lon="117.76107846234386">
        <ele>-6.5</ele>
        <time>2025-10-13T23:44:10Z</time>
      </trkpt>
      <trkpt lat="39.16361580934091" lon="117.76118758045631">
        <ele>-6.5</ele>
        <time>2025-10-13T23:44:12Z</time>
      </trkpt>
      <trkpt lat="39.16368183887027" lon="117.7612966995099">
        <ele>-6.5</ele>
        <time>2025-10-13T23:44:14Z</time>
      </trkpt>
      <trkpt lat="39.1637458706475" lon="117.76140682055394">
        <ele>-6.6</ele>
        <time>2025-10-13T23:44:16Z</time>
      </trkpt>
      <trkpt lat="39.16380990349718" lon="117.76151794334908">
        <ele>-6.6</ele>
        <time>2025-10-13T23:44:18Z</time>
      </trkpt>
      <trkpt lat="39.16387393743081" lon="117.76163006791049">
        <ele>-6.6</ele>
        <time>2025-10-13T23:44:20Z</time>
      </trkpt>
      <trkpt lat="39.16393897121865" lon="117.7617421929335">
        <ele>-6.7</ele>
        <time>2025-10-13T23:44:22Z</time>
      </trkpt>
      <trkpt lat="39.16400200598826" lon="117.7618533176013">
        <ele>-6.7</ele>
        <time>2025-10-13T23:44:24Z</time>
      </trkpt>
      <trkpt lat="39.16406403982245" lon="117.76196143936453">
        <ele>-6.8</ele>
        <time>2025-10-13T23:44:26Z</time>
      </trkpt>
      <trkpt lat="39.164127073478525" lon="117.76206956154672">
        <ele>-6.8</ele>
        <time>2025-10-13T23:44:28Z</time>
      </trkpt>
      <trkpt lat="39.16419110761967" lon="117.76217868536057">
        <ele>-6.8</ele>
        <time>2025-10-13T23:44:30Z</time>
      </trkpt>
      <trkpt lat="39.16425714099668" lon="117.76228780947545">
        <ele>-7</ele>
        <time>2025-10-13T23:44:32Z</time>
      </trkpt>
      <trkpt lat="39.16432417286027" lon="117.76239493157155">
        <ele>-7</ele>
        <time>2025-10-13T23:44:34Z</time>
      </trkpt>
      <trkpt lat="39.164392205886955" lon="117.76250405653141">
        <ele>-7</ele>
        <time>2025-10-13T23:44:36Z</time>
      </trkpt>
      <trkpt lat="39.16445923992809" lon="117.76261318217254">
        <ele>-7</ele>
        <time>2025-10-13T23:44:38Z</time>
      </trkpt>
      <trkpt lat="39.16452427557629" lon="117.76272230862172">
        <ele>-7</ele>
        <time>2025-10-13T23:44:40Z</time>
      </trkpt>
      <trkpt lat="39.164589309585715" lon="117.76282843189361">
        <ele>-7</ele>
        <time>2025-10-13T23:44:42Z</time>
      </trkpt>
      <trkpt lat="39.16465534270948" lon="117.7629335543127">
        <ele>-7</ele>
        <time>2025-10-13T23:44:44Z</time>
      </trkpt>
      <trkpt lat="39.16471937810268" lon="117.76303967875184">
        <ele>-6.8</ele>
        <time>2025-10-13T23:44:46Z</time>
      </trkpt>
      <trkpt lat="39.164780415671444" lon="117.7631458040944">
        <ele>-6.8</ele>
        <time>2025-10-13T23:44:48Z</time>
      </trkpt>
      <trkpt lat="39.164842448135666" lon="117.76324492099093">
        <ele>-6.8</ele>
        <time>2025-10-13T23:44:50Z</time>
      </trkpt>
      <trkpt lat="39.164910456269766" lon="117.76331399958016">
        <ele>-6.9</ele>
        <time>2025-10-13T23:44:52Z</time>
      </trkpt>
      <trkpt lat="39.16498242484118" lon="117.76333001068285">
        <ele>-6.9</ele>
        <time>2025-10-13T23:44:54Z</time>
      </trkpt>
      <trkpt lat="39.16505635494667" lon="117.76329295443534">
        <ele>-6.9</ele>
        <time>2025-10-13T23:44:56Z</time>
      </trkpt>
      <trkpt lat="39.16512626784877" lon="117.76322786340734">
        <ele>-6.9</ele>
        <time>2025-10-13T23:44:58Z</time>
      </trkpt>
      <trkpt lat="39.16519617671313" lon="117.76315676502226">
        <ele>-6.9</ele>
        <time>2025-10-13T23:45:00Z</time>
      </trkpt>
      <trkpt lat="39.16527008547194" lon="117.7630886701283">
        <ele>-6.9</ele>
        <time>2025-10-13T23:45:02Z</time>
      </trkpt>
      <trkpt lat="39.16534698984512" lon="117.7630165700581">
        <ele>-6.9</ele>
        <time>2025-10-13T23:45:04Z</time>
      </trkpt>
      <trkpt lat="39.16542689262497" lon="117.76294446984679">
        <ele>-6.8</ele>
        <time>2025-10-13T23:45:06Z</time>
      </trkpt>
      <trkpt lat="39.16550979381188" lon="117.76287236949449">
        <ele>-6.8</ele>
        <time>2025-10-13T23:45:08Z</time>
      </trkpt>
      <trkpt lat="39.1655946967407" lon="117.76280427409739">
        <ele>-6.8</ele>
        <time>2025-10-13T23:45:10Z</time>
      </trkpt>
      <trkpt lat="39.165681600699735" lon="117.76273918237837">
        <ele>-6.8</ele>
        <time>2025-10-13T23:45:12Z</time>
      </trkpt>
      <trkpt lat="39.16576850412986" lon="117.7626730896195">
        <ele>-6.8</ele>
        <time>2025-10-13T23:45:14Z</time>
      </trkpt>
      <trkpt lat="39.16585540907392" lon="117.76260899952959">
        <ele>-6.7</ele>
        <time>2025-10-13T23:45:16Z</time>
      </trkpt>
      <trkpt lat="39.165942314165605" lon="117.76254490963024">
        <ele>-6.7</ele>
        <time>2025-10-13T23:45:18Z</time>
      </trkpt>
      <trkpt lat="39.16602922210179" lon="117.76248482483103">
        <ele>-6.7</ele>
        <time>2025-10-13T23:45:20Z</time>
      </trkpt>
      <trkpt lat="39.16611613218483" lon="117.7624277438737">
        <ele>-6.8</ele>
        <time>2025-10-13T23:45:22Z</time>
      </trkpt>
      <trkpt lat="39.166203045067036" lon="117.76237466795668">
        <ele>-6.8</ele>
        <time>2025-10-13T23:45:24Z</time>
      </trkpt>
      <trkpt lat="39.16628795990484" lon="117.76232259364487">
        <ele>-7</ele>
        <time>2025-10-13T23:45:26Z</time>
      </trkpt>
      <trkpt lat="39.16637387291559" lon="117.76226851689701">
        <ele>-7</ele>
        <time>2025-10-13T23:45:28Z</time>
      </trkpt>
      <trkpt lat="39.166458785295426" lon="117.76221243798274">
        <ele>-7</ele>
        <time>2025-10-13T23:45:30Z</time>
      </trkpt>
      <trkpt lat="39.166544698522415" lon="117.762158361512">
        <ele>-7.1</ele>
        <time>2025-10-13T23:45:32Z</time>
      </trkpt>
      <trkpt lat="39.166628615022724" lon="117.76210728906119">
        <ele>-7.1</ele>
        <time>2025-10-13T23:45:34Z</time>
      </trkpt>
      <trkpt lat="39.16671453307057" lon="117.76206022130768">
        <ele>-6.8</ele>
        <time>2025-10-13T23:45:36Z</time>
      </trkpt>
      <trkpt lat="39.166798454356964" lon="117.76201615752844">
        <ele>-6.8</ele>
        <time>2025-10-13T23:45:38Z</time>
      </trkpt>
      <trkpt lat="39.16687937880354" lon="117.7619740966285">
        <ele>-6.8</ele>
        <time>2025-10-13T23:45:40Z</time>
      </trkpt>
      <trkpt lat="39.16695431014185" lon="117.76193704258337">
        <ele>-6.9</ele>
        <time>2025-10-13T23:45:42Z</time>
      </trkpt>
      <trkpt lat="39.16702524520642" lon="117.76190199151162">
        <ele>-6.9</ele>
        <time>2025-10-13T23:45:44Z</time>
      </trkpt>
      <trkpt lat="39.16709118458147" lon="117.76186894353064">
        <ele>-6.9</ele>
        <time>2025-10-13T23:45:46Z</time>
      </trkpt>
      <trkpt lat="39.16715912151044" lon="117.76183389295186">
        <ele>-6.9</ele>
        <time>2025-10-13T23:45:48Z</time>
      </trkpt>
      <trkpt lat="39.167232057475275" lon="117.76180184538077">
        <ele>-6.9</ele>
        <time>2025-10-13T23:45:50Z</time>
      </trkpt>
      <trkpt lat="39.1673099905191" lon="117.76176979722142">
        <ele>-7.1</ele>
        <time>2025-10-13T23:45:52Z</time>
      </trkpt>
      <trkpt lat="39.16738992112243" lon="117.76173574647038">
        <ele>-7.1</ele>
        <time>2025-10-13T23:45:54Z</time>
      </trkpt>
      <trkpt lat="39.16746884848253" lon="117.76169568875599">
        <ele>-7.4</ele>
        <time>2025-10-13T23:45:56Z</time>
      </trkpt>
      <trkpt lat="39.167542776281685" lon="117.76165162699809">
        <ele>-7.4</ele>
        <time>2025-10-13T23:45:58Z</time>
      </trkpt>
      <trkpt lat="39.167607710121246" lon="117.76160856766252">
        <ele>-7.4</ele>
        <time>2025-10-13T23:46:00Z</time>
      </trkpt>
      <trkpt lat="39.16766965093863" lon="117.76157351827315">
        <ele>-7.4</ele>
        <time>2025-10-13T23:46:02Z</time>
      </trkpt>
      <trkpt lat="39.16773359189931" lon="117.76154047105334">
        <ele>-7.4</ele>
        <time>2025-10-13T23:46:04Z</time>
      </trkpt>
      <trkpt lat="39.16780652181944" lon="117.76149841210497">
        <ele>-7.4</ele>
        <time>2025-10-13T23:46:06Z</time>
      </trkpt>
      <trkpt lat="39.16788344051133" lon="117.76144233622314">
        <ele>-7.4</ele>
        <time>2025-10-13T23:46:08Z</time>
      </trkpt>
      <trkpt lat="39.16796435250404" lon="117.76137925174773">
        <ele>-7.4</ele>
        <time>2025-10-13T23:46:10Z</time>
      </trkpt>
      <trkpt lat="39.16804826223317" lon="117.76131516590418">
        <ele>-7.4</ele>
        <time>2025-10-13T23:46:12Z</time>
      </trkpt>
      <trkpt lat="39.168135167184126" lon="117.761246074023">
        <ele>-7.4</ele>
        <time>2025-10-13T23:46:14Z</time>
      </trkpt>
      <trkpt lat="39.16822107038809" lon="117.76117297782804">
        <ele>-7.6</ele>
        <time>2025-10-13T23:46:16Z</time>
      </trkpt>
      <trkpt lat="39.16830297365079" lon="117.7610958777424">
        <ele>-7.6</ele>
        <time>2025-10-13T23:46:18Z</time>
      </trkpt>
      <trkpt lat="39.168381877035586" lon="117.76101577484121">
        <ele>-7.6</ele>
        <time>2025-10-13T23:46:20Z</time>
      </trkpt>
      <trkpt lat="39.16845777932966" lon="117.76093066684903">
        <ele>-7.7</ele>
        <time>2025-10-13T23:46:22Z</time>
      </trkpt>
      <trkpt lat="39.16853467944473" lon="117.7608425556182">
        <ele>-7.7</ele>
        <time>2025-10-13T23:46:24Z</time>
      </trkpt>
      <trkpt lat="39.16861057920487" lon="117.76075244258709">
        <ele>-7.7</ele>
        <time>2025-10-13T23:46:26Z</time>
      </trkpt>
      <trkpt lat="39.16868447922082" lon="117.76066032790871">
        <ele>-7.7</ele>
        <time>2025-10-13T23:46:28Z</time>
      </trkpt>
      <trkpt lat="39.16875538070977" lon="117.76056721287418">
        <ele>-7.7</ele>
        <time>2025-10-13T23:46:30Z</time>
      </trkpt>
      <trkpt lat="39.168824283090366" lon="117.76047309736973">
        <ele>-7.7</ele>
        <time>2025-10-13T23:46:32Z</time>
      </trkpt>
      <trkpt lat="39.168891185773404" lon="117.76037698028031">
        <ele>-7.7</ele>
        <time>2025-10-13T23:46:34Z</time>
      </trkpt>
      <trkpt lat="39.168955091754384" lon="117.76028286625696">
        <ele>-7.7</ele>
        <time>2025-10-13T23:46:36Z</time>
      </trkpt>
      <trkpt lat="39.16901800991119" lon="117.76020777406185">
        <ele>-7.9</ele>
        <time>2025-10-13T23:46:38Z</time>
      </trkpt>
      <trkpt lat="39.16907195250933" lon="117.76016471904795">
        <ele>-7.9</ele>
        <time>2025-10-13T23:46:40Z</time>
      </trkpt>
      <trkpt lat="39.16911892117479" lon="117.76015870635591">
        <ele>-8</ele>
        <time>2025-10-13T23:46:42Z</time>
      </trkpt>
      <trkpt lat="39.16915791291925" lon="117.76018372936394">
        <ele>-8</ele>
        <time>2025-10-13T23:46:44Z</time>
      </trkpt>
      <trkpt lat="39.16919991241106" lon="117.76022476995611">
        <ele>-8</ele>
        <time>2025-10-13T23:46:46Z</time>
      </trkpt>
      <trkpt lat="39.16924790425068" lon="117.76025880200217">
        <ele>-7.9</ele>
        <time>2025-10-13T23:46:48Z</time>
      </trkpt>
      <trkpt lat="39.16929787112613" lon="117.7602527889016">
        <ele>-7.9</ele>
        <time>2025-10-13T23:46:50Z</time>
      </trkpt>
      <trkpt lat="39.16934581483439" lon="117.76020573007699">
        <ele>-7.8</ele>
        <time>2025-10-13T23:46:52Z</time>
      </trkpt>
      <trkpt lat="39.16939075034542" lon="117.76014165273506">
        <ele>-7.8</ele>
        <time>2025-10-13T23:46:54Z</time>
      </trkpt>
      <trkpt lat="39.169438701316146" lon="117.76010660754386">
        <ele>-7.8</ele>
        <time>2025-10-13T23:46:56Z</time>
      </trkpt>
      <trkpt lat="39.16948767766494" lon="117.76011561135178">
        <ele>-8.1</ele>
        <time>2025-10-13T23:46:58Z</time>
      </trkpt>
      <trkpt lat="39.169534682983276" lon="117.7601716679535">
        <ele>-8.1</ele>
        <time>2025-10-13T23:47:00Z</time>
      </trkpt>
      <trkpt lat="39.169581700897" lon="117.76024874826685">
        <ele>-7.9</ele>
        <time>2025-10-13T23:47:02Z</time>
      </trkpt>
      <trkpt lat="39.16963272084417" lon="117.7603328362366">
        <ele>-7.9</ele>
        <time>2025-10-13T23:47:04Z</time>
      </trkpt>
      <trkpt lat="39.169685741666214" lon="117.76041992767777">
        <ele>-7.9</ele>
        <time>2025-10-13T23:47:06Z</time>
      </trkpt>
      <trkpt lat="39.169738761552864" lon="117.76050501720788">
        <ele>-7.8</ele>
        <time>2025-10-13T23:47:08Z</time>
      </trkpt>
      <trkpt lat="39.16979378112482" lon="117.76059110796402">
        <ele>-7.8</ele>
        <time>2025-10-13T23:47:10Z</time>
      </trkpt>
      <trkpt lat="39.16985079978119" lon="117.76067719881537">
        <ele>-7.8</ele>
        <time>2025-10-13T23:47:12Z</time>
      </trkpt>
      <trkpt lat="39.1699068217474" lon="117.76076729473134">
        <ele>-7.8</ele>
        <time>2025-10-13T23:47:14Z</time>
      </trkpt>
      <trkpt lat="39.16995984762678" lon="117.76086039486576">
        <ele>-7.8</ele>
        <time>2025-10-13T23:47:16Z</time>
      </trkpt>
      <trkpt lat="39.17001287629659" lon="117.7609575000321">
        <ele>-7.7</ele>
        <time>2025-10-13T23:47:18Z</time>
      </trkpt>
      <trkpt lat="39.17006790287507" lon="117.76105260306664">
        <ele>-7.7</ele>
        <time>2025-10-13T23:47:20Z</time>
      </trkpt>
      <trkpt lat="39.17012392855936" lon="117.76114670523441">
        <ele>-7.8</ele>
        <time>2025-10-13T23:47:22Z</time>
      </trkpt>
      <trkpt lat="39.17017795637179" lon="117.76124180924229">
        <ele>-7.8</ele>
        <time>2025-10-13T23:47:24Z</time>
      </trkpt>
      <trkpt lat="39.17022698872788" lon="117.76133891665913">
        <ele>-7.8</ele>
        <time>2025-10-13T23:47:26Z</time>
      </trkpt>
      <trkpt lat="39.170275022010806" lon="117.7614360246458">
        <ele>-7.8</ele>
        <time>2025-10-13T23:47:28Z</time>
      </trkpt>
      <trkpt lat="39.170323056910874" lon="117.76153513544104">
        <ele>-7.8</ele>
        <time>2025-10-13T23:47:30Z</time>
      </trkpt>
      <trkpt lat="39.17037309033509" lon="117.76163324525436">
        <ele>-7.8</ele>
        <time>2025-10-13T23:47:32Z</time>
      </trkpt>
      <trkpt lat="39.17042312604478" lon="117.76173435909581">
        <ele>-7.8</ele>
        <time>2025-10-13T23:47:34Z</time>
      </trkpt>
      <trkpt lat="39.17047016454092" lon="117.7618364749948">
        <ele>-7.8</ele>
        <time>2025-10-13T23:47:36Z</time>
      </trkpt>
      <trkpt lat="39.170514204523975" lon="117.76193759056109">
        <ele>-7.8</ele>
        <time>2025-10-13T23:47:38Z</time>
      </trkpt>
      <trkpt lat="39.17055724546013" lon="117.7620387067324">
        <ele>-7.8</ele>
        <time>2025-10-13T23:47:40Z</time>
      </trkpt>
      <trkpt lat="39.17059828793962" lon="117.76213982363561">
        <ele>-7.7</ele>
        <time>2025-10-13T23:47:42Z</time>
      </trkpt>
      <trkpt lat="39.17063933211242" lon="117.76224294344834">
        <ele>-7.7</ele>
        <time>2025-10-13T23:47:44Z</time>
      </trkpt>
      <trkpt lat="39.17068137740964" lon="117.76234806607184">
        <ele>-7.7</ele>
        <time>2025-10-13T23:47:46Z</time>
      </trkpt>
      <trkpt lat="39.17072542124325" lon="117.76245218772956">
        <ele>-7.6</ele>
        <time>2025-10-13T23:47:48Z</time>
      </trkpt>
      <trkpt lat="39.17076746731746" lon="117.76255731137726">
        <ele>-7.6</ele>
        <time>2025-10-13T23:47:50Z</time>
      </trkpt>
      <trkpt lat="39.17080551682387" lon="117.76266343728373">
        <ele>-7.7</ele>
        <time>2025-10-13T23:47:52Z</time>
      </trkpt>
      <trkpt lat="39.17084256731756" lon="117.76276956384079">
        <ele>-7.7</ele>
        <time>2025-10-13T23:47:54Z</time>
      </trkpt>
      <trkpt lat="39.170877619388556" lon="117.7628756911752">
        <ele>-7.7</ele>
        <time>2025-10-13T23:47:56Z</time>
      </trkpt>
      <trkpt lat="39.17091666534397" lon="117.76297581101996">
        <ele>-7.6</ele>
        <time>2025-10-13T23:47:58Z</time>
      </trkpt>
      <trkpt lat="39.17096969296411" lon="117.76306091072776">
        <ele>-7.6</ele>
        <time>2025-10-13T23:48:00Z</time>
      </trkpt>
      <trkpt lat="39.1710396864108" lon="117.76311096459656">
        <ele>-6.9</ele>
        <time>2025-10-13T23:48:02Z</time>
      </trkpt>
      <trkpt lat="39.171120641379694" lon="117.76311495931773">
        <ele>-6.9</ele>
        <time>2025-10-13T23:48:04Z</time>
      </trkpt>
      <trkpt lat="39.171196571467476" lon="117.76307890443148">
        <ele>-6.9</ele>
        <time>2025-10-13T23:48:06Z</time>
      </trkpt>
      <trkpt lat="39.17126850118885" lon="117.76303884510052">
        <ele>-6.4</ele>
        <time>2025-10-13T23:48:08Z</time>
      </trkpt>
      <trkpt lat="39.17133546372466" lon="117.76304184033596">
        <ele>-6.4</ele>
        <time>2025-10-13T23:48:10Z</time>
      </trkpt>
      <trkpt lat="39.17139746674082" lon="117.76309890397033">
        <ele>-6.4</ele>
        <time>2025-10-13T23:48:12Z</time>
      </trkpt>
      <trkpt lat="39.17145149904212" lon="117.76319101285834">
        <ele>-6.4</ele>
        <time>2025-10-13T23:48:14Z</time>
      </trkpt>
      <trkpt lat="39.17150053599741" lon="117.76328512530455">
        <ele>-6.4</ele>
        <time>2025-10-13T23:48:16Z</time>
      </trkpt>
      <trkpt lat="39.171564547484586" lon="117.76335520580697">
        <ele>-6.3</ele>
        <time>2025-10-13T23:48:18Z</time>
      </trkpt>
      <trkpt lat="39.17164252050095" lon="117.76338223013536">
        <ele>-6.3</ele>
        <time>2025-10-13T23:48:20Z</time>
      </trkpt>
      <trkpt lat="39.1717254553002" lon="117.76335919039498">
        <ele>-6.1</ele>
        <time>2025-10-13T23:48:22Z</time>
      </trkpt>
      <trkpt lat="39.171806368080944" lon="117.76330310914418">
        <ele>-6.1</ele>
        <time>2025-10-13T23:48:24Z</time>
      </trkpt>
      <trkpt lat="39.17188327702604" lon="117.76323801718243">
        <ele>-6.1</ele>
        <time>2025-10-13T23:48:26Z</time>
      </trkpt>
      <trkpt lat="39.17195818869898" lon="117.76317492819003">
        <ele>-5.9</ele>
        <time>2025-10-13T23:48:28Z</time>
      </trkpt>
      <trkpt lat="39.17203010855209" lon="117.76312085107563">
        <ele>-5.9</ele>
        <time>2025-10-13T23:48:30Z</time>
      </trkpt>
      <trkpt lat="39.172102037544875" lon="117.7630797904106">
        <ele>-5.9</ele>
        <time>2025-10-13T23:48:32Z</time>
      </trkpt>
      <trkpt lat="39.17217098919798" lon="117.76306876782625">
        <ele>-6.3</ele>
        <time>2025-10-13T23:48:34Z</time>
      </trkpt>
      <trkpt lat="39.17222397114421" lon="117.76308778493086">
        <ele>-6.3</ele>
        <time>2025-10-13T23:48:36Z</time>
      </trkpt>
      <trkpt lat="39.17226096463014" lon="117.76310980785777">
        <ele>-6.4</ele>
        <time>2025-10-13T23:48:38Z</time>
      </trkpt>
    </trkseg>
  </trk>
</gpx>