<?xml version="1.0" encoding="UTF-8"?>
<gpx xmlns="http://www.topografix.com/GPX/1/1" xmlns:gpxtpx="http://www.garmin.com/xmlschemas/TrackPointExtension/v1" xmlns:xsi="http://www.w3.org/2001/XMLSchema-instance" xsi:schemaLocation="http://www.topografix.com/GPX/1/1 http://www.topografix.com/GPX/1/1/gpx.xsd" version="1.1" creator="gpx.py -- https://github.com/tkrajina/gpxpy">
  <trk>
    <name>gpx from codoon</name>
    <type>Run</type>
    <trkseg>
      <trkpt lat="39.16556386057396" lon="117.76510878761131">
        <ele>5.2</ele>
        <time>2025-12-22T04:55:22Z</time>
      </trkpt>
      <trkpt lat="39.16554174224771" lon="117.76506987331202">
        <ele>5.2</ele>
        <time>2025-12-22T04:55:23Z</time>
      </trkpt>
      <trkpt lat="39.16553466225596" lon="117.76505769277051">
        <ele>5.2</ele>
        <time>2025-12-22T04:55:24Z</time>
      </trkpt>
      <trkpt lat="39.165520649125156" lon="117.76503322922781">
        <ele>5.2</ele>
        <time>2025-12-22T04:55:25Z</time>
      </trkpt>
      <trkpt lat="39.16550544219179" lon="117.7650075992487">
        <ele>4.9</ele>
        <time>2025-12-22T04:55:26Z</time>
      </trkpt>
      <trkpt lat="39.165489952649914" lon="117.76498186882962">
        <ele>4.9</ele>
        <time>2025-12-22T04:55:27Z</time>
      </trkpt>
      <trkpt lat="39.16547252038615" lon="117.76495291405573">
        <ele>4.9</ele>
        <time>2025-12-22T04:55:28Z</time>
      </trkpt>
      <trkpt lat="39.16545602276704" lon="117.76492501742482">
        <ele>4.9</ele>
        <time>2025-12-22T04:55:29Z</time>
      </trkpt>
      <trkpt lat="39.165439209968056" lon="117.76489580803664">
        <ele>4.9</ele>
        <time>2025-12-22T04:55:30Z</time>
      </trkpt>
      <trkpt lat="39.16542244140793" lon="117.76486621684789">
        <ele>4.7</ele>
        <time>2025-12-22T04:55:31Z</time>
      </trkpt>
      <trkpt lat="39.16540550339779" lon="117.76483632096635">
        <ele>4.7</ele>
        <time>2025-12-22T04:55:32Z</time>
      </trkpt>
      <trkpt lat="39.16538831584056" lon="117.76480651198203">
        <ele>4.7</ele>
        <time>2025-12-22T04:55:33Z</time>
      </trkpt>
      <trkpt lat="39.1653708954807" lon="117.76477670939715">
        <ele>4.7</ele>
        <time>2025-12-22T04:55:34Z</time>
      </trkpt>
      <trkpt lat="39.16535433943786" lon="117.76474748828694">
        <ele>4.7</ele>
        <time>2025-12-22T04:55:35Z</time>
      </trkpt>
      <trkpt lat="39.165337211158956" lon="117.7647157491394">
        <ele>4.2</ele>
        <time>2025-12-22T04:55:36Z</time>
      </trkpt>
      <trkpt lat="39.165321502936465" lon="117.76468630345283">
        <ele>4.2</ele>
        <time>2025-12-22T04:55:37Z</time>
      </trkpt>
      <trkpt lat="39.165305166531084" lon="117.7646564641523">
        <ele>4.2</ele>
        <time>2025-12-22T04:55:38Z</time>
      </trkpt>
      <trkpt lat="39.16528846072872" lon="117.76462684873981">
        <ele>4.2</ele>
        <time>2025-12-22T04:55:39Z</time>
      </trkpt>
      <trkpt lat="39.16527161063694" lon="117.764597493941">
        <ele>4.2</ele>
        <time>2025-12-22T04:55:40Z</time>
      </trkpt>
      <trkpt lat="39.165254609755785" lon="117.7645685162319">
        <ele>4.1</ele>
        <time>2025-12-22T04:55:41Z</time>
      </trkpt>
      <trkpt lat="39.16523687376986" lon="117.76453999199775">
        <ele>4.1</ele>
        <time>2025-12-22T04:55:42Z</time>
      </trkpt>
      <trkpt lat="39.16521949415966" lon="117.76451222796527">
        <ele>4.1</ele>
        <time>2025-12-22T04:55:43Z</time>
      </trkpt>
      <trkpt lat="39.165201592838386" lon="117.76448270021666">
        <ele>4.1</ele>
        <time>2025-12-22T04:55:44Z</time>
      </trkpt>
      <trkpt lat="39.16518640666857" lon="117.76445576592242">
        <ele>4.1</ele>
        <time>2025-12-22T04:55:45Z</time>
      </trkpt>
      <trkpt lat="39.16517176133857" lon="117.76442836627282">
        <ele>4</ele>
        <time>2025-12-22T04:55:46Z</time>
      </trkpt>
      <trkpt lat="39.16515733104361" lon="117.76440067983059">
        <ele>4</ele>
        <time>2025-12-22T04:55:47Z</time>
      </trkpt>
      <trkpt lat="39.16514261603777" lon="117.76437245926073">
        <ele>4</ele>
        <time>2025-12-22T04:55:48Z</time>
      </trkpt>
      <trkpt lat="39.16512758807443" lon="117.7643441639596">
        <ele>4</ele>
        <time>2025-12-22T04:55:49Z</time>
      </trkpt>
      <trkpt lat="39.165112458081374" lon="117.7643154349105">
        <ele>4</ele>
        <time>2025-12-22T04:55:50Z</time>
      </trkpt>
      <trkpt lat="39.16509762471634" lon="117.76428723160936">
        <ele>4.1</ele>
        <time>2025-12-22T04:55:51Z</time>
      </trkpt>
      <trkpt lat="39.1650817159338" lon="117.76425677021027">
        <ele>4.1</ele>
        <time>2025-12-22T04:55:52Z</time>
      </trkpt>
      <trkpt lat="39.165067344008754" lon="117.76422915368862">
        <ele>4.1</ele>
        <time>2025-12-22T04:55:53Z</time>
      </trkpt>
      <trkpt lat="39.16505288300643" lon="117.76420164771596">
        <ele>4.1</ele>
        <time>2025-12-22T04:55:54Z</time>
      </trkpt>
      <trkpt lat="39.16503831798149" lon="117.7641749209096">
        <ele>4.1</ele>
        <time>2025-12-22T04:55:55Z</time>
      </trkpt>
      <trkpt lat="39.16502330484302" lon="117.76414878669998">
        <ele>4.2</ele>
        <time>2025-12-22T04:55:56Z</time>
      </trkpt>
      <trkpt lat="39.16500806080675" lon="117.76412294045376">
        <ele>4.2</ele>
        <time>2025-12-22T04:55:57Z</time>
      </trkpt>
      <trkpt lat="39.16499388253418" lon="117.7640991273524">
        <ele>4.2</ele>
        <time>2025-12-22T04:55:58Z</time>
      </trkpt>
      <trkpt lat="39.16498036254987" lon="117.76407534687175">
        <ele>4.2</ele>
        <time>2025-12-22T04:55:59Z</time>
      </trkpt>
      <trkpt lat="39.16496670370189" lon="117.76404935598704">
        <ele>4.2</ele>
        <time>2025-12-22T04:56:00Z</time>
      </trkpt>
      <trkpt lat="39.16495446677543" lon="117.76402333808417">
        <ele>4.2</ele>
        <time>2025-12-22T04:56:01Z</time>
      </trkpt>
      <trkpt lat="39.16494320164028" lon="117.7639968534922">
        <ele>4.2</ele>
        <time>2025-12-22T04:56:02Z</time>
      </trkpt>
      <trkpt lat="39.16493333816585" lon="117.7639697324215">
        <ele>4.2</ele>
        <time>2025-12-22T04:56:03Z</time>
      </trkpt>
      <trkpt lat="39.16492548020961" lon="117.76394218552204">
        <ele>4.2</ele>
        <time>2025-12-22T04:56:04Z</time>
      </trkpt>
      <trkpt lat="39.16492023781071" lon="117.76391453309078">
        <ele>4.2</ele>
        <time>2025-12-22T04:56:05Z</time>
      </trkpt>
      <trkpt lat="39.16491971201211" lon="117.76388723095968">
        <ele>4.3</ele>
        <time>2025-12-22T04:56:06Z</time>
      </trkpt>
      <trkpt lat="39.16492411519327" lon="117.76386163914015">
        <ele>4.3</ele>
        <time>2025-12-22T04:56:07Z</time>
      </trkpt>
      <trkpt lat="39.164933880871125" lon="117.7638391998642">
        <ele>4.3</ele>
        <time>2025-12-22T04:56:08Z</time>
      </trkpt>
      <trkpt lat="39.164949213198845" lon="117.763820617192">
        <ele>4.3</ele>
        <time>2025-12-22T04:56:09Z</time>
      </trkpt>
      <trkpt lat="39.164966489237166" lon="117.7638041716033">
        <ele>4.3</ele>
        <time>2025-12-22T04:56:10Z</time>
      </trkpt>
      <trkpt lat="39.16498409088852" lon="117.76378781755112">
        <ele>4.6</ele>
        <time>2025-12-22T04:56:11Z</time>
      </trkpt>
      <trkpt lat="39.16500230378839" lon="117.76377135225029">
        <ele>4.6</ele>
        <time>2025-12-22T04:56:12Z</time>
      </trkpt>
      <trkpt lat="39.16502077547099" lon="117.76375494950555">
        <ele>4.6</ele>
        <time>2025-12-22T04:56:13Z</time>
      </trkpt>
      <trkpt lat="39.165042077582584" lon="117.76373816309133">
        <ele>4.6</ele>
        <time>2025-12-22T04:56:14Z</time>
      </trkpt>
      <trkpt lat="39.165061971190944" lon="117.7637225961915">
        <ele>4.6</ele>
        <time>2025-12-22T04:56:15Z</time>
      </trkpt>
      <trkpt lat="39.16508225071426" lon="117.76370605414498">
        <ele>5</ele>
        <time>2025-12-22T04:56:16Z</time>
      </trkpt>
      <trkpt lat="39.16510180530071" lon="117.76368744968318">
        <ele>5</ele>
        <time>2025-12-22T04:56:17Z</time>
      </trkpt>
      <trkpt lat="39.16512087757542" lon="117.76366832675494">
        <ele>5</ele>
        <time>2025-12-22T04:56:18Z</time>
      </trkpt>
      <trkpt lat="39.16513906469015" lon="117.76364884909724">
        <ele>5</ele>
        <time>2025-12-22T04:56:19Z</time>
      </trkpt>
      <trkpt lat="39.16515661069778" lon="117.76362889560917">
        <ele>5</ele>
        <time>2025-12-22T04:56:20Z</time>
      </trkpt>
      <trkpt lat="39.165173781121744" lon="117.76360862229862">
        <ele>5.3</ele>
        <time>2025-12-22T04:56:21Z</time>
      </trkpt>
      <trkpt lat="39.16519108506127" lon="117.76358847504046">
        <ele>5.3</ele>
        <time>2025-12-22T04:56:22Z</time>
      </trkpt>
      <trkpt lat="39.165208825322665" lon="117.7635694445115">
        <ele>5.3</ele>
        <time>2025-12-22T04:56:23Z</time>
      </trkpt>
      <trkpt lat="39.165226147513216" lon="117.76355230074981">
        <ele>5.3</ele>
        <time>2025-12-22T04:56:24Z</time>
      </trkpt>
      <trkpt lat="39.16524260537638" lon="117.76353720667629">
        <ele>5.3</ele>
        <time>2025-12-22T04:56:25Z</time>
      </trkpt>
      <trkpt lat="39.16525600788533" lon="117.76352594037333">
        <ele>5.2</ele>
        <time>2025-12-22T04:56:26Z</time>
      </trkpt>
      <trkpt lat="39.16526844743601" lon="117.76351630371396">
        <ele>5.2</ele>
        <time>2025-12-22T04:56:27Z</time>
      </trkpt>
      <trkpt lat="39.165280071239565" lon="117.76350782924153">
        <ele>5.2</ele>
        <time>2025-12-22T04:56:28Z</time>
      </trkpt>
      <trkpt lat="39.16529092444194" lon="117.76349924340194">
        <ele>5.2</ele>
        <time>2025-12-22T04:56:29Z</time>
      </trkpt>
      <trkpt lat="39.1653011283417" lon="117.7634895904746">
        <ele>5.2</ele>
        <time>2025-12-22T04:56:30Z</time>
      </trkpt>
      <trkpt lat="39.16531067432819" lon="117.76347801796747">
        <ele>5.2</ele>
        <time>2025-12-22T04:56:31Z</time>
      </trkpt>
      <trkpt lat="39.165319152421574" lon="117.76346648487548">
        <ele>5.2</ele>
        <time>2025-12-22T04:56:32Z</time>
      </trkpt>
      <trkpt lat="39.16532749113747" lon="117.76345311604253">
        <ele>5.2</ele>
        <time>2025-12-22T04:56:33Z</time>
      </trkpt>
      <trkpt lat="39.16533635061444" lon="117.76343889225456">
        <ele>5.2</ele>
        <time>2025-12-22T04:56:34Z</time>
      </trkpt>
      <trkpt lat="39.165347203679985" lon="117.76342186936547">
        <ele>5.2</ele>
        <time>2025-12-22T04:56:35Z</time>
      </trkpt>
      <trkpt lat="39.16536090723625" lon="117.76340372019266">
        <ele>5.2</ele>
        <time>2025-12-22T04:56:36Z</time>
      </trkpt>
      <trkpt lat="39.16537851888167" lon="117.76338461263346">
        <ele>5.2</ele>
        <time>2025-12-22T04:56:37Z</time>
      </trkpt>
      <trkpt lat="39.165402404777794" lon="117.76336335944117">
        <ele>5.2</ele>
        <time>2025-12-22T04:56:38Z</time>
      </trkpt>
      <trkpt lat="39.16542931986551" lon="117.76334216825289">
        <ele>5.2</ele>
        <time>2025-12-22T04:56:39Z</time>
      </trkpt>
      <trkpt lat="39.16545749904275" lon="117.76332053908169">
        <ele>5.2</ele>
        <time>2025-12-22T04:56:40Z</time>
      </trkpt>
      <trkpt lat="39.165486015024946" lon="117.76329900668927">
        <ele>5.2</ele>
        <time>2025-12-22T04:56:41Z</time>
      </trkpt>
      <trkpt lat="39.165513545953985" lon="117.7632774962458">
        <ele>5.2</ele>
        <time>2025-12-22T04:56:42Z</time>
      </trkpt>
      <trkpt lat="39.16554257645417" lon="117.76325442164033">
        <ele>5.2</ele>
        <time>2025-12-22T04:56:43Z</time>
      </trkpt>
      <trkpt lat="39.165568836698746" lon="117.76323295464202">
        <ele>5.2</ele>
        <time>2025-12-22T04:56:44Z</time>
      </trkpt>
      <trkpt lat="39.16559721432537" lon="117.7632103512353">
        <ele>5.2</ele>
        <time>2025-12-22T04:56:45Z</time>
      </trkpt>
      <trkpt lat="39.16562365539586" lon="117.7631897196795">
        <ele>5.2</ele>
        <time>2025-12-22T04:56:46Z</time>
      </trkpt>
      <trkpt lat="39.16565023907405" lon="117.76316924237476">
        <ele>5.2</ele>
        <time>2025-12-22T04:56:47Z</time>
      </trkpt>
      <trkpt lat="39.16567702588768" lon="117.76314886803159">
        <ele>5.2</ele>
        <time>2025-12-22T04:56:48Z</time>
      </trkpt>
      <trkpt lat="39.16570336430835" lon="117.76312925591508">
        <ele>5.2</ele>
        <time>2025-12-22T04:56:49Z</time>
      </trkpt>
      <trkpt lat="39.16573159885011" lon="117.76310884063153">
        <ele>5.2</ele>
        <time>2025-12-22T04:56:50Z</time>
      </trkpt>
      <trkpt lat="39.16575754035767" lon="117.763090583263">
        <ele>5</ele>
        <time>2025-12-22T04:56:51Z</time>
      </trkpt>
      <trkpt lat="39.165783557441756" lon="117.76307228855029">
        <ele>5</ele>
        <time>2025-12-22T04:56:52Z</time>
      </trkpt>
      <trkpt lat="39.1658092319401" lon="117.76305399468188">
        <ele>5</ele>
        <time>2025-12-22T04:56:53Z</time>
      </trkpt>
      <trkpt lat="39.16583487413186" lon="117.76303567449277">
        <ele>5</ele>
        <time>2025-12-22T04:56:54Z</time>
      </trkpt>
      <trkpt lat="39.165860685948324" lon="117.76301732293074">
        <ele>5</ele>
        <time>2025-12-22T04:56:55Z</time>
      </trkpt>
      <trkpt lat="39.16588639508545" lon="117.76299911728053">
        <ele>4.8</ele>
        <time>2025-12-22T04:56:56Z</time>
      </trkpt>
      <trkpt lat="39.165912038849505" lon="117.76298095669564">
        <ele>4.8</ele>
        <time>2025-12-22T04:56:57Z</time>
      </trkpt>
      <trkpt lat="39.165937121471835" lon="117.76296264807807">
        <ele>4.8</ele>
        <time>2025-12-22T04:56:58Z</time>
      </trkpt>
      <trkpt lat="39.16596206098137" lon="117.76294380003993">
        <ele>4.8</ele>
        <time>2025-12-22T04:56:59Z</time>
      </trkpt>
      <trkpt lat="39.165986618825144" lon="117.76292512781414">
        <ele>4.8</ele>
        <time>2025-12-22T04:57:00Z</time>
      </trkpt>
      <trkpt lat="39.16601163155412" lon="117.76290664390733">
        <ele>4.8</ele>
        <time>2025-12-22T04:57:01Z</time>
      </trkpt>
      <trkpt lat="39.166034897801445" lon="117.76289016104086">
        <ele>4.8</ele>
        <time>2025-12-22T04:57:02Z</time>
      </trkpt>
      <trkpt lat="39.16606001391771" lon="117.76287220333613">
        <ele>4.8</ele>
        <time>2025-12-22T04:57:03Z</time>
      </trkpt>
      <trkpt lat="39.16608423373957" lon="117.76285402865352">
        <ele>4.8</ele>
        <time>2025-12-22T04:57:04Z</time>
      </trkpt>
      <trkpt lat="39.166107260990785" lon="117.76283491550336">
        <ele>4.8</ele>
        <time>2025-12-22T04:57:05Z</time>
      </trkpt>
      <trkpt lat="39.16612895021516" lon="117.76281358074411">
        <ele>4.9</ele>
        <time>2025-12-22T04:57:06Z</time>
      </trkpt>
      <trkpt lat="39.16614920158476" lon="117.7627909294317">
        <ele>4.9</ele>
        <time>2025-12-22T04:57:07Z</time>
      </trkpt>
      <trkpt lat="39.16617068762797" lon="117.76276568000534">
        <ele>4.9</ele>
        <time>2025-12-22T04:57:08Z</time>
      </trkpt>
      <trkpt lat="39.166191259792626" lon="117.76274323542988">
        <ele>4.9</ele>
        <time>2025-12-22T04:57:09Z</time>
      </trkpt>
      <trkpt lat="39.16621397548516" lon="117.762722429987">
        <ele>4.9</ele>
        <time>2025-12-22T04:57:10Z</time>
      </trkpt>
      <trkpt lat="39.166239503478636" lon="117.76270451923396">
        <ele>5.1</ele>
        <time>2025-12-22T04:57:11Z</time>
      </trkpt>
      <trkpt lat="39.166267343432146" lon="117.7626886392875">
        <ele>5.1</ele>
        <time>2025-12-22T04:57:12Z</time>
      </trkpt>
      <trkpt lat="39.16629760397997" lon="117.76267353150745">
        <ele>5.1</ele>
        <time>2025-12-22T04:57:13Z</time>
      </trkpt>
      <trkpt lat="39.16632700724319" lon="117.76265919893765">
        <ele>5.1</ele>
        <time>2025-12-22T04:57:14Z</time>
      </trkpt>
      <trkpt lat="39.16635399897471" lon="117.76264540644632">
        <ele>5.1</ele>
        <time>2025-12-22T04:57:15Z</time>
      </trkpt>
      <trkpt lat="39.166380557645276" lon="117.76263116130707">
        <ele>5.1</ele>
        <time>2025-12-22T04:57:16Z</time>
      </trkpt>
      <trkpt lat="39.16640477371549" lon="117.76261826298492">
        <ele>5.1</ele>
        <time>2025-12-22T04:57:17Z</time>
      </trkpt>
      <trkpt lat="39.16642960986019" lon="117.76260503415311">
        <ele>5.1</ele>
        <time>2025-12-22T04:57:18Z</time>
      </trkpt>
      <trkpt lat="39.16645520415198" lon="117.7625913723042">
        <ele>5.1</ele>
        <time>2025-12-22T04:57:19Z</time>
      </trkpt>
      <trkpt lat="39.16648116273803" lon="117.7625774421219">
        <ele>5.1</ele>
        <time>2025-12-22T04:57:20Z</time>
      </trkpt>
      <trkpt lat="39.16650984570979" lon="117.76256189503329">
        <ele>5.2</ele>
        <time>2025-12-22T04:57:21Z</time>
      </trkpt>
      <trkpt lat="39.16653580373214" lon="117.76254767494349">
        <ele>5.2</ele>
        <time>2025-12-22T04:57:22Z</time>
      </trkpt>
      <trkpt lat="39.166561831506556" lon="117.76253322863234">
        <ele>5.2</ele>
        <time>2025-12-22T04:57:23Z</time>
      </trkpt>
      <trkpt lat="39.16658803738565" lon="117.76251851366922">
        <ele>5.2</ele>
        <time>2025-12-22T04:57:24Z</time>
      </trkpt>
      <trkpt lat="39.166614517030936" lon="117.76250351123916">
        <ele>5.2</ele>
        <time>2025-12-22T04:57:25Z</time>
      </trkpt>
      <trkpt lat="39.166641049049815" lon="117.76248840077528">
        <ele>5.2</ele>
        <time>2025-12-22T04:57:26Z</time>
      </trkpt>
      <trkpt lat="39.166667741447284" lon="117.76247315953024">
        <ele>5.2</ele>
        <time>2025-12-22T04:57:27Z</time>
      </trkpt>
      <trkpt lat="39.16669430192449" lon="117.76245801709324">
        <ele>5.2</ele>
        <time>2025-12-22T04:57:28Z</time>
      </trkpt>
      <trkpt lat="39.16672085554728" lon="117.76244292198602">
        <ele>5.2</ele>
        <time>2025-12-22T04:57:29Z</time>
      </trkpt>
      <trkpt lat="39.166747291626244" lon="117.76242792229122">
        <ele>5.2</ele>
        <time>2025-12-22T04:57:30Z</time>
      </trkpt>
      <trkpt lat="39.166773450276075" lon="117.76241305426883">
        <ele>5.2</ele>
        <time>2025-12-22T04:57:31Z</time>
      </trkpt>
      <trkpt lat="39.16679971255701" lon="117.76239808801193">
        <ele>5.2</ele>
        <time>2025-12-22T04:57:32Z</time>
      </trkpt>
      <trkpt lat="39.166823457958905" lon="117.76238448096024">
        <ele>5.2</ele>
        <time>2025-12-22T04:57:33Z</time>
      </trkpt>
      <trkpt lat="39.16685008200321" lon="117.76236924745741">
        <ele>5.2</ele>
        <time>2025-12-22T04:57:34Z</time>
      </trkpt>
      <trkpt lat="39.16687674442874" lon="117.76235394653513">
        <ele>5.2</ele>
        <time>2025-12-22T04:57:35Z</time>
      </trkpt>
      <trkpt lat="39.16690340177292" lon="117.76233859763842">
        <ele>5.3</ele>
        <time>2025-12-22T04:57:36Z</time>
      </trkpt>
      <trkpt lat="39.16693063634051" lon="117.7623229079322">
        <ele>5.3</ele>
        <time>2025-12-22T04:57:37Z</time>
      </trkpt>
      <trkpt lat="39.166957667683164" lon="117.76230734593157">
        <ele>5.3</ele>
        <time>2025-12-22T04:57:38Z</time>
      </trkpt>
      <trkpt lat="39.166987314075016" lon="117.76229040120661">
        <ele>5.3</ele>
        <time>2025-12-22T04:57:39Z</time>
      </trkpt>
      <trkpt lat="39.16701374128804" lon="117.76227531795246">
        <ele>5.3</ele>
        <time>2025-12-22T04:57:40Z</time>
      </trkpt>
      <trkpt lat="39.167040268993766" lon="117.76226027623692">
        <ele>5.5</ele>
        <time>2025-12-22T04:57:41Z</time>
      </trkpt>
      <trkpt lat="39.167066710992025" lon="117.76224536835372">
        <ele>5.5</ele>
        <time>2025-12-22T04:57:42Z</time>
      </trkpt>
      <trkpt lat="39.167093313862914" lon="117.76223041204739">
        <ele>5.5</ele>
        <time>2025-12-22T04:57:43Z</time>
      </trkpt>
      <trkpt lat="39.16711981046557" lon="117.76221552389983">
        <ele>5.5</ele>
        <time>2025-12-22T04:57:44Z</time>
      </trkpt>
      <trkpt lat="39.167146192739196" lon="117.76220070205521">
        <ele>5.5</ele>
        <time>2025-12-22T04:57:45Z</time>
      </trkpt>
      <trkpt lat="39.167172026345" lon="117.76218621385702">
        <ele>5.5</ele>
        <time>2025-12-22T04:57:46Z</time>
      </trkpt>
      <trkpt lat="39.167197679946206" lon="117.76217193564318">
        <ele>5.5</ele>
        <time>2025-12-22T04:57:47Z</time>
      </trkpt>
      <trkpt lat="39.16722121183212" lon="117.76215904950998">
        <ele>5.5</ele>
        <time>2025-12-22T04:57:48Z</time>
      </trkpt>
      <trkpt lat="39.16724547205471" lon="117.76214613449973">
        <ele>5.5</ele>
        <time>2025-12-22T04:57:49Z</time>
      </trkpt>
      <trkpt lat="39.167273338306494" lon="117.7621317328764">
        <ele>5.5</ele>
        <time>2025-12-22T04:57:50Z</time>
      </trkpt>
      <trkpt lat="39.16730096892119" lon="117.76211798412147">
        <ele>5.5</ele>
        <time>2025-12-22T04:57:51Z</time>
      </trkpt>
      <trkpt lat="39.167331325530895" lon="117.7621032734298">
        <ele>5.5</ele>
        <time>2025-12-22T04:57:52Z</time>
      </trkpt>
      <trkpt lat="39.16735866793884" lon="117.76209063526073">
        <ele>5.5</ele>
        <time>2025-12-22T04:57:53Z</time>
      </trkpt>
      <trkpt lat="39.16738622963371" lon="117.76207818420892">
        <ele>5.5</ele>
        <time>2025-12-22T04:57:54Z</time>
      </trkpt>
      <trkpt lat="39.16741371738101" lon="117.76206595209007">
        <ele>5.5</ele>
        <time>2025-12-22T04:57:55Z</time>
      </trkpt>
      <trkpt lat="39.16744127169132" lon="117.76205372757862">
        <ele>5.2</ele>
        <time>2025-12-22T04:57:56Z</time>
      </trkpt>
      <trkpt lat="39.167468927673525" lon="117.76204139014078">
        <ele>5.2</ele>
        <time>2025-12-22T04:57:57Z</time>
      </trkpt>
      <trkpt lat="39.16749662875093" lon="117.76202884638857">
        <ele>5.2</ele>
        <time>2025-12-22T04:57:58Z</time>
      </trkpt>
      <trkpt lat="39.16752450669466" lon="117.76201591072622">
        <ele>5.2</ele>
        <time>2025-12-22T04:57:59Z</time>
      </trkpt>
      <trkpt lat="39.16755224839756" lon="117.76200265554846">
        <ele>5.2</ele>
        <time>2025-12-22T04:58:00Z</time>
      </trkpt>
      <trkpt lat="39.16758000750492" lon="117.76198891796275">
        <ele>5.2</ele>
        <time>2025-12-22T04:58:01Z</time>
      </trkpt>
      <trkpt lat="39.16760701015526" lon="117.76197512162432">
        <ele>5.2</ele>
        <time>2025-12-22T04:58:02Z</time>
      </trkpt>
      <trkpt lat="39.167634145292006" lon="117.76196083263115">
        <ele>5.2</ele>
        <time>2025-12-22T04:58:03Z</time>
      </trkpt>
      <trkpt lat="39.16765841892075" lon="117.76194777770552">
        <ele>5.2</ele>
        <time>2025-12-22T04:58:04Z</time>
      </trkpt>
      <trkpt lat="39.16768569472852" lon="117.7619328462644">
        <ele>5.2</ele>
        <time>2025-12-22T04:58:05Z</time>
      </trkpt>
      <trkpt lat="39.1677124182955" lon="117.76191799131901">
        <ele>5.2</ele>
        <time>2025-12-22T04:58:06Z</time>
      </trkpt>
      <trkpt lat="39.16773996421276" lon="117.76190259276001">
        <ele>5.2</ele>
        <time>2025-12-22T04:58:07Z</time>
      </trkpt>
      <trkpt lat="39.16776551761289" lon="117.7618880431163">
        <ele>5.2</ele>
        <time>2025-12-22T04:58:08Z</time>
      </trkpt>
      <trkpt lat="39.16779204387639" lon="117.76187288125163">
        <ele>5.2</ele>
        <time>2025-12-22T04:58:09Z</time>
      </trkpt>
      <trkpt lat="39.16781797974946" lon="117.76185799373901">
        <ele>5.2</ele>
        <time>2025-12-22T04:58:10Z</time>
      </trkpt>
      <trkpt lat="39.16784737929008" lon="117.76184109771302">
        <ele>5.2</ele>
        <time>2025-12-22T04:58:11Z</time>
      </trkpt>
      <trkpt lat="39.16787411371618" lon="117.76182565204655">
        <ele>5.2</ele>
        <time>2025-12-22T04:58:12Z</time>
      </trkpt>
      <trkpt lat="39.167901183380785" lon="117.76180993866423">
        <ele>5.2</ele>
        <time>2025-12-22T04:58:13Z</time>
      </trkpt>
      <trkpt lat="39.16792759338228" lon="117.76179449348999">
        <ele>5.2</ele>
        <time>2025-12-22T04:58:14Z</time>
      </trkpt>
      <trkpt lat="39.16795387778134" lon="117.76177900641322">
        <ele>5.2</ele>
        <time>2025-12-22T04:58:15Z</time>
      </trkpt>
      <trkpt lat="39.16798298679632" lon="117.76176175630434">
        <ele>5.3</ele>
        <time>2025-12-22T04:58:16Z</time>
      </trkpt>
      <trkpt lat="39.16800945486016" lon="117.76174583162646">
        <ele>5.3</ele>
        <time>2025-12-22T04:58:17Z</time>
      </trkpt>
      <trkpt lat="39.16803890138162" lon="117.76172797479177">
        <ele>5.3</ele>
        <time>2025-12-22T04:58:18Z</time>
      </trkpt>
      <trkpt lat="39.168065193017064" lon="117.76171171640182">
        <ele>5.3</ele>
        <time>2025-12-22T04:58:19Z</time>
      </trkpt>
      <trkpt lat="39.168091242336125" lon="117.7616954091302">
        <ele>5.3</ele>
        <time>2025-12-22T04:58:20Z</time>
      </trkpt>
      <trkpt lat="39.16811649391669" lon="117.76167942415421">
        <ele>5.3</ele>
        <time>2025-12-22T04:58:21Z</time>
      </trkpt>
      <trkpt lat="39.16814117644531" lon="117.76166370853834">
        <ele>5.3</ele>
        <time>2025-12-22T04:58:22Z</time>
      </trkpt>
      <trkpt lat="39.16816529631672" lon="117.76164837121402">
        <ele>5.3</ele>
        <time>2025-12-22T04:58:23Z</time>
      </trkpt>
      <trkpt lat="39.1681917762664" lon="117.76162961401168">
        <ele>5.3</ele>
        <time>2025-12-22T04:58:24Z</time>
      </trkpt>
      <trkpt lat="39.1682201835396" lon="117.76160767773715">
        <ele>5.3</ele>
        <time>2025-12-22T04:58:25Z</time>
      </trkpt>
      <trkpt lat="39.168252778624925" lon="117.76158093378051">
        <ele>5.2</ele>
        <time>2025-12-22T04:58:26Z</time>
      </trkpt>
      <trkpt lat="39.1682815130825" lon="117.76155681201519">
        <ele>5.2</ele>
        <time>2025-12-22T04:58:27Z</time>
      </trkpt>
      <trkpt lat="39.16830967602537" lon="117.76153321884546">
        <ele>5.2</ele>
        <time>2025-12-22T04:58:28Z</time>
      </trkpt>
      <trkpt lat="39.16833640277753" lon="117.76150988024223">
        <ele>5.2</ele>
        <time>2025-12-22T04:58:29Z</time>
      </trkpt>
      <trkpt lat="39.168362663546525" lon="117.76148599702053">
        <ele>5.2</ele>
        <time>2025-12-22T04:58:30Z</time>
      </trkpt>
      <trkpt lat="39.16838868550665" lon="117.76146138626159">
        <ele>5.2</ele>
        <time>2025-12-22T04:58:31Z</time>
      </trkpt>
      <trkpt lat="39.16841271878002" lon="117.76143841346999">
        <ele>5.2</ele>
        <time>2025-12-22T04:58:32Z</time>
      </trkpt>
      <trkpt lat="39.16843830370095" lon="117.76141376519573">
        <ele>5.2</ele>
        <time>2025-12-22T04:58:33Z</time>
      </trkpt>
      <trkpt lat="39.16846355810091" lon="117.76138932060182">
        <ele>5.2</ele>
        <time>2025-12-22T04:58:34Z</time>
      </trkpt>
      <trkpt lat="39.16848908261944" lon="117.7613646078978">
        <ele>5.2</ele>
        <time>2025-12-22T04:58:35Z</time>
      </trkpt>
      <trkpt lat="39.16851476203272" lon="117.7613397851682">
        <ele>5.2</ele>
        <time>2025-12-22T04:58:36Z</time>
      </trkpt>
      <trkpt lat="39.16854031512284" lon="117.76131496971401">
        <ele>5.2</ele>
        <time>2025-12-22T04:58:37Z</time>
      </trkpt>
      <trkpt lat="39.16856548083296" lon="117.76129047927776">
        <ele>5.2</ele>
        <time>2025-12-22T04:58:38Z</time>
      </trkpt>
      <trkpt lat="39.168590297187606" lon="117.76126621595833">
        <ele>5.2</ele>
        <time>2025-12-22T04:58:39Z</time>
      </trkpt>
      <trkpt lat="39.1686146418063" lon="117.76124243132746">
        <ele>5.2</ele>
        <time>2025-12-22T04:58:40Z</time>
      </trkpt>
      <trkpt lat="39.168640725690466" lon="117.76121615087645">
        <ele>5.2</ele>
        <time>2025-12-22T04:58:41Z</time>
      </trkpt>
      <trkpt lat="39.16866524012394" lon="117.7611907301458">
        <ele>5.2</ele>
        <time>2025-12-22T04:58:42Z</time>
      </trkpt>
      <trkpt lat="39.168691962282615" lon="117.76116313549785">
        <ele>5.2</ele>
        <time>2025-12-22T04:58:43Z</time>
      </trkpt>
      <trkpt lat="39.168717364242106" lon="117.76113524623166">
        <ele>5.2</ele>
        <time>2025-12-22T04:58:44Z</time>
      </trkpt>
      <trkpt lat="39.16874155187673" lon="117.76110745246291">
        <ele>5.2</ele>
        <time>2025-12-22T04:58:45Z</time>
      </trkpt>
      <trkpt lat="39.16876194545874" lon="117.76108170125595">
        <ele>5.3</ele>
        <time>2025-12-22T04:58:46Z</time>
      </trkpt>
      <trkpt lat="39.16878173141087" lon="117.76105601249041">
        <ele>5.3</ele>
        <time>2025-12-22T04:58:47Z</time>
      </trkpt>
      <trkpt lat="39.16880048162218" lon="117.76103115281333">
        <ele>5.3</ele>
        <time>2025-12-22T04:58:48Z</time>
      </trkpt>
      <trkpt lat="39.16882138746603" lon="117.76100297282943">
        <ele>5.3</ele>
        <time>2025-12-22T04:58:49Z</time>
      </trkpt>
      <trkpt lat="39.168840634630875" lon="117.76097713426503">
        <ele>5.3</ele>
        <time>2025-12-22T04:58:50Z</time>
      </trkpt>
      <trkpt lat="39.168860152217256" lon="117.7609508375081">
        <ele>5.4</ele>
        <time>2025-12-22T04:58:51Z</time>
      </trkpt>
      <trkpt lat="39.16887948964957" lon="117.76092469333769">
        <ele>5.4</ele>
        <time>2025-12-22T04:58:52Z</time>
      </trkpt>
      <trkpt lat="39.16889888086229" lon="117.7608983144684">
        <ele>5.4</ele>
        <time>2025-12-22T04:58:53Z</time>
      </trkpt>
      <trkpt lat="39.16892036067573" lon="117.76086867072102">
        <ele>5.4</ele>
        <time>2025-12-22T04:58:54Z</time>
      </trkpt>
      <trkpt lat="39.16894006562856" lon="117.76084144410157">
        <ele>5.4</ele>
        <time>2025-12-22T04:58:55Z</time>
      </trkpt>
      <trkpt lat="39.168959972587224" lon="117.76081376837449">
        <ele>5.4</ele>
        <time>2025-12-22T04:58:56Z</time>
      </trkpt>
      <trkpt lat="39.168979565099434" lon="117.76078640545677">
        <ele>5.4</ele>
        <time>2025-12-22T04:58:57Z</time>
      </trkpt>
      <trkpt lat="39.168999236028746" lon="117.76075874858824">
        <ele>5.4</ele>
        <time>2025-12-22T04:58:58Z</time>
      </trkpt>
      <trkpt lat="39.16901871986702" lon="117.76073114443331">
        <ele>5.4</ele>
        <time>2025-12-22T04:58:59Z</time>
      </trkpt>
      <trkpt lat="39.16903814333964" lon="117.76070332261457">
        <ele>5.4</ele>
        <time>2025-12-22T04:59:00Z</time>
      </trkpt>
      <trkpt lat="39.16905774005738" lon="117.76067493262127">
        <ele>5.4</ele>
        <time>2025-12-22T04:59:01Z</time>
      </trkpt>
      <trkpt lat="39.1690772507359" lon="117.7606463423919">
        <ele>5.4</ele>
        <time>2025-12-22T04:59:02Z</time>
      </trkpt>
      <trkpt lat="39.16909467905925" lon="117.76062052111246">
        <ele>5.4</ele>
        <time>2025-12-22T04:59:03Z</time>
      </trkpt>
      <trkpt lat="39.16911131322483" lon="117.76059547137613">
        <ele>5.4</ele>
        <time>2025-12-22T04:59:04Z</time>
      </trkpt>
      <trkpt lat="39.1691294172959" lon="117.7605676571409">
        <ele>5.4</ele>
        <time>2025-12-22T04:59:05Z</time>
      </trkpt>
      <trkpt lat="39.169147371708725" lon="117.76053952905292">
        <ele>5.5</ele>
        <time>2025-12-22T04:59:06Z</time>
      </trkpt>
      <trkpt lat="39.16916519842523" lon="117.76051106758959">
        <ele>5.5</ele>
        <time>2025-12-22T04:59:07Z</time>
      </trkpt>
      <trkpt lat="39.1691826060616" lon="117.76048276679222">
        <ele>5.5</ele>
        <time>2025-12-22T04:59:08Z</time>
      </trkpt>
      <trkpt lat="39.16919969630228" lon="117.76045459007463">
        <ele>5.5</ele>
        <time>2025-12-22T04:59:09Z</time>
      </trkpt>
      <trkpt lat="39.169216477344925" lon="117.76042662678461">
        <ele>5.5</ele>
        <time>2025-12-22T04:59:10Z</time>
      </trkpt>
      <trkpt lat="39.1692330956773" lon="117.76039870222056">
        <ele>5.7</ele>
        <time>2025-12-22T04:59:11Z</time>
      </trkpt>
      <trkpt lat="39.16924949579262" lon="117.76037097245836">
        <ele>5.7</ele>
        <time>2025-12-22T04:59:12Z</time>
      </trkpt>
      <trkpt lat="39.169265694444974" lon="117.76034345350868">
        <ele>5.7</ele>
        <time>2025-12-22T04:59:13Z</time>
      </trkpt>
      <trkpt lat="39.16928156313227" lon="117.76031639953577">
        <ele>5.7</ele>
        <time>2025-12-22T04:59:14Z</time>
      </trkpt>
      <trkpt lat="39.16929720443599" lon="117.76028977006884">
        <ele>5.7</ele>
        <time>2025-12-22T04:59:15Z</time>
      </trkpt>
      <trkpt lat="39.169312619287936" lon="117.76026366677064">
        <ele>5.8</ele>
        <time>2025-12-22T04:59:16Z</time>
      </trkpt>
      <trkpt lat="39.16932785728708" lon="117.76023814153837">
        <ele>5.8</ele>
        <time>2025-12-22T04:59:17Z</time>
      </trkpt>
      <trkpt lat="39.16934294307668" lon="117.76021328085139">
        <ele>5.8</ele>
        <time>2025-12-22T04:59:18Z</time>
      </trkpt>
      <trkpt lat="39.169361425908" lon="117.76018589707422">
        <ele>5.8</ele>
        <time>2025-12-22T04:59:19Z</time>
      </trkpt>
      <trkpt lat="39.16938192885208" lon="117.76016027129153">
        <ele>5.8</ele>
        <time>2025-12-22T04:59:20Z</time>
      </trkpt>
      <trkpt lat="39.169405444568284" lon="117.76013499490465">
        <ele>5.9</ele>
        <time>2025-12-22T04:59:21Z</time>
      </trkpt>
      <trkpt lat="39.16942596029722" lon="117.76012051637258">
        <ele>5.9</ele>
        <time>2025-12-22T04:59:22Z</time>
      </trkpt>
      <trkpt lat="39.16944568372136" lon="117.76011791978752">
        <ele>5.9</ele>
        <time>2025-12-22T04:59:23Z</time>
      </trkpt>
      <trkpt lat="39.16946553940407" lon="117.76012872567236">
        <ele>5.9</ele>
        <time>2025-12-22T04:59:24Z</time>
      </trkpt>
      <trkpt lat="39.16949149974796" lon="117.76015043725151">
        <ele>5.9</ele>
        <time>2025-12-22T04:59:25Z</time>
      </trkpt>
      <trkpt lat="39.16951618477821" lon="117.76017590280529">
        <ele>5.9</ele>
        <time>2025-12-22T04:59:26Z</time>
      </trkpt>
      <trkpt lat="39.16954140686486" lon="117.76020587010328">
        <ele>5.9</ele>
        <time>2025-12-22T04:59:27Z</time>
      </trkpt>
      <trkpt lat="39.169561320662496" lon="117.76023226817654">
        <ele>5.9</ele>
        <time>2025-12-22T04:59:28Z</time>
      </trkpt>
      <trkpt lat="39.16958075950234" lon="117.76025942898312">
        <ele>5.9</ele>
        <time>2025-12-22T04:59:29Z</time>
      </trkpt>
      <trkpt lat="39.16959931947773" lon="117.76028633421569">
        <ele>5.9</ele>
        <time>2025-12-22T04:59:30Z</time>
      </trkpt>
      <trkpt lat="39.169617913148755" lon="117.7603137546509">
        <ele>5.9</ele>
        <time>2025-12-22T04:59:31Z</time>
      </trkpt>
      <trkpt lat="39.169636586282834" lon="117.76034154193235">
        <ele>5.9</ele>
        <time>2025-12-22T04:59:32Z</time>
      </trkpt>
      <trkpt lat="39.16965569808941" lon="117.76037009038438">
        <ele>5.9</ele>
        <time>2025-12-22T04:59:33Z</time>
      </trkpt>
      <trkpt lat="39.169674947758004" lon="117.7603988178284">
        <ele>5.9</ele>
        <time>2025-12-22T04:59:34Z</time>
      </trkpt>
      <trkpt lat="39.169696502959205" lon="117.76043122266657">
        <ele>5.9</ele>
        <time>2025-12-22T04:59:35Z</time>
      </trkpt>
      <trkpt lat="39.16971640800326" lon="117.76046090660381">
        <ele>5.7</ele>
        <time>2025-12-22T04:59:36Z</time>
      </trkpt>
      <trkpt lat="39.16973860514454" lon="117.76049429802555">
        <ele>5.7</ele>
        <time>2025-12-22T04:59:37Z</time>
      </trkpt>
      <trkpt lat="39.16975890828383" lon="117.7605246180424">
        <ele>5.7</ele>
        <time>2025-12-22T04:59:38Z</time>
      </trkpt>
      <trkpt lat="39.16977933475855" lon="117.76055521092636">
        <ele>5.7</ele>
        <time>2025-12-22T04:59:39Z</time>
      </trkpt>
      <trkpt lat="39.16979948989356" lon="117.76058556586482">
        <ele>5.7</ele>
        <time>2025-12-22T04:59:40Z</time>
      </trkpt>
      <trkpt lat="39.169819553722775" lon="117.76061603106292">
        <ele>5.6</ele>
        <time>2025-12-22T04:59:41Z</time>
      </trkpt>
      <trkpt lat="39.16983944858689" lon="117.76064655786534">
        <ele>5.6</ele>
        <time>2025-12-22T04:59:42Z</time>
      </trkpt>
      <trkpt lat="39.16985904851636" lon="117.76067702317727">
        <ele>5.6</ele>
        <time>2025-12-22T04:59:43Z</time>
      </trkpt>
      <trkpt lat="39.16987841496982" lon="117.76070754176583">
        <ele>5.6</ele>
        <time>2025-12-22T04:59:44Z</time>
      </trkpt>
      <trkpt lat="39.16989763060967" lon="117.76073827876236">
        <ele>5.6</ele>
        <time>2025-12-22T04:59:45Z</time>
      </trkpt>
      <trkpt lat="39.16991658140266" lon="117.76076909729197">
        <ele>5.7</ele>
        <time>2025-12-22T04:59:46Z</time>
      </trkpt>
      <trkpt lat="39.16993528625838" lon="117.76079997051376">
        <ele>5.7</ele>
        <time>2025-12-22T04:59:47Z</time>
      </trkpt>
      <trkpt lat="39.169955759162534" lon="117.76083430939981">
        <ele>5.7</ele>
        <time>2025-12-22T04:59:48Z</time>
      </trkpt>
      <trkpt lat="39.16997426029158" lon="117.76086569779476">
        <ele>5.7</ele>
        <time>2025-12-22T04:59:49Z</time>
      </trkpt>
      <trkpt lat="39.16999476132562" lon="117.76090082347898">
        <ele>5.7</ele>
        <time>2025-12-22T04:59:50Z</time>
      </trkpt>
      <trkpt lat="39.170013311504746" lon="117.76093283107758">
        <ele>5.8</ele>
        <time>2025-12-22T04:59:51Z</time>
      </trkpt>
      <trkpt lat="39.17003218218684" lon="117.76096555581475">
        <ele>5.8</ele>
        <time>2025-12-22T04:59:52Z</time>
      </trkpt>
      <trkpt lat="39.1700503825969" lon="117.76099737025027">
        <ele>5.8</ele>
        <time>2025-12-22T04:59:53Z</time>
      </trkpt>
      <trkpt lat="39.17006827316833" lon="117.76102892230037">
        <ele>5.8</ele>
        <time>2025-12-22T04:59:54Z</time>
      </trkpt>
      <trkpt lat="39.17008771187178" lon="117.76106357879459">
        <ele>5.8</ele>
        <time>2025-12-22T04:59:55Z</time>
      </trkpt>
      <trkpt lat="39.17010567469045" lon="117.76109608076175">
        <ele>6</ele>
        <time>2025-12-22T04:59:56Z</time>
      </trkpt>
      <trkpt lat="39.17012372275364" lon="117.76112916962485">
        <ele>6</ele>
        <time>2025-12-22T04:59:57Z</time>
      </trkpt>
      <trkpt lat="39.17014146466585" lon="117.76116212205851">
        <ele>6</ele>
        <time>2025-12-22T04:59:58Z</time>
      </trkpt>
      <trkpt lat="39.17015915357809" lon="117.76119528641011">
        <ele>6</ele>
        <time>2025-12-22T04:59:59Z</time>
      </trkpt>
      <trkpt lat="39.17017663907838" lon="117.76122835349126">
        <ele>6</ele>
        <time>2025-12-22T05:00:00Z</time>
      </trkpt>
      <trkpt lat="39.170194011426275" lon="117.76126145869297">
        <ele>6.1</ele>
        <time>2025-12-22T05:00:01Z</time>
      </trkpt>
      <trkpt lat="39.17021114668996" lon="117.76129434836635">
        <ele>6.1</ele>
        <time>2025-12-22T05:00:02Z</time>
      </trkpt>
      <trkpt lat="39.170230225997315" lon="117.76133092739832">
        <ele>6.1</ele>
        <time>2025-12-22T05:00:03Z</time>
      </trkpt>
      <trkpt lat="39.17024769681513" lon="117.76136474421062">
        <ele>6.1</ele>
        <time>2025-12-22T05:00:04Z</time>
      </trkpt>
      <trkpt lat="39.17026540856246" lon="117.76139901715159">
        <ele>6.1</ele>
        <time>2025-12-22T05:00:05Z</time>
      </trkpt>
      <trkpt lat="39.17028095521367" lon="117.76142931111255">
        <ele>6</ele>
        <time>2025-12-22T05:00:06Z</time>
      </trkpt>
      <trkpt lat="39.170295986676386" lon="117.76145858964755">
        <ele>6</ele>
        <time>2025-12-22T05:00:07Z</time>
      </trkpt>
      <trkpt lat="39.170312177414246" lon="117.76148995278284">
        <ele>6</ele>
        <time>2025-12-22T05:00:08Z</time>
      </trkpt>
      <trkpt lat="39.170328160973476" lon="117.76152097898677">
        <ele>6</ele>
        <time>2025-12-22T05:00:09Z</time>
      </trkpt>
      <trkpt lat="39.1703462237305" lon="117.761555903049">
        <ele>6</ele>
        <time>2025-12-22T05:00:10Z</time>
      </trkpt>
      <trkpt lat="39.17036247609667" lon="117.76158761962702">
        <ele>5.8</ele>
        <time>2025-12-22T05:00:11Z</time>
      </trkpt>
      <trkpt lat="39.17037855656323" lon="117.76161903176381">
        <ele>5.8</ele>
        <time>2025-12-22T05:00:12Z</time>
      </trkpt>
      <trkpt lat="39.17039390270362" lon="117.7616489826182">
        <ele>5.8</ele>
        <time>2025-12-22T05:00:13Z</time>
      </trkpt>
      <trkpt lat="39.17040889075938" lon="117.76167805087998">
        <ele>5.8</ele>
        <time>2025-12-22T05:00:14Z</time>
      </trkpt>
      <trkpt lat="39.17042593078552" lon="117.7617121286154">
        <ele>5.8</ele>
        <time>2025-12-22T05:00:15Z</time>
      </trkpt>
      <trkpt lat="39.17044400641403" lon="117.76174992764133">
        <ele>5.8</ele>
        <time>2025-12-22T05:00:16Z</time>
      </trkpt>
      <trkpt lat="39.170463315941696" lon="117.76179219287418">
        <ele>5.8</ele>
        <time>2025-12-22T05:00:17Z</time>
      </trkpt>
      <trkpt lat="39.170480835658154" lon="117.76183240304563">
        <ele>5.8</ele>
        <time>2025-12-22T05:00:18Z</time>
      </trkpt>
      <trkpt lat="39.170496211485" lon="117.76186845665758">
        <ele>5.8</ele>
        <time>2025-12-22T05:00:19Z</time>
      </trkpt>
      <trkpt lat="39.17051185868786" lon="117.76190553031103">
        <ele>5.8</ele>
        <time>2025-12-22T05:00:20Z</time>
      </trkpt>
      <trkpt lat="39.17052765740889" lon="117.76194165921879">
        <ele>5.9</ele>
        <time>2025-12-22T05:00:21Z</time>
      </trkpt>
      <trkpt lat="39.17054358827188" lon="117.76197766599724">
        <ele>5.9</ele>
        <time>2025-12-22T05:00:22Z</time>
      </trkpt>
      <trkpt lat="39.17055975904538" lon="117.76201153976818">
        <ele>5.9</ele>
        <time>2025-12-22T05:00:23Z</time>
      </trkpt>
      <trkpt lat="39.17057580426069" lon="117.76204442019092">
        <ele>5.9</ele>
        <time>2025-12-22T05:00:24Z</time>
      </trkpt>
      <trkpt lat="39.170591708761165" lon="117.76207609599444">
        <ele>5.9</ele>
        <time>2025-12-22T05:00:25Z</time>
      </trkpt>
      <trkpt lat="39.17060713806036" lon="117.76210905888996">
        <ele>6</ele>
        <time>2025-12-22T05:00:26Z</time>
      </trkpt>
      <trkpt lat="39.1706222029517" lon="117.76214254456465">
        <ele>6</ele>
        <time>2025-12-22T05:00:27Z</time>
      </trkpt>
      <trkpt lat="39.17063676430933" lon="117.76217686612301">
        <ele>6</ele>
        <time>2025-12-22T05:00:28Z</time>
      </trkpt>
      <trkpt lat="39.17065058217446" lon="117.76221115910587">
        <ele>6</ele>
        <time>2025-12-22T05:00:29Z</time>
      </trkpt>
      <trkpt lat="39.17066350495086" lon="117.76224519356656">
        <ele>6</ele>
        <time>2025-12-22T05:00:30Z</time>
      </trkpt>
      <trkpt lat="39.17067677893497" lon="117.7622820781733">
        <ele>6.1</ele>
        <time>2025-12-22T05:00:31Z</time>
      </trkpt>
      <trkpt lat="39.17068922130485" lon="117.76231670912983">
        <ele>6.1</ele>
        <time>2025-12-22T05:00:32Z</time>
      </trkpt>
      <trkpt lat="39.1707023975165" lon="117.76235174780977">
        <ele>6.1</ele>
        <time>2025-12-22T05:00:33Z</time>
      </trkpt>
      <trkpt lat="39.1707163770205" lon="117.76238631251006">
        <ele>6.1</ele>
        <time>2025-12-22T05:00:34Z</time>
      </trkpt>
      <trkpt lat="39.17073083376662" lon="117.76242067853327">
        <ele>6.1</ele>
        <time>2025-12-22T05:00:35Z</time>
      </trkpt>
      <trkpt lat="39.17074651691541" lon="117.76245777719075">
        <ele>6.2</ele>
        <time>2025-12-22T05:00:36Z</time>
      </trkpt>
      <trkpt lat="39.17076091201032" lon="117.76249300547713">
        <ele>6.2</ele>
        <time>2025-12-22T05:00:37Z</time>
      </trkpt>
      <trkpt lat="39.170775179143405" lon="117.76252898684521">
        <ele>6.2</ele>
        <time>2025-12-22T05:00:38Z</time>
      </trkpt>
      <trkpt lat="39.17078893686374" lon="117.76256509464632">
        <ele>6.2</ele>
        <time>2025-12-22T05:00:39Z</time>
      </trkpt>
      <trkpt lat="39.17080232877273" lon="117.7626006732898">
        <ele>6.2</ele>
        <time>2025-12-22T05:00:40Z</time>
      </trkpt>
      <trkpt lat="39.170816082113426" lon="117.76263863460008">
        <ele>6</ele>
        <time>2025-12-22T05:00:41Z</time>
      </trkpt>
      <trkpt lat="39.17082827320049" lon="117.76267376372577">
        <ele>6</ele>
        <time>2025-12-22T05:00:42Z</time>
      </trkpt>
      <trkpt lat="39.17084003370888" lon="117.76270905383613">
        <ele>6</ele>
        <time>2025-12-22T05:00:43Z</time>
      </trkpt>
      <trkpt lat="39.170851380414014" lon="117.76274370909776">
        <ele>6</ele>
        <time>2025-12-22T05:00:44Z</time>
      </trkpt>
      <trkpt lat="39.170862910470895" lon="117.76277774340767">
        <ele>6</ele>
        <time>2025-12-22T05:00:45Z</time>
      </trkpt>
      <trkpt lat="39.17087463806266" lon="117.76281098292478">
        <ele>5.9</ele>
        <time>2025-12-22T05:00:46Z</time>
      </trkpt>
      <trkpt lat="39.17088689532745" lon="117.76284313818175">
        <ele>5.9</ele>
        <time>2025-12-22T05:00:47Z</time>
      </trkpt>
      <trkpt lat="39.1708989844403" lon="117.76287458821373">
        <ele>5.9</ele>
        <time>2025-12-22T05:00:48Z</time>
      </trkpt>
      <trkpt lat="39.17090562472642" lon="117.76289130123718">
        <ele>5.9</ele>
        <time>2025-12-22T05:00:49Z</time>
      </trkpt>
    </trkseg>
  </trk>
</gpx>