<?xml version="1.0" encoding="UTF-8"?>
<gpx xmlns="http://www.topografix.com/GPX/1/1" xmlns:gpxtpx="http://www.garmin.com/xmlschemas/TrackPointExtension/v1" xmlns:xsi="http://www.w3.org/2001/XMLSchema-instance" xsi:schemaLocation="http://www.topografix.com/GPX/1/1 http://www.topografix.com/GPX/1/1/gpx.xsd" version="1.1" creator="gpx.py -- https://github.com/tkrajina/gpxpy">
  <trk>
    <name>gpx from codoon</name>
    <type>Run</type>
    <trkseg>
      <trkpt lat="39.17054382625107" lon="117.76199953071719">
        <ele>2.001</ele>
        <time>2025-12-31T01:19:22Z</time>
      </trkpt>
      <trkpt lat="39.17051180992904" lon="117.76192850920033">
        <ele></ele>
        <time>2025-12-31T01:19:24Z</time>
      </trkpt>
      <trkpt lat="39.170470790149544" lon="117.76184248312248">
        <ele>0</ele>
        <time>2025-12-31T01:19:26Z</time>
      </trkpt>
      <trkpt lat="39.1704277694348" lon="117.76175245581483">
        <ele>0</ele>
        <time>2025-12-31T01:19:28Z</time>
      </trkpt>
      <trkpt lat="39.17038274848125" lon="117.76166142818607">
        <ele>0</ele>
        <time>2025-12-31T01:19:30Z</time>
      </trkpt>
      <trkpt lat="39.17033672682199" lon="117.76156739962578">
        <ele>0</ele>
        <time>2025-12-31T01:19:32Z</time>
      </trkpt>
      <trkpt lat="39.17028970515085" lon="117.76147337104909">
        <ele>0</ele>
        <time>2025-12-31T01:19:34Z</time>
      </trkpt>
      <trkpt lat="39.17024168369602" lon="117.76138034276661">
        <ele>0</ele>
        <time>2025-12-31T01:19:36Z</time>
      </trkpt>
      <trkpt lat="39.170193662228314" lon="117.76128731446695">
        <ele>0</ele>
        <time>2025-12-31T01:19:38Z</time>
      </trkpt>
      <trkpt lat="39.17014464051729" lon="117.76119328584612">
        <ele>0</ele>
        <time>2025-12-31T01:19:40Z</time>
      </trkpt>
      <trkpt lat="39.17009261879396" lon="117.7610992572032">
        <ele>0</ele>
        <time>2025-12-31T01:19:42Z</time>
      </trkpt>
      <trkpt lat="39.17004059752015" lon="117.76100722915814">
        <ele></ele>
        <time>2025-12-31T01:19:44Z</time>
      </trkpt>
      <trkpt lat="39.169987576697096" lon="117.76091720170452">
        <ele>0</ele>
        <time>2025-12-31T01:19:46Z</time>
      </trkpt>
      <trkpt lat="39.16993455632791" lon="117.76082917484851">
        <ele>0</ele>
        <time>2025-12-31T01:19:48Z</time>
      </trkpt>
      <trkpt lat="39.169879535712816" lon="117.7607401476746">
        <ele>0</ele>
        <time>2025-12-31T01:19:50Z</time>
      </trkpt>
      <trkpt lat="39.16982451509058" lon="117.76065112048487">
        <ele>0</ele>
        <time>2025-12-31T01:19:52Z</time>
      </trkpt>
      <trkpt lat="39.16976849445648" lon="117.76056209327966">
        <ele>0</ele>
        <time>2025-12-31T01:19:54Z</time>
      </trkpt>
      <trkpt lat="39.169711474274806" lon="117.76047506667237">
        <ele>0</ele>
        <time>2025-12-31T01:19:56Z</time>
      </trkpt>
      <trkpt lat="39.169656454546" lon="117.76039004066388">
        <ele>0.007812500000000002</ele>
        <time>2025-12-31T01:19:58Z</time>
      </trkpt>
      <trkpt lat="39.16960343527322" lon="117.76030701525232">
        <ele>0</ele>
        <time>2025-12-31T01:20:00Z</time>
      </trkpt>
      <trkpt lat="39.169552416226225" lon="117.7602249901364">
        <ele>0</ele>
        <time>2025-12-31T01:20:02Z</time>
      </trkpt>
      <trkpt lat="39.169504398329245" lon="117.76014796654412">
        <ele>0</ele>
        <time>2025-12-31T01:20:04Z</time>
      </trkpt>
      <trkpt lat="39.16946038577107" lon="117.76009394998869">
        <ele>0</ele>
        <time>2025-12-31T01:20:06Z</time>
      </trkpt>
      <trkpt lat="39.169424381579695" lon="117.76007594446651">
        <ele>0</ele>
        <time>2025-12-31T01:20:08Z</time>
      </trkpt>
      <trkpt lat="39.16939538761938" lon="117.76010195243215">
        <ele>0</ele>
        <time>2025-12-31T01:20:10Z</time>
      </trkpt>
      <trkpt lat="39.169371400629444" lon="117.76015796958704">
        <ele>0</ele>
        <time>2025-12-31T01:20:12Z</time>
      </trkpt>
      <trkpt lat="39.16934241665475" lon="117.76022699071646">
        <ele>0</ele>
        <time>2025-12-31T01:20:14Z</time>
      </trkpt>
      <trkpt lat="39.16931143383323" lon="117.76030101337068">
        <ele>0</ele>
        <time>2025-12-31T01:20:16Z</time>
      </trkpt>
      <trkpt lat="39.16927545193191" lon="117.76037903723747">
        <ele>0</ele>
        <time>2025-12-31T01:20:18Z</time>
      </trkpt>
      <trkpt lat="39.169234470253485" lon="117.76045806139878">
        <ele>0</ele>
        <time>2025-12-31T01:20:20Z</time>
      </trkpt>
      <trkpt lat="39.16918848949469" lon="117.76054108677144">
        <ele>0</ele>
        <time>2025-12-31T01:20:22Z</time>
      </trkpt>
      <trkpt lat="39.16913750895527" lon="117.76062511243529">
        <ele></ele>
        <time>2025-12-31T01:20:24Z</time>
      </trkpt>
      <trkpt lat="39.16908252840644" lon="117.76070913808925">
        <ele>0</ele>
        <time>2025-12-31T01:20:26Z</time>
      </trkpt>
      <trkpt lat="39.16902354738297" lon="117.76079116311706">
        <ele></ele>
        <time>2025-12-31T01:20:28Z</time>
      </trkpt>
      <trkpt lat="39.1689635663522" lon="117.7608731881328">
        <ele>0</ele>
        <time>2025-12-31T01:20:30Z</time>
      </trkpt>
      <trkpt lat="39.16890258507987" lon="117.76095421283183">
        <ele>0</ele>
        <time>2025-12-31T01:20:32Z</time>
      </trkpt>
      <trkpt lat="39.168839603565594" lon="117.76103423720876">
        <ele>0</ele>
        <time>2025-12-31T01:20:34Z</time>
      </trkpt>
      <trkpt lat="39.16877162158183" lon="117.76111226096505">
        <ele>0</ele>
        <time>2025-12-31T01:20:36Z</time>
      </trkpt>
      <trkpt lat="39.16870263935544" lon="117.76118928440444">
        <ele>0</ele>
        <time>2025-12-31T01:20:38Z</time>
      </trkpt>
      <trkpt lat="39.16863165665847" lon="117.76126430722485">
        <ele>0</ele>
        <time>2025-12-31T01:20:40Z</time>
      </trkpt>
      <trkpt lat="39.16856067418453" lon="117.76134033033988">
        <ele>0.007812500000000002</ele>
        <time>2025-12-31T01:20:42Z</time>
      </trkpt>
      <trkpt lat="39.168487691707945" lon="117.76141635344455">
        <ele>0</ele>
        <time>2025-12-31T01:20:44Z</time>
      </trkpt>
      <trkpt lat="39.16841270876076" lon="117.76149037592624">
        <ele>0</ele>
        <time>2025-12-31T01:20:46Z</time>
      </trkpt>
      <trkpt lat="39.16833472441575" lon="117.76155839657584">
        <ele>0</ele>
        <time>2025-12-31T01:20:48Z</time>
      </trkpt>
      <trkpt lat="39.168256739145384" lon="117.7616224160025">
        <ele>0</ele>
        <time>2025-12-31T01:20:50Z</time>
      </trkpt>
      <trkpt lat="39.16817875340828" lon="117.76168443481176">
        <ele>0</ele>
        <time>2025-12-31T01:20:52Z</time>
      </trkpt>
      <trkpt lat="39.168099766743914" lon="117.76174245240432">
        <ele>0</ele>
        <time>2025-12-31T01:20:54Z</time>
      </trkpt>
      <trkpt lat="39.16801877892367" lon="117.76179546846959">
        <ele>0</ele>
        <time>2025-12-31T01:20:56Z</time>
      </trkpt>
      <trkpt lat="39.16793479040843" lon="117.76184548362123">
        <ele>0</ele>
        <time>2025-12-31T01:20:58Z</time>
      </trkpt>
      <trkpt lat="39.16784980189059" lon="117.76189549876906">
        <ele>0</ele>
        <time>2025-12-31T01:21:00Z</time>
      </trkpt>
      <trkpt lat="39.1677658136049" lon="117.76194651421285">
        <ele>0</ele>
        <time>2025-12-31T01:21:02Z</time>
      </trkpt>
      <trkpt lat="39.16768182485468" lon="117.7619955290469">
        <ele>0</ele>
        <time>2025-12-31T01:21:04Z</time>
      </trkpt>
      <trkpt lat="39.167598835637776" lon="117.76204254326765">
        <ele>0</ele>
        <time>2025-12-31T01:21:06Z</time>
      </trkpt>
      <trkpt lat="39.167516845266704" lon="117.76208455597296">
        <ele>0</ele>
        <time>2025-12-31T01:21:08Z</time>
      </trkpt>
      <trkpt lat="39.16744085351883" lon="117.76212056685782">
        <ele></ele>
        <time>2025-12-31T01:21:10Z</time>
      </trkpt>
      <trkpt lat="39.167374862002234" lon="117.76215757804593">
        <ele>0</ele>
        <time>2025-12-31T01:21:12Z</time>
      </trkpt>
      <trkpt lat="39.167313870024614" lon="117.76219258862679">
        <ele>0</ele>
        <time>2025-12-31T01:21:14Z</time>
      </trkpt>
      <trkpt lat="39.16725087896184" lon="117.76223160041263">
        <ele>0</ele>
        <time>2025-12-31T01:21:16Z</time>
      </trkpt>
      <trkpt lat="39.16717988720989" lon="117.76226761128827">
        <ele>0</ele>
        <time>2025-12-31T01:21:18Z</time>
      </trkpt>
      <trkpt lat="39.16710489568695" lon="117.76230462246275">
        <ele>0</ele>
        <time>2025-12-31T01:21:20Z</time>
      </trkpt>
      <trkpt lat="39.1670279041557" lon="117.7623416336339">
        <ele>0</ele>
        <time>2025-12-31T01:21:22Z</time>
      </trkpt>
      <trkpt lat="39.16694791308348" lon="117.76238064540529">
        <ele>0</ele>
        <time>2025-12-31T01:21:24Z</time>
      </trkpt>
      <trkpt lat="39.16686792269471" lon="117.76242265808042">
        <ele>0.007812500000000002</ele>
        <time>2025-12-31T01:21:26Z</time>
      </trkpt>
      <trkpt lat="39.16678593253121" lon="117.76246567105375">
        <ele>0</ele>
        <time>2025-12-31T01:21:28Z</time>
      </trkpt>
      <trkpt lat="39.16670494282508" lon="117.76251068462825">
        <ele>0</ele>
        <time>2025-12-31T01:21:30Z</time>
      </trkpt>
      <trkpt lat="39.16662395311586" lon="117.7625556981979">
        <ele>0</ele>
        <time>2025-12-31T01:21:32Z</time>
      </trkpt>
      <trkpt lat="39.166542963403536" lon="117.76260071176267">
        <ele>0</ele>
        <time>2025-12-31T01:21:34Z</time>
      </trkpt>
      <trkpt lat="39.16645997299603" lon="117.76264272441753">
        <ele>0</ele>
        <time>2025-12-31T01:21:36Z</time>
      </trkpt>
      <trkpt lat="39.166376983047336" lon="117.7626867376717">
        <ele>0</ele>
        <time>2025-12-31T01:21:38Z</time>
      </trkpt>
      <trkpt lat="39.16629399309247" lon="117.76273075092217">
        <ele>0</ele>
        <time>2025-12-31T01:21:40Z</time>
      </trkpt>
      <trkpt lat="39.16621900542701" lon="117.76278476718437">
        <ele>0</ele>
        <time>2025-12-31T01:21:42Z</time>
      </trkpt>
      <trkpt lat="39.166149020041246" lon="117.76284878645089">
        <ele>0</ele>
        <time>2025-12-31T01:21:44Z</time>
      </trkpt>
      <trkpt lat="39.16608103533315" lon="117.76291580661437">
        <ele>0</ele>
        <time>2025-12-31T01:21:46Z</time>
      </trkpt>
      <trkpt lat="39.16600804970296" lon="117.76297882556585">
        <ele>0</ele>
        <time>2025-12-31T01:21:48Z</time>
      </trkpt>
      <trkpt lat="39.16593006224467" lon="117.76303384210033">
        <ele>0</ele>
        <time>2025-12-31T01:21:50Z</time>
      </trkpt>
      <trkpt lat="39.16585207431863" lon="117.76308685802762">
        <ele>0</ele>
        <time>2025-12-31T01:21:52Z</time>
      </trkpt>
      <trkpt lat="39.16577408661652" lon="117.76314087424863">
        <ele></ele>
        <time>2025-12-31T01:21:54Z</time>
      </trkpt>
      <trkpt lat="39.16569809959734" lon="117.76319789136623">
        <ele>0</ele>
        <time>2025-12-31T01:21:56Z</time>
      </trkpt>
      <trkpt lat="39.16562311371405" lon="117.76325990997827">
        <ele>0</ele>
        <time>2025-12-31T01:21:58Z</time>
      </trkpt>
      <trkpt lat="39.165550128507704" lon="117.76332492947927">
        <ele>0</ele>
        <time>2025-12-31T01:22:00Z</time>
      </trkpt>
      <trkpt lat="39.16547914329058" lon="117.76338994897499">
        <ele>0</ele>
        <time>2025-12-31T01:22:02Z</time>
      </trkpt>
      <trkpt lat="39.16540715829421" lon="117.76345596876006">
        <ele>0</ele>
        <time>2025-12-31T01:22:04Z</time>
      </trkpt>
      <trkpt lat="39.165335172384644" lon="117.7635179873336">
        <ele>0</ele>
        <time>2025-12-31T01:22:06Z</time>
      </trkpt>
      <trkpt lat="39.1652621864671" lon="117.76358000589916">
        <ele>0</ele>
        <time>2025-12-31T01:22:08Z</time>
      </trkpt>
      <trkpt lat="39.165193200091515" lon="117.76364002385912">
        <ele>0</ele>
        <time>2025-12-31T01:22:10Z</time>
      </trkpt>
      <trkpt lat="39.16513121257394" lon="117.76369504031582">
        <ele>0</ele>
        <time>2025-12-31T01:22:12Z</time>
      </trkpt>
      <trkpt lat="39.16508522232988" lon="117.76373805317749">
        <ele>0</ele>
        <time>2025-12-31T01:22:14Z</time>
      </trkpt>
      <trkpt lat="39.16505322936063" lon="117.76376906244813">
        <ele>0</ele>
        <time>2025-12-31T01:22:16Z</time>
      </trkpt>
      <trkpt lat="39.16502323502886" lon="117.76379406992312">
        <ele>0</ele>
        <time>2025-12-31T01:22:18Z</time>
      </trkpt>
      <trkpt lat="39.164985242510724" lon="117.7638270797868">
        <ele>0</ele>
        <time>2025-12-31T01:22:20Z</time>
      </trkpt>
      <trkpt lat="39.164955252940075" lon="117.76387309353531">
        <ele>0.007812500000000002</ele>
        <time>2025-12-31T01:22:22Z</time>
      </trkpt>
      <trkpt lat="39.164960266998065" lon="117.76393511206834">
        <ele>0</ele>
        <time>2025-12-31T01:22:24Z</time>
      </trkpt>
      <trkpt lat="39.16500128400252" lon="117.76401013448229">
        <ele>0</ele>
        <time>2025-12-31T01:22:26Z</time>
      </trkpt>
      <trkpt lat="39.165062302357256" lon="117.76409115867936">
        <ele>0</ele>
        <time>2025-12-31T01:22:28Z</time>
      </trkpt>
      <trkpt lat="39.16512032092464" lon="117.76417318315887">
        <ele>0</ele>
        <time>2025-12-31T01:22:30Z</time>
      </trkpt>
      <trkpt lat="39.16517433970985" lon="117.76425620791906">
        <ele>0</ele>
        <time>2025-12-31T01:22:32Z</time>
      </trkpt>
      <trkpt lat="39.16522435870824" lon="117.76434023296244">
        <ele>0</ele>
        <time>2025-12-31T01:22:34Z</time>
      </trkpt>
      <trkpt lat="39.16527437837009" lon="117.7644272588815">
        <ele>0</ele>
        <time>2025-12-31T01:22:36Z</time>
      </trkpt>
      <trkpt lat="39.16532539802005" lon="117.76451428478335">
        <ele>0</ele>
        <time>2025-12-31T01:22:38Z</time>
      </trkpt>
      <trkpt lat="39.16537641788015" lon="117.76460231096799">
        <ele>0</ele>
        <time>2025-12-31T01:22:40Z</time>
      </trkpt>
      <trkpt lat="39.165429437728626" lon="117.7646903371338">
        <ele>0</ele>
        <time>2025-12-31T01:22:42Z</time>
      </trkpt>
      <trkpt lat="39.16548345756227" lon="117.76477836328303">
        <ele>0</ele>
        <time>2025-12-31T01:22:44Z</time>
      </trkpt>
      <trkpt lat="39.1655364773832" lon="117.76486638941115">
        <ele></ele>
        <time>2025-12-31T01:22:46Z</time>
      </trkpt>
      <trkpt lat="39.16558849719112" lon="117.76495441552217">
        <ele>0</ele>
        <time>2025-12-31T01:22:48Z</time>
      </trkpt>
      <trkpt lat="39.16564051608731" lon="117.76503844042863">
        <ele>0</ele>
        <time>2025-12-31T01:22:50Z</time>
      </trkpt>
      <trkpt lat="39.165692534071056" lon="117.76511846413375">
        <ele>0</ele>
        <time>2025-12-31T01:22:52Z</time>
      </trkpt>
      <trkpt lat="39.16573755137072" lon="117.76519548693555">
        <ele>0</ele>
        <time>2025-12-31T01:22:54Z</time>
      </trkpt>
      <trkpt lat="39.1657535677567" lon="117.76526850853811">
        <ele>0</ele>
        <time>2025-12-31T01:22:56Z</time>
      </trkpt>
      <trkpt lat="39.16573058188317" lon="117.76533152716321">
        <ele>0.007812500000000002</ele>
        <time>2025-12-31T01:22:58Z</time>
      </trkpt>
      <trkpt lat="39.16567359308583" lon="117.76538154192966">
        <ele>0</ele>
        <time>2025-12-31T01:23:00Z</time>
      </trkpt>
      <trkpt lat="39.16560560136885" lon="117.76541855284736">
        <ele>0</ele>
        <time>2025-12-31T01:23:02Z</time>
      </trkpt>
      <trkpt lat="39.16554060897635" lon="117.76545256287656">
        <ele>0</ele>
        <time>2025-12-31T01:23:04Z</time>
      </trkpt>
      <trkpt lat="39.16547661658128" lon="117.76548657290454">
        <ele>0</ele>
        <time>2025-12-31T01:23:06Z</time>
      </trkpt>
      <trkpt lat="39.16541562418549" lon="117.765520582929">
        <ele>0</ele>
        <time>2025-12-31T01:23:08Z</time>
      </trkpt>
      <trkpt lat="39.16535563178685" lon="117.7655545929514">
        <ele>0</ele>
        <time>2025-12-31T01:23:10Z</time>
      </trkpt>
    </trkseg>
  </trk>
</gpx>