<?xml version="1.0" encoding="UTF-8"?>
<gpx xmlns="http://www.topografix.com/GPX/1/1" xmlns:gpxtpx="http://www.garmin.com/xmlschemas/TrackPointExtension/v1" xmlns:xsi="http://www.w3.org/2001/XMLSchema-instance" xsi:schemaLocation="http://www.topografix.com/GPX/1/1 http://www.topografix.com/GPX/1/1/gpx.xsd" version="1.1" creator="gpx.py -- https://github.com/tkrajina/gpxpy">
  <trk>
    <name>gpx from codoon</name>
    <type>Run</type>
    <trkseg>
      <trkpt lat="39.17119250861371" lon="117.76959074682516">
        <ele>2.001</ele>
        <time>2026-06-16T11:17:15Z</time>
      </trkpt>
      <trkpt lat="39.17119253086698" lon="117.76969577613973">
        <ele>0</ele>
        <time>2026-06-16T11:17:17Z</time>
      </trkpt>
      <trkpt lat="39.17119355753944" lon="117.76982181127381">
        <ele>0</ele>
        <time>2026-06-16T11:17:19Z</time>
      </trkpt>
      <trkpt lat="39.17119358459951" lon="117.76994984691879">
        <ele>0</ele>
        <time>2026-06-16T11:17:21Z</time>
      </trkpt>
      <trkpt lat="39.17119461183473" lon="117.77007888279964">
        <ele>0</ele>
        <time>2026-06-16T11:17:23Z</time>
      </trkpt>
      <trkpt lat="39.1711956390332" lon="117.77020791862805">
        <ele>0</ele>
        <time>2026-06-16T11:17:25Z</time>
      </trkpt>
      <trkpt lat="39.17119766598449" lon="117.77033595412495">
        <ele>0</ele>
        <time>2026-06-16T11:17:27Z</time>
      </trkpt>
      <trkpt lat="39.17119769289881" lon="117.77046398957991">
        <ele>0</ele>
        <time>2026-06-16T11:17:29Z</time>
      </trkpt>
      <trkpt lat="39.17119671977615" lon="117.77059202498282">
        <ele>0</ele>
        <time>2026-06-16T11:17:31Z</time>
      </trkpt>
      <trkpt lat="39.17119274682552" lon="117.77072106061965">
        <ele>0</ele>
        <time>2026-06-16T11:17:33Z</time>
      </trkpt>
      <trkpt lat="39.171190774046785" lon="117.77085109647335">
        <ele>0</ele>
        <time>2026-06-16T11:17:35Z</time>
      </trkpt>
      <trkpt lat="39.171187801438364" lon="117.77098213255722">
        <ele>0</ele>
        <time>2026-06-16T11:17:37Z</time>
      </trkpt>
      <trkpt lat="39.17118582879094" lon="117.77111316859055">
        <ele>0</ele>
        <time>2026-06-16T11:17:39Z</time>
      </trkpt>
      <trkpt lat="39.171181856103615" lon="117.77124420456809">
        <ele>0</ele>
        <time>2026-06-16T11:17:41Z</time>
      </trkpt>
      <trkpt lat="39.171178883168736" lon="117.77137424021825">
        <ele>0</ele>
        <time>2026-06-16T11:17:43Z</time>
      </trkpt>
      <trkpt lat="39.17117591040235" lon="117.77150527609793">
        <ele>0</ele>
        <time>2026-06-16T11:17:45Z</time>
      </trkpt>
      <trkpt lat="39.17117593801143" lon="117.77163831246806">
        <ele>0</ele>
        <time>2026-06-16T11:17:47Z</time>
      </trkpt>
      <trkpt lat="39.17117696557926" lon="117.77177134878777">
        <ele>0</ele>
        <time>2026-06-16T11:17:49Z</time>
      </trkpt>
      <trkpt lat="39.171177993312185" lon="117.771905385325">
        <ele>0</ele>
        <time>2026-06-16T11:17:51Z</time>
      </trkpt>
      <trkpt lat="39.171180020796264" lon="117.77203842153284">
        <ele>0</ele>
        <time>2026-06-16T11:17:53Z</time>
      </trkpt>
      <trkpt lat="39.17118204782597" lon="117.77216945713835">
        <ele>0</ele>
        <time>2026-06-16T11:17:55Z</time>
      </trkpt>
      <trkpt lat="39.17118107440233" lon="117.77229849214523">
        <ele>0</ele>
        <time>2026-06-16T11:17:57Z</time>
      </trkpt>
      <trkpt lat="39.17118010134983" lon="117.77242952764516">
        <ele>0</ele>
        <time>2026-06-16T11:17:59Z</time>
      </trkpt>
      <trkpt lat="39.17118012866661" lon="117.77256256363144">
        <ele>0</ele>
        <time>2026-06-16T11:18:01Z</time>
      </trkpt>
      <trkpt lat="39.17118115635055" lon="117.77269760010503">
        <ele>0</ele>
        <time>2026-06-16T11:18:03Z</time>
      </trkpt>
      <trkpt lat="39.171180183989634" lon="117.77283263651454">
        <ele>0</ele>
        <time>2026-06-16T11:18:05Z</time>
      </trkpt>
      <trkpt lat="39.17117921158416" lon="117.77296767286617">
        <ele>0</ele>
        <time>2026-06-16T11:18:07Z</time>
      </trkpt>
      <trkpt lat="39.171177239133655" lon="117.77310270916398">
        <ele>0</ele>
        <time>2026-06-16T11:18:09Z</time>
      </trkpt>
      <trkpt lat="39.17117626623124" lon="117.773235744869">
        <ele>0</ele>
        <time>2026-06-16T11:18:11Z</time>
      </trkpt>
      <trkpt lat="39.171177293082124" lon="117.77336778024444">
        <ele>0</ele>
        <time>2026-06-16T11:18:13Z</time>
      </trkpt>
      <trkpt lat="39.17117631988921" lon="117.77349981556006">
        <ele>0</ele>
        <time>2026-06-16T11:18:15Z</time>
      </trkpt>
      <trkpt lat="39.171176346652885" lon="117.77363185081691">
        <ele>0</ele>
        <time>2026-06-16T11:18:17Z</time>
      </trkpt>
      <trkpt lat="39.17117537337254" lon="117.77376388601525">
        <ele>0</ele>
        <time>2026-06-16T11:18:19Z</time>
      </trkpt>
      <trkpt lat="39.171175400048426" lon="117.77389592116337">
        <ele>0</ele>
        <time>2026-06-16T11:18:21Z</time>
      </trkpt>
      <trkpt lat="39.171175426680136" lon="117.77402795625615">
        <ele>0</ele>
        <time>2026-06-16T11:18:23Z</time>
      </trkpt>
      <trkpt lat="39.1711754526637" lon="117.77415699049006">
        <ele>0</ele>
        <time>2026-06-16T11:18:25Z</time>
      </trkpt>
      <trkpt lat="39.171175478403775" lon="117.77428502440553">
        <ele>0</ele>
        <time>2026-06-16T11:18:27Z</time>
      </trkpt>
      <trkpt lat="39.171175503499974" lon="117.77441005747427">
        <ele>0</ele>
        <time>2026-06-16T11:18:29Z</time>
      </trkpt>
      <trkpt lat="39.17117552875616" lon="117.7745360907471">
        <ele>0</ele>
        <time>2026-06-16T11:18:31Z</time>
      </trkpt>
      <trkpt lat="39.17117455437095" lon="117.77466412449861">
        <ele>0</ele>
        <time>2026-06-16T11:18:33Z</time>
      </trkpt>
      <trkpt lat="39.17117358014275" lon="117.77479315845842">
        <ele>0</ele>
        <time>2026-06-16T11:18:35Z</time>
      </trkpt>
      <trkpt lat="39.171172605871114" lon="117.77492219236457">
        <ele>0</ele>
        <time>2026-06-16T11:18:37Z</time>
      </trkpt>
      <trkpt lat="39.17117163155587" lon="117.77505122620477">
        <ele>0</ele>
        <time>2026-06-16T11:18:39Z</time>
      </trkpt>
      <trkpt lat="39.171170656799646" lon="117.77517825947038">
        <ele>0</ele>
        <time>2026-06-16T11:18:41Z</time>
      </trkpt>
      <trkpt lat="39.17116968219908" lon="117.77530629293886">
        <ele>0</ele>
        <time>2026-06-16T11:18:43Z</time>
      </trkpt>
      <trkpt lat="39.17116970775321" lon="117.77543532660819">
        <ele>0</ele>
        <time>2026-06-16T11:18:45Z</time>
      </trkpt>
      <trkpt lat="39.17117073346086" lon="117.77556536048355">
        <ele>0</ele>
        <time>2026-06-16T11:18:47Z</time>
      </trkpt>
      <trkpt lat="39.17117075932031" lon="117.77569639455864">
        <ele>0</ele>
        <time>2026-06-16T11:18:49Z</time>
      </trkpt>
      <trkpt lat="39.17116878513328" lon="117.77582742857147">
        <ele>0</ele>
        <time>2026-06-16T11:18:51Z</time>
      </trkpt>
      <trkpt lat="39.17116781109674" lon="117.77595946278635">
        <ele>0</ele>
        <time>2026-06-16T11:18:53Z</time>
      </trkpt>
      <trkpt lat="39.17116883681736" lon="117.77609049667782">
        <ele>0</ele>
        <time>2026-06-16T11:18:55Z</time>
      </trkpt>
      <trkpt lat="39.17117086190413" lon="117.77621852973533">
        <ele>0</ele>
        <time>2026-06-16T11:18:57Z</time>
      </trkpt>
      <trkpt lat="39.1711718867506" lon="117.77634556248061">
        <ele>0</ele>
        <time>2026-06-16T11:18:59Z</time>
      </trkpt>
      <trkpt lat="39.1711719117478" lon="117.77647359541815">
        <ele>0</ele>
        <time>2026-06-16T11:19:01Z</time>
      </trkpt>
      <trkpt lat="39.17117093689456" lon="117.77660262856018">
        <ele>0</ele>
        <time>2026-06-16T11:19:03Z</time>
      </trkpt>
      <trkpt lat="39.17116996218986" lon="117.77673266189156">
        <ele>0</ele>
        <time>2026-06-16T11:19:05Z</time>
      </trkpt>
      <trkpt lat="39.17116798724415" lon="117.77686169491119">
        <ele>0</ele>
        <time>2026-06-16T11:19:07Z</time>
      </trkpt>
      <trkpt lat="39.17116601225216" lon="117.77699072786619">
        <ele>0</ele>
        <time>2026-06-16T11:19:09Z</time>
      </trkpt>
      <trkpt lat="39.17116303721367" lon="117.7771197607605">
        <ele>0</ele>
        <time>2026-06-16T11:19:11Z</time>
      </trkpt>
      <trkpt lat="39.17116106193573" lon="117.77724779334392">
        <ele>0</ele>
        <time>2026-06-16T11:19:13Z</time>
      </trkpt>
      <trkpt lat="39.17115808680416" lon="117.77737682611769">
        <ele>0</ele>
        <time>2026-06-16T11:19:15Z</time>
      </trkpt>
      <trkpt lat="39.17115611143371" lon="117.77750485857904">
        <ele>0</ele>
        <time>2026-06-16T11:19:17Z</time>
      </trkpt>
      <trkpt lat="39.17115413601683" lon="117.77763289098134">
        <ele>0</ele>
        <time>2026-06-16T11:19:19Z</time>
      </trkpt>
      <trkpt lat="39.17115416017091" lon="117.777758922822">
        <ele>0</ele>
        <time>2026-06-16T11:19:21Z</time>
      </trkpt>
      <trkpt lat="39.17115518408883" lon="117.77788395435152">
        <ele>0</ele>
        <time>2026-06-16T11:19:23Z</time>
      </trkpt>
      <trkpt lat="39.17115620796205" lon="117.77800898581623">
        <ele>0</ele>
        <time>2026-06-16T11:19:25Z</time>
      </trkpt>
      <trkpt lat="39.17115723160005" lon="117.778133016977">
        <ele>0</ele>
        <time>2026-06-16T11:19:27Z</time>
      </trkpt>
      <trkpt lat="39.171158255003675" lon="117.77825604782927">
        <ele>0</ele>
        <time>2026-06-16T11:19:29Z</time>
      </trkpt>
      <trkpt lat="39.171157278173446" lon="117.77837807836792">
        <ele>0</ele>
        <time>2026-06-16T11:19:31Z</time>
      </trkpt>
      <trkpt lat="39.17115630092132" lon="117.77849810835608">
        <ele>0</ele>
        <time>2026-06-16T11:19:33Z</time>
      </trkpt>
      <trkpt lat="39.17115332324882" lon="117.77861613778633">
        <ele>0</ele>
        <time>2026-06-16T11:19:35Z</time>
      </trkpt>
      <trkpt lat="39.17115034553559" lon="117.77873416716085">
        <ele>0</ele>
        <time>2026-06-16T11:19:37Z</time>
      </trkpt>
      <trkpt lat="39.171149368347194" lon="117.77885519723172">
        <ele>0</ele>
        <time>2026-06-16T11:19:39Z</time>
      </trkpt>
      <trkpt lat="39.171149391116096" lon="117.77897622724828">
        <ele>0</ele>
        <time>2026-06-16T11:19:41Z</time>
      </trkpt>
      <trkpt lat="39.17115041384211" lon="117.7790972572111">
        <ele>0</ele>
        <time>2026-06-16T11:19:43Z</time>
      </trkpt>
      <trkpt lat="39.17115143689947" lon="117.77922028760759">
        <ele>0</ele>
        <time>2026-06-16T11:19:45Z</time>
      </trkpt>
      <trkpt lat="39.171152460098924" lon="117.77934431819146">
        <ele>0</ele>
        <time>2026-06-16T11:19:47Z</time>
      </trkpt>
      <trkpt lat="39.17115248325243" lon="117.77946834871399">
        <ele>0</ele>
        <time>2026-06-16T11:19:49Z</time>
      </trkpt>
      <trkpt lat="39.17115150654596" lon="117.77959337942161">
        <ele>0</ele>
        <time>2026-06-16T11:19:51Z</time>
      </trkpt>
      <trkpt lat="39.17115152979305" lon="117.77971841007204">
        <ele>0</ele>
        <time>2026-06-16T11:19:53Z</time>
      </trkpt>
      <trkpt lat="39.17114955280742" lon="117.77984244041126">
        <ele>0</ele>
        <time>2026-06-16T11:19:55Z</time>
      </trkpt>
      <trkpt lat="39.17114757559043" lon="117.77996547045447">
        <ele>0</ele>
        <time>2026-06-16T11:19:57Z</time>
      </trkpt>
      <trkpt lat="39.17114459814279" lon="117.78008750019177">
        <ele>0</ele>
        <time>2026-06-16T11:19:59Z</time>
      </trkpt>
      <trkpt lat="39.17114562028238" lon="117.7802075293858">
        <ele>0</ele>
        <time>2026-06-16T11:20:01Z</time>
      </trkpt>
      <trkpt lat="39.17115264237982" lon="117.78032755852587">
        <ele>0</ele>
        <time>2026-06-16T11:20:03Z</time>
      </trkpt>
      <trkpt lat="39.171162664984614" lon="117.78045058833759">
        <ele>0</ele>
        <time>2026-06-16T11:20:05Z</time>
      </trkpt>
      <trkpt lat="39.17117068845859" lon="117.78057861928883">
        <ele>0</ele>
        <time>2026-06-16T11:20:07Z</time>
      </trkpt>
      <trkpt lat="39.171174712246966" lon="117.7807086506602">
        <ele>0</ele>
        <time>2026-06-16T11:20:09Z</time>
      </trkpt>
      <trkpt lat="39.17117673634781" lon="117.78084068243982">
        <ele>0</ele>
        <time>2026-06-16T11:20:11Z</time>
      </trkpt>
      <trkpt lat="39.17117876039483" lon="117.78097271414941">
        <ele>0</ele>
        <time>2026-06-16T11:20:13Z</time>
      </trkpt>
      <trkpt lat="39.171179784206146" lon="117.78110374555266">
        <ele>0</ele>
        <time>2026-06-16T11:20:15Z</time>
      </trkpt>
      <trkpt lat="39.17117680760095" lon="117.78123277640226">
        <ele>0</ele>
        <time>2026-06-16T11:20:17Z</time>
      </trkpt>
      <trkpt lat="39.171173830763166" lon="117.7813608069452">
        <ele>0</ele>
        <time>2026-06-16T11:20:19Z</time>
      </trkpt>
      <trkpt lat="39.17117185369401" lon="117.78148783718309">
        <ele>0</ele>
        <time>2026-06-16T11:20:21Z</time>
      </trkpt>
      <trkpt lat="39.17117187657483" lon="117.78161486735591">
        <ele>0</ele>
        <time>2026-06-16T11:20:23Z</time>
      </trkpt>
      <trkpt lat="39.17117289958476" lon="117.78174289770102">
        <ele>0</ele>
        <time>2026-06-16T11:20:25Z</time>
      </trkpt>
      <trkpt lat="39.17117192272173" lon="117.78187192821493">
        <ele>0</ele>
        <time>2026-06-16T11:20:27Z</time>
      </trkpt>
      <trkpt lat="39.171171945806314" lon="117.78200095866298">
        <ele>0</ele>
        <time>2026-06-16T11:20:29Z</time>
      </trkpt>
      <trkpt lat="39.171169968659285" lon="117.78212898880565">
        <ele>0</ele>
        <time>2026-06-16T11:20:31Z</time>
      </trkpt>
      <trkpt lat="39.17117199110529" lon="117.78225501841139">
        <ele>0</ele>
        <time>2026-06-16T11:20:33Z</time>
      </trkpt>
      <trkpt lat="39.171172013677676" lon="117.78238204818207">
        <ele>0</ele>
        <time>2026-06-16T11:20:35Z</time>
      </trkpt>
      <trkpt lat="39.171174036376016" lon="117.78251007812833">
        <ele>0</ele>
        <time>2026-06-16T11:20:37Z</time>
      </trkpt>
      <trkpt lat="39.17117505902157" lon="117.78263810799682">
        <ele>0</ele>
        <time>2026-06-16T11:20:39Z</time>
      </trkpt>
      <trkpt lat="39.171176081790755" lon="117.78276713803518">
        <ele>0</ele>
        <time>2026-06-16T11:20:41Z</time>
      </trkpt>
      <trkpt lat="39.171178104330615" lon="117.78289516777389">
        <ele>0</ele>
        <time>2026-06-16T11:20:43Z</time>
      </trkpt>
      <trkpt lat="39.17118012646655" lon="117.78302119697271">
        <ele>0</ele>
        <time>2026-06-16T11:20:45Z</time>
      </trkpt>
      <trkpt lat="39.17118214837579" lon="117.78314622587276">
        <ele>0</ele>
        <time>2026-06-16T11:20:47Z</time>
      </trkpt>
      <trkpt lat="39.171182170059076" lon="117.78327025448041">
        <ele>0</ele>
        <time>2026-06-16T11:20:49Z</time>
      </trkpt>
      <trkpt lat="39.171179191691586" lon="117.7833942830167">
        <ele>0</ele>
        <time>2026-06-16T11:20:51Z</time>
      </trkpt>
      <trkpt lat="39.171176213621244" lon="117.78352031194783">
        <ele>0</ele>
        <time>2026-06-16T11:20:53Z</time>
      </trkpt>
      <trkpt lat="39.171172234978485" lon="117.78364334012285">
        <ele>0</ele>
        <time>2026-06-16T11:20:55Z</time>
      </trkpt>
      <trkpt lat="39.17117125611354" lon="117.7837653680071">
        <ele>0</ele>
        <time>2026-06-16T11:20:57Z</time>
      </trkpt>
      <trkpt lat="39.17117027685429" lon="117.78388539537775">
        <ele>0</ele>
        <time>2026-06-16T11:20:59Z</time>
      </trkpt>
      <trkpt lat="39.17116829737485" lon="117.78400442245767">
        <ele>0</ele>
        <time>2026-06-16T11:21:01Z</time>
      </trkpt>
      <trkpt lat="39.17116331767575" lon="117.78412244924155">
        <ele>0</ele>
        <time>2026-06-16T11:21:03Z</time>
      </trkpt>
      <trkpt lat="39.171159337759306" lon="117.78423947574628">
        <ele>0</ele>
        <time>2026-06-16T11:21:05Z</time>
      </trkpt>
      <trkpt lat="39.17115635745542" lon="117.78435450173721">
        <ele>0</ele>
        <time>2026-06-16T11:21:07Z</time>
      </trkpt>
      <trkpt lat="39.17114437591047" lon="117.7844625260959">
        <ele>0</ele>
        <time>2026-06-16T11:21:09Z</time>
      </trkpt>
      <trkpt lat="39.17111038955015" lon="117.78454254409333">
        <ele>0</ele>
        <time>2026-06-16T11:21:11Z</time>
      </trkpt>
      <trkpt lat="39.17105939754458" lon="117.78458955464444">
        <ele>0</ele>
        <time>2026-06-16T11:21:13Z</time>
      </trkpt>
      <trkpt lat="39.17101040281016" lon="117.78462056159078">
        <ele>0</ele>
        <time>2026-06-16T11:21:15Z</time>
      </trkpt>
      <trkpt lat="39.17098340977951" lon="117.78466157078557">
        <ele>0</ele>
        <time>2026-06-16T11:21:17Z</time>
      </trkpt>
      <trkpt lat="39.17097541946526" lon="117.78471858357003">
        <ele>0</ele>
        <time>2026-06-16T11:21:19Z</time>
      </trkpt>
      <trkpt lat="39.170974430159724" lon="117.78478159768571">
        <ele>0</ele>
        <time>2026-06-16T11:21:21Z</time>
      </trkpt>
      <trkpt lat="39.17097244101" lon="117.78484561200754">
        <ele>0</ele>
        <time>2026-06-16T11:21:23Z</time>
      </trkpt>
      <trkpt lat="39.170971451677524" lon="117.78490862608518">
        <ele>0</ele>
        <time>2026-06-16T11:21:25Z</time>
      </trkpt>
      <trkpt lat="39.17097346148731" lon="117.78496663903098">
        <ele>0</ele>
        <time>2026-06-16T11:21:27Z</time>
      </trkpt>
      <trkpt lat="39.170977470273165" lon="117.78501865062896">
        <ele>0</ele>
        <time>2026-06-16T11:21:29Z</time>
      </trkpt>
      <trkpt lat="39.17097947820585" lon="117.78506566110171">
        <ele>0</ele>
        <time>2026-06-16T11:21:31Z</time>
      </trkpt>
      <trkpt lat="39.1709784854562" lon="117.78510867067193">
        <ele>0</ele>
        <time>2026-06-16T11:21:33Z</time>
      </trkpt>
      <trkpt lat="39.17108150753594" lon="117.78523969981555">
        <ele>0</ele>
        <time>2026-06-16T11:24:05Z</time>
      </trkpt>
      <trkpt lat="39.171082518455584" lon="117.78530471423052">
        <ele>0</ele>
        <time>2026-06-16T11:24:09Z</time>
      </trkpt>
      <trkpt lat="39.17108352936087" lon="117.7853697286239">
        <ele>0</ele>
        <time>2026-06-16T11:24:11Z</time>
      </trkpt>
      <trkpt lat="39.171085539749605" lon="117.78543174233548">
        <ele>0</ele>
        <time>2026-06-16T11:24:13Z</time>
      </trkpt>
      <trkpt lat="39.17109954845605" lon="117.78548375382663">
        <ele>0</ele>
        <time>2026-06-16T11:24:15Z</time>
      </trkpt>
      <trkpt lat="39.17113455381511" lon="117.7855157609027">
        <ele>0</ele>
        <time>2026-06-16T11:24:17Z</time>
      </trkpt>
      <trkpt lat="39.17118755583503" lon="117.7855277635701">
        <ele>0</ele>
        <time>2026-06-16T11:24:19Z</time>
      </trkpt>
      <trkpt lat="39.17124755584854" lon="117.78552776359226">
        <ele>0</ele>
        <time>2026-06-16T11:24:21Z</time>
      </trkpt>
      <trkpt lat="39.17130855602887" lon="117.78552876383543">
        <ele>0</ele>
        <time>2026-06-16T11:24:23Z</time>
      </trkpt>
      <trkpt lat="39.17136855788055" lon="117.78553976628442">
        <ele>0</ele>
        <time>2026-06-16T11:24:25Z</time>
      </trkpt>
      <trkpt lat="39.171431561070804" lon="117.78555877049804">
        <ele>0</ele>
        <time>2026-06-16T11:24:27Z</time>
      </trkpt>
      <trkpt lat="39.171496564257616" lon="117.78557777471026">
        <ele>0</ele>
        <time>2026-06-16T11:24:29Z</time>
      </trkpt>
      <trkpt lat="39.17156956594683" lon="117.78558777694094">
        <ele>0</ele>
        <time>2026-06-16T11:24:31Z</time>
      </trkpt>
      <trkpt lat="39.171648566630246" lon="117.7855917778515">
        <ele>0</ele>
        <time>2026-06-16T11:24:33Z</time>
      </trkpt>
      <trkpt lat="39.1717315666518" lon="117.78559177788219">
        <ele>0</ele>
        <time>2026-06-16T11:24:34Z</time>
      </trkpt>
      <trkpt lat="39.171816566840704" lon="117.78559277813399">
        <ele>0</ele>
        <time>2026-06-16T11:24:36Z</time>
      </trkpt>
      <trkpt lat="39.17190356686602" lon="117.78559277816616">
        <ele>0</ele>
        <time>2026-06-16T11:24:38Z</time>
      </trkpt>
      <trkpt lat="39.171991566556535" lon="117.78559077775807">
        <ele>0</ele>
        <time>2026-06-16T11:24:40Z</time>
      </trkpt>
      <trkpt lat="39.17207856657983" lon="117.78559077779025">
        <ele>0</ele>
        <time>2026-06-16T11:24:42Z</time>
      </trkpt>
      <trkpt lat="39.17216456660468" lon="117.78559077782205">
        <ele>0</ele>
        <time>2026-06-16T11:24:44Z</time>
      </trkpt>
      <trkpt lat="39.172249567123394" lon="117.78559377851464">
        <ele>0</ele>
        <time>2026-06-16T11:24:46Z</time>
      </trkpt>
      <trkpt lat="39.17233656747904" lon="117.78559577898743">
        <ele>0</ele>
        <time>2026-06-16T11:24:48Z</time>
      </trkpt>
      <trkpt lat="39.17242656783493" lon="117.7855977794614">
        <ele>0</ele>
        <time>2026-06-16T11:24:50Z</time>
      </trkpt>
      <trkpt lat="39.17251656769296" lon="117.7855967792744">
        <ele>0</ele>
        <time>2026-06-16T11:24:52Z</time>
      </trkpt>
      <trkpt lat="39.172608567549716" lon="117.78559577908811">
        <ele>0</ele>
        <time>2026-06-16T11:24:54Z</time>
      </trkpt>
      <trkpt lat="39.17270056741015" lon="117.78559477890181">
        <ele>0</ele>
        <time>2026-06-16T11:24:56Z</time>
      </trkpt>
      <trkpt lat="39.17279356759895" lon="117.78559577915657">
        <ele>0</ele>
        <time>2026-06-16T11:24:58Z</time>
      </trkpt>
      <trkpt lat="39.17288356778547" lon="117.78559677941017">
        <ele>0</ele>
        <time>2026-06-16T11:25:00Z</time>
      </trkpt>
      <trkpt lat="39.17296956813733" lon="117.78559877988268">
        <ele>0</ele>
        <time>2026-06-16T11:25:02Z</time>
      </trkpt>
      <trkpt lat="39.17304956832705" lon="117.78559978013256">
        <ele>0</ele>
        <time>2026-06-16T11:25:04Z</time>
      </trkpt>
      <trkpt lat="39.173124568849175" lon="117.7856027808213">
        <ele>0</ele>
        <time>2026-06-16T11:25:06Z</time>
      </trkpt>
      <trkpt lat="39.17319356919946" lon="117.7856047812874">
        <ele>0</ele>
        <time>2026-06-16T11:25:08Z</time>
      </trkpt>
      <trkpt lat="39.173256569547426" lon="117.78560678175131">
        <ele>0</ele>
        <time>2026-06-16T11:25:10Z</time>
      </trkpt>
      <trkpt lat="39.17330656855866" lon="117.78560078044838">
        <ele>0</ele>
        <time>2026-06-16T11:25:12Z</time>
      </trkpt>
      <trkpt lat="39.17333856472846" lon="117.78557777539174">
        <ele>0</ele>
        <time>2026-06-16T11:25:14Z</time>
      </trkpt>
      <trkpt lat="39.17334955871904" lon="117.78554176745759">
        <ele>0</ele>
        <time>2026-06-16T11:25:16Z</time>
      </trkpt>
      <trkpt lat="39.17334655136356" lon="117.7854977577476">
        <ele>0</ele>
        <time>2026-06-16T11:25:18Z</time>
      </trkpt>
      <trkpt lat="39.17334454383439" lon="117.78545274780816">
        <ele>0</ele>
        <time>2026-06-16T11:25:22Z</time>
      </trkpt>
      <trkpt lat="39.173354537808585" lon="117.78541673985373">
        <ele>0</ele>
        <time>2026-06-16T11:25:24Z</time>
      </trkpt>
      <trkpt lat="39.17337853412861" lon="117.78539473499671">
        <ele>0</ele>
        <time>2026-06-16T11:25:26Z</time>
      </trkpt>
      <trkpt lat="39.17341153346606" lon="117.78539073412388">
        <ele>0</ele>
        <time>2026-06-16T11:25:28Z</time>
      </trkpt>
      <trkpt lat="39.17344553280449" lon="117.78538673325129">
        <ele>0</ele>
        <time>2026-06-16T11:25:30Z</time>
      </trkpt>
      <trkpt lat="39.173477531806" lon="117.78538073193525">
        <ele>0</ele>
        <time>2026-06-16T11:25:32Z</time>
      </trkpt>
      <trkpt lat="39.17350853030515" lon="117.78537172995502">
        <ele>0</ele>
        <time>2026-06-16T11:25:34Z</time>
      </trkpt>
      <trkpt lat="39.1735405298108" lon="117.78536872930287">
        <ele>0</ele>
        <time>2026-06-16T11:25:36Z</time>
      </trkpt>
      <trkpt lat="39.17357252998659" lon="117.78536972953601">
        <ele>0</ele>
        <time>2026-06-16T11:25:38Z</time>
      </trkpt>
      <trkpt lat="39.17357953149716" lon="117.78537873153037">
        <ele>0</ele>
        <time>2026-06-16T11:25:46Z</time>
      </trkpt>
      <trkpt lat="39.1735605330006" lon="117.78538773351522">
        <ele>0</ele>
        <time>2026-06-16T11:25:48Z</time>
      </trkpt>
      <trkpt lat="39.173513534495655" lon="117.78539673548886">
        <ele>0</ele>
        <time>2026-06-16T11:25:50Z</time>
      </trkpt>
      <trkpt lat="39.17346353548741" lon="117.78540273679766">
        <ele>0</ele>
        <time>2026-06-16T11:25:52Z</time>
      </trkpt>
      <trkpt lat="39.173413536481156" lon="117.78540873810614">
        <ele>0</ele>
        <time>2026-06-16T11:25:54Z</time>
      </trkpt>
      <trkpt lat="39.17337554216472" lon="117.78544274561004">
        <ele>0</ele>
        <time>2026-06-16T11:25:58Z</time>
      </trkpt>
      <trkpt lat="39.17335455186302" lon="117.78550075841406">
        <ele>0</ele>
        <time>2026-06-16T11:26:00Z</time>
      </trkpt>
      <trkpt lat="39.17333556388931" lon="117.78557277428887">
        <ele>0</ele>
        <time>2026-06-16T11:26:02Z</time>
      </trkpt>
      <trkpt lat="39.17330257155705" lon="117.78561878441283">
        <ele>0</ele>
        <time>2026-06-16T11:26:04Z</time>
      </trkpt>
      <trkpt lat="39.17325057488061" lon="117.78563878879785">
        <ele>0</ele>
        <time>2026-06-16T11:26:06Z</time>
      </trkpt>
      <trkpt lat="39.17319057503355" lon="117.78563978899575">
        <ele>0</ele>
        <time>2026-06-16T11:26:08Z</time>
      </trkpt>
      <trkpt lat="39.173130574350104" lon="117.78563578809286">
        <ele>0</ele>
        <time>2026-06-16T11:26:10Z</time>
      </trkpt>
      <trkpt lat="39.173068573835295" lon="117.78563278740947">
        <ele>0</ele>
        <time>2026-06-16T11:26:12Z</time>
      </trkpt>
      <trkpt lat="39.17299957348304" lon="117.7856307869435">
        <ele>0</ele>
        <time>2026-06-16T11:26:14Z</time>
      </trkpt>
      <trkpt lat="39.17292357279864" lon="117.7856267860346">
        <ele>0</ele>
        <time>2026-06-16T11:26:16Z</time>
      </trkpt>
      <trkpt lat="39.17284157211373" lon="117.78562278512334">
        <ele>0</ele>
        <time>2026-06-16T11:26:18Z</time>
      </trkpt>
      <trkpt lat="39.172757571590196" lon="117.7856197844317">
        <ele>0</ele>
        <time>2026-06-16T11:26:20Z</time>
      </trkpt>
      <trkpt lat="39.17267157123659" lon="117.78561778395952">
        <ele>0</ele>
        <time>2026-06-16T11:26:22Z</time>
      </trkpt>
      <trkpt lat="39.172585571048174" lon="117.78561678370744">
        <ele>0</ele>
        <time>2026-06-16T11:26:24Z</time>
      </trkpt>
      <trkpt lat="39.17249757068885" lon="117.78561478323434">
        <ele>0</ele>
        <time>2026-06-16T11:26:26Z</time>
      </trkpt>
      <trkpt lat="39.17240857050153" lon="117.78561378298117">
        <ele>0</ele>
        <time>2026-06-16T11:26:28Z</time>
      </trkpt>
      <trkpt lat="39.17231957030909" lon="117.78561278272798">
        <ele>0</ele>
        <time>2026-06-16T11:26:30Z</time>
      </trkpt>
      <trkpt lat="39.17223057012009" lon="117.78561178247479">
        <ele>0</ele>
        <time>2026-06-16T11:26:32Z</time>
      </trkpt>
      <trkpt lat="39.17214256992765" lon="117.78561078222197">
        <ele>0</ele>
        <time>2026-06-16T11:26:34Z</time>
      </trkpt>
      <trkpt lat="39.17205256957353" lon="117.78560878174817">
        <ele>0</ele>
        <time>2026-06-16T11:26:36Z</time>
      </trkpt>
      <trkpt lat="39.17196156905118" lon="117.78560578105359">
        <ele>0</ele>
        <time>2026-06-16T11:26:38Z</time>
      </trkpt>
      <trkpt lat="39.171870568524035" lon="117.78560278035903">
        <ele>0</ele>
        <time>2026-06-16T11:26:40Z</time>
      </trkpt>
      <trkpt lat="39.17178056833379" lon="117.78560178010548">
        <ele>0</ele>
        <time>2026-06-16T11:26:42Z</time>
      </trkpt>
      <trkpt lat="39.171689568145545" lon="117.78560077985152">
        <ele>0</ele>
        <time>2026-06-16T11:26:44Z</time>
      </trkpt>
      <trkpt lat="39.17160256762667" lon="117.78559777915854">
        <ele>0</ele>
        <time>2026-06-16T11:26:46Z</time>
      </trkpt>
      <trkpt lat="39.17151956593675" lon="117.78558777692439">
        <ele>0</ele>
        <time>2026-06-16T11:26:48Z</time>
      </trkpt>
      <trkpt lat="39.17144256274487" lon="117.78556877270826">
        <ele>0</ele>
        <time>2026-06-16T11:26:50Z</time>
      </trkpt>
      <trkpt lat="39.17137255921959" lon="117.78554776805281">
        <ele>0</ele>
        <time>2026-06-16T11:26:52Z</time>
      </trkpt>
      <trkpt lat="39.17131655586451" lon="117.78552776362032">
        <ele>0</ele>
        <time>2026-06-16T11:26:54Z</time>
      </trkpt>
      <trkpt lat="39.171280549001025" lon="117.7854867545575">
        <ele>0</ele>
        <time>2026-06-16T11:26:56Z</time>
      </trkpt>
      <trkpt lat="39.17126753711422" lon="117.78541573886255">
        <ele>0</ele>
        <time>2026-06-16T11:26:58Z</time>
      </trkpt>
      <trkpt lat="39.17126951934025" lon="117.7853097153999">
        <ele>0</ele>
        <time>2026-06-16T11:27:00Z</time>
      </trkpt>
      <trkpt lat="39.1712754995101" lon="117.7851916892198">
        <ele>0</ele>
        <time>2026-06-16T11:27:02Z</time>
      </trkpt>
      <trkpt lat="39.17127747777621" lon="117.78506266052725">
        <ele>0</ele>
        <time>2026-06-16T11:27:04Z</time>
      </trkpt>
      <trkpt lat="39.17127545564659" lon="117.78493163132099">
        <ele>0</ele>
        <time>2026-06-16T11:27:06Z</time>
      </trkpt>
      <trkpt lat="39.17127343311985" lon="117.78479860158387">
        <ele>0</ele>
        <time>2026-06-16T11:27:08Z</time>
      </trkpt>
      <trkpt lat="39.171271410193356" lon="117.78466357132291">
        <ele>0</ele>
        <time>2026-06-16T11:27:10Z</time>
      </trkpt>
      <trkpt lat="39.17127338703612" lon="117.78452754075633">
        <ele>0</ele>
        <time>2026-06-16T11:27:12Z</time>
      </trkpt>
      <trkpt lat="39.17127336381635" lon="117.78439151011494">
        <ele>0</ele>
        <time>2026-06-16T11:27:14Z</time>
      </trkpt>
      <trkpt lat="39.171275340878005" lon="117.78425747983805">
        <ele>0</ele>
        <time>2026-06-16T11:27:16Z</time>
      </trkpt>
      <trkpt lat="39.17127731787995" lon="117.78412344948335">
        <ele>0</ele>
        <time>2026-06-16T11:27:18Z</time>
      </trkpt>
      <trkpt lat="39.17127929499446" lon="117.78399041928672">
        <ele>0</ele>
        <time>2026-06-16T11:27:20Z</time>
      </trkpt>
      <trkpt lat="39.17128127187756" lon="117.78385638878787">
        <ele>0</ele>
        <time>2026-06-16T11:27:22Z</time>
      </trkpt>
      <trkpt lat="39.1712832487014" lon="117.78372235820522">
        <ele>0</ele>
        <time>2026-06-16T11:27:24Z</time>
      </trkpt>
      <trkpt lat="39.17128622477174" lon="117.78358432663275">
        <ele>0</ele>
        <time>2026-06-16T11:27:26Z</time>
      </trkpt>
      <trkpt lat="39.171286200778795" lon="117.78344629497583">
        <ele>0</ele>
        <time>2026-06-16T11:27:28Z</time>
      </trkpt>
      <trkpt lat="39.17128617654893" lon="117.78330726300572">
        <ele>0</ele>
        <time>2026-06-16T11:27:30Z</time>
      </trkpt>
      <trkpt lat="39.17128615243096" lon="117.7831692311831">
        <ele>0</ele>
        <time>2026-06-16T11:27:32Z</time>
      </trkpt>
      <trkpt lat="39.17128812825149" lon="117.78303119928441">
        <ele>0</ele>
        <time>2026-06-16T11:27:34Z</time>
      </trkpt>
      <trkpt lat="39.17129110383452" lon="117.78289216707267">
        <ele>0</ele>
        <time>2026-06-16T11:27:36Z</time>
      </trkpt>
      <trkpt lat="39.17129307917849" lon="117.78275213455053">
        <ele>0</ele>
        <time>2026-06-16T11:27:38Z</time>
      </trkpt>
      <trkpt lat="39.171294054458954" lon="117.7826121019446">
        <ele>0</ele>
        <time>2026-06-16T11:27:40Z</time>
      </trkpt>
      <trkpt lat="39.17129602932211" lon="117.78247006878775">
        <ele>0</ele>
        <time>2026-06-16T11:27:42Z</time>
      </trkpt>
      <trkpt lat="39.17129600394249" lon="117.78232703531214">
        <ele>0</ele>
        <time>2026-06-16T11:27:44Z</time>
      </trkpt>
      <trkpt lat="39.17129497849727" lon="117.78218400174882">
        <ele>0</ele>
        <time>2026-06-16T11:27:46Z</time>
      </trkpt>
      <trkpt lat="39.17129495298719" lon="117.78204096810272">
        <ele>0</ele>
        <time>2026-06-16T11:27:48Z</time>
      </trkpt>
      <trkpt lat="39.171296927233534" lon="117.7818969341313">
        <ele>0</ele>
        <time>2026-06-16T11:27:50Z</time>
      </trkpt>
      <trkpt lat="39.1713029014154" lon="117.78175290008116">
        <ele>0</ele>
        <time>2026-06-16T11:27:52Z</time>
      </trkpt>
      <trkpt lat="39.17130987589177" lon="117.78161086641539">
        <ele>0</ele>
        <time>2026-06-16T11:27:54Z</time>
      </trkpt>
      <trkpt lat="39.17131585048526" lon="117.78146983290243">
        <ele>0</ele>
        <time>2026-06-16T11:27:56Z</time>
      </trkpt>
      <trkpt lat="39.17132082537799" lon="117.78133079979212">
        <ele>0</ele>
        <time>2026-06-16T11:27:58Z</time>
      </trkpt>
      <trkpt lat="39.17132380039111" lon="117.78119276683998">
        <ele>0</ele>
        <time>2026-06-16T11:28:00Z</time>
      </trkpt>
      <trkpt lat="39.17132677607174" lon="117.78105873476929">
        <ele>0</ele>
        <time>2026-06-16T11:28:02Z</time>
      </trkpt>
      <trkpt lat="39.171325752970446" lon="117.78093170430526">
        <ele>0</ele>
        <time>2026-06-16T11:28:04Z</time>
      </trkpt>
      <trkpt lat="39.17132473164403" lon="117.78081467618641">
        <ele>0</ele>
        <time>2026-06-16T11:28:06Z</time>
      </trkpt>
      <trkpt lat="39.17132471210365" lon="117.78070765042233">
        <ele>0</ele>
        <time>2026-06-16T11:28:08Z</time>
      </trkpt>
      <trkpt lat="39.171330695642204" lon="117.78061762871654">
        <ele>0</ele>
        <time>2026-06-16T11:28:10Z</time>
      </trkpt>
      <trkpt lat="39.17136665713907" lon="117.78040757795398">
        <ele>0</ele>
        <time>2026-06-16T11:28:40Z</time>
      </trkpt>
      <trkpt lat="39.171364642432415" lon="117.78032755856377">
        <ele>0</ele>
        <time>2026-06-16T11:28:44Z</time>
      </trkpt>
      <trkpt lat="39.17135962678447" lon="117.78024253792913">
        <ele>0</ele>
        <time>2026-06-16T11:28:46Z</time>
      </trkpt>
      <trkpt lat="39.17135360945432" lon="117.78014851507575">
        <ele>0</ele>
        <time>2026-06-16T11:28:48Z</time>
      </trkpt>
      <trkpt lat="39.17134659061851" lon="117.78004649024422">
        <ele>0</ele>
        <time>2026-06-16T11:28:50Z</time>
      </trkpt>
      <trkpt lat="39.17134156971544" lon="117.77993346268599">
        <ele>0</ele>
        <time>2026-06-16T11:28:52Z</time>
      </trkpt>
      <trkpt lat="39.17133854691924" lon="117.77981043262419">
        <ele>0</ele>
        <time>2026-06-16T11:28:54Z</time>
      </trkpt>
      <trkpt lat="39.171337522405025" lon="117.77967840030817">
        <ele>0</ele>
        <time>2026-06-16T11:28:56Z</time>
      </trkpt>
      <trkpt lat="39.17133949709402" lon="117.77954236693907">
        <ele>0</ele>
        <time>2026-06-16T11:28:58Z</time>
      </trkpt>
      <trkpt lat="39.17134047116744" lon="117.77940333276246">
        <ele>0</ele>
        <time>2026-06-16T11:29:00Z</time>
      </trkpt>
      <trkpt lat="39.17134144480903" lon="117.77926229800848">
        <ele>0</ele>
        <time>2026-06-16T11:29:02Z</time>
      </trkpt>
      <trkpt lat="39.17134141782867" lon="117.7791182624378">
        <ele>0</ele>
        <time>2026-06-16T11:29:04Z</time>
      </trkpt>
      <trkpt lat="39.171341390223034" lon="117.77897122604324">
        <ele>0</ele>
        <time>2026-06-16T11:29:06Z</time>
      </trkpt>
      <trkpt lat="39.17134036198823" lon="117.77882118882724">
        <ele>0</ele>
        <time>2026-06-16T11:29:08Z</time>
      </trkpt>
      <trkpt lat="39.17133833349828" lon="117.77867015126857">
        <ele>0</ele>
        <time>2026-06-16T11:29:10Z</time>
      </trkpt>
      <trkpt lat="39.171336304752515" lon="117.77851811337275">
        <ele>0</ele>
        <time>2026-06-16T11:29:12Z</time>
      </trkpt>
      <trkpt lat="39.171336275750186" lon="117.77836507513818">
        <ele>0</ele>
        <time>2026-06-16T11:29:14Z</time>
      </trkpt>
      <trkpt lat="39.17133724687056" lon="117.7782130370726">
        <ele>0</ele>
        <time>2026-06-16T11:29:16Z</time>
      </trkpt>
      <trkpt lat="39.17133921754307" lon="117.77805899841235">
        <ele>0</ele>
        <time>2026-06-16T11:29:18Z</time>
      </trkpt>
      <trkpt lat="39.171340188147276" lon="117.77790495966678">
        <ele>0</ele>
        <time>2026-06-16T11:29:20Z</time>
      </trkpt>
      <trkpt lat="39.171340158491894" lon="117.77774992058157">
        <ele>0</ele>
        <time>2026-06-16T11:29:22Z</time>
      </trkpt>
      <trkpt lat="39.171340128768094" lon="117.77759488140471">
        <ele>0</ele>
        <time>2026-06-16T11:29:24Z</time>
      </trkpt>
      <trkpt lat="39.17134109916884" lon="117.77744084239097">
        <ele>0</ele>
        <time>2026-06-16T11:29:26Z</time>
      </trkpt>
      <trkpt lat="39.17134306969568" lon="117.77728780354447">
        <ele>0</ele>
        <time>2026-06-16T11:29:28Z</time>
      </trkpt>
      <trkpt lat="39.17134604015686" lon="117.77713476461247">
        <ele>0</ele>
        <time>2026-06-16T11:29:30Z</time>
      </trkpt>
      <trkpt lat="39.171348010358614" lon="117.77698072534356">
        <ele>0</ele>
        <time>2026-06-16T11:29:32Z</time>
      </trkpt>
      <trkpt lat="39.171349980688476" lon="117.77682768624457">
        <ele>0</ele>
        <time>2026-06-16T11:29:34Z</time>
      </trkpt>
      <trkpt lat="39.17135095095304" lon="117.77667464705496">
        <ele>0</ele>
        <time>2026-06-16T11:29:36Z</time>
      </trkpt>
      <trkpt lat="39.17135192115304" lon="117.7765216077849">
        <ele>0</ele>
        <time>2026-06-16T11:29:38Z</time>
      </trkpt>
      <trkpt lat="39.17135389109344" lon="117.77636756817147">
        <ele>0</ele>
        <time>2026-06-16T11:29:40Z</time>
      </trkpt>
      <trkpt lat="39.17135386096844" lon="117.77621352846921">
        <ele>0</ele>
        <time>2026-06-16T11:29:42Z</time>
      </trkpt>
      <trkpt lat="39.1713538307788" lon="117.77605948868525">
        <ele>0</ele>
        <time>2026-06-16T11:29:44Z</time>
      </trkpt>
      <trkpt lat="39.17135380032814" lon="117.77590444855832">
        <ele>0</ele>
        <time>2026-06-16T11:29:46Z</time>
      </trkpt>
      <trkpt lat="39.171356770010235" lon="117.7757504086078">
        <ele>0</ele>
        <time>2026-06-16T11:29:48Z</time>
      </trkpt>
      <trkpt lat="39.17135973962865" lon="117.77559636857544">
        <ele>0</ele>
        <time>2026-06-16T11:29:50Z</time>
      </trkpt>
      <trkpt lat="39.17136170938125" lon="117.77544332871358">
        <ele>0</ele>
        <time>2026-06-16T11:29:52Z</time>
      </trkpt>
      <trkpt lat="39.17136267946794" lon="117.7752922893022">
        <ele>0</ele>
        <time>2026-06-16T11:29:54Z</time>
      </trkpt>
      <trkpt lat="39.17136464949449" lon="117.7751412498106">
        <ele>0</ele>
        <time>2026-06-16T11:29:56Z</time>
      </trkpt>
      <trkpt lat="39.171365619858754" lon="117.77499221075792">
        <ele>0</ele>
        <time>2026-06-16T11:29:58Z</time>
      </trkpt>
      <trkpt lat="39.1713665905637" lon="117.77484517216199">
        <ele>0</ele>
        <time>2026-06-16T11:30:00Z</time>
      </trkpt>
      <trkpt lat="39.171365561211715" lon="117.77469813349228">
        <ele>0</ele>
        <time>2026-06-16T11:30:02Z</time>
      </trkpt>
      <trkpt lat="39.17136553160349" lon="117.77455009447483">
        <ele>0</ele>
        <time>2026-06-16T11:30:04Z</time>
      </trkpt>
      <trkpt lat="39.17136450133645" lon="117.77439905460022">
        <ele>0</ele>
        <time>2026-06-16T11:30:06Z</time>
      </trkpt>
      <trkpt lat="39.171362470809385" lon="117.77424701437607">
        <ele>0</ele>
        <time>2026-06-16T11:30:08Z</time>
      </trkpt>
      <trkpt lat="39.17136143982044" lon="117.77409297354724">
        <ele>0</ele>
        <time>2026-06-16T11:30:10Z</time>
      </trkpt>
      <trkpt lat="39.171361408972984" lon="117.77393993290146">
        <ele>0</ele>
        <time>2026-06-16T11:30:12Z</time>
      </trkpt>
      <trkpt lat="39.17136137806609" lon="117.77378689218123">
        <ele>0</ele>
        <time>2026-06-16T11:30:14Z</time>
      </trkpt>
      <trkpt lat="39.17136234710022" lon="117.77363385138322">
        <ele>0</ele>
        <time>2026-06-16T11:30:16Z</time>
      </trkpt>
      <trkpt lat="39.17136331627856" lon="117.77348181077679">
        <ele>0</ele>
        <time>2026-06-16T11:30:18Z</time>
      </trkpt>
      <trkpt lat="39.17136528539934" lon="117.77332977009274">
        <ele>0</ele>
        <time>2026-06-16T11:30:20Z</time>
      </trkpt>
      <trkpt lat="39.17136825446286" lon="117.77317772933084">
        <ele>0</ele>
        <time>2026-06-16T11:30:22Z</time>
      </trkpt>
      <trkpt lat="39.171371224285494" lon="117.7730296895775">
        <ele>0</ele>
        <time>2026-06-16T11:30:24Z</time>
      </trkpt>
      <trkpt lat="39.17137319568945" lon="117.77288965190165">
        <ele>0</ele>
        <time>2026-06-16T11:30:26Z</time>
      </trkpt>
      <trkpt lat="39.17137416888803" lon="117.7727586165893">
        <ele>0</ele>
        <time>2026-06-16T11:30:28Z</time>
      </trkpt>
      <trkpt lat="39.171376143685464" lon="117.77263558338876">
        <ele>0</ele>
        <time>2026-06-16T11:30:30Z</time>
      </trkpt>
      <trkpt lat="39.171376120088446" lon="117.77252055230258">
        <ele>0</ele>
        <time>2026-06-16T11:30:32Z</time>
      </trkpt>
      <trkpt lat="39.1713780976934" lon="117.77241152280246">
        <ele>0</ele>
        <time>2026-06-16T11:30:34Z</time>
      </trkpt>
      <trkpt lat="39.171381076093354" lon="117.77230649434505">
        <ele>0</ele>
        <time>2026-06-16T11:30:36Z</time>
      </trkpt>
      <trkpt lat="39.17138205384811" lon="117.77219846503979">
        <ele>0</ele>
        <time>2026-06-16T11:30:38Z</time>
      </trkpt>
      <trkpt lat="39.17137903095503" lon="117.77208743487564">
        <ele>0</ele>
        <time>2026-06-16T11:30:40Z</time>
      </trkpt>
      <trkpt lat="39.17137200679208" lon="117.77197040304375">
        <ele>0</ele>
        <time>2026-06-16T11:30:42Z</time>
      </trkpt>
      <trkpt lat="39.171364981975856" lon="117.77185037035167">
        <ele>0</ele>
        <time>2026-06-16T11:30:44Z</time>
      </trkpt>
      <trkpt lat="39.1713619554684" lon="117.7717223354297">
        <ele>0</ele>
        <time>2026-06-16T11:30:46Z</time>
      </trkpt>
      <trkpt lat="39.171362927262926" lon="117.77158629827031">
        <ele>0</ele>
        <time>2026-06-16T11:30:48Z</time>
      </trkpt>
      <trkpt lat="39.17136689755966" lon="117.77144325914554">
        <ele>0</ele>
        <time>2026-06-16T11:30:50Z</time>
      </trkpt>
      <trkpt lat="39.17136986718403" lon="117.77129721913235">
        <ele>0</ele>
        <time>2026-06-16T11:30:52Z</time>
      </trkpt>
      <trkpt lat="39.17137183613304" lon="117.77114817822374">
        <ele>0</ele>
        <time>2026-06-16T11:30:54Z</time>
      </trkpt>
      <trkpt lat="39.17137380461306" lon="117.77099713670121">
        <ele>0</ele>
        <time>2026-06-16T11:30:56Z</time>
      </trkpt>
      <trkpt lat="39.17137477283142" lon="117.7708450948301">
        <ele>0</ele>
        <time>2026-06-16T11:30:58Z</time>
      </trkpt>
      <trkpt lat="39.1713757407876" lon="117.77069205261736">
        <ele>0</ele>
        <time>2026-06-16T11:31:00Z</time>
      </trkpt>
      <trkpt lat="39.17137770869099" lon="117.77053901034084">
        <ele>0</ele>
        <time>2026-06-16T11:31:02Z</time>
      </trkpt>
      <trkpt lat="39.17137967633139" lon="117.77038496771718">
        <ele>0</ele>
        <time>2026-06-16T11:31:04Z</time>
      </trkpt>
      <trkpt lat="39.171381643918735" lon="117.77023092501655">
        <ele>0</ele>
        <time>2026-06-16T11:31:06Z</time>
      </trkpt>
      <trkpt lat="39.17138261124215" lon="117.77007588197118">
        <ele>0</ele>
        <time>2026-06-16T11:31:08Z</time>
      </trkpt>
      <trkpt lat="39.171382578512336" lon="117.76992083886245">
        <ele>0</ele>
        <time>2026-06-16T11:31:10Z</time>
      </trkpt>
      <trkpt lat="39.17138354572997" lon="117.7697657956835">
        <ele>0</ele>
        <time>2026-06-16T11:31:12Z</time>
      </trkpt>
      <trkpt lat="39.17138251310675" lon="117.76961175271626">
        <ele>0</ele>
        <time>2026-06-16T11:31:14Z</time>
      </trkpt>
      <trkpt lat="39.1713834804325" lon="117.76945770967681">
        <ele>0</ele>
        <time>2026-06-16T11:31:16Z</time>
      </trkpt>
      <trkpt lat="39.17138544770738" lon="117.76930366656796">
        <ele>0</ele>
        <time>2026-06-16T11:31:18Z</time>
      </trkpt>
      <trkpt lat="39.17138841493155" lon="117.76914962338931">
        <ele>0</ele>
        <time>2026-06-16T11:31:20Z</time>
      </trkpt>
      <trkpt lat="39.17138938231825" lon="117.76899658042913">
        <ele>0</ele>
        <time>2026-06-16T11:31:22Z</time>
      </trkpt>
      <trkpt lat="39.17138934944161" lon="117.76884253712554">
        <ele>0</ele>
        <time>2026-06-16T11:31:24Z</time>
      </trkpt>
      <trkpt lat="39.171389316301166" lon="117.76868749347511">
        <ele>0</ele>
        <time>2026-06-16T11:31:26Z</time>
      </trkpt>
      <trkpt lat="39.17138928289629" lon="117.7685314494779">
        <ele>0</ele>
        <time>2026-06-16T11:31:28Z</time>
      </trkpt>
      <trkpt lat="39.171388249655394" lon="117.76837640569627">
        <ele>0</ele>
        <time>2026-06-16T11:31:30Z</time>
      </trkpt>
      <trkpt lat="39.17138821615025" lon="117.7682203615597">
        <ele>0</ele>
        <time>2026-06-16T11:31:32Z</time>
      </trkpt>
      <trkpt lat="39.171388182810574" lon="117.76806531764514">
        <ele>0</ele>
        <time>2026-06-16T11:31:34Z</time>
      </trkpt>
      <trkpt lat="39.17138814963764" lon="117.76791127394482">
        <ele>0</ele>
        <time>2026-06-16T11:31:36Z</time>
      </trkpt>
      <trkpt lat="39.171388116632734" lon="117.76775823047313">
        <ele>0</ele>
        <time>2026-06-16T11:31:38Z</time>
      </trkpt>
      <trkpt lat="39.17138708358074" lon="117.76760518693948">
        <ele>0</ele>
        <time>2026-06-16T11:31:40Z</time>
      </trkpt>
      <trkpt lat="39.17138805048247" lon="117.76745214334218">
        <ele>0</ele>
        <time>2026-06-16T11:31:42Z</time>
      </trkpt>
      <trkpt lat="39.17139201712168" lon="117.76729809939819">
        <ele>0</ele>
        <time>2026-06-16T11:31:44Z</time>
      </trkpt>
      <trkpt lat="39.17139498393132" lon="117.76714505568104">
        <ele>0</ele>
        <time>2026-06-16T11:31:46Z</time>
      </trkpt>
      <trkpt lat="39.171396950477735" lon="117.76699101161846">
        <ele>0</ele>
        <time>2026-06-16T11:31:48Z</time>
      </trkpt>
      <trkpt lat="39.171397916977995" lon="117.76683696748917">
        <ele>0</ele>
        <time>2026-06-16T11:31:50Z</time>
      </trkpt>
      <trkpt lat="39.171396883650345" lon="117.7666839235942">
        <ele>0</ele>
        <time>2026-06-16T11:31:52Z</time>
      </trkpt>
      <trkpt lat="39.17139585027803" lon="117.76653087963409">
        <ele>0</ele>
        <time>2026-06-16T11:31:54Z</time>
      </trkpt>
      <trkpt lat="39.17139181751647" lon="117.7663808364832">
        <ele>0</ele>
        <time>2026-06-16T11:31:56Z</time>
      </trkpt>
      <trkpt lat="39.171384785368346" lon="117.76623379413275">
        <ele>0</ele>
        <time>2026-06-16T11:31:58Z</time>
      </trkpt>
      <trkpt lat="39.17137575383677" lon="117.76608975260233">
        <ele>0</ele>
        <time>2026-06-16T11:32:00Z</time>
      </trkpt>
      <trkpt lat="39.171366722266775" lon="117.76594571101911">
        <ele>0</ele>
        <time>2026-06-16T11:32:02Z</time>
      </trkpt>
      <trkpt lat="39.17135769021942" lon="117.76579966880391">
        <ele>0</ele>
        <time>2026-06-16T11:32:04Z</time>
      </trkpt>
      <trkpt lat="39.17134565813282" lon="117.76565362653733">
        <ele>0</ele>
        <time>2026-06-16T11:32:06Z</time>
      </trkpt>
      <trkpt lat="39.171333625787035" lon="117.76550658392816">
        <ele>0</ele>
        <time>2026-06-16T11:32:08Z</time>
      </trkpt>
      <trkpt lat="39.17131959340205" lon="117.76535954127334">
        <ele>0</ele>
        <time>2026-06-16T11:32:10Z</time>
      </trkpt>
      <trkpt lat="39.17130256097871" lon="117.76521249856185">
        <ele>0</ele>
        <time>2026-06-16T11:32:12Z</time>
      </trkpt>
      <trkpt lat="39.17128152873776" lon="117.76506645609054">
        <ele>0</ele>
        <time>2026-06-16T11:32:14Z</time>
      </trkpt>
      <trkpt lat="39.17126349690078" lon="117.76492241415278">
        <ele>0</ele>
        <time>2026-06-16T11:32:16Z</time>
      </trkpt>
      <trkpt lat="39.171246465028105" lon="117.7647783721742">
        <ele>0</ele>
        <time>2026-06-16T11:32:18Z</time>
      </trkpt>
      <trkpt lat="39.17123143334189" lon="117.7646353304337">
        <ele>0</ele>
        <time>2026-06-16T11:32:20Z</time>
      </trkpt>
      <trkpt lat="39.17121040184067" lon="117.7644932889418">
        <ele>0</ele>
        <time>2026-06-16T11:32:22Z</time>
      </trkpt>
      <trkpt lat="39.17118537119326" lon="117.76435524857395">
        <ele>0</ele>
        <time>2026-06-16T11:32:24Z</time>
      </trkpt>
      <trkpt lat="39.17116034184726" lon="117.76422320992431">
        <ele>0</ele>
        <time>2026-06-16T11:32:26Z</time>
      </trkpt>
      <trkpt lat="39.17113531380871" lon="117.7640971729912">
        <ele>0</ele>
        <time>2026-06-16T11:32:28Z</time>
      </trkpt>
      <trkpt lat="39.171109287079595" lon="117.76397713778324">
        <ele>0</ele>
        <time>2026-06-16T11:32:30Z</time>
      </trkpt>
    </trkseg>
  </trk>
</gpx>