<?xml version="1.0" encoding="UTF-8"?>
<gpx xmlns="http://www.topografix.com/GPX/1/1" xmlns:gpxtpx="http://www.garmin.com/xmlschemas/TrackPointExtension/v1" xmlns:xsi="http://www.w3.org/2001/XMLSchema-instance" xsi:schemaLocation="http://www.topografix.com/GPX/1/1 http://www.topografix.com/GPX/1/1/gpx.xsd" version="1.1" creator="gpx.py -- https://github.com/tkrajina/gpxpy">
  <trk>
    <name>gpx from codoon</name>
    <type>Run</type>
    <trkseg>
      <trkpt lat="39.15103269594506" lon="117.77533031000763">
        <ele>2.001</ele>
        <time>2026-06-18T10:40:11Z</time>
      </trkpt>
      <trkpt lat="39.1509706941343" lon="117.77532130761028">
        <ele>0</ele>
        <time>2026-06-18T10:40:13Z</time>
      </trkpt>
      <trkpt lat="39.15089569232095" lon="117.77531230520889">
        <ele>0</ele>
        <time>2026-06-18T10:40:15Z</time>
      </trkpt>
      <trkpt lat="39.15082069071035" lon="117.77530430307162">
        <ele>0</ele>
        <time>2026-06-18T10:40:17Z</time>
      </trkpt>
      <trkpt lat="39.15074668889894" lon="117.77529530066971">
        <ele>0</ele>
        <time>2026-06-18T10:40:19Z</time>
      </trkpt>
      <trkpt lat="39.150672687083436" lon="117.77528629826742">
        <ele>0</ele>
        <time>2026-06-18T10:40:21Z</time>
      </trkpt>
      <trkpt lat="39.15059868546984" lon="117.77527829612976">
        <ele>0</ele>
        <time>2026-06-18T10:40:23Z</time>
      </trkpt>
      <trkpt lat="39.15052368405573" lon="117.77527129425606">
        <ele>0</ele>
        <time>2026-06-18T10:40:25Z</time>
      </trkpt>
      <trkpt lat="39.15044968284384" lon="117.77526529264686">
        <ele>0</ele>
        <time>2026-06-18T10:40:27Z</time>
      </trkpt>
      <trkpt lat="39.150376681628096" lon="117.77525929103818">
        <ele>0</ele>
        <time>2026-06-18T10:40:29Z</time>
      </trkpt>
      <trkpt lat="39.15030468001508" lon="117.77525128890007">
        <ele>0</ele>
        <time>2026-06-18T10:40:31Z</time>
      </trkpt>
      <trkpt lat="39.15023367819826" lon="117.77524228649743">
        <ele>0</ele>
        <time>2026-06-18T10:40:33Z</time>
      </trkpt>
      <trkpt lat="39.15016467638454" lon="117.77523328409539">
        <ele>0</ele>
        <time>2026-06-18T10:40:35Z</time>
      </trkpt>
      <trkpt lat="39.15009467476932" lon="117.7752252819573">
        <ele>0</ele>
        <time>2026-06-18T10:40:37Z</time>
      </trkpt>
      <trkpt lat="39.15002467295369" lon="117.77521627955407">
        <ele>0</ele>
        <time>2026-06-18T10:40:39Z</time>
      </trkpt>
      <trkpt lat="39.14995267133465" lon="117.77520827741469">
        <ele>0</ele>
        <time>2026-06-18T10:40:41Z</time>
      </trkpt>
      <trkpt lat="39.14988166972089" lon="117.77520027527537">
        <ele>0</ele>
        <time>2026-06-18T10:40:43Z</time>
      </trkpt>
      <trkpt lat="39.14980866790468" lon="117.77519127287094">
        <ele>0</ele>
        <time>2026-06-18T10:40:45Z</time>
      </trkpt>
      <trkpt lat="39.149735666084304" lon="117.77518227046602">
        <ele>0</ele>
        <time>2026-06-18T10:40:47Z</time>
      </trkpt>
      <trkpt lat="39.149662664471144" lon="117.77517426832601">
        <ele>0</ele>
        <time>2026-06-18T10:40:49Z</time>
      </trkpt>
      <trkpt lat="39.149590662854635" lon="117.7751662661855">
        <ele>0</ele>
        <time>2026-06-18T10:40:51Z</time>
      </trkpt>
      <trkpt lat="39.149520661240295" lon="117.77515826404536">
        <ele>0</ele>
        <time>2026-06-18T10:40:53Z</time>
      </trkpt>
      <trkpt lat="39.1494506594233" lon="117.77514926163991">
        <ele>0</ele>
        <time>2026-06-18T10:40:55Z</time>
      </trkpt>
      <trkpt lat="39.1493816580069" lon="117.77514225976502">
        <ele>0</ele>
        <time>2026-06-18T10:40:57Z</time>
      </trkpt>
      <trkpt lat="39.14931365659068" lon="117.77513525789031">
        <ele>0</ele>
        <time>2026-06-18T10:40:59Z</time>
      </trkpt>
      <trkpt lat="39.149244655377835" lon="117.77512925628024">
        <ele>0</ele>
        <time>2026-06-18T10:41:01Z</time>
      </trkpt>
      <trkpt lat="39.14917565376102" lon="117.77512125414">
        <ele>0</ele>
        <time>2026-06-18T10:41:03Z</time>
      </trkpt>
      <trkpt lat="39.14910765214476" lon="117.77511325199947">
        <ele>0</ele>
        <time>2026-06-18T10:41:05Z</time>
      </trkpt>
      <trkpt lat="39.14904065052897" lon="117.77510524985925">
        <ele>0</ele>
        <time>2026-06-18T10:41:07Z</time>
      </trkpt>
      <trkpt lat="39.14897264891134" lon="117.77509724771855">
        <ele>0</ele>
        <time>2026-06-18T10:41:09Z</time>
      </trkpt>
      <trkpt lat="39.148905647294136" lon="117.77508924557748">
        <ele>0</ele>
        <time>2026-06-18T10:41:11Z</time>
      </trkpt>
      <trkpt lat="39.148838645876225" lon="117.775082243702">
        <ele>0</ele>
        <time>2026-06-18T10:41:13Z</time>
      </trkpt>
      <trkpt lat="39.14877164446141" lon="117.7750752418262">
        <ele>0</ele>
        <time>2026-06-18T10:41:15Z</time>
      </trkpt>
      <trkpt lat="39.14870564244352" lon="117.77506523915449">
        <ele>0</ele>
        <time>2026-06-18T10:41:17Z</time>
      </trkpt>
      <trkpt lat="39.14863964002337" lon="117.77505323595194">
        <ele>0</ele>
        <time>2026-06-18T10:41:19Z</time>
      </trkpt>
      <trkpt lat="39.1485736369959" lon="117.77503823195259">
        <ele>0</ele>
        <time>2026-06-18T10:41:21Z</time>
      </trkpt>
      <trkpt lat="39.14850763417083" lon="117.77502422821719">
        <ele>0</ele>
        <time>2026-06-18T10:41:23Z</time>
      </trkpt>
      <trkpt lat="39.14844063074196" lon="117.77500722368424">
        <ele>0</ele>
        <time>2026-06-18T10:41:25Z</time>
      </trkpt>
      <trkpt lat="39.148373626710686" lon="117.77498721835377">
        <ele>0</ele>
        <time>2026-06-18T10:41:27Z</time>
      </trkpt>
      <trkpt lat="39.14830662207398" lon="117.77496421222503">
        <ele>0</ele>
        <time>2026-06-18T10:41:29Z</time>
      </trkpt>
      <trkpt lat="39.1482396174337" lon="117.77494120609413">
        <ele>0</ele>
        <time>2026-06-18T10:41:31Z</time>
      </trkpt>
      <trkpt lat="39.148172612794134" lon="117.77491819996249">
        <ele>0</ele>
        <time>2026-06-18T10:41:33Z</time>
      </trkpt>
      <trkpt lat="39.14810660815182" lon="117.77489519382905">
        <ele>0</ele>
        <time>2026-06-18T10:41:35Z</time>
      </trkpt>
      <trkpt lat="39.148040603510175" lon="117.77487218769316">
        <ele>0</ele>
        <time>2026-06-18T10:41:37Z</time>
      </trkpt>
      <trkpt lat="39.14797659866505" lon="117.7748481812894">
        <ele>0</ele>
        <time>2026-06-18T10:41:39Z</time>
      </trkpt>
      <trkpt lat="39.14791059321008" lon="117.7748211740869">
        <ele>0</ele>
        <time>2026-06-18T10:41:41Z</time>
      </trkpt>
      <trkpt lat="39.1478455873504" lon="117.77479216634954">
        <ele>0</ele>
        <time>2026-06-18T10:41:43Z</time>
      </trkpt>
      <trkpt lat="39.14778058169121" lon="117.77476415887372">
        <ele>0</ele>
        <time>2026-06-18T10:41:45Z</time>
      </trkpt>
      <trkpt lat="39.14771657562823" lon="117.77473415086322">
        <ele>0</ele>
        <time>2026-06-18T10:41:47Z</time>
      </trkpt>
      <trkpt lat="39.147653569762085" lon="117.77470514311607">
        <ele>0</ele>
        <time>2026-06-18T10:41:49Z</time>
      </trkpt>
      <trkpt lat="39.14759256389455" lon="117.7746761353663">
        <ele>0</ele>
        <time>2026-06-18T10:41:51Z</time>
      </trkpt>
      <trkpt lat="39.14753055923829" lon="117.77465312921443">
        <ele>0</ele>
        <time>2026-06-18T10:41:53Z</time>
      </trkpt>
      <trkpt lat="39.14746855640021" lon="117.77463912546308">
        <ele>0</ele>
        <time>2026-06-18T10:41:55Z</time>
      </trkpt>
      <trkpt lat="39.14740755578458" lon="117.77463612464572">
        <ele>0</ele>
        <time>2026-06-18T10:41:57Z</time>
      </trkpt>
      <trkpt lat="39.14734855699009" lon="117.77464212623015">
        <ele>0</ele>
        <time>2026-06-18T10:41:59Z</time>
      </trkpt>
      <trkpt lat="39.14729255799143" lon="117.77464712754835">
        <ele>0</ele>
        <time>2026-06-18T10:42:01Z</time>
      </trkpt>
      <trkpt lat="39.147239557578004" lon="117.77464512700007">
        <ele>0</ele>
        <time>2026-06-18T10:42:03Z</time>
      </trkpt>
      <trkpt lat="39.147186554538" lon="117.77463012298402">
        <ele>0</ele>
        <time>2026-06-18T10:42:05Z</time>
      </trkpt>
      <trkpt lat="39.14713254906999" lon="117.77460311576259">
        <ele>0</ele>
        <time>2026-06-18T10:42:07Z</time>
      </trkpt>
      <trkpt lat="39.147079541174946" lon="117.77456410533678">
        <ele>0</ele>
        <time>2026-06-18T10:42:09Z</time>
      </trkpt>
      <trkpt lat="39.14702953145328" lon="117.77451609250002">
        <ele>0</ele>
        <time>2026-06-18T10:42:11Z</time>
      </trkpt>
      <trkpt lat="39.14698052071051" lon="117.77446307832018">
        <ele>0</ele>
        <time>2026-06-18T10:42:13Z</time>
      </trkpt>
      <trkpt lat="39.14692950914919" lon="117.7744060630612">
        <ele>0</ele>
        <time>2026-06-18T10:42:15Z</time>
      </trkpt>
      <trkpt lat="39.14687749697267" lon="117.77434604698719">
        <ele>0</ele>
        <time>2026-06-18T10:42:17Z</time>
      </trkpt>
      <trkpt lat="39.14682348458254" lon="117.77428503063074">
        <ele>0</ele>
        <time>2026-06-18T10:42:19Z</time>
      </trkpt>
      <trkpt lat="39.14676847218428" lon="117.77422401426354">
        <ele>0</ele>
        <time>2026-06-18T10:42:21Z</time>
      </trkpt>
      <trkpt lat="39.14671345977405" lon="117.77416299788138">
        <ele>0</ele>
        <time>2026-06-18T10:42:23Z</time>
      </trkpt>
      <trkpt lat="39.14665844735625" lon="117.77410198148992">
        <ele>0</ele>
        <time>2026-06-18T10:42:25Z</time>
      </trkpt>
      <trkpt lat="39.14660343513313" lon="117.77404196535105">
        <ele>0</ele>
        <time>2026-06-18T10:42:27Z</time>
      </trkpt>
      <trkpt lat="39.14654842289887" lon="117.77398194920286">
        <ele>0</ele>
        <time>2026-06-18T10:42:29Z</time>
      </trkpt>
      <trkpt lat="39.14649541045136" lon="117.7739209327743">
        <ele>0</ele>
        <time>2026-06-18T10:42:31Z</time>
      </trkpt>
      <trkpt lat="39.14644139820143" lon="117.77386091660345">
        <ele>0</ele>
        <time>2026-06-18T10:42:33Z</time>
      </trkpt>
      <trkpt lat="39.1463873857374" lon="117.77379990014646">
        <ele>0</ele>
        <time>2026-06-18T10:42:35Z</time>
      </trkpt>
      <trkpt lat="39.14633137306041" lon="117.77373788340644">
        <ele>0</ele>
        <time>2026-06-18T10:42:37Z</time>
      </trkpt>
      <trkpt lat="39.1462743601681" lon="117.77367486638379">
        <ele>0</ele>
        <time>2026-06-18T10:42:39Z</time>
      </trkpt>
      <trkpt lat="39.14621934747017" lon="117.77361284962218">
        <ele>0</ele>
        <time>2026-06-18T10:42:41Z</time>
      </trkpt>
      <trkpt lat="39.14616633496507" lon="117.77355183311623">
        <ele>0</ele>
        <time>2026-06-18T10:42:43Z</time>
      </trkpt>
      <trkpt lat="39.14611532286204" lon="117.77349281714254">
        <ele>0</ele>
        <time>2026-06-18T10:42:45Z</time>
      </trkpt>
      <trkpt lat="39.14606831177706" lon="117.77343880251331">
        <ele>0</ele>
        <time>2026-06-18T10:42:47Z</time>
      </trkpt>
      <trkpt lat="39.14601930047834" lon="117.77338378759893">
        <ele>0</ele>
        <time>2026-06-18T10:42:49Z</time>
      </trkpt>
      <trkpt lat="39.1459672885559" lon="117.77332577186334">
        <ele>0</ele>
        <time>2026-06-18T10:42:51Z</time>
      </trkpt>
      <trkpt lat="39.14590827518655" lon="117.77326075421202">
        <ele>0</ele>
        <time>2026-06-18T10:42:53Z</time>
      </trkpt>
      <trkpt lat="39.14584826180562" lon="117.77319573654762">
        <ele>0</ele>
        <time>2026-06-18T10:42:55Z</time>
      </trkpt>
      <trkpt lat="39.1457862484133" lon="117.77313071887093">
        <ele>0</ele>
        <time>2026-06-18T10:42:57Z</time>
      </trkpt>
      <trkpt lat="39.14572623542152" lon="117.77306770172457">
        <ele>0</ele>
        <time>2026-06-18T10:42:59Z</time>
      </trkpt>
      <trkpt lat="39.14567022303939" lon="117.77300768538225">
        <ele>0</ele>
        <time>2026-06-18T10:43:01Z</time>
      </trkpt>
      <trkpt lat="39.14561721106472" lon="117.77294966957732">
        <ele>0</ele>
        <time>2026-06-18T10:43:03Z</time>
      </trkpt>
      <trkpt lat="39.1455641986681" lon="117.77288965321559">
        <ele>0</ele>
        <time>2026-06-18T10:43:05Z</time>
      </trkpt>
      <trkpt lat="39.14551018584823" lon="117.77282763629286">
        <ele>0</ele>
        <time>2026-06-18T10:43:07Z</time>
      </trkpt>
      <trkpt lat="39.1454531728136" lon="117.77276461908693">
        <ele>0</ele>
        <time>2026-06-18T10:43:09Z</time>
      </trkpt>
      <trkpt lat="39.14539615976868" lon="117.77270160186617">
        <ele>0</ele>
        <time>2026-06-18T10:43:11Z</time>
      </trkpt>
      <trkpt lat="39.1453391465041" lon="117.77263758436234">
        <ele>0</ele>
        <time>2026-06-18T10:43:13Z</time>
      </trkpt>
      <trkpt lat="39.145282133436616" lon="117.77257456711503">
        <ele>0</ele>
        <time>2026-06-18T10:43:15Z</time>
      </trkpt>
      <trkpt lat="39.1452261205687" lon="117.77251255013162">
        <ele>0</ele>
        <time>2026-06-18T10:43:17Z</time>
      </trkpt>
      <trkpt lat="39.14517210873016" lon="117.77245553450702">
        <ele>0</ele>
        <time>2026-06-18T10:43:19Z</time>
      </trkpt>
      <trkpt lat="39.14512009709022" lon="117.77239951914719">
        <ele>0</ele>
        <time>2026-06-18T10:43:21Z</time>
      </trkpt>
      <trkpt lat="39.14507208565158" lon="117.7723445040536">
        <ele>0</ele>
        <time>2026-06-18T10:43:23Z</time>
      </trkpt>
      <trkpt lat="39.14502607483199" lon="117.7722924897736">
        <ele>0</ele>
        <time>2026-06-18T10:43:25Z</time>
      </trkpt>
      <trkpt lat="39.14498306462909" lon="117.77224347630995">
        <ele>0</ele>
        <time>2026-06-18T10:43:27Z</time>
      </trkpt>
      <trkpt lat="39.14494205504617" lon="117.77219746366286">
        <ele>0</ele>
        <time>2026-06-18T10:43:29Z</time>
      </trkpt>
      <trkpt lat="39.144901045665364" lon="117.77215245128215">
        <ele>0</ele>
        <time>2026-06-18T10:43:31Z</time>
      </trkpt>
      <trkpt lat="39.144859035862154" lon="117.77210543834701">
        <ele>0</ele>
        <time>2026-06-18T10:43:33Z</time>
      </trkpt>
      <trkpt lat="39.14481602584518" lon="117.77205742513082">
        <ele>0</ele>
        <time>2026-06-18T10:43:35Z</time>
      </trkpt>
      <trkpt lat="39.144771015197854" lon="117.77200641108021">
        <ele>0</ele>
        <time>2026-06-18T10:43:37Z</time>
      </trkpt>
      <trkpt lat="39.14472500412654" lon="117.77195339646737">
        <ele>0</ele>
        <time>2026-06-18T10:43:39Z</time>
      </trkpt>
      <trkpt lat="39.14467499262985" lon="117.7718983812918">
        <ele>0</ele>
        <time>2026-06-18T10:43:41Z</time>
      </trkpt>
      <trkpt lat="39.14462198029013" lon="117.77183936500305">
        <ele>0</ele>
        <time>2026-06-18T10:43:43Z</time>
      </trkpt>
      <trkpt lat="39.1445679677313" lon="117.77177934843057">
        <ele>0</ele>
        <time>2026-06-18T10:43:45Z</time>
      </trkpt>
      <trkpt lat="39.144513954744404" lon="117.77171733128955">
        <ele>0</ele>
        <time>2026-06-18T10:43:47Z</time>
      </trkpt>
      <trkpt lat="39.144457941958116" lon="117.77165631441292">
        <ele>0</ele>
        <time>2026-06-18T10:43:49Z</time>
      </trkpt>
      <trkpt lat="39.14440392916292" lon="117.77159529752787">
        <ele>0</ele>
        <time>2026-06-18T10:43:51Z</time>
      </trkpt>
      <trkpt lat="39.144349916781145" lon="117.77153628118589">
        <ele>0</ele>
        <time>2026-06-18T10:43:53Z</time>
      </trkpt>
      <trkpt lat="39.144297904809015" lon="117.77147926538606">
        <ele>0</ele>
        <time>2026-06-18T10:43:55Z</time>
      </trkpt>
      <trkpt lat="39.14425089346029" lon="117.77142525041101">
        <ele>0</ele>
        <time>2026-06-18T10:43:57Z</time>
      </trkpt>
      <trkpt lat="39.144209883159604" lon="117.77137623681219">
        <ele>0</ele>
        <time>2026-06-18T10:43:59Z</time>
      </trkpt>
      <trkpt lat="39.14417287432255" lon="117.77133422515021">
        <ele>0</ele>
        <time>2026-06-18T10:44:01Z</time>
      </trkpt>
      <trkpt lat="39.14413886674592" lon="117.7712982151496">
        <ele>0</ele>
        <time>2026-06-18T10:44:03Z</time>
      </trkpt>
      <trkpt lat="39.14410686042861" lon="117.7712682068136">
        <ele>0</ele>
        <time>2026-06-18T10:44:05Z</time>
      </trkpt>
      <trkpt lat="39.144076854321334" lon="117.7712391987514">
        <ele>0</ele>
        <time>2026-06-18T10:44:07Z</time>
      </trkpt>
      <trkpt lat="39.144046848000634" lon="117.77120919041009">
        <ele>0</ele>
        <time>2026-06-18T10:44:09Z</time>
      </trkpt>
      <trkpt lat="39.144015840834136" lon="117.77117518095288">
        <ele>0</ele>
        <time>2026-06-18T10:44:11Z</time>
      </trkpt>
      <trkpt lat="39.14398183303417" lon="117.77113817065782">
        <ele>0</ele>
        <time>2026-06-18T10:44:13Z</time>
      </trkpt>
      <trkpt lat="39.1439448241757" lon="117.77109615896735">
        <ele>0</ele>
        <time>2026-06-18T10:44:15Z</time>
      </trkpt>
      <trkpt lat="39.14390181446977" lon="117.77105014615593">
        <ele>0</ele>
        <time>2026-06-18T10:44:17Z</time>
      </trkpt>
      <trkpt lat="39.1438548037034" lon="117.77099913194574">
        <ele>0</ele>
        <time>2026-06-18T10:44:19Z</time>
      </trkpt>
      <trkpt lat="39.14380579250718" lon="117.77094611717162">
        <ele>0</ele>
        <time>2026-06-18T10:44:21Z</time>
      </trkpt>
      <trkpt lat="39.14375678109076" lon="117.77089210210657">
        <ele>0</ele>
        <time>2026-06-18T10:44:23Z</time>
      </trkpt>
      <trkpt lat="39.143708769458726" lon="117.77083708675377">
        <ele>0</ele>
        <time>2026-06-18T10:44:25Z</time>
      </trkpt>
      <trkpt lat="39.14365975739522" lon="117.77078007083324">
        <ele>0</ele>
        <time>2026-06-18T10:44:27Z</time>
      </trkpt>
      <trkpt lat="39.143608745536135" lon="117.7707240551821">
        <ele>0</ele>
        <time>2026-06-18T10:44:29Z</time>
      </trkpt>
      <trkpt lat="39.14355673388399" lon="117.77066903980463">
        <ele>0</ele>
        <time>2026-06-18T10:44:31Z</time>
      </trkpt>
      <trkpt lat="39.14350672243543" lon="117.77061502469381">
        <ele>0</ele>
        <time>2026-06-18T10:44:33Z</time>
      </trkpt>
      <trkpt lat="39.143459711192925" lon="117.77056200985659">
        <ele>0</ele>
        <time>2026-06-18T10:44:35Z</time>
      </trkpt>
      <trkpt lat="39.143411699731026" lon="117.77050799473214">
        <ele>0</ele>
        <time>2026-06-18T10:44:37Z</time>
      </trkpt>
      <trkpt lat="39.14336268783879" lon="117.77045197903858">
        <ele>0</ele>
        <time>2026-06-18T10:44:39Z</time>
      </trkpt>
      <trkpt lat="39.14331067508737" lon="117.77039196221263">
        <ele>0</ele>
        <time>2026-06-18T10:44:41Z</time>
      </trkpt>
      <trkpt lat="39.14325566232839" lon="117.77033194537557">
        <ele>0</ele>
        <time>2026-06-18T10:44:43Z</time>
      </trkpt>
      <trkpt lat="39.14319964913521" lon="117.77026992796863">
        <ele>0</ele>
        <time>2026-06-18T10:44:45Z</time>
      </trkpt>
      <trkpt lat="39.14314263636207" lon="117.77020991111073">
        <ele>0</ele>
        <time>2026-06-18T10:44:47Z</time>
      </trkpt>
      <trkpt lat="39.14308562315349" lon="117.77014789367668">
        <ele>0</ele>
        <time>2026-06-18T10:44:49Z</time>
      </trkpt>
      <trkpt lat="39.143029609937976" lon="117.77008587623273">
        <ele>0</ele>
        <time>2026-06-18T10:44:51Z</time>
      </trkpt>
      <trkpt lat="39.1429735964971" lon="117.77002285849974">
        <ele>0</ele>
        <time>2026-06-18T10:44:53Z</time>
      </trkpt>
      <trkpt lat="39.14291758305019" lon="117.76995984075111">
        <ele>0</ele>
        <time>2026-06-18T10:44:55Z</time>
      </trkpt>
      <trkpt lat="39.142861569593066" lon="117.76989682299252">
        <ele>0</ele>
        <time>2026-06-18T10:44:57Z</time>
      </trkpt>
      <trkpt lat="39.14280755612805" lon="117.76983380522445">
        <ele>0</ele>
        <time>2026-06-18T10:44:59Z</time>
      </trkpt>
      <trkpt lat="39.14275254265399" lon="117.76977078744467">
        <ele>0</ele>
        <time>2026-06-18T10:45:01Z</time>
      </trkpt>
      <trkpt lat="39.14269652874433" lon="117.76970576908906">
        <ele>0</ele>
        <time>2026-06-18T10:45:03Z</time>
      </trkpt>
      <trkpt lat="39.1426415148236" lon="117.76964075072027">
        <ele>0</ele>
        <time>2026-06-18T10:45:05Z</time>
      </trkpt>
      <trkpt lat="39.14258550068075" lon="117.76957473205636">
        <ele>0</ele>
        <time>2026-06-18T10:45:07Z</time>
      </trkpt>
      <trkpt lat="39.14253048631166" lon="117.76950771309791">
        <ele>0</ele>
        <time>2026-06-18T10:45:09Z</time>
      </trkpt>
      <trkpt lat="39.142475471932975" lon="117.76944069412758">
        <ele>0</ele>
        <time>2026-06-18T10:45:11Z</time>
      </trkpt>
      <trkpt lat="39.142421457547954" lon="117.76937367514573">
        <ele>0</ele>
        <time>2026-06-18T10:45:13Z</time>
      </trkpt>
      <trkpt lat="39.142367443149254" lon="117.76930665615133">
        <ele>0</ele>
        <time>2026-06-18T10:45:15Z</time>
      </trkpt>
      <trkpt lat="39.14231442831425" lon="117.76923763657605">
        <ele>0</ele>
        <time>2026-06-18T10:45:17Z</time>
      </trkpt>
      <trkpt lat="39.14226141325345" lon="117.76916761670387">
        <ele>0</ele>
        <time>2026-06-18T10:45:19Z</time>
      </trkpt>
      <trkpt lat="39.142208397750736" lon="117.76909559624693">
        <ele>0</ele>
        <time>2026-06-18T10:45:21Z</time>
      </trkpt>
      <trkpt lat="39.14215538201986" lon="117.76902257549438">
        <ele>0</ele>
        <time>2026-06-18T10:45:23Z</time>
      </trkpt>
      <trkpt lat="39.142104366065674" lon="117.76894855444128">
        <ele>0</ele>
        <time>2026-06-18T10:45:25Z</time>
      </trkpt>
      <trkpt lat="39.14205235031402" lon="117.76887553365887">
        <ele>0</ele>
        <time>2026-06-18T10:45:27Z</time>
      </trkpt>
      <trkpt lat="39.142000334551604" lon="117.76880251286012">
        <ele>0</ele>
        <time>2026-06-18T10:45:29Z</time>
      </trkpt>
      <trkpt lat="39.141949318992594" lon="117.76873049232988">
        <ele>0</ele>
        <time>2026-06-18T10:45:31Z</time>
      </trkpt>
      <trkpt lat="39.14190030342414" lon="117.76865847178695">
        <ele>0</ele>
        <time>2026-06-18T10:45:33Z</time>
      </trkpt>
      <trkpt lat="39.14185228741371" lon="117.76858445065923">
        <ele>0</ele>
        <time>2026-06-18T10:45:35Z</time>
      </trkpt>
      <trkpt lat="39.14180627160744" lon="117.76851142980306">
        <ele>0</ele>
        <time>2026-06-18T10:45:37Z</time>
      </trkpt>
      <trkpt lat="39.1417612562223" lon="117.76844040950196">
        <ele>0</ele>
        <time>2026-06-18T10:45:39Z</time>
      </trkpt>
      <trkpt lat="39.14171624104217" lon="117.76837038947386">
        <ele>0</ele>
        <time>2026-06-18T10:45:41Z</time>
      </trkpt>
      <trkpt lat="39.14167222585344" lon="117.7683003694359">
        <ele>0</ele>
        <time>2026-06-18T10:45:43Z</time>
      </trkpt>
      <trkpt lat="39.14162921022031" lon="117.76822834881085">
        <ele>0</ele>
        <time>2026-06-18T10:45:45Z</time>
      </trkpt>
      <trkpt lat="39.14158419435779" lon="117.76815532788386">
        <ele>0</ele>
        <time>2026-06-18T10:45:47Z</time>
      </trkpt>
      <trkpt lat="39.14153917783176" lon="117.7680793060856">
        <ele>0</ele>
        <time>2026-06-18T10:45:49Z</time>
      </trkpt>
      <trkpt lat="39.141494161077304" lon="117.76800228398068">
        <ele>0</ele>
        <time>2026-06-18T10:45:51Z</time>
      </trkpt>
      <trkpt lat="39.141450143878124" lon="117.76792326128947">
        <ele>0</ele>
        <time>2026-06-18T10:45:53Z</time>
      </trkpt>
      <trkpt lat="39.1414081270989" lon="117.76784623915651">
        <ele>0</ele>
        <time>2026-06-18T10:45:55Z</time>
      </trkpt>
      <trkpt lat="39.14136611030928" lon="117.76776921700623">
        <ele>0</ele>
        <time>2026-06-18T10:45:57Z</time>
      </trkpt>
      <trkpt lat="39.141322094161715" lon="117.76769519570463">
        <ele>0</ele>
        <time>2026-06-18T10:45:59Z</time>
      </trkpt>
      <trkpt lat="39.141277077786484" lon="117.76762017409608">
        <ele>0</ele>
        <time>2026-06-18T10:46:01Z</time>
      </trkpt>
      <trkpt lat="39.141232061399755" lon="117.7675451524759">
        <ele>0</ele>
        <time>2026-06-18T10:46:03Z</time>
      </trkpt>
      <trkpt lat="39.141187044781375" lon="117.76746913055456">
        <ele>0</ele>
        <time>2026-06-18T10:46:05Z</time>
      </trkpt>
      <trkpt lat="39.14114202793488" lon="117.76739210832707">
        <ele>0</ele>
        <time>2026-06-18T10:46:07Z</time>
      </trkpt>
      <trkpt lat="39.14109601129574" lon="117.76731608637375">
        <ele>0</ele>
        <time>2026-06-18T10:46:09Z</time>
      </trkpt>
      <trkpt lat="39.1410499944254" lon="117.76723906411283">
        <ele>0</ele>
        <time>2026-06-18T10:46:11Z</time>
      </trkpt>
      <trkpt lat="39.14100497776292" lon="117.7671630421308">
        <ele>0</ele>
        <time>2026-06-18T10:46:13Z</time>
      </trkpt>
      <trkpt lat="39.14096196130759" lon="117.76708802042096">
        <ele>0</ele>
        <time>2026-06-18T10:46:15Z</time>
      </trkpt>
      <trkpt lat="39.140920945500355" lon="117.76701599956765">
        <ele>0</ele>
        <time>2026-06-18T10:46:17Z</time>
      </trkpt>
      <trkpt lat="39.140878929462616" lon="117.766942978411">
        <ele>0</ele>
        <time>2026-06-18T10:46:19Z</time>
      </trkpt>
      <trkpt lat="39.140835913193385" lon="117.76686895694658">
        <ele>0</ele>
        <time>2026-06-18T10:46:21Z</time>
      </trkpt>
      <trkpt lat="39.140791896254086" lon="117.76679193460159">
        <ele>0</ele>
        <time>2026-06-18T10:46:23Z</time>
      </trkpt>
      <trkpt lat="39.14074687930403" lon="117.7667149122386">
        <ele>0</ele>
        <time>2026-06-18T10:46:25Z</time>
      </trkpt>
      <trkpt lat="39.140699862123036" lon="117.76663688956889">
        <ele>0</ele>
        <time>2026-06-18T10:46:27Z</time>
      </trkpt>
      <trkpt lat="39.140653844490295" lon="117.76655686630487">
        <ele>0</ele>
        <time>2026-06-18T10:46:29Z</time>
      </trkpt>
      <trkpt lat="39.14060682662529" lon="117.76647584273424">
        <ele>0</ele>
        <time>2026-06-18T10:46:31Z</time>
      </trkpt>
      <trkpt lat="39.14055980896682" lon="117.76639581943587">
        <ele>0</ele>
        <time>2026-06-18T10:46:33Z</time>
      </trkpt>
      <trkpt lat="39.14051179107342" lon="117.76631479583001">
        <ele>0</ele>
        <time>2026-06-18T10:46:35Z</time>
      </trkpt>
      <trkpt lat="39.14046577316938" lon="117.76623377221014">
        <ele>0</ele>
        <time>2026-06-18T10:46:37Z</time>
      </trkpt>
      <trkpt lat="39.140419755254165" lon="117.76615274857396">
        <ele>0</ele>
        <time>2026-06-18T10:46:39Z</time>
      </trkpt>
      <trkpt lat="39.14037273732551" lon="117.76607172492156">
        <ele>0</ele>
        <time>2026-06-18T10:46:41Z</time>
      </trkpt>
      <trkpt lat="39.1403267193842" lon="117.76599070125457">
        <ele>0</ele>
        <time>2026-06-18T10:46:43Z</time>
      </trkpt>
      <trkpt lat="39.1402797016529" lon="117.76591067786171">
        <ele>0</ele>
        <time>2026-06-18T10:46:45Z</time>
      </trkpt>
      <trkpt lat="39.1402326836896" lon="117.76582965416104">
        <ele>0</ele>
        <time>2026-06-18T10:46:47Z</time>
      </trkpt>
      <trkpt lat="39.140185665933586" lon="117.76574963073865">
        <ele>0</ele>
        <time>2026-06-18T10:46:49Z</time>
      </trkpt>
      <trkpt lat="39.1401396479452" lon="117.76566860700656">
        <ele>0</ele>
        <time>2026-06-18T10:46:51Z</time>
      </trkpt>
      <trkpt lat="39.14009263016512" lon="117.76558858355439">
        <ele>0</ele>
        <time>2026-06-18T10:46:53Z</time>
      </trkpt>
      <trkpt lat="39.14004561215189" lon="117.7655075597904">
        <ele>0</ele>
        <time>2026-06-18T10:46:55Z</time>
      </trkpt>
      <trkpt lat="39.139998594348434" lon="117.76542753630493">
        <ele>0</ele>
        <time>2026-06-18T10:46:57Z</time>
      </trkpt>
      <trkpt lat="39.139952576311416" lon="117.76534651251127">
        <ele>0</ele>
        <time>2026-06-18T10:46:59Z</time>
      </trkpt>
      <trkpt lat="39.13990555826283" lon="117.76526548870363">
        <ele>0</ele>
        <time>2026-06-18T10:47:01Z</time>
      </trkpt>
      <trkpt lat="39.13985854020516" lon="117.76518446487798">
        <ele>0</ele>
        <time>2026-06-18T10:47:03Z</time>
      </trkpt>
      <trkpt lat="39.13981152235539" lon="117.76510444133095">
        <ele>0</ele>
        <time>2026-06-18T10:47:05Z</time>
      </trkpt>
      <trkpt lat="39.139763504497644" lon="117.7650244177693">
        <ele>0</ele>
        <time>2026-06-18T10:47:07Z</time>
      </trkpt>
      <trkpt lat="39.13971648662801" lon="117.76494439419456">
        <ele>0</ele>
        <time>2026-06-18T10:47:09Z</time>
      </trkpt>
      <trkpt lat="39.1396694689701" lon="117.76486537090031">
        <ele>0</ele>
        <time>2026-06-18T10:47:11Z</time>
      </trkpt>
      <trkpt lat="39.13962345152663" lon="117.76478734788573">
        <ele>0</ele>
        <time>2026-06-18T10:47:13Z</time>
      </trkpt>
      <trkpt lat="39.139581434516515" lon="117.76471132544653">
        <ele>0</ele>
        <time>2026-06-18T10:47:15Z</time>
      </trkpt>
      <trkpt lat="39.139542418396104" lon="117.76463930417509">
        <ele>0</ele>
        <time>2026-06-18T10:47:17Z</time>
      </trkpt>
      <trkpt lat="39.139507403385345" lon="117.7645722843751">
        <ele>0</ele>
        <time>2026-06-18T10:47:19Z</time>
      </trkpt>
      <trkpt lat="39.139431356736004" lon="117.76436422283942">
        <ele>0</ele>
        <time>2026-06-18T10:47:55Z</time>
      </trkpt>
      <trkpt lat="39.13940634640833" lon="117.76431820921601">
        <ele>0</ele>
        <time>2026-06-18T10:47:59Z</time>
      </trkpt>
      <trkpt lat="39.139377334955476" lon="117.76426719410604">
        <ele>0</ele>
        <time>2026-06-18T10:48:01Z</time>
      </trkpt>
      <trkpt lat="39.13934232282331" lon="117.76421317810149">
        <ele>0</ele>
        <time>2026-06-18T10:48:03Z</time>
      </trkpt>
      <trkpt lat="39.13930231023651" lon="117.76415716149455">
        <ele>0</ele>
        <time>2026-06-18T10:48:05Z</time>
      </trkpt>
      <trkpt lat="39.139259297421006" lon="117.7641001445828">
        <ele>0</ele>
        <time>2026-06-18T10:48:07Z</time>
      </trkpt>
      <trkpt lat="39.13921328482452" lon="117.76404412796171">
        <ele>0</ele>
        <time>2026-06-18T10:48:09Z</time>
      </trkpt>
      <trkpt lat="39.13916627154441" lon="117.7639851104423">
        <ele>0</ele>
        <time>2026-06-18T10:48:11Z</time>
      </trkpt>
      <trkpt lat="39.13912125713362" lon="117.76392109142867">
        <ele>0</ele>
        <time>2026-06-18T10:48:13Z</time>
      </trkpt>
      <trkpt lat="39.13907924136418" lon="117.76385107062505">
        <ele>0</ele>
        <time>2026-06-18T10:48:15Z</time>
      </trkpt>
      <trkpt lat="39.13903722491065" lon="117.76377804892242">
        <ele>0</ele>
        <time>2026-06-18T10:48:17Z</time>
      </trkpt>
      <trkpt lat="39.138994208224794" lon="117.76370402690655">
        <ele>0</ele>
        <time>2026-06-18T10:48:19Z</time>
      </trkpt>
      <trkpt lat="39.13895219152697" lon="117.76363000487875">
        <ele>0</ele>
        <time>2026-06-18T10:48:21Z</time>
      </trkpt>
      <trkpt lat="39.13891217550145" lon="117.76355898373615">
        <ele>0</ele>
        <time>2026-06-18T10:48:23Z</time>
      </trkpt>
      <trkpt lat="39.13887215991843" lon="117.76348996317944">
        <ele>0</ele>
        <time>2026-06-18T10:48:25Z</time>
      </trkpt>
      <trkpt lat="39.13883214478065" lon="117.76342294320398">
        <ele>0</ele>
        <time>2026-06-18T10:48:27Z</time>
      </trkpt>
      <trkpt lat="39.13879112940679" lon="117.76335492292391">
        <ele>0</ele>
        <time>2026-06-18T10:48:29Z</time>
      </trkpt>
      <trkpt lat="39.138748113802215" lon="117.76328590233427">
        <ele>0</ele>
        <time>2026-06-18T10:48:31Z</time>
      </trkpt>
      <trkpt lat="39.13870609751058" lon="117.7632138808389">
        <ele>0</ele>
        <time>2026-06-18T10:48:33Z</time>
      </trkpt>
      <trkpt lat="39.13866408075699" lon="117.7631398587378">
        <ele>0</ele>
        <time>2026-06-18T10:48:35Z</time>
      </trkpt>
      <trkpt lat="39.13862206376729" lon="117.76306483632281">
        <ele>0</ele>
        <time>2026-06-18T10:48:37Z</time>
      </trkpt>
      <trkpt lat="39.13858004676989" lon="117.76298981389805">
        <ele>0</ele>
        <time>2026-06-18T10:48:39Z</time>
      </trkpt>
      <trkpt lat="39.138537029310456" lon="117.762912790865">
        <ele>0</ele>
        <time>2026-06-18T10:48:41Z</time>
      </trkpt>
      <trkpt lat="39.13849401184141" lon="117.76283576781677">
        <ele>0</ele>
        <time>2026-06-18T10:48:43Z</time>
      </trkpt>
      <trkpt lat="39.138453994363985" lon="117.76275874475918">
        <ele>0</ele>
        <time>2026-06-18T10:48:45Z</time>
      </trkpt>
      <trkpt lat="39.138413976877125" lon="117.76268172168898">
        <ele>0</ele>
        <time>2026-06-18T10:48:47Z</time>
      </trkpt>
      <trkpt lat="39.13837395960496" lon="117.76260569890553">
        <ele>0</ele>
        <time>2026-06-18T10:48:49Z</time>
      </trkpt>
      <trkpt lat="39.13833394255246" lon="117.76253067640835">
        <ele>0</ele>
        <time>2026-06-18T10:48:51Z</time>
      </trkpt>
      <trkpt lat="39.138293925265735" lon="117.76245465360371">
        <ele>0</ele>
        <time>2026-06-18T10:48:53Z</time>
      </trkpt>
      <trkpt lat="39.13825390819786" lon="117.76237963108302">
        <ele>0</ele>
        <time>2026-06-18T10:48:55Z</time>
      </trkpt>
      <trkpt lat="39.13821589112247" lon="117.7623046085519">
        <ele>0</ele>
        <time>2026-06-18T10:48:57Z</time>
      </trkpt>
      <trkpt lat="39.138177874036174" lon="117.76222958601382">
        <ele>0</ele>
        <time>2026-06-18T10:48:59Z</time>
      </trkpt>
      <trkpt lat="39.13814085648606" lon="117.76215256285847">
        <ele>0</ele>
        <time>2026-06-18T10:49:01Z</time>
      </trkpt>
      <trkpt lat="39.13810383892743" lon="117.76207553969407">
        <ele>0</ele>
        <time>2026-06-18T10:49:03Z</time>
      </trkpt>
      <trkpt lat="39.1380678213578" lon="117.76199851651525">
        <ele>0</ele>
        <time>2026-06-18T10:49:05Z</time>
      </trkpt>
      <trkpt lat="39.13803380400881" lon="117.7619224936278">
        <ele>0</ele>
        <time>2026-06-18T10:49:07Z</time>
      </trkpt>
      <trkpt lat="39.13800278710993" lon="117.76184847133186">
        <ele>0</ele>
        <time>2026-06-18T10:49:09Z</time>
      </trkpt>
      <trkpt lat="39.13797277065931" lon="117.76177644962944">
        <ele>0</ele>
        <time>2026-06-18T10:49:11Z</time>
      </trkpt>
      <trkpt lat="39.137942755114636" lon="117.76170842912144">
        <ele>0</ele>
        <time>2026-06-18T10:49:13Z</time>
      </trkpt>
      <trkpt lat="39.13791473979247" lon="117.76164140890744">
        <ele>0</ele>
        <time>2026-06-18T10:49:15Z</time>
      </trkpt>
      <trkpt lat="39.13788872423556" lon="117.7615733883823">
        <ele>0</ele>
        <time>2026-06-18T10:49:17Z</time>
      </trkpt>
      <trkpt lat="39.137862708443684" lon="117.76150436754895">
        <ele>0</ele>
        <time>2026-06-18T10:49:19Z</time>
      </trkpt>
      <trkpt lat="39.13783569218654" lon="117.76143334610383">
        <ele>0</ele>
        <time>2026-06-18T10:49:21Z</time>
      </trkpt>
      <trkpt lat="39.137806675921375" lon="117.76136232464592">
        <ele>0</ele>
        <time>2026-06-18T10:49:23Z</time>
      </trkpt>
      <trkpt lat="39.13777665918997" lon="117.76128930257532">
        <ele>0</ele>
        <time>2026-06-18T10:49:25Z</time>
      </trkpt>
      <trkpt lat="39.13774664176414" lon="117.76121327958523">
        <ele>0</ele>
        <time>2026-06-18T10:49:27Z</time>
      </trkpt>
      <trkpt lat="39.13771662318317" lon="117.7611322550696">
        <ele>0</ele>
        <time>2026-06-18T10:49:29Z</time>
      </trkpt>
      <trkpt lat="39.13768460367545" lon="117.76104722933401">
        <ele>0</ele>
        <time>2026-06-18T10:49:31Z</time>
      </trkpt>
      <trkpt lat="39.13765258346773" lon="117.76095920267761">
        <ele>0</ele>
        <time>2026-06-18T10:49:33Z</time>
      </trkpt>
      <trkpt lat="39.13762056324943" lon="117.76087117600554">
        <ele>0</ele>
        <time>2026-06-18T10:49:35Z</time>
      </trkpt>
      <trkpt lat="39.137588542790645" lon="117.76078214901581">
        <ele>0</ele>
        <time>2026-06-18T10:49:37Z</time>
      </trkpt>
      <trkpt lat="39.13755552209102" lon="117.7606921217056">
        <ele>0</ele>
        <time>2026-06-18T10:49:39Z</time>
      </trkpt>
      <trkpt lat="39.13752450161003" lon="117.7606030946866">
        <ele>0</ele>
        <time>2026-06-18T10:49:41Z</time>
      </trkpt>
      <trkpt lat="39.13749648204005" lon="117.76051806886862">
        <ele>0</ele>
        <time>2026-06-18T10:49:43Z</time>
      </trkpt>
      <trkpt lat="39.137469463613044" lon="117.76043804455827">
        <ele>0</ele>
        <time>2026-06-18T10:49:45Z</time>
      </trkpt>
      <trkpt lat="39.13744044540669" lon="117.7603590205403">
        <ele>0</ele>
        <time>2026-06-18T10:49:47Z</time>
      </trkpt>
      <trkpt lat="39.13740942719199" lon="117.76027999651262">
        <ele>0</ele>
        <time>2026-06-18T10:49:49Z</time>
      </trkpt>
      <trkpt lat="39.13737740804589" lon="117.76019697125292">
        <ele>0</ele>
        <time>2026-06-18T10:49:51Z</time>
      </trkpt>
      <trkpt lat="39.137346388198175" lon="117.76011094506916">
        <ele>0</ele>
        <time>2026-06-18T10:49:53Z</time>
      </trkpt>
      <trkpt lat="39.13731636811037" lon="117.76002391856865">
        <ele>0</ele>
        <time>2026-06-18T10:49:55Z</time>
      </trkpt>
      <trkpt lat="39.137285348244475" lon="117.75993789235683">
        <ele>0</ele>
        <time>2026-06-18T10:49:57Z</time>
      </trkpt>
      <trkpt lat="39.13725432883033" lon="117.75985386674738">
        <ele>0</ele>
        <time>2026-06-18T10:49:59Z</time>
      </trkpt>
      <trkpt lat="39.13722330987139" lon="117.75977184173144">
        <ele>0</ele>
        <time>2026-06-18T10:50:01Z</time>
      </trkpt>
      <trkpt lat="39.137192291365096" lon="117.75969181731725">
        <ele>0</ele>
        <time>2026-06-18T10:50:03Z</time>
      </trkpt>
      <trkpt lat="39.13716227331498" lon="117.75961379350251">
        <ele>0</ele>
        <time>2026-06-18T10:50:05Z</time>
      </trkpt>
      <trkpt lat="39.13713525618296" lon="117.7595397709018">
        <ele>0</ele>
        <time>2026-06-18T10:50:07Z</time>
      </trkpt>
      <trkpt lat="39.13711123997137" lon="117.75946974951086">
        <ele>0</ele>
        <time>2026-06-18T10:50:09Z</time>
      </trkpt>
      <trkpt lat="39.13708722468018" lon="117.7594037293338">
        <ele>0</ele>
        <time>2026-06-18T10:50:11Z</time>
      </trkpt>
      <trkpt lat="39.13706420938259" lon="117.75933770915421">
        <ele>0</ele>
        <time>2026-06-18T10:50:13Z</time>
      </trkpt>
      <trkpt lat="39.13703919408105" lon="117.7592716889658">
        <ele>0</ele>
        <time>2026-06-18T10:50:15Z</time>
      </trkpt>
      <trkpt lat="39.13701417807808" lon="117.75920266785315">
        <ele>0</ele>
        <time>2026-06-18T10:50:17Z</time>
      </trkpt>
      <trkpt lat="39.136987161141356" lon="117.75912964550564">
        <ele>0</ele>
        <time>2026-06-18T10:50:19Z</time>
      </trkpt>
      <trkpt lat="39.13695814280396" lon="117.75905062131012">
        <ele>0</ele>
        <time>2026-06-18T10:50:21Z</time>
      </trkpt>
      <trkpt lat="39.136928122602804" lon="117.75896359465739">
        <ele>0</ele>
        <time>2026-06-18T10:50:23Z</time>
      </trkpt>
      <trkpt lat="39.136896101461275" lon="117.75887256676602">
        <ele>0</ele>
        <time>2026-06-18T10:50:25Z</time>
      </trkpt>
      <trkpt lat="39.136861079614434" lon="117.75877853794107">
        <ele>0</ele>
        <time>2026-06-18T10:50:27Z</time>
      </trkpt>
      <trkpt lat="39.13682605752396" lon="117.7586835087959">
        <ele>0</ele>
        <time>2026-06-18T10:50:29Z</time>
      </trkpt>
      <trkpt lat="39.13679203519092" lon="117.75858747932875">
        <ele>0</ele>
        <time>2026-06-18T10:50:31Z</time>
      </trkpt>
      <trkpt lat="39.13675701261271" lon="117.75849044954228">
        <ele>0</ele>
        <time>2026-06-18T10:50:33Z</time>
      </trkpt>
      <trkpt lat="39.136720990255434" lon="117.75839442004921">
        <ele>0</ele>
        <time>2026-06-18T10:50:35Z</time>
      </trkpt>
      <trkpt lat="39.13668396835455" lon="117.75830039115162">
        <ele>0</ele>
        <time>2026-06-18T10:50:37Z</time>
      </trkpt>
      <trkpt lat="39.13664594667747" lon="117.7582073625449">
        <ele>0</ele>
        <time>2026-06-18T10:50:39Z</time>
      </trkpt>
      <trkpt lat="39.136608925925216" lon="117.75811833515986">
        <ele>0</ele>
        <time>2026-06-18T10:50:41Z</time>
      </trkpt>
      <trkpt lat="39.13657390586286" lon="117.75803230868888">
        <ele>0</ele>
        <time>2026-06-18T10:50:43Z</time>
      </trkpt>
      <trkpt lat="39.13653988649332" lon="117.75794928312824">
        <ele>0</ele>
        <time>2026-06-18T10:50:45Z</time>
      </trkpt>
      <trkpt lat="39.136506868049544" lon="117.757870258791">
        <ele>0</ele>
        <time>2026-06-18T10:50:47Z</time>
      </trkpt>
      <trkpt lat="39.13647384936614" lon="117.75779023413783">
        <ele>0</ele>
        <time>2026-06-18T10:50:49Z</time>
      </trkpt>
      <trkpt lat="39.13643883067603" lon="117.75771020947589">
        <ele>0</ele>
        <time>2026-06-18T10:50:51Z</time>
      </trkpt>
      <trkpt lat="39.1364048122127" lon="117.75763118511422">
        <ele>0</ele>
        <time>2026-06-18T10:50:53Z</time>
      </trkpt>
      <trkpt lat="39.13636979397607" lon="117.75755316105061">
        <ele>0</ele>
        <time>2026-06-18T10:50:55Z</time>
      </trkpt>
      <trkpt lat="39.13633277573238" lon="117.75747513697583">
        <ele>0</ele>
        <time>2026-06-18T10:50:57Z</time>
      </trkpt>
      <trkpt lat="39.136294757482865" lon="117.75739711289215">
        <ele>0</ele>
        <time>2026-06-18T10:50:59Z</time>
      </trkpt>
      <trkpt lat="39.13625773899415" lon="117.75731808849442">
        <ele>0</ele>
        <time>2026-06-18T10:51:01Z</time>
      </trkpt>
      <trkpt lat="39.13621972026426" lon="117.75723806377766">
        <ele>0</ele>
        <time>2026-06-18T10:51:03Z</time>
      </trkpt>
      <trkpt lat="39.1361807015276" lon="117.75715803905324">
        <ele>0</ele>
        <time>2026-06-18T10:51:05Z</time>
      </trkpt>
      <trkpt lat="39.136140682784315" lon="117.7570780143169">
        <ele>0</ele>
        <time>2026-06-18T10:51:07Z</time>
      </trkpt>
      <trkpt lat="39.136099664267114" lon="117.75699898988626">
        <ele>0</ele>
        <time>2026-06-18T10:51:09Z</time>
      </trkpt>
      <trkpt lat="39.13605764574633" lon="117.75691996544352">
        <ele>0</ele>
        <time>2026-06-18T10:51:11Z</time>
      </trkpt>
      <trkpt lat="39.1360156274542" lon="117.75684194130294">
        <ele>0</ele>
        <time>2026-06-18T10:51:13Z</time>
      </trkpt>
      <trkpt lat="39.135974609154964" lon="117.75676391715443">
        <ele>0</ele>
        <time>2026-06-18T10:51:15Z</time>
      </trkpt>
      <trkpt lat="39.13593559108366" lon="117.75668689330682">
        <ele>0</ele>
        <time>2026-06-18T10:51:17Z</time>
      </trkpt>
      <trkpt lat="39.13589957300587" lon="117.75660986945103">
        <ele>0</ele>
        <time>2026-06-18T10:51:19Z</time>
      </trkpt>
      <trkpt lat="39.13586155445589" lon="117.75653084497037">
        <ele>0</ele>
        <time>2026-06-18T10:51:21Z</time>
      </trkpt>
      <trkpt lat="39.135821535897676" lon="117.75645182048062">
        <ele>0</ele>
        <time>2026-06-18T10:51:23Z</time>
      </trkpt>
      <trkpt lat="39.13577951757105" lon="117.75637379629336">
        <ele>0</ele>
        <time>2026-06-18T10:51:25Z</time>
      </trkpt>
      <trkpt lat="39.13573850017677" lon="117.75629977334083">
        <ele>0</ele>
        <time>2026-06-18T10:51:27Z</time>
      </trkpt>
      <trkpt lat="39.135702483720145" lon="117.75622975161825">
        <ele>0</ele>
        <time>2026-06-18T10:51:29Z</time>
      </trkpt>
      <trkpt lat="39.135673469375114" lon="117.75616873268464">
        <ele>0</ele>
        <time>2026-06-18T10:51:31Z</time>
      </trkpt>
      <trkpt lat="39.13563544961547" lon="117.75608470660767">
        <ele>0</ele>
        <time>2026-06-18T10:51:49Z</time>
      </trkpt>
      <trkpt lat="39.13561744138028" lon="117.75604969574012">
        <ele>0</ele>
        <time>2026-06-18T10:51:51Z</time>
      </trkpt>
      <trkpt lat="39.135595431025656" lon="117.7560056820746">
        <ele>0</ele>
        <time>2026-06-18T10:51:53Z</time>
      </trkpt>
      <trkpt lat="39.135569418550375" lon="117.75595266561002">
        <ele>0</ele>
        <time>2026-06-18T10:51:55Z</time>
      </trkpt>
      <trkpt lat="39.135536404894765" lon="117.75589464759055">
        <ele>0</ele>
        <time>2026-06-18T10:51:57Z</time>
      </trkpt>
      <trkpt lat="39.13549939052887" lon="117.75583362863163">
        <ele>0</ele>
        <time>2026-06-18T10:51:59Z</time>
      </trkpt>
      <trkpt lat="39.13545737568976" lon="117.75577060904747">
        <ele>0</ele>
        <time>2026-06-18T10:52:01Z</time>
      </trkpt>
      <trkpt lat="39.13541336084573" lon="117.75570758945614">
        <ele>0</ele>
        <time>2026-06-18T10:52:03Z</time>
      </trkpt>
      <trkpt lat="39.13537034599931" lon="117.75564456986476">
        <ele>0</ele>
        <time>2026-06-18T10:52:05Z</time>
      </trkpt>
      <trkpt lat="39.13533333115015" lon="117.75558155026653">
        <ele>0</ele>
        <time>2026-06-18T10:52:07Z</time>
      </trkpt>
      <trkpt lat="39.1352983165332" lon="117.7555195309781">
        <ele>0</ele>
        <time>2026-06-18T10:52:09Z</time>
      </trkpt>
      <trkpt lat="39.13526430167746" lon="117.75545651137361">
        <ele>0</ele>
        <time>2026-06-18T10:52:11Z</time>
      </trkpt>
      <trkpt lat="39.13522828634554" lon="117.75539149113708">
        <ele>0</ele>
        <time>2026-06-18T10:52:13Z</time>
      </trkpt>
      <trkpt lat="39.13519127006919" lon="117.75532246965336">
        <ele>0</ele>
        <time>2026-06-18T10:52:15Z</time>
      </trkpt>
      <trkpt lat="39.135152253080946" lon="117.75525044723041">
        <ele>0</ele>
        <time>2026-06-18T10:52:17Z</time>
      </trkpt>
      <trkpt lat="39.13511123585176" lon="117.75517742448787">
        <ele>0</ele>
        <time>2026-06-18T10:52:19Z</time>
      </trkpt>
      <trkpt lat="39.135070218382694" lon="117.75510340142847">
        <ele>0</ele>
        <time>2026-06-18T10:52:21Z</time>
      </trkpt>
      <trkpt lat="39.13502920114379" lon="117.75503037867458">
        <ele>0</ele>
        <time>2026-06-18T10:52:23Z</time>
      </trkpt>
      <trkpt lat="39.134989183662675" lon="117.75495635560117">
        <ele>0</ele>
        <time>2026-06-18T10:52:25Z</time>
      </trkpt>
      <trkpt lat="39.134948165941985" lon="117.75488133221393">
        <ele>0</ele>
        <time>2026-06-18T10:52:27Z</time>
      </trkpt>
      <trkpt lat="39.13490614774401" lon="117.75480430819493">
        <ele>0</ele>
        <time>2026-06-18T10:52:29Z</time>
      </trkpt>
      <trkpt lat="39.134864129304084" lon="117.75472628385825">
        <ele>0</ele>
        <time>2026-06-18T10:52:31Z</time>
      </trkpt>
      <trkpt lat="39.13482211109882" lon="117.75464925982807">
        <ele>0</ele>
        <time>2026-06-18T10:52:33Z</time>
      </trkpt>
      <trkpt lat="39.13478109288708" lon="117.75457223579048">
        <ele>0</ele>
        <time>2026-06-18T10:52:35Z</time>
      </trkpt>
      <trkpt lat="39.134740074907285" lon="117.75449621205826">
        <ele>0</ele>
        <time>2026-06-18T10:52:37Z</time>
      </trkpt>
      <trkpt lat="39.13469705715848" lon="117.7544211886305">
        <ele>0</ele>
        <time>2026-06-18T10:52:39Z</time>
      </trkpt>
      <trkpt lat="39.13465503964276" lon="117.75434716551351">
        <ele>0</ele>
        <time>2026-06-18T10:52:41Z</time>
      </trkpt>
      <trkpt lat="39.134612021889296" lon="117.75427214207579">
        <ele>0</ele>
        <time>2026-06-18T10:52:43Z</time>
      </trkpt>
      <trkpt lat="39.134569004130725" lon="117.75419711863282">
        <ele>0</ele>
        <time>2026-06-18T10:52:45Z</time>
      </trkpt>
      <trkpt lat="39.13452798660619" lon="117.75412309549905">
        <ele>0</ele>
        <time>2026-06-18T10:52:47Z</time>
      </trkpt>
      <trkpt lat="39.13448796931122" lon="117.75405007267159">
        <ele>0</ele>
        <time>2026-06-18T10:52:49Z</time>
      </trkpt>
      <trkpt lat="39.13444795201313" lon="117.75397704983688">
        <ele>0</ele>
        <time>2026-06-18T10:52:51Z</time>
      </trkpt>
      <trkpt lat="39.13440793495049" lon="117.7539050273138">
        <ele>0</ele>
        <time>2026-06-18T10:52:53Z</time>
      </trkpt>
      <trkpt lat="39.13436691788326" lon="117.75383300478164">
        <ele>0</ele>
        <time>2026-06-18T10:52:55Z</time>
      </trkpt>
      <trkpt lat="39.134324901049034" lon="117.7537619825576">
        <ele>0</ele>
        <time>2026-06-18T10:52:57Z</time>
      </trkpt>
      <trkpt lat="39.134282884209846" lon="117.75369096033005">
        <ele>0</ele>
        <time>2026-06-18T10:52:59Z</time>
      </trkpt>
      <trkpt lat="39.13424086784312" lon="117.75362193872617">
        <ele>0</ele>
        <time>2026-06-18T10:53:01Z</time>
      </trkpt>
      <trkpt lat="39.13420085218561" lon="117.75355591805506">
        <ele>0</ele>
        <time>2026-06-18T10:53:03Z</time>
      </trkpt>
      <trkpt lat="39.134164837473534" lon="117.75349389863241">
        <ele>0</ele>
        <time>2026-06-18T10:53:05Z</time>
      </trkpt>
      <trkpt lat="39.134133824894704" lon="117.75344088202813">
        <ele>0</ele>
        <time>2026-06-18T10:53:07Z</time>
      </trkpt>
      <trkpt lat="39.134076803296146" lon="117.75334985351438">
        <ele>0</ele>
        <time>2026-06-18T10:53:23Z</time>
      </trkpt>
      <trkpt lat="39.13404279142615" lon="117.75329983784339">
        <ele>0</ele>
        <time>2026-06-18T10:53:25Z</time>
      </trkpt>
      <trkpt lat="39.13400577789099" lon="117.75324281997851">
        <ele>0</ele>
        <time>2026-06-18T10:53:27Z</time>
      </trkpt>
      <trkpt lat="39.133972765067035" lon="117.75318880305176">
        <ele>0</ele>
        <time>2026-06-18T10:53:29Z</time>
      </trkpt>
      <trkpt lat="39.13393675223959" lon="117.75313478612256">
        <ele>0</ele>
        <time>2026-06-18T10:53:31Z</time>
      </trkpt>
      <trkpt lat="39.13389673965061" lon="117.75308176950325">
        <ele>0</ele>
        <time>2026-06-18T10:53:33Z</time>
      </trkpt>
      <trkpt lat="39.13385572705934" lon="117.7530287528809">
        <ele>0</ele>
        <time>2026-06-18T10:53:35Z</time>
      </trkpt>
      <trkpt lat="39.133812714942096" lon="117.75297773688006">
        <ele>0</ele>
        <time>2026-06-18T10:53:37Z</time>
      </trkpt>
      <trkpt lat="39.13376770234621" lon="117.75292472024971">
        <ele>0</ele>
        <time>2026-06-18T10:53:39Z</time>
      </trkpt>
      <trkpt lat="39.133720688798014" lon="117.75286770236582">
        <ele>0</ele>
        <time>2026-06-18T10:53:41Z</time>
      </trkpt>
      <trkpt lat="39.13367367477473" lon="117.75280868384975">
        <ele>0</ele>
        <time>2026-06-18T10:53:43Z</time>
      </trkpt>
      <trkpt lat="39.133624660271956" lon="117.7527476647053">
        <ele>0</ele>
        <time>2026-06-18T10:53:45Z</time>
      </trkpt>
      <trkpt lat="39.13357464600745" lon="117.75268764586806">
        <ele>0</ele>
        <time>2026-06-18T10:53:47Z</time>
      </trkpt>
      <trkpt lat="39.13352363174072" lon="117.75262762702967">
        <ele>0</ele>
        <time>2026-06-18T10:53:49Z</time>
      </trkpt>
      <trkpt lat="39.13347161747186" lon="117.75256760819103">
        <ele>0</ele>
        <time>2026-06-18T10:53:51Z</time>
      </trkpt>
      <trkpt lat="39.13341860320093" lon="117.75250758934752">
        <ele>0</ele>
        <time>2026-06-18T10:53:53Z</time>
      </trkpt>
      <trkpt lat="39.13336458916371" lon="117.75244857081555">
        <ele>0</ele>
        <time>2026-06-18T10:53:55Z</time>
      </trkpt>
      <trkpt lat="39.13331157583828" lon="117.75239255322057">
        <ele>0</ele>
        <time>2026-06-18T10:53:57Z</time>
      </trkpt>
      <trkpt lat="39.13326056298714" lon="117.75233853625129">
        <ele>0</ele>
        <time>2026-06-18T10:53:59Z</time>
      </trkpt>
      <trkpt lat="39.13320855108716" lon="117.75228852053716">
        <ele>0</ele>
        <time>2026-06-18T10:54:01Z</time>
      </trkpt>
      <trkpt lat="39.13315653990093" lon="117.75224150576308">
        <ele>0</ele>
        <time>2026-06-18T10:54:03Z</time>
      </trkpt>
      <trkpt lat="39.133102528712236" lon="117.75219449098918">
        <ele>0</ele>
        <time>2026-06-18T10:54:05Z</time>
      </trkpt>
      <trkpt lat="39.13304951728409" lon="117.75214647589812">
        <ele>0</ele>
        <time>2026-06-18T10:54:07Z</time>
      </trkpt>
      <trkpt lat="39.13299750466749" lon="117.75209345923761">
        <ele>0</ele>
        <time>2026-06-18T10:54:09Z</time>
      </trkpt>
      <trkpt lat="39.132944491570186" lon="117.75203844194394">
        <ele>0</ele>
        <time>2026-06-18T10:54:11Z</time>
      </trkpt>
      <trkpt lat="39.13289047847119" lon="117.75198342464762">
        <ele>0</ele>
        <time>2026-06-18T10:54:13Z</time>
      </trkpt>
      <trkpt lat="39.13283546608811" lon="117.75193140829097">
        <ele>0</ele>
        <time>2026-06-18T10:54:15Z</time>
      </trkpt>
      <trkpt lat="39.13278145465661" lon="117.75188339319247">
        <ele>0</ele>
        <time>2026-06-18T10:54:17Z</time>
      </trkpt>
      <trkpt lat="39.13272744346077" lon="117.75183637841035">
        <ele>0</ele>
        <time>2026-06-18T10:54:19Z</time>
      </trkpt>
      <trkpt lat="39.13267343154836" lon="117.75178636268292">
        <ele>0</ele>
        <time>2026-06-18T10:54:21Z</time>
      </trkpt>
      <trkpt lat="39.13261741939722" lon="117.75173534663772">
        <ele>0</ele>
        <time>2026-06-18T10:54:23Z</time>
      </trkpt>
      <trkpt lat="39.13255840700473" lon="117.7516833302744">
        <ele>0</ele>
        <time>2026-06-18T10:54:25Z</time>
      </trkpt>
      <trkpt lat="39.13249539485159" lon="117.75163231422479">
        <ele>0</ele>
        <time>2026-06-18T10:54:27Z</time>
      </trkpt>
      <trkpt lat="39.13243038317397" lon="117.7515832988028">
        <ele>0</ele>
        <time>2026-06-18T10:54:29Z</time>
      </trkpt>
      <trkpt lat="39.13236437125768" lon="117.75153328306183">
        <ele>0</ele>
        <time>2026-06-18T10:54:31Z</time>
      </trkpt>
      <trkpt lat="39.13229835933784" lon="117.75148326731998">
        <ele>0</ele>
        <time>2026-06-18T10:54:33Z</time>
      </trkpt>
      <trkpt lat="39.13223234741874" lon="117.75143325157727">
        <ele>0</ele>
        <time>2026-06-18T10:54:35Z</time>
      </trkpt>
      <trkpt lat="39.13216633525743" lon="117.75138223552125">
        <ele>0</ele>
        <time>2026-06-18T10:54:37Z</time>
      </trkpt>
      <trkpt lat="39.13209832309685" lon="117.75133121945956">
        <ele>0</ele>
        <time>2026-06-18T10:54:39Z</time>
      </trkpt>
      <trkpt lat="39.13202931069776" lon="117.75127920308256">
        <ele>0</ele>
        <time>2026-06-18T10:54:41Z</time>
      </trkpt>
      <trkpt lat="39.13195929853611" lon="117.75122818702103">
        <ele>0</ele>
        <time>2026-06-18T10:54:43Z</time>
      </trkpt>
      <trkpt lat="39.131891286374376" lon="117.75117717095621">
        <ele>0</ele>
        <time>2026-06-18T10:54:45Z</time>
      </trkpt>
      <trkpt lat="39.131825274450115" lon="117.75112715520378">
        <ele>0</ele>
        <time>2026-06-18T10:54:47Z</time>
      </trkpt>
      <trkpt lat="39.13175926276252" lon="117.75107813976433">
        <ele>0</ele>
        <time>2026-06-18T10:54:49Z</time>
      </trkpt>
      <trkpt lat="39.131695251552316" lon="117.75103112495549">
        <ele>0</ele>
        <time>2026-06-18T10:54:51Z</time>
      </trkpt>
      <trkpt lat="39.13163224057681" lon="117.7509851104594">
        <ele>0</ele>
        <time>2026-06-18T10:54:53Z</time>
      </trkpt>
      <trkpt lat="39.13157022936096" lon="117.75093809564748">
        <ele>0</ele>
        <time>2026-06-18T10:54:55Z</time>
      </trkpt>
      <trkpt lat="39.131508218147786" lon="117.75089108083714">
        <ele>0</ele>
        <time>2026-06-18T10:54:57Z</time>
      </trkpt>
      <trkpt lat="39.13144720717251" lon="117.7508450663397">
        <ele>0</ele>
        <time>2026-06-18T10:54:59Z</time>
      </trkpt>
      <trkpt lat="39.131385196192575" lon="117.75079905184064">
        <ele>0</ele>
        <time>2026-06-18T10:55:01Z</time>
      </trkpt>
      <trkpt lat="39.13132418521566" lon="117.75075303734032">
        <ele>0</ele>
        <time>2026-06-18T10:55:03Z</time>
      </trkpt>
      <trkpt lat="39.131263174477006" lon="117.75070802315413">
        <ele>0</ele>
        <time>2026-06-18T10:55:05Z</time>
      </trkpt>
      <trkpt lat="39.131203163733645" lon="117.75066300896623">
        <ele>0</ele>
        <time>2026-06-18T10:55:07Z</time>
      </trkpt>
      <trkpt lat="39.131145153469355" lon="117.75061999540922">
        <ele>0</ele>
        <time>2026-06-18T10:55:09Z</time>
      </trkpt>
      <trkpt lat="39.13108814320218" lon="117.75057698184926">
        <ele>0</ele>
        <time>2026-06-18T10:55:11Z</time>
      </trkpt>
      <trkpt lat="39.131030133174306" lon="117.75053496860386">
        <ele>0</ele>
        <time>2026-06-18T10:55:13Z</time>
      </trkpt>
      <trkpt lat="39.13097312314463" lon="117.75049295535878">
        <ele>0</ele>
        <time>2026-06-18T10:55:15Z</time>
      </trkpt>
      <trkpt lat="39.130916113117955" lon="117.75045094211359">
        <ele>0</ele>
        <time>2026-06-18T10:55:17Z</time>
      </trkpt>
      <trkpt lat="39.130862103088226" lon="117.75040892886783">
        <ele>0</ele>
        <time>2026-06-18T10:55:19Z</time>
      </trkpt>
      <trkpt lat="39.13080809401395" lon="117.75037091688165">
        <ele>0</ele>
        <time>2026-06-18T10:55:21Z</time>
      </trkpt>
      <trkpt lat="39.13075408517701" lon="117.75033390520892">
        <ele>0</ele>
        <time>2026-06-18T10:55:23Z</time>
      </trkpt>
      <trkpt lat="39.13069907586445" lon="117.75029489290584">
        <ele>0</ele>
        <time>2026-06-18T10:55:25Z</time>
      </trkpt>
      <trkpt lat="39.13064306535495" lon="117.7502508790237">
        <ele>0</ele>
        <time>2026-06-18T10:55:27Z</time>
      </trkpt>
      <trkpt lat="39.13058605484704" lon="117.75020686514287">
        <ele>0</ele>
        <time>2026-06-18T10:55:29Z</time>
      </trkpt>
      <trkpt lat="39.13052804433651" lon="117.75016285126128">
        <ele>0</ele>
        <time>2026-06-18T10:55:31Z</time>
      </trkpt>
      <trkpt lat="39.130469034066074" lon="117.75011983769366">
        <ele>0</ele>
        <time>2026-06-18T10:55:33Z</time>
      </trkpt>
      <trkpt lat="39.130410023078916" lon="117.75007382317683">
        <ele>0</ele>
        <time>2026-06-18T10:55:35Z</time>
      </trkpt>
      <trkpt lat="39.13035101209102" lon="117.75002780865991">
        <ele>0</ele>
        <time>2026-06-18T10:55:37Z</time>
      </trkpt>
      <trkpt lat="39.1302920011024" lon="117.74998179414288">
        <ele>0</ele>
        <time>2026-06-18T10:55:39Z</time>
      </trkpt>
      <trkpt lat="39.13023299011304" lon="117.74993577962577">
        <ele>0</ele>
        <time>2026-06-18T10:55:41Z</time>
      </trkpt>
      <trkpt lat="39.13017497912217" lon="117.74988976510568">
        <ele>0</ele>
        <time>2026-06-18T10:55:43Z</time>
      </trkpt>
      <trkpt lat="39.130117967652346" lon="117.74984174995248">
        <ele>0</ele>
        <time>2026-06-18T10:55:45Z</time>
      </trkpt>
      <trkpt lat="39.13005995642011" lon="117.7497947351178">
        <ele>0</ele>
        <time>2026-06-18T10:55:47Z</time>
      </trkpt>
      <trkpt lat="39.130001944949136" lon="117.74974671996571">
        <ele>0</ele>
        <time>2026-06-18T10:55:49Z</time>
      </trkpt>
      <trkpt lat="39.12994393323628" lon="117.74969770449395">
        <ele>0</ele>
        <time>2026-06-18T10:55:51Z</time>
      </trkpt>
      <trkpt lat="39.12988692104415" lon="117.74964668839024">
        <ele>0</ele>
        <time>2026-06-18T10:55:53Z</time>
      </trkpt>
      <trkpt lat="39.129829908612344" lon="117.74959467197357">
        <ele>0</ele>
        <time>2026-06-18T10:55:55Z</time>
      </trkpt>
      <trkpt lat="39.12977289618054" lon="117.749542655551">
        <ele>0</ele>
        <time>2026-06-18T10:55:57Z</time>
      </trkpt>
      <trkpt lat="39.12971688327133" lon="117.74948863850072">
        <ele>0</ele>
        <time>2026-06-18T10:55:59Z</time>
      </trkpt>
      <trkpt lat="39.12966087036153" lon="117.74943462144489">
        <ele>0</ele>
        <time>2026-06-18T10:56:01Z</time>
      </trkpt>
      <trkpt lat="39.12960485721062" lon="117.74937960407424">
        <ele>0</ele>
        <time>2026-06-18T10:56:03Z</time>
      </trkpt>
      <trkpt lat="39.12955184382187" lon="117.74932358638698">
        <ele>0</ele>
        <time>2026-06-18T10:56:05Z</time>
      </trkpt>
      <trkpt lat="39.129498830432205" lon="117.74926756869887">
        <ele>0</ele>
        <time>2026-06-18T10:56:07Z</time>
      </trkpt>
      <trkpt lat="39.129445817041656" lon="117.7492115510099">
        <ele>0</ele>
        <time>2026-06-18T10:56:09Z</time>
      </trkpt>
      <trkpt lat="39.12939280365022" lon="117.74915553332013">
        <ele>0</ele>
        <time>2026-06-18T10:56:11Z</time>
      </trkpt>
      <trkpt lat="39.12934078977987" lon="117.74909751499658">
        <ele>0</ele>
        <time>2026-06-18T10:56:13Z</time>
      </trkpt>
      <trkpt lat="39.129291776146054" lon="117.74904049698823">
        <ele>0</ele>
        <time>2026-06-18T10:56:15Z</time>
      </trkpt>
      <trkpt lat="39.12924476299037" lon="117.74898547961152">
        <ele>0</ele>
        <time>2026-06-18T10:56:17Z</time>
      </trkpt>
      <trkpt lat="39.12920075103038" lon="117.74893546381094">
        <ele>0</ele>
        <time>2026-06-18T10:56:19Z</time>
      </trkpt>
      <trkpt lat="39.12915773906993" lon="117.7488854480111">
        <ele>0</ele>
        <time>2026-06-18T10:56:21Z</time>
      </trkpt>
      <trkpt lat="39.129114725911975" lon="117.74883043063211">
        <ele>0</ele>
        <time>2026-06-18T10:56:23Z</time>
      </trkpt>
      <trkpt lat="39.12906871179578" lon="117.7487714119874">
        <ele>0</ele>
        <time>2026-06-18T10:56:25Z</time>
      </trkpt>
      <trkpt lat="39.129019697204406" lon="117.74871039271022">
        <ele>0</ele>
        <time>2026-06-18T10:56:27Z</time>
      </trkpt>
      <trkpt lat="39.128971681891464" lon="117.74864637248231">
        <ele>0</ele>
        <time>2026-06-18T10:56:29Z</time>
      </trkpt>
      <trkpt lat="39.1289236665796" lon="117.74858235225328">
        <ele>0</ele>
        <time>2026-06-18T10:56:31Z</time>
      </trkpt>
      <trkpt lat="39.128876651025365" lon="117.74851733170624">
        <ele>0</ele>
        <time>2026-06-18T10:56:33Z</time>
      </trkpt>
      <trkpt lat="39.12883063595134" lon="117.74845431178991">
        <ele>0</ele>
        <time>2026-06-18T10:56:35Z</time>
      </trkpt>
      <trkpt lat="39.12878962159315" lon="117.74839429282372">
        <ele>0</ele>
        <time>2026-06-18T10:56:37Z</time>
      </trkpt>
      <trkpt lat="39.128752608672336" lon="117.74834027575159">
        <ele>0</ele>
        <time>2026-06-18T10:56:39Z</time>
      </trkpt>
      <trkpt lat="39.12861358642106" lon="117.74824724634884">
        <ele>0</ele>
        <time>2026-06-18T10:57:15Z</time>
      </trkpt>
      <trkpt lat="39.128585594799716" lon="117.7482822574145">
        <ele>0</ele>
        <time>2026-06-18T10:57:19Z</time>
      </trkpt>
      <trkpt lat="39.12855660389623" lon="117.74832026942802">
        <ele>0</ele>
        <time>2026-06-18T10:57:21Z</time>
      </trkpt>
      <trkpt lat="39.12852461299356" lon="117.74835828144023">
        <ele>0</ele>
        <time>2026-06-18T10:57:23Z</time>
      </trkpt>
      <trkpt lat="39.12849061921923" lon="117.74838428965981">
        <ele>0</ele>
        <time>2026-06-18T10:57:25Z</time>
      </trkpt>
      <trkpt lat="39.12845662281169" lon="117.74839929440064">
        <ele>0</ele>
        <time>2026-06-18T10:57:27Z</time>
      </trkpt>
      <trkpt lat="39.1284216264036" lon="117.74841429914142">
        <ele>0</ele>
        <time>2026-06-18T10:57:29Z</time>
      </trkpt>
      <trkpt lat="39.12838563262794" lon="117.74844030735977">
        <ele>0</ele>
        <time>2026-06-18T10:57:31Z</time>
      </trkpt>
      <trkpt lat="39.1283476414842" lon="117.74847731905396">
        <ele>0</ele>
        <time>2026-06-18T10:57:33Z</time>
      </trkpt>
      <trkpt lat="39.12830765105767" lon="117.74851733169716">
        <ele>0</ele>
        <time>2026-06-18T10:57:35Z</time>
      </trkpt>
      <trkpt lat="39.12826666087292" lon="117.74855834465488">
        <ele>0</ele>
        <time>2026-06-18T10:57:37Z</time>
      </trkpt>
      <trkpt lat="39.12822567068785" lon="117.74859935761154">
        <ele>0</ele>
        <time>2026-06-18T10:57:39Z</time>
      </trkpt>
      <trkpt lat="39.12818468121769" lon="117.74864337151718">
        <ele>0</ele>
        <time>2026-06-18T10:57:41Z</time>
      </trkpt>
      <trkpt lat="39.12814369222859" lon="117.74868938605387">
        <ele>0</ele>
        <time>2026-06-18T10:57:43Z</time>
      </trkpt>
      <trkpt lat="39.128102703238426" lon="117.74873540058884">
        <ele>0</ele>
        <time>2026-06-18T10:57:45Z</time>
      </trkpt>
      <trkpt lat="39.128062713527775" lon="117.74877841417586">
        <ele>0</ele>
        <time>2026-06-18T10:57:47Z</time>
      </trkpt>
      <trkpt lat="39.128023723099105" lon="117.7488184268163">
        <ele>0</ele>
        <time>2026-06-18T10:57:49Z</time>
      </trkpt>
      <trkpt lat="39.12798373171239" lon="117.74885443818961">
        <ele>0</ele>
        <time>2026-06-18T10:57:51Z</time>
      </trkpt>
      <trkpt lat="39.12794074080649" lon="117.74889245019607">
        <ele>0</ele>
        <time>2026-06-18T10:57:53Z</time>
      </trkpt>
      <trkpt lat="39.12789375109704" lon="117.74893546378044">
        <ele>0</ele>
        <time>2026-06-18T10:57:55Z</time>
      </trkpt>
      <trkpt lat="39.127843762824085" lon="117.74898447926067">
        <ele>0</ele>
        <time>2026-06-18T10:57:57Z</time>
      </trkpt>
      <trkpt lat="39.12779377430784" lon="117.74903249442653">
        <ele>0</ele>
        <time>2026-06-18T10:57:59Z</time>
      </trkpt>
      <trkpt lat="39.12774578555269" lon="117.74907950927195">
        <ele>0</ele>
        <time>2026-06-18T10:58:01Z</time>
      </trkpt>
      <trkpt lat="39.127698796080075" lon="117.74912352317114">
        <ele>0</ele>
        <time>2026-06-18T10:58:03Z</time>
      </trkpt>
      <trkpt lat="39.12765380708318" lon="117.7491695377007">
        <ele>0</ele>
        <time>2026-06-18T10:58:05Z</time>
      </trkpt>
      <trkpt lat="39.127608817846614" lon="117.74921455191456">
        <ele>0</ele>
        <time>2026-06-18T10:58:07Z</time>
      </trkpt>
      <trkpt lat="39.12756382860985" lon="117.74925956612563">
        <ele>0</ele>
        <time>2026-06-18T10:58:09Z</time>
      </trkpt>
      <trkpt lat="39.127520839374014" lon="117.74930458033631">
        <ele>0</ele>
        <time>2026-06-18T10:58:11Z</time>
      </trkpt>
      <trkpt lat="39.127476850618336" lon="117.74935159518057">
        <ele>0</ele>
        <time>2026-06-18T10:58:13Z</time>
      </trkpt>
      <trkpt lat="39.12743086185969" lon="117.74939861002252">
        <ele>0</ele>
        <time>2026-06-18T10:58:15Z</time>
      </trkpt>
      <trkpt lat="39.12738487286049" lon="117.74944462454656">
        <ele>0</ele>
        <time>2026-06-18T10:58:17Z</time>
      </trkpt>
      <trkpt lat="39.127341882906805" lon="117.7494866378085">
        <ele>0</ele>
        <time>2026-06-18T10:58:19Z</time>
      </trkpt>
      <trkpt lat="39.12730189175499" lon="117.74952364949011">
        <ele>0</ele>
        <time>2026-06-18T10:58:21Z</time>
      </trkpt>
      <trkpt lat="39.12726689988583" lon="117.74955766022298">
        <ele>0</ele>
        <time>2026-06-18T10:58:23Z</time>
      </trkpt>
      <trkpt lat="39.12723490777711" lon="117.74959067064103">
        <ele>0</ele>
        <time>2026-06-18T10:58:25Z</time>
      </trkpt>
      <trkpt lat="39.12720691494978" lon="117.74962068010987">
        <ele>0</ele>
        <time>2026-06-18T10:58:27Z</time>
      </trkpt>
      <trkpt lat="39.127179921644945" lon="117.74964868894729">
        <ele>0</ele>
        <time>2026-06-18T10:58:29Z</time>
      </trkpt>
      <trkpt lat="39.12715492834077" lon="117.74967669778492">
        <ele>0</ele>
        <time>2026-06-18T10:58:31Z</time>
      </trkpt>
      <trkpt lat="39.12713193551284" lon="117.74970670725297">
        <ele>0</ele>
        <time>2026-06-18T10:58:33Z</time>
      </trkpt>
      <trkpt lat="39.12710494268501" lon="117.74973671672056">
        <ele>0</ele>
        <time>2026-06-18T10:58:35Z</time>
      </trkpt>
      <trkpt lat="39.127073950575706" lon="117.74976972713449">
        <ele>0</ele>
        <time>2026-06-18T10:58:37Z</time>
      </trkpt>
      <trkpt lat="39.12703795870628" lon="117.74980373786559">
        <ele>0</ele>
        <time>2026-06-18T10:58:39Z</time>
      </trkpt>
      <trkpt lat="39.12700496683488" lon="117.74983774859473">
        <ele>0</ele>
        <time>2026-06-18T10:58:41Z</time>
      </trkpt>
      <trkpt lat="39.12697197448499" lon="117.74986975869335">
        <ele>0</ele>
        <time>2026-06-18T10:58:43Z</time>
      </trkpt>
      <trkpt lat="39.12693398261096" lon="117.74990376942247">
        <ele>0</ele>
        <time>2026-06-18T10:58:45Z</time>
      </trkpt>
      <trkpt lat="39.12688999241309" lon="117.74994478236025">
        <ele>0</ele>
        <time>2026-06-18T10:58:47Z</time>
      </trkpt>
      <trkpt lat="39.12684200293061" lon="117.74998879624258">
        <ele>0</ele>
        <time>2026-06-18T10:58:49Z</time>
      </trkpt>
      <trkpt lat="39.12679201320867" lon="117.75003180980943">
        <ele>0</ele>
        <time>2026-06-18T10:58:51Z</time>
      </trkpt>
      <trkpt lat="39.126744022770644" lon="117.75007182242886">
        <ele>0</ele>
        <time>2026-06-18T10:58:53Z</time>
      </trkpt>
      <trkpt lat="39.12669703185128" lon="117.75010983441463">
        <ele>0</ele>
        <time>2026-06-18T10:58:55Z</time>
      </trkpt>
      <trkpt lat="39.12665104093361" lon="117.75014784639944">
        <ele>0</ele>
        <time>2026-06-18T10:58:57Z</time>
      </trkpt>
      <trkpt lat="39.1266040500127" lon="117.75018585838411">
        <ele>0</ele>
        <time>2026-06-18T10:58:59Z</time>
      </trkpt>
      <trkpt lat="39.1265590588536" lon="117.75022287005447">
        <ele>0</ele>
        <time>2026-06-18T10:59:01Z</time>
      </trkpt>
      <trkpt lat="39.12651406769513" lon="117.750259881722">
        <ele>0</ele>
        <time>2026-06-18T10:59:03Z</time>
      </trkpt>
      <trkpt lat="39.12646907629655" lon="117.75029589307393">
        <ele>0</ele>
        <time>2026-06-18T10:59:05Z</time>
      </trkpt>
      <trkpt lat="39.12642308489772" lon="117.75033190442569">
        <ele>0</ele>
        <time>2026-06-18T10:59:07Z</time>
      </trkpt>
      <trkpt lat="39.126378092781906" lon="117.75036491483166">
        <ele>0</ele>
        <time>2026-06-18T10:59:09Z</time>
      </trkpt>
      <trkpt lat="39.12633310114537" lon="117.75039992586636">
        <ele>0</ele>
        <time>2026-06-18T10:59:11Z</time>
      </trkpt>
      <trkpt lat="39.12629110950684" lon="117.75043493690022">
        <ele>0</ele>
        <time>2026-06-18T10:59:13Z</time>
      </trkpt>
      <trkpt lat="39.12625111786813" lon="117.75046994793487">
        <ele>0</ele>
        <time>2026-06-18T10:59:15Z</time>
      </trkpt>
      <trkpt lat="39.126216125272165" lon="117.75050095770766">
        <ele>0</ele>
        <time>2026-06-18T10:59:17Z</time>
      </trkpt>
      <trkpt lat="39.12618413148285" lon="117.75052696590352">
        <ele>0</ele>
        <time>2026-06-18T10:59:19Z</time>
      </trkpt>
      <trkpt lat="39.126157137452644" lon="117.75055197378299">
        <ele>0</ele>
        <time>2026-06-18T10:59:21Z</time>
      </trkpt>
      <trkpt lat="39.126134144615904" lon="117.75058198323933">
        <ele>0</ele>
        <time>2026-06-18T10:59:23Z</time>
      </trkpt>
      <trkpt lat="39.126111152496115" lon="117.75061499364159">
        <ele>0</ele>
        <time>2026-06-18T10:59:25Z</time>
      </trkpt>
      <trkpt lat="39.12608916133083" lon="117.75065200530214">
        <ele>0</ele>
        <time>2026-06-18T10:59:27Z</time>
      </trkpt>
      <trkpt lat="39.12606317064184" lon="117.75069101759446">
        <ele>0</ele>
        <time>2026-06-18T10:59:29Z</time>
      </trkpt>
    </trkseg>
  </trk>
</gpx>