<?xml version="1.0" encoding="UTF-8"?>
<gpx xmlns="http://www.topografix.com/GPX/1/1" xmlns:gpxtpx="http://www.garmin.com/xmlschemas/TrackPointExtension/v1" xmlns:xsi="http://www.w3.org/2001/XMLSchema-instance" xsi:schemaLocation="http://www.topografix.com/GPX/1/1 http://www.topografix.com/GPX/1/1/gpx.xsd" version="1.1" creator="gpx.py -- https://github.com/tkrajina/gpxpy">
  <trk>
    <name>gpx from codoon</name>
    <type>Run</type>
    <trkseg>
      <trkpt lat="39.79165" lon="116.48013">
        <ele>34.91229</ele>
        <time>2014-12-14T06:25:46.187000Z</time>
      </trkpt>
      <trkpt lat="39.79159" lon="116.48005">
        <ele>46.99426</ele>
        <time>2014-12-14T06:25:48.202000Z</time>
      </trkpt>
      <trkpt lat="39.7915" lon="116.48004">
        <ele>44.2442</ele>
        <time>2014-12-14T06:25:57.196000Z</time>
      </trkpt>
      <trkpt lat="39.79139" lon="116.48001">
        <ele>45.71326</ele>
        <time>2014-12-14T06:26:05.476000Z</time>
      </trkpt>
      <trkpt lat="39.79129" lon="116.48001">
        <ele>46.78027</ele>
        <time>2014-12-14T06:26:14.213000Z</time>
      </trkpt>
      <trkpt lat="39.7912" lon="116.48006">
        <ele>49.82397</ele>
        <time>2014-12-14T06:26:21.347000Z</time>
      </trkpt>
      <trkpt lat="39.79112" lon="116.48013">
        <ele>50.01465</ele>
        <time>2014-12-14T06:26:28.224000Z</time>
      </trkpt>
      <trkpt lat="39.79105" lon="116.48019">
        <ele>49.22351</ele>
        <time>2014-12-14T06:26:35.242000Z</time>
      </trkpt>
      <trkpt lat="39.79098" lon="116.48029">
        <ele>45.87915</ele>
        <time>2014-12-14T06:26:45.210000Z</time>
      </trkpt>
      <trkpt lat="39.79092" lon="116.48038">
        <ele>45.80023</ele>
        <time>2014-12-14T06:26:52.209000Z</time>
      </trkpt>
      <trkpt lat="39.79085" lon="116.48047">
        <ele>46.4187</ele>
        <time>2014-12-14T06:27:00.263000Z</time>
      </trkpt>
      <trkpt lat="39.79079" lon="116.48056">
        <ele>45.41565</ele>
        <time>2014-12-14T06:27:08.202000Z</time>
      </trkpt>
      <trkpt lat="39.79074" lon="116.48067">
        <ele>46.1665</ele>
        <time>2014-12-14T06:27:16.197000Z</time>
      </trkpt>
      <trkpt lat="39.79069" lon="116.48078">
        <ele>44.99738</ele>
        <time>2014-12-14T06:27:24.369000Z</time>
      </trkpt>
      <trkpt lat="39.79065" lon="116.48089">
        <ele>45.31543</ele>
        <time>2014-12-14T06:27:31.189000Z</time>
      </trkpt>
      <trkpt lat="39.79061" lon="116.48099">
        <ele>44.38239</ele>
        <time>2014-12-14T06:27:39.210000Z</time>
      </trkpt>
      <trkpt lat="39.7906" lon="116.48111">
        <ele>42.24396</ele>
        <time>2014-12-14T06:27:47.209000Z</time>
      </trkpt>
      <trkpt lat="39.79059" lon="116.48123">
        <ele>41.47241</ele>
        <time>2014-12-14T06:27:55.197000Z</time>
      </trkpt>
      <trkpt lat="39.7906" lon="116.48135">
        <ele>38.5368</ele>
        <time>2014-12-14T06:28:03.217000Z</time>
      </trkpt>
      <trkpt lat="39.79062" lon="116.48147">
        <ele>36.48834</ele>
        <time>2014-12-14T06:28:11.225000Z</time>
      </trkpt>
      <trkpt lat="39.79066" lon="116.48159">
        <ele>33.48236</ele>
        <time>2014-12-14T06:28:24.429000Z</time>
      </trkpt>
      <trkpt lat="39.79071" lon="116.4817">
        <ele>33.03662</ele>
        <time>2014-12-14T06:28:32.200000Z</time>
      </trkpt>
      <trkpt lat="39.79076" lon="116.4818">
        <ele>31.98407</ele>
        <time>2014-12-14T06:28:40.198000Z</time>
      </trkpt>
      <trkpt lat="39.79082" lon="116.48191">
        <ele>29.2179</ele>
        <time>2014-12-14T06:28:51.277000Z</time>
      </trkpt>
      <trkpt lat="39.79077" lon="116.48201">
        <ele>27.09515</ele>
        <time>2014-12-14T06:29:02.230000Z</time>
      </trkpt>
      <trkpt lat="39.79069" lon="116.48208">
        <ele>28.16833</ele>
        <time>2014-12-14T06:29:10.216000Z</time>
      </trkpt>
      <trkpt lat="39.79061" lon="116.48216">
        <ele>28.82501</ele>
        <time>2014-12-14T06:29:18.231000Z</time>
      </trkpt>
      <trkpt lat="39.79053" lon="116.48223">
        <ele>29.12335</ele>
        <time>2014-12-14T06:29:27.249000Z</time>
      </trkpt>
      <trkpt lat="39.79046" lon="116.48231">
        <ele>30.02643</ele>
        <time>2014-12-14T06:29:35.237000Z</time>
      </trkpt>
      <trkpt lat="39.79041" lon="116.48233">
        <ele>30.42078</ele>
        <time>2014-12-14T06:29:39.763000Z</time>
      </trkpt>
      <trkpt lat="39.79042" lon="116.48233">
        <ele>30.02527</ele>
        <time>2014-12-14T06:29:47.808000Z</time>
      </trkpt>
      <trkpt lat="39.79049" lon="116.4823">
        <ele>27.76581</ele>
        <time>2014-12-14T06:30:07.071000Z</time>
      </trkpt>
      <trkpt lat="39.79065" lon="116.48221">
        <ele>25.07947</ele>
        <time>2014-12-14T06:30:26.217000Z</time>
      </trkpt>
      <trkpt lat="39.79073" lon="116.48215">
        <ele>24.35913</ele>
        <time>2014-12-14T06:30:34.404000Z</time>
      </trkpt>
      <trkpt lat="39.79081" lon="116.48209">
        <ele>24.68225</ele>
        <time>2014-12-14T06:30:42.245000Z</time>
      </trkpt>
      <trkpt lat="39.79091" lon="116.48209">
        <ele>23.19043</ele>
        <time>2014-12-14T06:30:55.516000Z</time>
      </trkpt>
      <trkpt lat="39.791" lon="116.48211">
        <ele>21.01624</ele>
        <time>2014-12-14T06:31:04.205000Z</time>
      </trkpt>
      <trkpt lat="39.7911" lon="116.48216">
        <ele>19.71631</ele>
        <time>2014-12-14T06:31:12.246000Z</time>
      </trkpt>
      <trkpt lat="39.79119" lon="116.48218">
        <ele>20.58197</ele>
        <time>2014-12-14T06:31:17.348000Z</time>
      </trkpt>
      <trkpt lat="39.79129" lon="116.48219">
        <ele>18.91785</ele>
        <time>2014-12-14T06:31:26.232000Z</time>
      </trkpt>
      <trkpt lat="39.79138" lon="116.4822">
        <ele>18.18524</ele>
        <time>2014-12-14T06:31:35.190000Z</time>
      </trkpt>
      <trkpt lat="39.79148" lon="116.48218">
        <ele>15.64456</ele>
        <time>2014-12-14T06:31:42.148000Z</time>
      </trkpt>
      <trkpt lat="39.79157" lon="116.48217">
        <ele>12.98383</ele>
        <time>2014-12-14T06:31:48.201000Z</time>
      </trkpt>
      <trkpt lat="39.79167" lon="116.48216">
        <ele>11.37988</ele>
        <time>2014-12-14T06:31:56.221000Z</time>
      </trkpt>
      <trkpt lat="39.79177" lon="116.48212">
        <ele>13.91418</ele>
        <time>2014-12-14T06:32:06.303000Z</time>
      </trkpt>
      <trkpt lat="39.79187" lon="116.48208">
        <ele>15.58408</ele>
        <time>2014-12-14T06:32:14.277000Z</time>
      </trkpt>
      <trkpt lat="39.79196" lon="116.48205">
        <ele>18.21124</ele>
        <time>2014-12-14T06:32:22.274000Z</time>
      </trkpt>
      <trkpt lat="39.79206" lon="116.48201">
        <ele>18.75925</ele>
        <time>2014-12-14T06:32:30.445000Z</time>
      </trkpt>
      <trkpt lat="39.79214" lon="116.48195">
        <ele>20.02087</ele>
        <time>2014-12-14T06:32:37.222000Z</time>
      </trkpt>
      <trkpt lat="39.79221" lon="116.48187">
        <ele>20.36432</ele>
        <time>2014-12-14T06:32:45.321000Z</time>
      </trkpt>
      <trkpt lat="39.7923" lon="116.48181">
        <ele>20.79315</ele>
        <time>2014-12-14T06:32:55.209000Z</time>
      </trkpt>
      <trkpt lat="39.79238" lon="116.48172">
        <ele>20.99902</ele>
        <time>2014-12-14T06:33:03.475000Z</time>
      </trkpt>
      <trkpt lat="39.79244" lon="116.48163">
        <ele>20.82275</ele>
        <time>2014-12-14T06:33:11.364000Z</time>
      </trkpt>
      <trkpt lat="39.79249" lon="116.48151">
        <ele>20.80823</ele>
        <time>2014-12-14T06:33:19.361000Z</time>
      </trkpt>
      <trkpt lat="39.79251" lon="116.48139">
        <ele>20.28528</ele>
        <time>2014-12-14T06:33:27.230000Z</time>
      </trkpt>
      <trkpt lat="39.79252" lon="116.48126">
        <ele>20.71655</ele>
        <time>2014-12-14T06:33:35.374000Z</time>
      </trkpt>
      <trkpt lat="39.79252" lon="116.48114">
        <ele>20.8183</ele>
        <time>2014-12-14T06:33:42.226000Z</time>
      </trkpt>
      <trkpt lat="39.79254" lon="116.48101">
        <ele>20.81934</ele>
        <time>2014-12-14T06:33:50.205000Z</time>
      </trkpt>
      <trkpt lat="39.79251" lon="116.48089">
        <ele>18.9115</ele>
        <time>2014-12-14T06:33:58.221000Z</time>
      </trkpt>
      <trkpt lat="39.79247" lon="116.48078">
        <ele>18.97546</ele>
        <time>2014-12-14T06:34:05.239000Z</time>
      </trkpt>
      <trkpt lat="39.79243" lon="116.48066">
        <ele>19.39911</ele>
        <time>2014-12-14T06:34:12.223000Z</time>
      </trkpt>
      <trkpt lat="39.79239" lon="116.48055">
        <ele>19.03522</ele>
        <time>2014-12-14T06:34:19.199000Z</time>
      </trkpt>
      <trkpt lat="39.79232" lon="116.48045">
        <ele>20.25702</ele>
        <time>2014-12-14T06:34:27.202000Z</time>
      </trkpt>
      <trkpt lat="39.79226" lon="116.48036">
        <ele>20.92957</ele>
        <time>2014-12-14T06:34:36.210000Z</time>
      </trkpt>
      <trkpt lat="39.79219" lon="116.48027">
        <ele>21.24475</ele>
        <time>2014-12-14T06:34:46.233000Z</time>
      </trkpt>
      <trkpt lat="39.79213" lon="116.48018">
        <ele>22.06512</ele>
        <time>2014-12-14T06:34:53.208000Z</time>
      </trkpt>
      <trkpt lat="39.79205" lon="116.48013">
        <ele>22.47772</ele>
        <time>2014-12-14T06:35:01.229000Z</time>
      </trkpt>
      <trkpt lat="39.79198" lon="116.48003">
        <ele>22.97906</ele>
        <time>2014-12-14T06:35:10.234000Z</time>
      </trkpt>
      <trkpt lat="39.79194" lon="116.47992">
        <ele>23.15222</ele>
        <time>2014-12-14T06:35:19.227000Z</time>
      </trkpt>
      <trkpt lat="39.79193" lon="116.47979">
        <ele>25.38684</ele>
        <time>2014-12-14T06:35:26.211000Z</time>
      </trkpt>
    </trkseg>
  </trk>
</gpx>