<?xml version="1.0" encoding="UTF-8"?>
<gpx xmlns="http://www.topografix.com/GPX/1/1" xmlns:gpxtpx="http://www.garmin.com/xmlschemas/TrackPointExtension/v1" xmlns:xsi="http://www.w3.org/2001/XMLSchema-instance" xsi:schemaLocation="http://www.topografix.com/GPX/1/1 http://www.topografix.com/GPX/1/1/gpx.xsd" version="1.1" creator="gpx.py -- https://github.com/tkrajina/gpxpy">
  <trk>
    <name>gpx from codoon</name>
    <type>Run</type>
    <trkseg>
      <trkpt lat="39.79115" lon="116.48019">
        <ele>34.94861</ele>
        <time>2015-05-11T23:17:15.689000Z</time>
      </trkpt>
      <trkpt lat="39.79106" lon="116.48027">
        <ele>41.12885</ele>
        <time>2015-05-11T23:17:21.194000Z</time>
      </trkpt>
      <trkpt lat="39.79105" lon="116.4804">
        <ele>33.54388</ele>
        <time>2015-05-11T23:17:30.197000Z</time>
      </trkpt>
      <trkpt lat="39.79098" lon="116.48049">
        <ele>31.34607</ele>
        <time>2015-05-11T23:17:34.242000Z</time>
      </trkpt>
      <trkpt lat="39.7909" lon="116.48057">
        <ele>30.89624</ele>
        <time>2015-05-11T23:17:38.300000Z</time>
      </trkpt>
      <trkpt lat="39.79083" lon="116.48064">
        <ele>29.67419</ele>
        <time>2015-05-11T23:17:42.260000Z</time>
      </trkpt>
      <trkpt lat="39.79076" lon="116.48073">
        <ele>30.02234</ele>
        <time>2015-05-11T23:17:45.340000Z</time>
      </trkpt>
      <trkpt lat="39.79071" lon="116.48084">
        <ele>31.24139</ele>
        <time>2015-05-11T23:17:48.213000Z</time>
      </trkpt>
      <trkpt lat="39.79067" lon="116.48095">
        <ele>31.23779</ele>
        <time>2015-05-11T23:17:51.172000Z</time>
      </trkpt>
      <trkpt lat="39.79064" lon="116.48107">
        <ele>30.46948</ele>
        <time>2015-05-11T23:17:54.148000Z</time>
      </trkpt>
      <trkpt lat="39.79062" lon="116.48122">
        <ele>29.97455</ele>
        <time>2015-05-11T23:17:58.244000Z</time>
      </trkpt>
      <trkpt lat="39.79066" lon="116.48134">
        <ele>31.0824</ele>
        <time>2015-05-11T23:18:01.172000Z</time>
      </trkpt>
      <trkpt lat="39.79069" lon="116.48146">
        <ele>30.50848</ele>
        <time>2015-05-11T23:18:04.331000Z</time>
      </trkpt>
      <trkpt lat="39.79072" lon="116.48157">
        <ele>30.18079</ele>
        <time>2015-05-11T23:18:07.186000Z</time>
      </trkpt>
      <trkpt lat="39.79077" lon="116.48171">
        <ele>31.12927</ele>
        <time>2015-05-11T23:18:11.242000Z</time>
      </trkpt>
      <trkpt lat="39.79083" lon="116.48183">
        <ele>32.46289</ele>
        <time>2015-05-11T23:18:15.239000Z</time>
      </trkpt>
      <trkpt lat="39.79091" lon="116.48194">
        <ele>34.46436</ele>
        <time>2015-05-11T23:18:19.361000Z</time>
      </trkpt>
      <trkpt lat="39.79101" lon="116.48202">
        <ele>34.36273</ele>
        <time>2015-05-11T23:18:23.413000Z</time>
      </trkpt>
      <trkpt lat="39.79109" lon="116.48211">
        <ele>36.76428</ele>
        <time>2015-05-11T23:18:27.403000Z</time>
      </trkpt>
      <trkpt lat="39.79118" lon="116.48217">
        <ele>34.18915</ele>
        <time>2015-05-11T23:18:31.455000Z</time>
      </trkpt>
      <trkpt lat="39.79127" lon="116.48223">
        <ele>34.7085</ele>
        <time>2015-05-11T23:18:35.253000Z</time>
      </trkpt>
      <trkpt lat="39.79138" lon="116.48227">
        <ele>37.75659</ele>
        <time>2015-05-11T23:18:39.509000Z</time>
      </trkpt>
      <trkpt lat="39.7915" lon="116.48227">
        <ele>37.42822</ele>
        <time>2015-05-11T23:18:43.235000Z</time>
      </trkpt>
      <trkpt lat="39.79159" lon="116.48229">
        <ele>37.07336</ele>
        <time>2015-05-11T23:18:47.414000Z</time>
      </trkpt>
      <trkpt lat="39.79169" lon="116.48228">
        <ele>37.43774</ele>
        <time>2015-05-11T23:18:52.177000Z</time>
      </trkpt>
      <trkpt lat="39.79179" lon="116.48226">
        <ele>37.14374</ele>
        <time>2015-05-11T23:18:56.230000Z</time>
      </trkpt>
      <trkpt lat="39.79188" lon="116.48221">
        <ele>36.98291</ele>
        <time>2015-05-11T23:18:59.212000Z</time>
      </trkpt>
      <trkpt lat="39.79196" lon="116.48215">
        <ele>35.84985</ele>
        <time>2015-05-11T23:19:02.191000Z</time>
      </trkpt>
      <trkpt lat="39.79204" lon="116.48208">
        <ele>34.24408</ele>
        <time>2015-05-11T23:19:05.199000Z</time>
      </trkpt>
      <trkpt lat="39.79213" lon="116.482">
        <ele>34.2254</ele>
        <time>2015-05-11T23:19:09.230000Z</time>
      </trkpt>
      <trkpt lat="39.79222" lon="116.48193">
        <ele>35.06317</ele>
        <time>2015-05-11T23:19:13.192000Z</time>
      </trkpt>
      <trkpt lat="39.7923" lon="116.48186">
        <ele>33.19672</ele>
        <time>2015-05-11T23:19:17.211000Z</time>
      </trkpt>
      <trkpt lat="39.79238" lon="116.48177">
        <ele>33.2688</ele>
        <time>2015-05-11T23:19:21.296000Z</time>
      </trkpt>
      <trkpt lat="39.79247" lon="116.48169">
        <ele>33.47467</ele>
        <time>2015-05-11T23:19:25.236000Z</time>
      </trkpt>
      <trkpt lat="39.79256" lon="116.48159">
        <ele>32.79144</ele>
        <time>2015-05-11T23:19:29.299000Z</time>
      </trkpt>
      <trkpt lat="39.79261" lon="116.48148">
        <ele>30.77905</ele>
        <time>2015-05-11T23:19:33.397000Z</time>
      </trkpt>
      <trkpt lat="39.79266" lon="116.48136">
        <ele>29.34711</ele>
        <time>2015-05-11T23:19:37.351000Z</time>
      </trkpt>
      <trkpt lat="39.7927" lon="116.48125">
        <ele>29.46796</ele>
        <time>2015-05-11T23:19:41.263000Z</time>
      </trkpt>
      <trkpt lat="39.79269" lon="116.48111">
        <ele>29.22485</ele>
        <time>2015-05-11T23:19:45.225000Z</time>
      </trkpt>
      <trkpt lat="39.79266" lon="116.48099">
        <ele>29.88507</ele>
        <time>2015-05-11T23:19:48.228000Z</time>
      </trkpt>
      <trkpt lat="39.79262" lon="116.48085">
        <ele>30.26984</ele>
        <time>2015-05-11T23:19:52.230000Z</time>
      </trkpt>
      <trkpt lat="39.79257" lon="116.48071">
        <ele>30.073</ele>
        <time>2015-05-11T23:19:56.217000Z</time>
      </trkpt>
      <trkpt lat="39.79249" lon="116.48063">
        <ele>29.15924</ele>
        <time>2015-05-11T23:19:59.186000Z</time>
      </trkpt>
      <trkpt lat="39.7924" lon="116.48055">
        <ele>28.77362</ele>
        <time>2015-05-11T23:20:03.184000Z</time>
      </trkpt>
      <trkpt lat="39.79234" lon="116.48045">
        <ele>28.24371</ele>
        <time>2015-05-11T23:20:07.183000Z</time>
      </trkpt>
      <trkpt lat="39.79225" lon="116.48037">
        <ele>27.3277</ele>
        <time>2015-05-11T23:20:12.206000Z</time>
      </trkpt>
      <trkpt lat="39.79214" lon="116.48032">
        <ele>27.18964</ele>
        <time>2015-05-11T23:20:16.263000Z</time>
      </trkpt>
      <trkpt lat="39.79204" lon="116.48025">
        <ele>26.86127</ele>
        <time>2015-05-11T23:20:20.163000Z</time>
      </trkpt>
      <trkpt lat="39.79194" lon="116.48021">
        <ele>27.26825</ele>
        <time>2015-05-11T23:20:24.193000Z</time>
      </trkpt>
      <trkpt lat="39.79184" lon="116.48019">
        <ele>27.08154</ele>
        <time>2015-05-11T23:20:28.194000Z</time>
      </trkpt>
      <trkpt lat="39.79172" lon="116.48016">
        <ele>27.76715</ele>
        <time>2015-05-11T23:20:32.195000Z</time>
      </trkpt>
      <trkpt lat="39.79161" lon="116.48012">
        <ele>28.24115</ele>
        <time>2015-05-11T23:20:36.354000Z</time>
      </trkpt>
      <trkpt lat="39.7915" lon="116.48011">
        <ele>30.16376</ele>
        <time>2015-05-11T23:20:40.375000Z</time>
      </trkpt>
      <trkpt lat="39.7914" lon="116.48013">
        <ele>30.80713</ele>
        <time>2015-05-11T23:20:45.178000Z</time>
      </trkpt>
      <trkpt lat="39.79131" lon="116.48016">
        <ele>30.71094</ele>
        <time>2015-05-11T23:20:49.403000Z</time>
      </trkpt>
      <trkpt lat="39.7912" lon="116.48023">
        <ele>30.19672</ele>
        <time>2015-05-11T23:20:54.368000Z</time>
      </trkpt>
      <trkpt lat="39.79113" lon="116.4803">
        <ele>29.84253</ele>
        <time>2015-05-11T23:20:58.235000Z</time>
      </trkpt>
      <trkpt lat="39.79106" lon="116.48038">
        <ele>28.22552</ele>
        <time>2015-05-11T23:21:02.234000Z</time>
      </trkpt>
      <trkpt lat="39.79106" lon="116.48038">
        <ele>28.22552</ele>
        <time>2015-05-11T23:21:02.234000Z</time>
      </trkpt>
      <trkpt lat="39.79106" lon="116.48038">
        <ele>28.22552</ele>
        <time>2015-05-11T23:21:02.234000Z</time>
      </trkpt>
      <trkpt lat="39.79098" lon="116.48047">
        <ele>31.59204</ele>
        <time>2015-05-11T23:21:18.248000Z</time>
      </trkpt>
      <trkpt lat="39.7909" lon="116.48056">
        <ele>31.83057</ele>
        <time>2015-05-11T23:21:22.328000Z</time>
      </trkpt>
      <trkpt lat="39.79082" lon="116.48064">
        <ele>32.25165</ele>
        <time>2015-05-11T23:21:26.245000Z</time>
      </trkpt>
      <trkpt lat="39.79074" lon="116.48075">
        <ele>31.83282</ele>
        <time>2015-05-11T23:21:30.226000Z</time>
      </trkpt>
      <trkpt lat="39.79067" lon="116.48087">
        <ele>31.1814</ele>
        <time>2015-05-11T23:21:34.264000Z</time>
      </trkpt>
      <trkpt lat="39.79063" lon="116.48099">
        <ele>30.26495</ele>
        <time>2015-05-11T23:21:38.438000Z</time>
      </trkpt>
      <trkpt lat="39.79062" lon="116.48112">
        <ele>31.8244</ele>
        <time>2015-05-11T23:21:42.417000Z</time>
      </trkpt>
      <trkpt lat="39.79062" lon="116.48125">
        <ele>31.58215</ele>
        <time>2015-05-11T23:21:46.208000Z</time>
      </trkpt>
      <trkpt lat="39.79063" lon="116.48138">
        <ele>32.22083</ele>
        <time>2015-05-11T23:21:50.434000Z</time>
      </trkpt>
      <trkpt lat="39.79065" lon="116.48151">
        <ele>31.83685</ele>
        <time>2015-05-11T23:21:54.323000Z</time>
      </trkpt>
      <trkpt lat="39.7907" lon="116.48164">
        <ele>31.46442</ele>
        <time>2015-05-11T23:21:58.204000Z</time>
      </trkpt>
      <trkpt lat="39.79074" lon="116.48175">
        <ele>30.74707</ele>
        <time>2015-05-11T23:22:02.312000Z</time>
      </trkpt>
      <trkpt lat="39.7908" lon="116.48185">
        <ele>31.4223</ele>
        <time>2015-05-11T23:22:06.400000Z</time>
      </trkpt>
      <trkpt lat="39.79089" lon="116.48195">
        <ele>33.29297</ele>
        <time>2015-05-11T23:22:10.274000Z</time>
      </trkpt>
      <trkpt lat="39.79098" lon="116.48204">
        <ele>33.20636</ele>
        <time>2015-05-11T23:22:14.203000Z</time>
      </trkpt>
      <trkpt lat="39.79107" lon="116.48211">
        <ele>34.43793</ele>
        <time>2015-05-11T23:22:18.274000Z</time>
      </trkpt>
      <trkpt lat="39.79116" lon="116.48216">
        <ele>34.07489</ele>
        <time>2015-05-11T23:22:22.413000Z</time>
      </trkpt>
      <trkpt lat="39.79127" lon="116.48222">
        <ele>34.84479</ele>
        <time>2015-05-11T23:22:26.326000Z</time>
      </trkpt>
      <trkpt lat="39.79137" lon="116.48225">
        <ele>36.58179</ele>
        <time>2015-05-11T23:22:31.393000Z</time>
      </trkpt>
      <trkpt lat="39.79147" lon="116.48226">
        <ele>37.76654</ele>
        <time>2015-05-11T23:22:35.302000Z</time>
      </trkpt>
      <trkpt lat="39.79157" lon="116.48227">
        <ele>37.77295</ele>
        <time>2015-05-11T23:22:39.227000Z</time>
      </trkpt>
      <trkpt lat="39.79169" lon="116.48227">
        <ele>38.19678</ele>
        <time>2015-05-11T23:22:43.273000Z</time>
      </trkpt>
      <trkpt lat="39.79179" lon="116.48227">
        <ele>38.52258</ele>
        <time>2015-05-11T23:22:47.203000Z</time>
      </trkpt>
      <trkpt lat="39.79188" lon="116.48223">
        <ele>37.95697</ele>
        <time>2015-05-11T23:22:51.215000Z</time>
      </trkpt>
      <trkpt lat="39.79199" lon="116.48218">
        <ele>35.93634</ele>
        <time>2015-05-11T23:22:55.218000Z</time>
      </trkpt>
      <trkpt lat="39.79208" lon="116.4821">
        <ele>35.00256</ele>
        <time>2015-05-11T23:22:59.234000Z</time>
      </trkpt>
      <trkpt lat="39.79217" lon="116.48203">
        <ele>34.59021</ele>
        <time>2015-05-11T23:23:03.209000Z</time>
      </trkpt>
      <trkpt lat="39.79226" lon="116.48194">
        <ele>32.97632</ele>
        <time>2015-05-11T23:23:07.189000Z</time>
      </trkpt>
      <trkpt lat="39.79233" lon="116.48186">
        <ele>31.84595</ele>
        <time>2015-05-11T23:23:10.210000Z</time>
      </trkpt>
      <trkpt lat="39.79242" lon="116.48177">
        <ele>30.6347</ele>
        <time>2015-05-11T23:23:14.197000Z</time>
      </trkpt>
      <trkpt lat="39.79251" lon="116.48167">
        <ele>31.58545</ele>
        <time>2015-05-11T23:23:18.271000Z</time>
      </trkpt>
      <trkpt lat="39.79259" lon="116.48156">
        <ele>31.17145</ele>
        <time>2015-05-11T23:23:22.211000Z</time>
      </trkpt>
      <trkpt lat="39.79265" lon="116.48143">
        <ele>32.44873</ele>
        <time>2015-05-11T23:23:26.379000Z</time>
      </trkpt>
      <trkpt lat="39.79269" lon="116.48128">
        <ele>32.44214</ele>
        <time>2015-05-11T23:23:30.309000Z</time>
      </trkpt>
      <trkpt lat="39.7927" lon="116.48113">
        <ele>32.06464</ele>
        <time>2015-05-11T23:23:34.425000Z</time>
      </trkpt>
      <trkpt lat="39.79268" lon="116.481">
        <ele>31.43561</ele>
        <time>2015-05-11T23:23:37.350000Z</time>
      </trkpt>
      <trkpt lat="39.79263" lon="116.48089">
        <ele>31.30945</ele>
        <time>2015-05-11T23:23:40.197000Z</time>
      </trkpt>
      <trkpt lat="39.79258" lon="116.48077">
        <ele>32.1424</ele>
        <time>2015-05-11T23:23:44.205000Z</time>
      </trkpt>
      <trkpt lat="39.79254" lon="116.48066">
        <ele>32.32715</ele>
        <time>2015-05-11T23:23:49.347000Z</time>
      </trkpt>
      <trkpt lat="39.79247" lon="116.48055">
        <ele>31.43237</ele>
        <time>2015-05-11T23:23:53.353000Z</time>
      </trkpt>
      <trkpt lat="39.79241" lon="116.48044">
        <ele>31.30017</ele>
        <time>2015-05-11T23:23:57.399000Z</time>
      </trkpt>
      <trkpt lat="39.79233" lon="116.48035">
        <ele>28.8941</ele>
        <time>2015-05-11T23:24:02.242000Z</time>
      </trkpt>
      <trkpt lat="39.79224" lon="116.48031">
        <ele>28.99133</ele>
        <time>2015-05-11T23:24:05.248000Z</time>
      </trkpt>
      <trkpt lat="39.79214" lon="116.48029">
        <ele>28.63336</ele>
        <time>2015-05-11T23:24:08.273000Z</time>
      </trkpt>
      <trkpt lat="39.79206" lon="116.48025">
        <ele>28.42078</ele>
        <time>2015-05-11T23:24:11.297000Z</time>
      </trkpt>
      <trkpt lat="39.79195" lon="116.4802">
        <ele>29.17114</ele>
        <time>2015-05-11T23:24:15.192000Z</time>
      </trkpt>
      <trkpt lat="39.79184" lon="116.48017">
        <ele>29.96869</ele>
        <time>2015-05-11T23:24:19.279000Z</time>
      </trkpt>
      <trkpt lat="39.79173" lon="116.48012">
        <ele>30.27106</ele>
        <time>2015-05-11T23:24:23.231000Z</time>
      </trkpt>
      <trkpt lat="39.79165" lon="116.48008">
        <ele>30.95038</ele>
        <time>2015-05-11T23:24:26.268000Z</time>
      </trkpt>
      <trkpt lat="39.79155" lon="116.48006">
        <ele>31.24255</ele>
        <time>2015-05-11T23:24:30.355000Z</time>
      </trkpt>
      <trkpt lat="39.79146" lon="116.48008">
        <ele>32.64648</ele>
        <time>2015-05-11T23:24:34.401000Z</time>
      </trkpt>
      <trkpt lat="39.79136" lon="116.4801">
        <ele>33.22803</ele>
        <time>2015-05-11T23:24:38.212000Z</time>
      </trkpt>
      <trkpt lat="39.79127" lon="116.48016">
        <ele>31.68622</ele>
        <time>2015-05-11T23:24:43.290000Z</time>
      </trkpt>
      <trkpt lat="39.79118" lon="116.48022">
        <ele>31.76575</ele>
        <time>2015-05-11T23:24:47.201000Z</time>
      </trkpt>
      <trkpt lat="39.79111" lon="116.48028">
        <ele>31.94391</ele>
        <time>2015-05-11T23:24:51.426000Z</time>
      </trkpt>
      <trkpt lat="39.79103" lon="116.48037">
        <ele>32.3421</ele>
        <time>2015-05-11T23:24:55.438000Z</time>
      </trkpt>
      <trkpt lat="39.79095" lon="116.48044">
        <ele>31.39954</ele>
        <time>2015-05-11T23:24:59.227000Z</time>
      </trkpt>
      <trkpt lat="39.79086" lon="116.48054">
        <ele>31.3902</ele>
        <time>2015-05-11T23:25:03.374000Z</time>
      </trkpt>
      <trkpt lat="39.79079" lon="116.48065">
        <ele>31.24011</ele>
        <time>2015-05-11T23:25:07.260000Z</time>
      </trkpt>
      <trkpt lat="39.79072" lon="116.48077">
        <ele>29.91925</ele>
        <time>2015-05-11T23:25:11.197000Z</time>
      </trkpt>
      <trkpt lat="39.79066" lon="116.4809">
        <ele>29.74481</ele>
        <time>2015-05-11T23:25:15.290000Z</time>
      </trkpt>
      <trkpt lat="39.79062" lon="116.48104">
        <ele>31.33832</ele>
        <time>2015-05-11T23:25:19.270000Z</time>
      </trkpt>
      <trkpt lat="39.7906" lon="116.48118">
        <ele>31.48248</ele>
        <time>2015-05-11T23:25:23.325000Z</time>
      </trkpt>
      <trkpt lat="39.7906" lon="116.48133">
        <ele>31.50378</ele>
        <time>2015-05-11T23:25:27.310000Z</time>
      </trkpt>
      <trkpt lat="39.79062" lon="116.48146">
        <ele>32.92102</ele>
        <time>2015-05-11T23:25:31.410000Z</time>
      </trkpt>
      <trkpt lat="39.79065" lon="116.4816">
        <ele>34.09711</ele>
        <time>2015-05-11T23:25:35.380000Z</time>
      </trkpt>
      <trkpt lat="39.79071" lon="116.48173">
        <ele>33.43988</ele>
        <time>2015-05-11T23:25:39.246000Z</time>
      </trkpt>
      <trkpt lat="39.79077" lon="116.48185">
        <ele>35.07129</ele>
        <time>2015-05-11T23:25:43.239000Z</time>
      </trkpt>
      <trkpt lat="39.79085" lon="116.48193">
        <ele>35.82648</ele>
        <time>2015-05-11T23:25:46.320000Z</time>
      </trkpt>
      <trkpt lat="39.79094" lon="116.48202">
        <ele>36.22504</ele>
        <time>2015-05-11T23:25:50.390000Z</time>
      </trkpt>
      <trkpt lat="39.79104" lon="116.48208">
        <ele>37.52167</ele>
        <time>2015-05-11T23:25:54.397000Z</time>
      </trkpt>
      <trkpt lat="39.79114" lon="116.48214">
        <ele>38.12463</ele>
        <time>2015-05-11T23:25:58.351000Z</time>
      </trkpt>
      <trkpt lat="39.79123" lon="116.48219">
        <ele>38.32269</ele>
        <time>2015-05-11T23:26:02.174000Z</time>
      </trkpt>
      <trkpt lat="39.79131" lon="116.48223">
        <ele>38.81458</ele>
        <time>2015-05-11T23:26:06.366000Z</time>
      </trkpt>
      <trkpt lat="39.79141" lon="116.48226">
        <ele>41.1911</ele>
        <time>2015-05-11T23:26:11.411000Z</time>
      </trkpt>
      <trkpt lat="39.79151" lon="116.48227">
        <ele>41.94141</ele>
        <time>2015-05-11T23:26:15.298000Z</time>
      </trkpt>
      <trkpt lat="39.79161" lon="116.48224">
        <ele>41.935</ele>
        <time>2015-05-11T23:26:21.132000Z</time>
      </trkpt>
      <trkpt lat="39.7917" lon="116.48221">
        <ele>42.55988</ele>
        <time>2015-05-11T23:26:25.222000Z</time>
      </trkpt>
      <trkpt lat="39.79179" lon="116.48219">
        <ele>42.40442</ele>
        <time>2015-05-11T23:26:29.193000Z</time>
      </trkpt>
      <trkpt lat="39.79189" lon="116.48215">
        <ele>42.3988</ele>
        <time>2015-05-11T23:26:33.228000Z</time>
      </trkpt>
      <trkpt lat="39.79197" lon="116.4821">
        <ele>41.98279</ele>
        <time>2015-05-11T23:26:36.327000Z</time>
      </trkpt>
      <trkpt lat="39.79208" lon="116.48207">
        <ele>39.89569</ele>
        <time>2015-05-11T23:26:40.301000Z</time>
      </trkpt>
      <trkpt lat="39.79218" lon="116.48202">
        <ele>38.64764</ele>
        <time>2015-05-11T23:26:44.208000Z</time>
      </trkpt>
      <trkpt lat="39.79226" lon="116.48196">
        <ele>36.95508</ele>
        <time>2015-05-11T23:26:48.306000Z</time>
      </trkpt>
      <trkpt lat="39.79233" lon="116.48188">
        <ele>36.24774</ele>
        <time>2015-05-11T23:26:52.292000Z</time>
      </trkpt>
      <trkpt lat="39.79241" lon="116.48179">
        <ele>35.77692</ele>
        <time>2015-05-11T23:26:56.275000Z</time>
      </trkpt>
      <trkpt lat="39.7925" lon="116.48171">
        <ele>34.12762</ele>
        <time>2015-05-11T23:27:00.370000Z</time>
      </trkpt>
      <trkpt lat="39.79257" lon="116.48164">
        <ele>34.44</ele>
        <time>2015-05-11T23:27:04.213000Z</time>
      </trkpt>
      <trkpt lat="39.79263" lon="116.48154">
        <ele>34.97186</ele>
        <time>2015-05-11T23:27:08.229000Z</time>
      </trkpt>
      <trkpt lat="39.79267" lon="116.48142">
        <ele>35.27985</ele>
        <time>2015-05-11T23:27:12.211000Z</time>
      </trkpt>
      <trkpt lat="39.79271" lon="116.4813">
        <ele>34.80383</ele>
        <time>2015-05-11T23:27:16.326000Z</time>
      </trkpt>
      <trkpt lat="39.79269" lon="116.48116">
        <ele>35.0957</ele>
        <time>2015-05-11T23:27:21.214000Z</time>
      </trkpt>
      <trkpt lat="39.79268" lon="116.48104">
        <ele>34.57922</ele>
        <time>2015-05-11T23:27:24.339000Z</time>
      </trkpt>
      <trkpt lat="39.79264" lon="116.4809">
        <ele>34.46484</ele>
        <time>2015-05-11T23:27:28.199000Z</time>
      </trkpt>
      <trkpt lat="39.79258" lon="116.48078">
        <ele>35.00586</ele>
        <time>2015-05-11T23:27:32.213000Z</time>
      </trkpt>
      <trkpt lat="39.79253" lon="116.48066">
        <ele>34.93518</ele>
        <time>2015-05-11T23:27:36.425000Z</time>
      </trkpt>
      <trkpt lat="39.79247" lon="116.48055">
        <ele>34.95337</ele>
        <time>2015-05-11T23:27:40.220000Z</time>
      </trkpt>
      <trkpt lat="39.7924" lon="116.48045">
        <ele>34.86554</ele>
        <time>2015-05-11T23:27:44.191000Z</time>
      </trkpt>
      <trkpt lat="39.79231" lon="116.48039">
        <ele>34.13232</ele>
        <time>2015-05-11T23:27:48.225000Z</time>
      </trkpt>
      <trkpt lat="39.7922" lon="116.48034">
        <ele>34.19745</ele>
        <time>2015-05-11T23:27:52.182000Z</time>
      </trkpt>
      <trkpt lat="39.79209" lon="116.48029">
        <ele>33.63062</ele>
        <time>2015-05-11T23:27:56.205000Z</time>
      </trkpt>
      <trkpt lat="39.792" lon="116.48021">
        <ele>33.18634</ele>
        <time>2015-05-11T23:28:00.402000Z</time>
      </trkpt>
      <trkpt lat="39.7919" lon="116.48016">
        <ele>32.5816</ele>
        <time>2015-05-11T23:28:04.250000Z</time>
      </trkpt>
      <trkpt lat="39.79181" lon="116.48013">
        <ele>31.49976</ele>
        <time>2015-05-11T23:28:08.199000Z</time>
      </trkpt>
      <trkpt lat="39.7917" lon="116.48012">
        <ele>32.99268</ele>
        <time>2015-05-11T23:28:12.262000Z</time>
      </trkpt>
      <trkpt lat="39.7916" lon="116.48009">
        <ele>34.50684</ele>
        <time>2015-05-11T23:28:16.232000Z</time>
      </trkpt>
      <trkpt lat="39.79149" lon="116.48008">
        <ele>34.82544</ele>
        <time>2015-05-11T23:28:21.218000Z</time>
      </trkpt>
      <trkpt lat="39.7914" lon="116.4801">
        <ele>34.94373</ele>
        <time>2015-05-11T23:28:25.333000Z</time>
      </trkpt>
      <trkpt lat="39.7913" lon="116.48016">
        <ele>33.69135</ele>
        <time>2015-05-11T23:28:30.274000Z</time>
      </trkpt>
      <trkpt lat="39.79121" lon="116.48023">
        <ele>33.19202</ele>
        <time>2015-05-11T23:28:34.243000Z</time>
      </trkpt>
      <trkpt lat="39.79112" lon="116.48031">
        <ele>33.16248</ele>
        <time>2015-05-11T23:28:38.291000Z</time>
      </trkpt>
      <trkpt lat="39.79105" lon="116.48042">
        <ele>32.77026</ele>
        <time>2015-05-11T23:28:42.373000Z</time>
      </trkpt>
      <trkpt lat="39.79097" lon="116.4805">
        <ele>33.32727</ele>
        <time>2015-05-11T23:28:46.207000Z</time>
      </trkpt>
      <trkpt lat="39.79088" lon="116.48059">
        <ele>33.52448</ele>
        <time>2015-05-11T23:28:50.327000Z</time>
      </trkpt>
      <trkpt lat="39.79081" lon="116.48067">
        <ele>34.12463</ele>
        <time>2015-05-11T23:28:53.397000Z</time>
      </trkpt>
      <trkpt lat="39.79074" lon="116.48076">
        <ele>32.8653</ele>
        <time>2015-05-11T23:28:57.378000Z</time>
      </trkpt>
      <trkpt lat="39.79069" lon="116.48086">
        <ele>35.64911</ele>
        <time>2015-05-11T23:29:04.390000Z</time>
      </trkpt>
      <trkpt lat="39.79065" lon="116.48099">
        <ele>36.29712</ele>
        <time>2015-05-11T23:29:12.277000Z</time>
      </trkpt>
      <trkpt lat="39.79063" lon="116.48111">
        <ele>36.8493</ele>
        <time>2015-05-11T23:29:17.187000Z</time>
      </trkpt>
      <trkpt lat="39.79062" lon="116.48124">
        <ele>36.98901</ele>
        <time>2015-05-11T23:29:21.334000Z</time>
      </trkpt>
      <trkpt lat="39.79062" lon="116.48137">
        <ele>35.74652</ele>
        <time>2015-05-11T23:29:25.236000Z</time>
      </trkpt>
      <trkpt lat="39.79066" lon="116.48149">
        <ele>35.7182</ele>
        <time>2015-05-11T23:29:29.299000Z</time>
      </trkpt>
      <trkpt lat="39.79069" lon="116.48161">
        <ele>35.08545</ele>
        <time>2015-05-11T23:29:33.220000Z</time>
      </trkpt>
      <trkpt lat="39.79074" lon="116.48172">
        <ele>36.31604</ele>
        <time>2015-05-11T23:29:37.289000Z</time>
      </trkpt>
      <trkpt lat="39.79079" lon="116.48182">
        <ele>35.50226</ele>
        <time>2015-05-11T23:29:41.222000Z</time>
      </trkpt>
      <trkpt lat="39.79084" lon="116.48194">
        <ele>34.74396</ele>
        <time>2015-05-11T23:29:46.202000Z</time>
      </trkpt>
      <trkpt lat="39.79091" lon="116.48201">
        <ele>34.34833</ele>
        <time>2015-05-11T23:29:50.315000Z</time>
      </trkpt>
      <trkpt lat="39.79101" lon="116.48207">
        <ele>34.55493</ele>
        <time>2015-05-11T23:29:55.254000Z</time>
      </trkpt>
      <trkpt lat="39.7911" lon="116.48212">
        <ele>33.94983</ele>
        <time>2015-05-11T23:29:59.194000Z</time>
      </trkpt>
      <trkpt lat="39.7912" lon="116.48215">
        <ele>31.26221</ele>
        <time>2015-05-11T23:30:04.444000Z</time>
      </trkpt>
      <trkpt lat="39.7913" lon="116.48218">
        <ele>31.25165</ele>
        <time>2015-05-11T23:30:08.305000Z</time>
      </trkpt>
      <trkpt lat="39.7914" lon="116.48219">
        <ele>30.80536</ele>
        <time>2015-05-11T23:30:12.204000Z</time>
      </trkpt>
      <trkpt lat="39.7915" lon="116.48222">
        <ele>28.5246</ele>
        <time>2015-05-11T23:30:16.398000Z</time>
      </trkpt>
      <trkpt lat="39.79161" lon="116.48222">
        <ele>29.31696</ele>
        <time>2015-05-11T23:30:20.480000Z</time>
      </trkpt>
      <trkpt lat="39.79172" lon="116.48219">
        <ele>30.39349</ele>
        <time>2015-05-11T23:30:24.369000Z</time>
      </trkpt>
      <trkpt lat="39.79183" lon="116.48217">
        <ele>31.84668</ele>
        <time>2015-05-11T23:30:28.360000Z</time>
      </trkpt>
      <trkpt lat="39.79192" lon="116.48214">
        <ele>31.89362</ele>
        <time>2015-05-11T23:30:31.409000Z</time>
      </trkpt>
      <trkpt lat="39.79201" lon="116.48212">
        <ele>30.94342</ele>
        <time>2015-05-11T23:30:34.437000Z</time>
      </trkpt>
      <trkpt lat="39.79211" lon="116.48209">
        <ele>32.43768</ele>
        <time>2015-05-11T23:30:37.349000Z</time>
      </trkpt>
      <trkpt lat="39.79222" lon="116.48205">
        <ele>33.10388</ele>
        <time>2015-05-11T23:30:41.201000Z</time>
      </trkpt>
      <trkpt lat="39.79231" lon="116.48199">
        <ele>34.35028</ele>
        <time>2015-05-11T23:30:45.224000Z</time>
      </trkpt>
      <trkpt lat="39.79238" lon="116.48188">
        <ele>35.14838</ele>
        <time>2015-05-11T23:30:49.248000Z</time>
      </trkpt>
      <trkpt lat="39.79247" lon="116.48178">
        <ele>34.2959</ele>
        <time>2015-05-11T23:30:53.198000Z</time>
      </trkpt>
      <trkpt lat="39.79254" lon="116.4817">
        <ele>32.18207</ele>
        <time>2015-05-11T23:30:56.195000Z</time>
      </trkpt>
      <trkpt lat="39.7926" lon="116.48161">
        <ele>32.41321</ele>
        <time>2015-05-11T23:30:59.242000Z</time>
      </trkpt>
      <trkpt lat="39.79263" lon="116.4815">
        <ele>32.54968</ele>
        <time>2015-05-11T23:31:02.209000Z</time>
      </trkpt>
      <trkpt lat="39.79264" lon="116.48137">
        <ele>33.07635</ele>
        <time>2015-05-11T23:31:05.232000Z</time>
      </trkpt>
      <trkpt lat="39.79267" lon="116.48124">
        <ele>33.50458</ele>
        <time>2015-05-11T23:31:09.204000Z</time>
      </trkpt>
      <trkpt lat="39.79266" lon="116.48108">
        <ele>33.39972</ele>
        <time>2015-05-11T23:31:13.276000Z</time>
      </trkpt>
      <trkpt lat="39.79262" lon="116.48094">
        <ele>33.37036</ele>
        <time>2015-05-11T23:31:17.266000Z</time>
      </trkpt>
      <trkpt lat="39.7926" lon="116.48082">
        <ele>35.2561</ele>
        <time>2015-05-11T23:31:21.367000Z</time>
      </trkpt>
      <trkpt lat="39.79257" lon="116.48071">
        <ele>34.60101</ele>
        <time>2015-05-11T23:31:25.317000Z</time>
      </trkpt>
      <trkpt lat="39.79251" lon="116.48059">
        <ele>36.04797</ele>
        <time>2015-05-11T23:31:30.407000Z</time>
      </trkpt>
      <trkpt lat="39.79245" lon="116.48049">
        <ele>35.71002</ele>
        <time>2015-05-11T23:31:34.364000Z</time>
      </trkpt>
      <trkpt lat="39.79235" lon="116.48042">
        <ele>35.15234</ele>
        <time>2015-05-11T23:31:38.393000Z</time>
      </trkpt>
      <trkpt lat="39.79225" lon="116.48035">
        <ele>34.19049</ele>
        <time>2015-05-11T23:31:42.437000Z</time>
      </trkpt>
      <trkpt lat="39.79214" lon="116.4803">
        <ele>33.3811</ele>
        <time>2015-05-11T23:31:46.394000Z</time>
      </trkpt>
      <trkpt lat="39.79205" lon="116.48025">
        <ele>34.09991</ele>
        <time>2015-05-11T23:31:49.279000Z</time>
      </trkpt>
      <trkpt lat="39.79195" lon="116.48017">
        <ele>32.81561</ele>
        <time>2015-05-11T23:31:53.429000Z</time>
      </trkpt>
      <trkpt lat="39.79185" lon="116.48012">
        <ele>32.21851</ele>
        <time>2015-05-11T23:31:57.225000Z</time>
      </trkpt>
      <trkpt lat="39.79174" lon="116.48011">
        <ele>31.01447</ele>
        <time>2015-05-11T23:32:01.297000Z</time>
      </trkpt>
      <trkpt lat="39.79165" lon="116.48007">
        <ele>31.68237</ele>
        <time>2015-05-11T23:32:05.238000Z</time>
      </trkpt>
      <trkpt lat="39.79155" lon="116.48007">
        <ele>32.03137</ele>
        <time>2015-05-11T23:32:09.303000Z</time>
      </trkpt>
      <trkpt lat="39.79144" lon="116.48008">
        <ele>32.98138</ele>
        <time>2015-05-11T23:32:14.225000Z</time>
      </trkpt>
      <trkpt lat="39.79133" lon="116.48009">
        <ele>33.00745</ele>
        <time>2015-05-11T23:32:18.302000Z</time>
      </trkpt>
      <trkpt lat="39.79124" lon="116.48013">
        <ele>33.34003</ele>
        <time>2015-05-11T23:32:22.304000Z</time>
      </trkpt>
      <trkpt lat="39.79114" lon="116.48021">
        <ele>32.90057</ele>
        <time>2015-05-11T23:32:26.209000Z</time>
      </trkpt>
      <trkpt lat="39.79106" lon="116.48031">
        <ele>32.16418</ele>
        <time>2015-05-11T23:32:30.290000Z</time>
      </trkpt>
      <trkpt lat="39.79099" lon="116.48039">
        <ele>31.26526</ele>
        <time>2015-05-11T23:32:34.223000Z</time>
      </trkpt>
      <trkpt lat="39.79091" lon="116.4805">
        <ele>29.70239</ele>
        <time>2015-05-11T23:32:39.207000Z</time>
      </trkpt>
      <trkpt lat="39.79084" lon="116.48059">
        <ele>30.04956</ele>
        <time>2015-05-11T23:32:45.431000Z</time>
      </trkpt>
      <trkpt lat="39.79078" lon="116.48069">
        <ele>30.5885</ele>
        <time>2015-05-11T23:32:49.219000Z</time>
      </trkpt>
      <trkpt lat="39.79072" lon="116.4808">
        <ele>31.94806</ele>
        <time>2015-05-11T23:32:53.252000Z</time>
      </trkpt>
      <trkpt lat="39.79068" lon="116.48093">
        <ele>32.22882</ele>
        <time>2015-05-11T23:32:57.205000Z</time>
      </trkpt>
      <trkpt lat="39.79065" lon="116.48106">
        <ele>32.44232</ele>
        <time>2015-05-11T23:33:01.459000Z</time>
      </trkpt>
      <trkpt lat="39.79064" lon="116.48121">
        <ele>32.20508</ele>
        <time>2015-05-11T23:33:05.186000Z</time>
      </trkpt>
      <trkpt lat="39.79064" lon="116.48134">
        <ele>32.42761</ele>
        <time>2015-05-11T23:33:09.245000Z</time>
      </trkpt>
      <trkpt lat="39.79067" lon="116.48147">
        <ele>33.21136</ele>
        <time>2015-05-11T23:33:13.427000Z</time>
      </trkpt>
      <trkpt lat="39.79071" lon="116.4816">
        <ele>32.55176</ele>
        <time>2015-05-11T23:33:17.174000Z</time>
      </trkpt>
      <trkpt lat="39.79074" lon="116.48171">
        <ele>31.97015</ele>
        <time>2015-05-11T23:33:20.328000Z</time>
      </trkpt>
      <trkpt lat="39.7908" lon="116.48181">
        <ele>31.19537</ele>
        <time>2015-05-11T23:33:24.143000Z</time>
      </trkpt>
      <trkpt lat="39.79086" lon="116.4819">
        <ele>29.55157</ele>
        <time>2015-05-11T23:33:28.507000Z</time>
      </trkpt>
      <trkpt lat="39.79093" lon="116.48198">
        <ele>30.98187</ele>
        <time>2015-05-11T23:33:32.462000Z</time>
      </trkpt>
      <trkpt lat="39.79102" lon="116.48206">
        <ele>30.66187</ele>
        <time>2015-05-11T23:33:37.471000Z</time>
      </trkpt>
      <trkpt lat="39.79112" lon="116.48211">
        <ele>29.1806</ele>
        <time>2015-05-11T23:33:41.467000Z</time>
      </trkpt>
      <trkpt lat="39.79122" lon="116.48217">
        <ele>29.7691</ele>
        <time>2015-05-11T23:33:45.490000Z</time>
      </trkpt>
      <trkpt lat="39.79132" lon="116.48222">
        <ele>30.03906</ele>
        <time>2015-05-11T23:33:49.255000Z</time>
      </trkpt>
      <trkpt lat="39.79141" lon="116.48223">
        <ele>26.54663</ele>
        <time>2015-05-11T23:33:52.370000Z</time>
      </trkpt>
      <trkpt lat="39.79152" lon="116.48224">
        <ele>24.81555</ele>
        <time>2015-05-11T23:33:56.461000Z</time>
      </trkpt>
      <trkpt lat="39.79162" lon="116.48223">
        <ele>24.54443</ele>
        <time>2015-05-11T23:33:59.401000Z</time>
      </trkpt>
      <trkpt lat="39.79171" lon="116.48221">
        <ele>26.71051</ele>
        <time>2015-05-11T23:34:03.296000Z</time>
      </trkpt>
      <trkpt lat="39.7918" lon="116.48217">
        <ele>26.36243</ele>
        <time>2015-05-11T23:34:07.163000Z</time>
      </trkpt>
      <trkpt lat="39.7919" lon="116.48214">
        <ele>27.78534</ele>
        <time>2015-05-11T23:34:10.226000Z</time>
      </trkpt>
      <trkpt lat="39.792" lon="116.48207">
        <ele>29.32404</ele>
        <time>2015-05-11T23:34:13.221000Z</time>
      </trkpt>
      <trkpt lat="39.79211" lon="116.482">
        <ele>29.77789</ele>
        <time>2015-05-11T23:34:17.203000Z</time>
      </trkpt>
      <trkpt lat="39.79221" lon="116.48194">
        <ele>30.35461</ele>
        <time>2015-05-11T23:34:21.258000Z</time>
      </trkpt>
      <trkpt lat="39.79229" lon="116.48186">
        <ele>30.35278</ele>
        <time>2015-05-11T23:34:24.217000Z</time>
      </trkpt>
      <trkpt lat="39.79238" lon="116.48178">
        <ele>30.66785</ele>
        <time>2015-05-11T23:34:27.309000Z</time>
      </trkpt>
      <trkpt lat="39.79247" lon="116.48171">
        <ele>31.84967</ele>
        <time>2015-05-11T23:34:30.412000Z</time>
      </trkpt>
      <trkpt lat="39.79254" lon="116.48161">
        <ele>31.44885</ele>
        <time>2015-05-11T23:34:33.377000Z</time>
      </trkpt>
      <trkpt lat="39.79261" lon="116.48149">
        <ele>31.15686</ele>
        <time>2015-05-11T23:34:37.388000Z</time>
      </trkpt>
      <trkpt lat="39.79265" lon="116.48138">
        <ele>31.51471</ele>
        <time>2015-05-11T23:34:40.420000Z</time>
      </trkpt>
      <trkpt lat="39.79266" lon="116.48126">
        <ele>32.28839</ele>
        <time>2015-05-11T23:34:43.207000Z</time>
      </trkpt>
      <trkpt lat="39.79266" lon="116.48113">
        <ele>32.89148</ele>
        <time>2015-05-11T23:34:46.437000Z</time>
      </trkpt>
      <trkpt lat="39.79266" lon="116.48099">
        <ele>31.82013</ele>
        <time>2015-05-11T23:34:49.424000Z</time>
      </trkpt>
      <trkpt lat="39.79262" lon="116.48087">
        <ele>32.56488</ele>
        <time>2015-05-11T23:34:52.187000Z</time>
      </trkpt>
      <trkpt lat="39.79256" lon="116.48074">
        <ele>32.9563</ele>
        <time>2015-05-11T23:34:55.203000Z</time>
      </trkpt>
      <trkpt lat="39.79252" lon="116.48064">
        <ele>33.06476</ele>
        <time>2015-05-11T23:34:58.210000Z</time>
      </trkpt>
      <trkpt lat="39.79246" lon="116.48052">
        <ele>34.28046</ele>
        <time>2015-05-11T23:35:02.198000Z</time>
      </trkpt>
      <trkpt lat="39.79238" lon="116.48042">
        <ele>34.49725</ele>
        <time>2015-05-11T23:35:07.192000Z</time>
      </trkpt>
      <trkpt lat="39.79227" lon="116.48035">
        <ele>33.4809</ele>
        <time>2015-05-11T23:35:11.312000Z</time>
      </trkpt>
      <trkpt lat="39.79216" lon="116.48031">
        <ele>30.41016</ele>
        <time>2015-05-11T23:35:15.290000Z</time>
      </trkpt>
      <trkpt lat="39.79207" lon="116.48027">
        <ele>29.21973</ele>
        <time>2015-05-11T23:35:18.242000Z</time>
      </trkpt>
      <trkpt lat="39.79198" lon="116.4802">
        <ele>28.72449</ele>
        <time>2015-05-11T23:35:22.238000Z</time>
      </trkpt>
      <trkpt lat="39.79188" lon="116.48015">
        <ele>28.75513</ele>
        <time>2015-05-11T23:35:26.278000Z</time>
      </trkpt>
      <trkpt lat="39.79178" lon="116.48012">
        <ele>28.42334</ele>
        <time>2015-05-11T23:35:31.272000Z</time>
      </trkpt>
      <trkpt lat="39.79169" lon="116.48009">
        <ele>27.6311</ele>
        <time>2015-05-11T23:35:38.202000Z</time>
      </trkpt>
      <trkpt lat="39.79161" lon="116.48005">
        <ele>29.06372</ele>
        <time>2015-05-11T23:35:45.236000Z</time>
      </trkpt>
      <trkpt lat="39.79152" lon="116.48003">
        <ele>30.08978</ele>
        <time>2015-05-11T23:35:54.407000Z</time>
      </trkpt>
      <trkpt lat="39.79142" lon="116.48004">
        <ele>30.61816</ele>
        <time>2015-05-11T23:36:04.238000Z</time>
      </trkpt>
      <trkpt lat="39.79134" lon="116.4801">
        <ele>30.41302</ele>
        <time>2015-05-11T23:36:16.220000Z</time>
      </trkpt>
      <trkpt lat="39.79125" lon="116.48014">
        <ele>31.02338</ele>
        <time>2015-05-11T23:36:28.253000Z</time>
      </trkpt>
      <trkpt lat="39.79118" lon="116.48022">
        <ele>30.50677</ele>
        <time>2015-05-11T23:36:40.197000Z</time>
      </trkpt>
      <trkpt lat="39.79111" lon="116.48029">
        <ele>29.90094</ele>
        <time>2015-05-11T23:36:48.408000Z</time>
      </trkpt>
      <trkpt lat="39.79103" lon="116.48038">
        <ele>30.7356</ele>
        <time>2015-05-11T23:36:56.205000Z</time>
      </trkpt>
      <trkpt lat="39.79096" lon="116.48044">
        <ele>32.53949</ele>
        <time>2015-05-11T23:37:04.222000Z</time>
      </trkpt>
      <trkpt lat="39.79091" lon="116.48055">
        <ele>32.19312</ele>
        <time>2015-05-11T23:37:14.198000Z</time>
      </trkpt>
      <trkpt lat="39.79084" lon="116.48063">
        <ele>30.15839</ele>
        <time>2015-05-11T23:37:25.321000Z</time>
      </trkpt>
    </trkseg>
  </trk>
</gpx>